{"type": "FeatureCollection", "features": [{"type": "Feature", "properties": {"OBJECTID": 5693666, "LAYER_ID": 2612703, "GROUP_ID": 254011, "DEFQ": 0, "MAVAT_CODE": 22340, "MAVAT_NAME": "מלבן הדפסה", "PAGE_SIZE": 7, "SCALE": 5000, "PAGE": 4, "PAGES": 4, "PLAN_NAME": "", "VER_ID": 99000940697.0, "AGAM_ID": 99000310859.0, "SHAPE_AREA": 23376760.5158, "SHAPE_LEN": 19602.7592}, "geometry": {"type": "Polygon", "coordinates": [[[34.90524487717439, 31.94678071012801], [34.844952326357735, 31.946624371489232], [34.84480822726114, 31.983604255479253], [34.90512494832749, 31.983760818131877], [34.90524487717439, 31.94678071012801]]]}}, {"type": "Feature", "properties": {"OBJECTID": 5693667, "LAYER_ID": 2612703, "GROUP_ID": 254011, "DEFQ": 0, "MAVAT_CODE": 22340, "MAVAT_NAME": "מלבן הדפסה", "PAGE_SIZE": 7, "SCALE": 5000, "PAGE": 3, "PAGES": 4, "PLAN_NAME": "", "VER_ID": 99000940697.0, "AGAM_ID": 99000310859.0, "SHAPE_AREA": 23376760.3108, "SHAPE_LEN": 19602.7591}, "geometry": {"type": "Polygon", "coordinates": [[[34.86941298001518, 31.98226194997284], [34.80909747464002, 31.982088422687728], [34.80893878303157, 32.01906794652306], [34.869278500888065, 32.019241722252374], [34.86941298001518, 31.98226194997284]]]}}, {"type": "Feature", "properties": {"OBJECTID": 5693668, "LAYER_ID": 2612703, "GROUP_ID": 254011, "DEFQ": 0, "MAVAT_CODE": 22340, "MAVAT_NAME": "מלבן הדפסה", "PAGE_SIZE": 7, "SCALE": 5000, "PAGE": 2, "PAGES": 4, "PLAN_NAME": "", "VER_ID": 99000940697.0, "AGAM_ID": 99000310859.0, "SHAPE_AREA": 23376760.7209, "SHAPE_LEN": 19602.7593}, "geometry": {"type": "Polygon", "coordinates": [[[34.83714963999957, 32.01794756935275], [34.77681100056106, 32.017758516401365], [34.776639109825254, 32.05473768156985], [34.837002004295066, 32.05492700498933], [34.83714963999957, 32.01794756935275]]]}}, {"type": "Feature", "properties": {"OBJECTID": 5693669, "LAYER_ID": 2612703, "GROUP_ID": 254011, "DEFQ": 0, "MAVAT_CODE": 22340, "MAVAT_NAME": "מלבן הדפסה", "PAGE_SIZE": 7, "SCALE": 5000, "PAGE": 1, "PAGES": 4, "PLAN_NAME": "", "VER_ID": 99000940697.0, "AGAM_ID": 99000310859.0, "SHAPE_AREA": 23376760.5158, "SHAPE_LEN": 19602.7592}, "geometry": {"type": "Polygon", "coordinates": [[[34.82525291175314, 32.0534827916052], [34.764891055389235, 32.05328788147811], [34.76471412907504, 32.09026678059523], [34.82510028313405, 32.09046196938563], [34.82525291175314, 32.0534827916052]]]}}]}