{"type": "FeatureCollection", "features": [{"type": "Feature", "properties": {"OBJECTID": 11811112, "LAYER_ID": 2612671, "GROUP_ID": 254011, "SCENARIO": "", "DEFQ": 0, "PLAN_NAME": "", "DATA_DATE": null, "MAVAT_CODE": 23505, "MAVAT_NAME": "בלוק מידות - מספר", "BLOCKNAME": "", "ROTATION": 39.60505143, "TYPE_CODE": 0, "TYPE_NAME": "", "SOURCE_COD": 0, "STATUS": "", "PL_CHANGE": "", "PLACE_NO": 0, "ADDRESS": "", "RADIUS": 0.0, "LENGTH": 0.0, "WIDTH": 0.0, "REMARKS": "", "DATE_DEC": "", "TAG1": "", "TAG2": "", "TAG3": "", "STAGE": "", "NAME": "61", "LABEL": "", "AGAM_ID": 99000310859.0}, "geometry": {"type": "Point", "coordinates": [34.871214171051705, 31.97447557199208]}}, {"type": "Feature", "properties": {"OBJECTID": 11811113, "LAYER_ID": 2612671, "GROUP_ID": 254011, "SCENARIO": "", "DEFQ": 0, "PLAN_NAME": "", "DATA_DATE": null, "MAVAT_CODE": 23505, "MAVAT_NAME": "בלוק מידות - מספר", "BLOCKNAME": "", "ROTATION": 340.0, "TYPE_CODE": 0, "TYPE_NAME": "", "SOURCE_COD": 0, "STATUS": "", "PL_CHANGE": "", "PLACE_NO": 0, "ADDRESS": "", "RADIUS": 0.0, "LENGTH": 0.0, "WIDTH": 0.0, "REMARKS": "", "DATE_DEC": "", "TAG1": "", "TAG2": "", "TAG3": "", "STAGE": "", "NAME": "131", "LABEL": "", "AGAM_ID": 99000310859.0}, "geometry": {"type": "Point", "coordinates": [34.79985415361211, 32.08793389731612]}}, {"type": "Feature", "properties": {"OBJECTID": 11811114, "LAYER_ID": 2612671, "GROUP_ID": 254011, "SCENARIO": "", "DEFQ": 0, "PLAN_NAME": "", "DATA_DATE": null, "MAVAT_CODE": 23505, "MAVAT_NAME": "בלוק מידות - מספר", "BLOCKNAME": "", "ROTATION": 344.73479934, "TYPE_CODE": 0, "TYPE_NAME": "", "SOURCE_COD": 0, "STATUS": "", "PL_CHANGE": "", "PLACE_NO": 0, "ADDRESS": "", "RADIUS": 0.0, "LENGTH": 0.0, "WIDTH": 0.0, "REMARKS": "", "DATE_DEC": "", "TAG1": "", "TAG2": "", "TAG3": "", "STAGE": "", "NAME": "61", "LABEL": "", "AGAM_ID": 99000310859.0}, "geometry": {"type": "Point", "coordinates": [34.798843711051575, 32.0860297751027]}}, {"type": "Feature", "properties": {"OBJECTID": 11811115, "LAYER_ID": 2612671, "GROUP_ID": 254011, "SCENARIO": "", "DEFQ": 0, "PLAN_NAME": "", "DATA_DATE": null, "MAVAT_CODE": 23505, "MAVAT_NAME": "בלוק מידות - מספר", "BLOCKNAME": "", "ROTATION": 344.73479934, "TYPE_CODE": 0, "TYPE_NAME": "", "SOURCE_COD": 0, "STATUS": "", "PL_CHANGE": "", "PLACE_NO": 0, "ADDRESS": "", "RADIUS": 0.0, "LENGTH": 0.0, "WIDTH": 0.0, "REMARKS": "", "DATE_DEC": "", "TAG1": "", "TAG2": "", "TAG3": "", "STAGE": "", "NAME": "79", "LABEL": "", "AGAM_ID": 99000310859.0}, "geometry": {"type": "Point", "coordinates": [34.79834773664244, 32.08455905575809]}}, {"type": "Feature", "properties": {"OBJECTID": 11811116, "LAYER_ID": 2612671, "GROUP_ID": 254011, "SCENARIO": "", "DEFQ": 0, "PLAN_NAME": "", "DATA_DATE": null, "MAVAT_CODE": 23505, "MAVAT_NAME": "בלוק מידות - מספר", "BLOCKNAME": "", "ROTATION": 331.76517194, "TYPE_CODE": 0, "TYPE_NAME": "", "SOURCE_COD": 0, "STATUS": "", "PL_CHANGE": "", "PLACE_NO": 0, "ADDRESS": "", "RADIUS": 0.0, "LENGTH": 0.0, "WIDTH": 0.0, "REMARKS": "", "DATE_DEC": "", "TAG1": "", "TAG2": "", "TAG3": "", "STAGE": "", "NAME": "26", "LABEL": "", "AGAM_ID": 99000310859.0}, "geometry": {"type": "Point", "coordinates": [34.79721027881312, 32.08002635462924]}}, {"type": "Feature", "properties": {"OBJECTID": 11811117, "LAYER_ID": 2612671, "GROUP_ID": 254011, "SCENARIO": "", "DEFQ": 0, "PLAN_NAME": "", "DATA_DATE": null, "MAVAT_CODE": 23505, "MAVAT_NAME": "בלוק מידות - מספר", "BLOCKNAME": "", "ROTATION": 338.66292282, "TYPE_CODE": 0, "TYPE_NAME": "", "SOURCE_COD": 0, "STATUS": "", "PL_CHANGE": "", "PLACE_NO": 0, "ADDRESS": "", "RADIUS": 0.0, "LENGTH": 0.0, "WIDTH": 0.0, "REMARKS": "", "DATE_DEC": "", "TAG1": "", "TAG2": "", "TAG3": "", "STAGE": "", "NAME": "27", "LABEL": "", "AGAM_ID": 99000310859.0}, "geometry": {"type": "Point", "coordinates": [34.7939109092603, 32.07633797481059]}}, {"type": "Feature", "properties": {"OBJECTID": 11811118, "LAYER_ID": 2612671, "GROUP_ID": 254011, "SCENARIO": "", "DEFQ": 0, "PLAN_NAME": "", "DATA_DATE": null, "MAVAT_CODE": 23505, "MAVAT_NAME": "בלוק מידות - מספר", "BLOCKNAME": "", "ROTATION": 355.43945431, "TYPE_CODE": 0, "TYPE_NAME": "", "SOURCE_COD": 0, "STATUS": "", "PL_CHANGE": "", "PLACE_NO": 0, "ADDRESS": "", "RADIUS": 0.0, "LENGTH": 0.0, "WIDTH": 0.0, "REMARKS": "", "DATE_DEC": "", "TAG1": "", "TAG2": "", "TAG3": "", "STAGE": "", "NAME": "37", "LABEL": "", "AGAM_ID": 99000310859.0}, "geometry": {"type": "Point", "coordinates": [34.79298266705445, 32.07148594341468]}}, {"type": "Feature", "properties": {"OBJECTID": 11811119, "LAYER_ID": 2612671, "GROUP_ID": 254011, "SCENARIO": "", "DEFQ": 0, "PLAN_NAME": "", "DATA_DATE": null, "MAVAT_CODE": 23505, "MAVAT_NAME": "בלוק מידות - מספר", "BLOCKNAME": "", "ROTATION": 317.26224757, "TYPE_CODE": 0, "TYPE_NAME": "", "SOURCE_COD": 0, "STATUS": "", "PL_CHANGE": "", "PLACE_NO": 0, "ADDRESS": "", "RADIUS": 0.0, "LENGTH": 0.0, "WIDTH": 0.0, "REMARKS": "", "DATE_DEC": "", "TAG1": "", "TAG2": "", "TAG3": "", "STAGE": "", "NAME": "42", "LABEL": "", "AGAM_ID": 99000310859.0}, "geometry": {"type": "Point", "coordinates": [34.790446297521044, 32.065305973960996]}}, {"type": "Feature", "properties": {"OBJECTID": 11811120, "LAYER_ID": 2612671, "GROUP_ID": 254011, "SCENARIO": "", "DEFQ": 0, "PLAN_NAME": "", "DATA_DATE": null, "MAVAT_CODE": 23505, "MAVAT_NAME": "בלוק מידות - מספר", "BLOCKNAME": "", "ROTATION": 345.11732864, "TYPE_CODE": 0, "TYPE_NAME": "", "SOURCE_COD": 0, "STATUS": "", "PL_CHANGE": "", "PLACE_NO": 0, "ADDRESS": "", "RADIUS": 0.0, "LENGTH": 0.0, "WIDTH": 0.0, "REMARKS": "", "DATE_DEC": "", "TAG1": "", "TAG2": "", "TAG3": "", "STAGE": "", "NAME": "32", "LABEL": "", "AGAM_ID": 99000310859.0}, "geometry": {"type": "Point", "coordinates": [34.785652619614524, 32.05771739114887]}}, {"type": "Feature", "properties": {"OBJECTID": 11811121, "LAYER_ID": 2612671, "GROUP_ID": 254011, "SCENARIO": "", "DEFQ": 0, "PLAN_NAME": "", "DATA_DATE": null, "MAVAT_CODE": 23505, "MAVAT_NAME": "בלוק מידות - מספר", "BLOCKNAME": "", "ROTATION": 30.0, "TYPE_CODE": 0, "TYPE_NAME": "", "SOURCE_COD": 0, "STATUS": "", "PL_CHANGE": "", "PLACE_NO": 0, "ADDRESS": "", "RADIUS": 0.0, "LENGTH": 0.0, "WIDTH": 0.0, "REMARKS": "", "DATE_DEC": "", "TAG1": "", "TAG2": "", "TAG3": "", "STAGE": "", "NAME": "50", "LABEL": "", "AGAM_ID": 99000310859.0}, "geometry": {"type": "Point", "coordinates": [34.7849501793479, 32.049761656021616]}}, {"type": "Feature", "properties": {"OBJECTID": 11811122, "LAYER_ID": 2612671, "GROUP_ID": 254011, "SCENARIO": "", "DEFQ": 0, "PLAN_NAME": "", "DATA_DATE": null, "MAVAT_CODE": 23505, "MAVAT_NAME": "בלוק מידות - מספר", "BLOCKNAME": "", "ROTATION": 19.99996178, "TYPE_CODE": 0, "TYPE_NAME": "", "SOURCE_COD": 0, "STATUS": "", "PL_CHANGE": "", "PLACE_NO": 0, "ADDRESS": "", "RADIUS": 0.0, "LENGTH": 0.0, "WIDTH": 0.0, "REMARKS": "", "DATE_DEC": "", "TAG1": "", "TAG2": "", "TAG3": "", "STAGE": "", "NAME": "82", "LABEL": "", "AGAM_ID": 99000310859.0}, "geometry": {"type": "Point", "coordinates": [34.78835954609781, 32.04397128160981]}}, {"type": "Feature", "properties": {"OBJECTID": 11811123, "LAYER_ID": 2612671, "GROUP_ID": 254011, "SCENARIO": "", "DEFQ": 0, "PLAN_NAME": "", "DATA_DATE": null, "MAVAT_CODE": 23505, "MAVAT_NAME": "בלוק מידות - מספר", "BLOCKNAME": "", "ROTATION": 49.0, "TYPE_CODE": 0, "TYPE_NAME": "", "SOURCE_COD": 0, "STATUS": "", "PL_CHANGE": "", "PLACE_NO": 0, "ADDRESS": "", "RADIUS": 0.0, "LENGTH": 0.0, "WIDTH": 0.0, "REMARKS": "", "DATE_DEC": "", "TAG1": "", "TAG2": "", "TAG3": "", "STAGE": "", "NAME": "43", "LABEL": "", "AGAM_ID": 99000310859.0}, "geometry": {"type": "Point", "coordinates": [34.81904245683378, 32.019661036893204]}}, {"type": "Feature", "properties": {"OBJECTID": 11811124, "LAYER_ID": 2612671, "GROUP_ID": 254011, "SCENARIO": "", "DEFQ": 0, "PLAN_NAME": "", "DATA_DATE": null, "MAVAT_CODE": 23505, "MAVAT_NAME": "בלוק מידות - מספר", "BLOCKNAME": "", "ROTATION": 41.46559196, "TYPE_CODE": 0, "TYPE_NAME": "", "SOURCE_COD": 0, "STATUS": "", "PL_CHANGE": "", "PLACE_NO": 0, "ADDRESS": "", "RADIUS": 0.0, "LENGTH": 0.0, "WIDTH": 0.0, "REMARKS": "", "DATE_DEC": "", "TAG1": "", "TAG2": "", "TAG3": "", "STAGE": "", "NAME": "53", "LABEL": "", "AGAM_ID": 99000310859.0}, "geometry": {"type": "Point", "coordinates": [34.84179413131278, 32.00399972428543]}}, {"type": "Feature", "properties": {"OBJECTID": 11811125, "LAYER_ID": 2612671, "GROUP_ID": 254011, "SCENARIO": "", "DEFQ": 0, "PLAN_NAME": "", "DATA_DATE": null, "MAVAT_CODE": 23505, "MAVAT_NAME": "בלוק מידות - מספר", "BLOCKNAME": "", "ROTATION": 41.46559196, "TYPE_CODE": 0, "TYPE_NAME": "", "SOURCE_COD": 0, "STATUS": "", "PL_CHANGE": "", "PLACE_NO": 0, "ADDRESS": "", "RADIUS": 0.0, "LENGTH": 0.0, "WIDTH": 0.0, "REMARKS": "", "DATE_DEC": "", "TAG1": "", "TAG2": "", "TAG3": "", "STAGE": "", "NAME": "38", "LABEL": "", "AGAM_ID": 99000310859.0}, "geometry": {"type": "Point", "coordinates": [34.841130492091494, 32.003734976107246]}}, {"type": "Feature", "properties": {"OBJECTID": 11811126, "LAYER_ID": 2612671, "GROUP_ID": 254011, "SCENARIO": "", "DEFQ": 0, "PLAN_NAME": "", "DATA_DATE": null, "MAVAT_CODE": 23505, "MAVAT_NAME": "בלוק מידות - מספר", "BLOCKNAME": "", "ROTATION": 42.43358461, "TYPE_CODE": 0, "TYPE_NAME": "", "SOURCE_COD": 0, "STATUS": "", "PL_CHANGE": "", "PLACE_NO": 0, "ADDRESS": "", "RADIUS": 0.0, "LENGTH": 0.0, "WIDTH": 0.0, "REMARKS": "", "DATE_DEC": "", "TAG1": "", "TAG2": "", "TAG3": "", "STAGE": "", "NAME": "40", "LABEL": "", "AGAM_ID": 99000310859.0}, "geometry": {"type": "Point", "coordinates": [34.84497434552399, 32.00038246800216]}}, {"type": "Feature", "properties": {"OBJECTID": 11811127, "LAYER_ID": 2612671, "GROUP_ID": 254011, "SCENARIO": "", "DEFQ": 0, "PLAN_NAME": "", "DATA_DATE": null, "MAVAT_CODE": 23505, "MAVAT_NAME": "בלוק מידות - מספר", "BLOCKNAME": "", "ROTATION": 358.60166461, "TYPE_CODE": 0, "TYPE_NAME": "", "SOURCE_COD": 0, "STATUS": "", "PL_CHANGE": "", "PLACE_NO": 0, "ADDRESS": "", "RADIUS": 0.0, "LENGTH": 0.0, "WIDTH": 0.0, "REMARKS": "", "DATE_DEC": "", "TAG1": "", "TAG2": "", "TAG3": "", "STAGE": "", "NAME": "58", "LABEL": "", "AGAM_ID": 99000310859.0}, "geometry": {"type": "Point", "coordinates": [34.78473631837899, 32.053533430694586]}}, {"type": "Feature", "properties": {"OBJECTID": 11811128, "LAYER_ID": 2612671, "GROUP_ID": 254011, "SCENARIO": "", "DEFQ": 0, "PLAN_NAME": "", "DATA_DATE": null, "MAVAT_CODE": 23505, "MAVAT_NAME": "בלוק מידות - מספר", "BLOCKNAME": "", "ROTATION": 38.38426606, "TYPE_CODE": 0, "TYPE_NAME": "", "SOURCE_COD": 0, "STATUS": "", "PL_CHANGE": "", "PLACE_NO": 0, "ADDRESS": "", "RADIUS": 0.0, "LENGTH": 0.0, "WIDTH": 0.0, "REMARKS": "", "DATE_DEC": "", "TAG1": "", "TAG2": "", "TAG3": "", "STAGE": "", "NAME": "157", "LABEL": "", "AGAM_ID": 99000310859.0}, "geometry": {"type": "Point", "coordinates": [34.87767837819234, 31.968352915399063]}}, {"type": "Feature", "properties": {"OBJECTID": 11811129, "LAYER_ID": 2612671, "GROUP_ID": 254011, "SCENARIO": "", "DEFQ": 0, "PLAN_NAME": "", "DATA_DATE": null, "MAVAT_CODE": 23505, "MAVAT_NAME": "בלוק מידות - מספר", "BLOCKNAME": "", "ROTATION": 42.43358461, "TYPE_CODE": 0, "TYPE_NAME": "", "SOURCE_COD": 0, "STATUS": "", "PL_CHANGE": "", "PLACE_NO": 0, "ADDRESS": "", "RADIUS": 0.0, "LENGTH": 0.0, "WIDTH": 0.0, "REMARKS": "", "DATE_DEC": "", "TAG1": "", "TAG2": "", "TAG3": "", "STAGE": "", "NAME": "145", "LABEL": "", "AGAM_ID": 99000310859.0}, "geometry": {"type": "Point", "coordinates": [34.846477862604395, 31.999602188622138]}}, {"type": "Feature", "properties": {"OBJECTID": 11811130, "LAYER_ID": 2612671, "GROUP_ID": 254011, "SCENARIO": "", "DEFQ": 0, "PLAN_NAME": "", "DATA_DATE": null, "MAVAT_CODE": 23505, "MAVAT_NAME": "בלוק מידות - מספר", "BLOCKNAME": "", "ROTATION": 49.82573415, "TYPE_CODE": 0, "TYPE_NAME": "", "SOURCE_COD": 0, "STATUS": "", "PL_CHANGE": "", "PLACE_NO": 0, "ADDRESS": "", "RADIUS": 0.0, "LENGTH": 0.0, "WIDTH": 0.0, "REMARKS": "", "DATE_DEC": "", "TAG1": "", "TAG2": "", "TAG3": "", "STAGE": "", "NAME": "226", "LABEL": "", "AGAM_ID": 99000310859.0}, "geometry": {"type": "Point", "coordinates": [34.83570994720551, 32.00785308669442]}}, {"type": "Feature", "properties": {"OBJECTID": 11811131, "LAYER_ID": 2612671, "GROUP_ID": 254011, "SCENARIO": "", "DEFQ": 0, "PLAN_NAME": "", "DATA_DATE": null, "MAVAT_CODE": 23505, "MAVAT_NAME": "בלוק מידות - מספר", "BLOCKNAME": "", "ROTATION": 49.96579935, "TYPE_CODE": 0, "TYPE_NAME": "", "SOURCE_COD": 0, "STATUS": "", "PL_CHANGE": "", "PLACE_NO": 0, "ADDRESS": "", "RADIUS": 0.0, "LENGTH": 0.0, "WIDTH": 0.0, "REMARKS": "", "DATE_DEC": "", "TAG1": "", "TAG2": "", "TAG3": "", "STAGE": "", "NAME": "270", "LABEL": "", "AGAM_ID": 99000310859.0}, "geometry": {"type": "Point", "coordinates": [34.82209118243587, 32.01749091465866]}}, {"type": "Feature", "properties": {"OBJECTID": 11811132, "LAYER_ID": 2612671, "GROUP_ID": 254011, "SCENARIO": "", "DEFQ": 0, "PLAN_NAME": "", "DATA_DATE": null, "MAVAT_CODE": 23505, "MAVAT_NAME": "בלוק מידות - מספר", "BLOCKNAME": "", "ROTATION": 39.67159489, "TYPE_CODE": 0, "TYPE_NAME": "", "SOURCE_COD": 0, "STATUS": "", "PL_CHANGE": "", "PLACE_NO": 0, "ADDRESS": "", "RADIUS": 0.0, "LENGTH": 0.0, "WIDTH": 0.0, "REMARKS": "", "DATE_DEC": "", "TAG1": "", "TAG2": "", "TAG3": "", "STAGE": "", "NAME": "240", "LABEL": "", "AGAM_ID": 99000310859.0}, "geometry": {"type": "Point", "coordinates": [34.86083629159889, 31.98516502394864]}}, {"type": "Feature", "properties": {"OBJECTID": 11811133, "LAYER_ID": 2612671, "GROUP_ID": 254011, "SCENARIO": "", "DEFQ": 0, "PLAN_NAME": "", "DATA_DATE": null, "MAVAT_CODE": 23505, "MAVAT_NAME": "בלוק מידות - מספר", "BLOCKNAME": "", "ROTATION": 39.67159489, "TYPE_CODE": 0, "TYPE_NAME": "", "SOURCE_COD": 0, "STATUS": "", "PL_CHANGE": "", "PLACE_NO": 0, "ADDRESS": "", "RADIUS": 0.0, "LENGTH": 0.0, "WIDTH": 0.0, "REMARKS": "", "DATE_DEC": "", "TAG1": "", "TAG2": "", "TAG3": "", "STAGE": "", "NAME": "220", "LABEL": "", "AGAM_ID": 99000310859.0}, "geometry": {"type": "Point", "coordinates": [34.8602366676318, 31.985637825970983]}}, {"type": "Feature", "properties": {"OBJECTID": 11811134, "LAYER_ID": 2612671, "GROUP_ID": 254011, "SCENARIO": "", "DEFQ": 0, "PLAN_NAME": "", "DATA_DATE": null, "MAVAT_CODE": 23505, "MAVAT_NAME": "בלוק מידות - מספר", "BLOCKNAME": "", "ROTATION": 42.43358461, "TYPE_CODE": 0, "TYPE_NAME": "", "SOURCE_COD": 0, "STATUS": "", "PL_CHANGE": "", "PLACE_NO": 0, "ADDRESS": "", "RADIUS": 0.0, "LENGTH": 0.0, "WIDTH": 0.0, "REMARKS": "", "DATE_DEC": "", "TAG1": "", "TAG2": "", "TAG3": "", "STAGE": "", "NAME": "154", "LABEL": "", "AGAM_ID": 99000310859.0}, "geometry": {"type": "Point", "coordinates": [34.85062086543257, 31.995992702333396]}}, {"type": "Feature", "properties": {"OBJECTID": 11811135, "LAYER_ID": 2612671, "GROUP_ID": 254011, "SCENARIO": "", "DEFQ": 0, "PLAN_NAME": "", "DATA_DATE": null, "MAVAT_CODE": 23505, "MAVAT_NAME": "בלוק מידות - מספר", "BLOCKNAME": "", "ROTATION": 42.43358461, "TYPE_CODE": 0, "TYPE_NAME": "", "SOURCE_COD": 0, "STATUS": "", "PL_CHANGE": "", "PLACE_NO": 0, "ADDRESS": "", "RADIUS": 0.0, "LENGTH": 0.0, "WIDTH": 0.0, "REMARKS": "", "DATE_DEC": "", "TAG1": "", "TAG2": "", "TAG3": "", "STAGE": "", "NAME": "191", "LABEL": "", "AGAM_ID": 99000310859.0}, "geometry": {"type": "Point", "coordinates": [34.84872135398575, 31.997502024982712]}}, {"type": "Feature", "properties": {"OBJECTID": 11811136, "LAYER_ID": 2612671, "GROUP_ID": 254011, "SCENARIO": "", "DEFQ": 0, "PLAN_NAME": "", "DATA_DATE": null, "MAVAT_CODE": 23505, "MAVAT_NAME": "בלוק מידות - מספר", "BLOCKNAME": "", "ROTATION": 52.00015276, "TYPE_CODE": 0, "TYPE_NAME": "", "SOURCE_COD": 0, "STATUS": "", "PL_CHANGE": "", "PLACE_NO": 0, "ADDRESS": "", "RADIUS": 0.0, "LENGTH": 0.0, "WIDTH": 0.0, "REMARKS": "", "DATE_DEC": "", "TAG1": "", "TAG2": "", "TAG3": "", "STAGE": "", "NAME": "186", "LABEL": "", "AGAM_ID": 99000310859.0}, "geometry": {"type": "Point", "coordinates": [34.83860751264124, 32.00638212867063]}}, {"type": "Feature", "properties": {"OBJECTID": 11811137, "LAYER_ID": 2612671, "GROUP_ID": 254011, "SCENARIO": "", "DEFQ": 0, "PLAN_NAME": "", "DATA_DATE": null, "MAVAT_CODE": 23505, "MAVAT_NAME": "בלוק מידות - מספר", "BLOCKNAME": "", "ROTATION": 48.46294611, "TYPE_CODE": 0, "TYPE_NAME": "", "SOURCE_COD": 0, "STATUS": "", "PL_CHANGE": "", "PLACE_NO": 0, "ADDRESS": "", "RADIUS": 0.0, "LENGTH": 0.0, "WIDTH": 0.0, "REMARKS": "", "DATE_DEC": "", "TAG1": "", "TAG2": "", "TAG3": "", "STAGE": "", "NAME": "171", "LABEL": "", "AGAM_ID": 99000310859.0}, "geometry": {"type": "Point", "coordinates": [34.81472990259987, 32.022832217465165]}}, {"type": "Feature", "properties": {"OBJECTID": 11811138, "LAYER_ID": 2612671, "GROUP_ID": 254011, "SCENARIO": "", "DEFQ": 0, "PLAN_NAME": "", "DATA_DATE": null, "MAVAT_CODE": 23505, "MAVAT_NAME": "בלוק מידות - מספר", "BLOCKNAME": "", "ROTATION": 43.2004792, "TYPE_CODE": 0, "TYPE_NAME": "", "SOURCE_COD": 0, "STATUS": "", "PL_CHANGE": "", "PLACE_NO": 0, "ADDRESS": "", "RADIUS": 0.0, "LENGTH": 0.0, "WIDTH": 0.0, "REMARKS": "", "DATE_DEC": "", "TAG1": "", "TAG2": "", "TAG3": "", "STAGE": "", "NAME": "147", "LABEL": "", "AGAM_ID": 99000310859.0}, "geometry": {"type": "Point", "coordinates": [34.807428933798384, 32.02835875456927]}}, {"type": "Feature", "properties": {"OBJECTID": 11811139, "LAYER_ID": 2612671, "GROUP_ID": 254011, "SCENARIO": "", "DEFQ": 0, "PLAN_NAME": "", "DATA_DATE": null, "MAVAT_CODE": 23505, "MAVAT_NAME": "בלוק מידות - מספר", "BLOCKNAME": "", "ROTATION": 49.55253137, "TYPE_CODE": 0, "TYPE_NAME": "", "SOURCE_COD": 0, "STATUS": "", "PL_CHANGE": "", "PLACE_NO": 0, "ADDRESS": "", "RADIUS": 0.0, "LENGTH": 0.0, "WIDTH": 0.0, "REMARKS": "", "DATE_DEC": "", "TAG1": "", "TAG2": "", "TAG3": "", "STAGE": "", "NAME": "156", "LABEL": "", "AGAM_ID": 99000310859.0}, "geometry": {"type": "Point", "coordinates": [34.80701959136652, 32.02867214162824]}}, {"type": "Feature", "properties": {"OBJECTID": 11811140, "LAYER_ID": 2612671, "GROUP_ID": 254011, "SCENARIO": "", "DEFQ": 0, "PLAN_NAME": "", "DATA_DATE": null, "MAVAT_CODE": 23505, "MAVAT_NAME": "בלוק מידות - מספר", "BLOCKNAME": "", "ROTATION": 46.47839699, "TYPE_CODE": 0, "TYPE_NAME": "", "SOURCE_COD": 0, "STATUS": "", "PL_CHANGE": "", "PLACE_NO": 0, "ADDRESS": "", "RADIUS": 0.0, "LENGTH": 0.0, "WIDTH": 0.0, "REMARKS": "", "DATE_DEC": "", "TAG1": "", "TAG2": "", "TAG3": "", "STAGE": "", "NAME": "169", "LABEL": "", "AGAM_ID": 99000310859.0}, "geometry": {"type": "Point", "coordinates": [34.80403726993381, 32.03084425194471]}}, {"type": "Feature", "properties": {"OBJECTID": 11811141, "LAYER_ID": 2612671, "GROUP_ID": 254011, "SCENARIO": "", "DEFQ": 0, "PLAN_NAME": "", "DATA_DATE": null, "MAVAT_CODE": 23505, "MAVAT_NAME": "בלוק מידות - מספר", "BLOCKNAME": "", "ROTATION": 49.55253137, "TYPE_CODE": 0, "TYPE_NAME": "", "SOURCE_COD": 0, "STATUS": "", "PL_CHANGE": "", "PLACE_NO": 0, "ADDRESS": "", "RADIUS": 0.0, "LENGTH": 0.0, "WIDTH": 0.0, "REMARKS": "", "DATE_DEC": "", "TAG1": "", "TAG2": "", "TAG3": "", "STAGE": "", "NAME": "174", "LABEL": "", "AGAM_ID": 99000310859.0}, "geometry": {"type": "Point", "coordinates": [34.79900753416355, 32.034300542212826]}}, {"type": "Feature", "properties": {"OBJECTID": 11811142, "LAYER_ID": 2612671, "GROUP_ID": 254011, "SCENARIO": "", "DEFQ": 0, "PLAN_NAME": "", "DATA_DATE": null, "MAVAT_CODE": 0, "MAVAT_NAME": "", "BLOCKNAME": "", "ROTATION": 57.29577951, "TYPE_CODE": 0, "TYPE_NAME": "", "SOURCE_COD": 0, "STATUS": "", "PL_CHANGE": "", "PLACE_NO": 0, "ADDRESS": "", "RADIUS": 0.0, "LENGTH": 0.0, "WIDTH": 0.0, "REMARKS": "", "DATE_DEC": "", "TAG1": "", "TAG2": "", "TAG3": "", "STAGE": "", "NAME": "", "LABEL": "", "AGAM_ID": 99000310859.0}, "geometry": {"type": "Point", "coordinates": [34.82697447916406, 32.039267365198825]}}, {"type": "Feature", "properties": {"OBJECTID": 11811063, "LAYER_ID": 2612671, "GROUP_ID": 254011, "SCENARIO": "", "DEFQ": 0, "PLAN_NAME": "", "DATA_DATE": null, "MAVAT_CODE": 23505, "MAVAT_NAME": "בלוק מידות - מספר", "BLOCKNAME": "", "ROTATION": 50.97250352, "TYPE_CODE": 0, "TYPE_NAME": "", "SOURCE_COD": 0, "STATUS": "", "PL_CHANGE": "", "PLACE_NO": 0, "ADDRESS": "", "RADIUS": 0.0, "LENGTH": 0.0, "WIDTH": 0.0, "REMARKS": "", "DATE_DEC": "", "TAG1": "", "TAG2": "", "TAG3": "", "STAGE": "", "NAME": "20", "LABEL": "", "AGAM_ID": 99000310859.0}, "geometry": {"type": "Point", "coordinates": [34.82377660896343, 32.01539050058946]}}, {"type": "Feature", "properties": {"OBJECTID": 11811064, "LAYER_ID": 2612671, "GROUP_ID": 254011, "SCENARIO": "", "DEFQ": 0, "PLAN_NAME": "", "DATA_DATE": null, "MAVAT_CODE": 23505, "MAVAT_NAME": "בלוק מידות - מספר", "BLOCKNAME": "", "ROTATION": 50.12059171, "TYPE_CODE": 0, "TYPE_NAME": "", "SOURCE_COD": 0, "STATUS": "", "PL_CHANGE": "", "PLACE_NO": 0, "ADDRESS": "", "RADIUS": 0.0, "LENGTH": 0.0, "WIDTH": 0.0, "REMARKS": "", "DATE_DEC": "", "TAG1": "", "TAG2": "", "TAG3": "", "STAGE": "", "NAME": "20", "LABEL": "", "AGAM_ID": 99000310859.0}, "geometry": {"type": "Point", "coordinates": [34.82768250419626, 32.012723808882356]}}, {"type": "Feature", "properties": {"OBJECTID": 11811065, "LAYER_ID": 2612671, "GROUP_ID": 254011, "SCENARIO": "", "DEFQ": 0, "PLAN_NAME": "", "DATA_DATE": null, "MAVAT_CODE": 23505, "MAVAT_NAME": "בלוק מידות - מספר", "BLOCKNAME": "", "ROTATION": 9.53523807, "TYPE_CODE": 0, "TYPE_NAME": "", "SOURCE_COD": 0, "STATUS": "", "PL_CHANGE": "", "PLACE_NO": 0, "ADDRESS": "", "RADIUS": 0.0, "LENGTH": 0.0, "WIDTH": 0.0, "REMARKS": "", "DATE_DEC": "", "TAG1": "", "TAG2": "", "TAG3": "", "STAGE": "", "NAME": "101", "LABEL": "", "AGAM_ID": 99000310859.0}, "geometry": {"type": "Point", "coordinates": [34.8879913429551, 31.9584571394498]}}, {"type": "Feature", "properties": {"OBJECTID": 11811066, "LAYER_ID": 2612671, "GROUP_ID": 254011, "SCENARIO": "", "DEFQ": 0, "PLAN_NAME": "", "DATA_DATE": null, "MAVAT_CODE": 23505, "MAVAT_NAME": "בלוק מידות - מספר", "BLOCKNAME": "", "ROTATION": 16.75211826, "TYPE_CODE": 0, "TYPE_NAME": "", "SOURCE_COD": 0, "STATUS": "", "PL_CHANGE": "", "PLACE_NO": 0, "ADDRESS": "", "RADIUS": 0.0, "LENGTH": 0.0, "WIDTH": 0.0, "REMARKS": "", "DATE_DEC": "", "TAG1": "", "TAG2": "", "TAG3": "", "STAGE": "", "NAME": "20", "LABEL": "", "AGAM_ID": 99000310859.0}, "geometry": {"type": "Point", "coordinates": [34.88801517625886, 31.959681617733526]}}, {"type": "Feature", "properties": {"OBJECTID": 11811067, "LAYER_ID": 2612671, "GROUP_ID": 254011, "SCENARIO": "", "DEFQ": 0, "PLAN_NAME": "", "DATA_DATE": null, "MAVAT_CODE": 23505, "MAVAT_NAME": "בלוק מידות - מספר", "BLOCKNAME": "", "ROTATION": 37.04006374, "TYPE_CODE": 0, "TYPE_NAME": "", "SOURCE_COD": 0, "STATUS": "", "PL_CHANGE": "", "PLACE_NO": 0, "ADDRESS": "", "RADIUS": 0.0, "LENGTH": 0.0, "WIDTH": 0.0, "REMARKS": "", "DATE_DEC": "", "TAG1": "", "TAG2": "", "TAG3": "", "STAGE": "", "NAME": "20", "LABEL": "", "AGAM_ID": 99000310859.0}, "geometry": {"type": "Point", "coordinates": [34.88702047430685, 31.961119796768795]}}, {"type": "Feature", "properties": {"OBJECTID": 11811068, "LAYER_ID": 2612671, "GROUP_ID": 254011, "SCENARIO": "", "DEFQ": 0, "PLAN_NAME": "", "DATA_DATE": null, "MAVAT_CODE": 23505, "MAVAT_NAME": "בלוק מידות - מספר", "BLOCKNAME": "", "ROTATION": 42.22989192, "TYPE_CODE": 0, "TYPE_NAME": "", "SOURCE_COD": 0, "STATUS": "", "PL_CHANGE": "", "PLACE_NO": 0, "ADDRESS": "", "RADIUS": 0.0, "LENGTH": 0.0, "WIDTH": 0.0, "REMARKS": "", "DATE_DEC": "", "TAG1": "", "TAG2": "", "TAG3": "", "STAGE": "", "NAME": "143", "LABEL": "", "AGAM_ID": 99000310859.0}, "geometry": {"type": "Point", "coordinates": [34.88625620223389, 31.961023150768547]}}, {"type": "Feature", "properties": {"OBJECTID": 11811069, "LAYER_ID": 2612671, "GROUP_ID": 254011, "SCENARIO": "", "DEFQ": 0, "PLAN_NAME": "", "DATA_DATE": null, "MAVAT_CODE": 23505, "MAVAT_NAME": "בלוק מידות - מספר", "BLOCKNAME": "", "ROTATION": 45.79221242, "TYPE_CODE": 0, "TYPE_NAME": "", "SOURCE_COD": 0, "STATUS": "", "PL_CHANGE": "", "PLACE_NO": 0, "ADDRESS": "", "RADIUS": 0.0, "LENGTH": 0.0, "WIDTH": 0.0, "REMARKS": "", "DATE_DEC": "", "TAG1": "", "TAG2": "", "TAG3": "", "STAGE": "", "NAME": "80", "LABEL": "", "AGAM_ID": 99000310859.0}, "geometry": {"type": "Point", "coordinates": [34.882228070026535, 31.96394522747276]}}, {"type": "Feature", "properties": {"OBJECTID": 11811070, "LAYER_ID": 2612671, "GROUP_ID": 254011, "SCENARIO": "", "DEFQ": 0, "PLAN_NAME": "", "DATA_DATE": null, "MAVAT_CODE": 23505, "MAVAT_NAME": "בלוק מידות - מספר", "BLOCKNAME": "", "ROTATION": 39.67159489, "TYPE_CODE": 0, "TYPE_NAME": "", "SOURCE_COD": 0, "STATUS": "", "PL_CHANGE": "", "PLACE_NO": 0, "ADDRESS": "", "RADIUS": 0.0, "LENGTH": 0.0, "WIDTH": 0.0, "REMARKS": "", "DATE_DEC": "", "TAG1": "", "TAG2": "", "TAG3": "", "STAGE": "", "NAME": "60", "LABEL": "", "AGAM_ID": 99000310859.0}, "geometry": {"type": "Point", "coordinates": [34.87576213973222, 31.969166218770457]}}, {"type": "Feature", "properties": {"OBJECTID": 11811071, "LAYER_ID": 2612671, "GROUP_ID": 254011, "SCENARIO": "", "DEFQ": 0, "PLAN_NAME": "", "DATA_DATE": null, "MAVAT_CODE": 23505, "MAVAT_NAME": "בלוק מידות - מספר", "BLOCKNAME": "", "ROTATION": 39.67159489, "TYPE_CODE": 0, "TYPE_NAME": "", "SOURCE_COD": 0, "STATUS": "", "PL_CHANGE": "", "PLACE_NO": 0, "ADDRESS": "", "RADIUS": 0.0, "LENGTH": 0.0, "WIDTH": 0.0, "REMARKS": "", "DATE_DEC": "", "TAG1": "", "TAG2": "", "TAG3": "", "STAGE": "", "NAME": "60", "LABEL": "", "AGAM_ID": 99000310859.0}, "geometry": {"type": "Point", "coordinates": [34.87277874384163, 31.97222562686693]}}, {"type": "Feature", "properties": {"OBJECTID": 11811072, "LAYER_ID": 2612671, "GROUP_ID": 254011, "SCENARIO": "", "DEFQ": 0, "PLAN_NAME": "", "DATA_DATE": null, "MAVAT_CODE": 23505, "MAVAT_NAME": "בלוק מידות - מספר", "BLOCKNAME": "", "ROTATION": 39.60505143, "TYPE_CODE": 0, "TYPE_NAME": "", "SOURCE_COD": 0, "STATUS": "", "PL_CHANGE": "", "PLACE_NO": 0, "ADDRESS": "", "RADIUS": 0.0, "LENGTH": 0.0, "WIDTH": 0.0, "REMARKS": "", "DATE_DEC": "", "TAG1": "", "TAG2": "", "TAG3": "", "STAGE": "", "NAME": "220", "LABEL": "", "AGAM_ID": 99000310859.0}, "geometry": {"type": "Point", "coordinates": [34.86960884983448, 31.97637649852414]}}, {"type": "Feature", "properties": {"OBJECTID": 11811073, "LAYER_ID": 2612671, "GROUP_ID": 254011, "SCENARIO": "", "DEFQ": 0, "PLAN_NAME": "", "DATA_DATE": null, "MAVAT_CODE": 23505, "MAVAT_NAME": "בלוק מידות - מספר", "BLOCKNAME": "", "ROTATION": 39.67159489, "TYPE_CODE": 0, "TYPE_NAME": "", "SOURCE_COD": 0, "STATUS": "", "PL_CHANGE": "", "PLACE_NO": 0, "ADDRESS": "", "RADIUS": 0.0, "LENGTH": 0.0, "WIDTH": 0.0, "REMARKS": "", "DATE_DEC": "", "TAG1": "", "TAG2": "", "TAG3": "", "STAGE": "", "NAME": "60", "LABEL": "", "AGAM_ID": 99000310859.0}, "geometry": {"type": "Point", "coordinates": [34.86779781822887, 31.97707077263066]}}, {"type": "Feature", "properties": {"OBJECTID": 11811074, "LAYER_ID": 2612671, "GROUP_ID": 254011, "SCENARIO": "", "DEFQ": 0, "PLAN_NAME": "", "DATA_DATE": null, "MAVAT_CODE": 23505, "MAVAT_NAME": "בלוק מידות - מספר", "BLOCKNAME": "", "ROTATION": 39.67159489, "TYPE_CODE": 0, "TYPE_NAME": "", "SOURCE_COD": 0, "STATUS": "", "PL_CHANGE": "", "PLACE_NO": 0, "ADDRESS": "", "RADIUS": 0.0, "LENGTH": 0.0, "WIDTH": 0.0, "REMARKS": "", "DATE_DEC": "", "TAG1": "", "TAG2": "", "TAG3": "", "STAGE": "", "NAME": "60", "LABEL": "", "AGAM_ID": 99000310859.0}, "geometry": {"type": "Point", "coordinates": [34.86078130420644, 31.984224444462836]}}, {"type": "Feature", "properties": {"OBJECTID": 11811075, "LAYER_ID": 2612671, "GROUP_ID": 254011, "SCENARIO": "", "DEFQ": 0, "PLAN_NAME": "", "DATA_DATE": null, "MAVAT_CODE": 23505, "MAVAT_NAME": "בלוק מידות - מספר", "BLOCKNAME": "", "ROTATION": 49.29113536, "TYPE_CODE": 0, "TYPE_NAME": "", "SOURCE_COD": 0, "STATUS": "", "PL_CHANGE": "", "PLACE_NO": 0, "ADDRESS": "", "RADIUS": 0.0, "LENGTH": 0.0, "WIDTH": 0.0, "REMARKS": "", "DATE_DEC": "", "TAG1": "", "TAG2": "", "TAG3": "", "STAGE": "", "NAME": "20", "LABEL": "", "AGAM_ID": 99000310859.0}, "geometry": {"type": "Point", "coordinates": [34.831717559949126, 32.009803690770845]}}, {"type": "Feature", "properties": {"OBJECTID": 11811076, "LAYER_ID": 2612671, "GROUP_ID": 254011, "SCENARIO": "", "DEFQ": 0, "PLAN_NAME": "", "DATA_DATE": null, "MAVAT_CODE": 23505, "MAVAT_NAME": "בלוק מידות - מספר", "BLOCKNAME": "", "ROTATION": 41.06316446, "TYPE_CODE": 0, "TYPE_NAME": "", "SOURCE_COD": 0, "STATUS": "", "PL_CHANGE": "", "PLACE_NO": 0, "ADDRESS": "", "RADIUS": 0.0, "LENGTH": 0.0, "WIDTH": 0.0, "REMARKS": "", "DATE_DEC": "", "TAG1": "", "TAG2": "", "TAG3": "", "STAGE": "", "NAME": "221.1", "LABEL": "", "AGAM_ID": 99000310859.0}, "geometry": {"type": "Point", "coordinates": [34.82909713313357, 32.01288698202214]}}, {"type": "Feature", "properties": {"OBJECTID": 11811077, "LAYER_ID": 2612671, "GROUP_ID": 254011, "SCENARIO": "", "DEFQ": 0, "PLAN_NAME": "", "DATA_DATE": null, "MAVAT_CODE": 23505, "MAVAT_NAME": "בלוק מידות - מספר", "BLOCKNAME": "", "ROTATION": 30.01476414, "TYPE_CODE": 0, "TYPE_NAME": "", "SOURCE_COD": 0, "STATUS": "", "PL_CHANGE": "", "PLACE_NO": 0, "ADDRESS": "", "RADIUS": 0.0, "LENGTH": 0.0, "WIDTH": 0.0, "REMARKS": "", "DATE_DEC": "", "TAG1": "", "TAG2": "", "TAG3": "", "STAGE": "", "NAME": "180.6", "LABEL": "", "AGAM_ID": 99000310859.0}, "geometry": {"type": "Point", "coordinates": [34.827186281467746, 32.01398265066133]}}, {"type": "Feature", "properties": {"OBJECTID": 11811078, "LAYER_ID": 2612671, "GROUP_ID": 254011, "SCENARIO": "", "DEFQ": 0, "PLAN_NAME": "", "DATA_DATE": null, "MAVAT_CODE": 23505, "MAVAT_NAME": "בלוק מידות - מספר", "BLOCKNAME": "", "ROTATION": 50.72707063, "TYPE_CODE": 0, "TYPE_NAME": "", "SOURCE_COD": 0, "STATUS": "", "PL_CHANGE": "", "PLACE_NO": 0, "ADDRESS": "", "RADIUS": 0.0, "LENGTH": 0.0, "WIDTH": 0.0, "REMARKS": "", "DATE_DEC": "", "TAG1": "", "TAG2": "", "TAG3": "", "STAGE": "", "NAME": "10", "LABEL": "", "AGAM_ID": 99000310859.0}, "geometry": {"type": "Point", "coordinates": [34.82477254619522, 32.01645598053775]}}, {"type": "Feature", "properties": {"OBJECTID": 11811079, "LAYER_ID": 2612671, "GROUP_ID": 254011, "SCENARIO": "", "DEFQ": 0, "PLAN_NAME": "", "DATA_DATE": null, "MAVAT_CODE": 23505, "MAVAT_NAME": "בלוק מידות - מספר", "BLOCKNAME": "", "ROTATION": 355.0, "TYPE_CODE": 0, "TYPE_NAME": "", "SOURCE_COD": 0, "STATUS": "", "PL_CHANGE": "", "PLACE_NO": 0, "ADDRESS": "", "RADIUS": 0.0, "LENGTH": 0.0, "WIDTH": 0.0, "REMARKS": "", "DATE_DEC": "", "TAG1": "", "TAG2": "", "TAG3": "", "STAGE": "", "NAME": "107", "LABEL": "", "AGAM_ID": 99000310859.0}, "geometry": {"type": "Point", "coordinates": [34.792921096502035, 32.07079637980726]}}, {"type": "Feature", "properties": {"OBJECTID": 11811080, "LAYER_ID": 2612671, "GROUP_ID": 254011, "SCENARIO": "", "DEFQ": 0, "PLAN_NAME": "", "DATA_DATE": null, "MAVAT_CODE": 23505, "MAVAT_NAME": "בלוק מידות - מספר", "BLOCKNAME": "", "ROTATION": 345.0, "TYPE_CODE": 0, "TYPE_NAME": "", "SOURCE_COD": 0, "STATUS": "", "PL_CHANGE": "", "PLACE_NO": 0, "ADDRESS": "", "RADIUS": 0.0, "LENGTH": 0.0, "WIDTH": 0.0, "REMARKS": "", "DATE_DEC": "", "TAG1": "", "TAG2": "", "TAG3": "", "STAGE": "", "NAME": "114", "LABEL": "", "AGAM_ID": 99000310859.0}, "geometry": {"type": "Point", "coordinates": [34.78564756374742, 32.05814572320796]}}, {"type": "Feature", "properties": {"OBJECTID": 11811081, "LAYER_ID": 2612671, "GROUP_ID": 254011, "SCENARIO": "", "DEFQ": 0, "PLAN_NAME": "", "DATA_DATE": null, "MAVAT_CODE": 23505, "MAVAT_NAME": "בלוק מידות - מספר", "BLOCKNAME": "", "ROTATION": 20.0, "TYPE_CODE": 0, "TYPE_NAME": "", "SOURCE_COD": 0, "STATUS": "", "PL_CHANGE": "", "PLACE_NO": 0, "ADDRESS": "", "RADIUS": 0.0, "LENGTH": 0.0, "WIDTH": 0.0, "REMARKS": "", "DATE_DEC": "", "TAG1": "", "TAG2": "", "TAG3": "", "STAGE": "", "NAME": "148", "LABEL": "", "AGAM_ID": 99000310859.0}, "geometry": {"type": "Point", "coordinates": [34.78827117307212, 32.04428874547697]}}, {"type": "Feature", "properties": {"OBJECTID": 11811082, "LAYER_ID": 2612671, "GROUP_ID": 254011, "SCENARIO": "", "DEFQ": 0, "PLAN_NAME": "", "DATA_DATE": null, "MAVAT_CODE": 23505, "MAVAT_NAME": "בלוק מידות - מספר", "BLOCKNAME": "", "ROTATION": 50.25041559, "TYPE_CODE": 0, "TYPE_NAME": "", "SOURCE_COD": 0, "STATUS": "", "PL_CHANGE": "", "PLACE_NO": 0, "ADDRESS": "", "RADIUS": 0.0, "LENGTH": 0.0, "WIDTH": 0.0, "REMARKS": "", "DATE_DEC": "", "TAG1": "", "TAG2": "", "TAG3": "", "STAGE": "", "NAME": "252", "LABEL": "", "AGAM_ID": 99000310859.0}, "geometry": {"type": "Point", "coordinates": [34.79307966562072, 32.03840348664672]}}, {"type": "Feature", "properties": {"OBJECTID": 11811083, "LAYER_ID": 2612671, "GROUP_ID": 254011, "SCENARIO": "", "DEFQ": 0, "PLAN_NAME": "", "DATA_DATE": null, "MAVAT_CODE": 23505, "MAVAT_NAME": "בלוק מידות - מספר", "BLOCKNAME": "", "ROTATION": 50.25041559, "TYPE_CODE": 0, "TYPE_NAME": "", "SOURCE_COD": 0, "STATUS": "", "PL_CHANGE": "", "PLACE_NO": 0, "ADDRESS": "", "RADIUS": 0.0, "LENGTH": 0.0, "WIDTH": 0.0, "REMARKS": "", "DATE_DEC": "", "TAG1": "", "TAG2": "", "TAG3": "", "STAGE": "", "NAME": "57", "LABEL": "", "AGAM_ID": 99000310859.0}, "geometry": {"type": "Point", "coordinates": [34.799629733925265, 32.03347730645171]}}, {"type": "Feature", "properties": {"OBJECTID": 11811084, "LAYER_ID": 2612671, "GROUP_ID": 254011, "SCENARIO": "", "DEFQ": 0, "PLAN_NAME": "", "DATA_DATE": null, "MAVAT_CODE": 23505, "MAVAT_NAME": "בלוק מידות - מספר", "BLOCKNAME": "", "ROTATION": 50.25041559, "TYPE_CODE": 0, "TYPE_NAME": "", "SOURCE_COD": 0, "STATUS": "", "PL_CHANGE": "", "PLACE_NO": 0, "ADDRESS": "", "RADIUS": 0.0, "LENGTH": 0.0, "WIDTH": 0.0, "REMARKS": "", "DATE_DEC": "", "TAG1": "", "TAG2": "", "TAG3": "", "STAGE": "", "NAME": "37", "LABEL": "", "AGAM_ID": 99000310859.0}, "geometry": {"type": "Point", "coordinates": [34.800253683671784, 32.033602869510446]}}, {"type": "Feature", "properties": {"OBJECTID": 11811085, "LAYER_ID": 2612671, "GROUP_ID": 254011, "SCENARIO": "", "DEFQ": 0, "PLAN_NAME": "", "DATA_DATE": null, "MAVAT_CODE": 23505, "MAVAT_NAME": "בלוק מידות - מספר", "BLOCKNAME": "", "ROTATION": 50.25041559, "TYPE_CODE": 0, "TYPE_NAME": "", "SOURCE_COD": 0, "STATUS": "", "PL_CHANGE": "", "PLACE_NO": 0, "ADDRESS": "", "RADIUS": 0.0, "LENGTH": 0.0, "WIDTH": 0.0, "REMARKS": "", "DATE_DEC": "", "TAG1": "", "TAG2": "", "TAG3": "", "STAGE": "", "NAME": "43", "LABEL": "", "AGAM_ID": 99000310859.0}, "geometry": {"type": "Point", "coordinates": [34.80074762492769, 32.03366872452141]}}, {"type": "Feature", "properties": {"OBJECTID": 11811086, "LAYER_ID": 2612671, "GROUP_ID": 254011, "SCENARIO": "", "DEFQ": 0, "PLAN_NAME": "", "DATA_DATE": null, "MAVAT_CODE": 23505, "MAVAT_NAME": "בלוק מידות - מספר", "BLOCKNAME": "", "ROTATION": 50.25041559, "TYPE_CODE": 0, "TYPE_NAME": "", "SOURCE_COD": 0, "STATUS": "", "PL_CHANGE": "", "PLACE_NO": 0, "ADDRESS": "", "RADIUS": 0.0, "LENGTH": 0.0, "WIDTH": 0.0, "REMARKS": "", "DATE_DEC": "", "TAG1": "", "TAG2": "", "TAG3": "", "STAGE": "", "NAME": "266", "LABEL": "", "AGAM_ID": 99000310859.0}, "geometry": {"type": "Point", "coordinates": [34.81747498479415, 32.0202348510561]}}, {"type": "Feature", "properties": {"OBJECTID": 11811087, "LAYER_ID": 2612671, "GROUP_ID": 254011, "SCENARIO": "", "DEFQ": 0, "PLAN_NAME": "", "DATA_DATE": null, "MAVAT_CODE": 23505, "MAVAT_NAME": "בלוק מידות - מספר", "BLOCKNAME": "", "ROTATION": 50.25041559, "TYPE_CODE": 0, "TYPE_NAME": "", "SOURCE_COD": 0, "STATUS": "", "PL_CHANGE": "", "PLACE_NO": 0, "ADDRESS": "", "RADIUS": 0.0, "LENGTH": 0.0, "WIDTH": 0.0, "REMARKS": "", "DATE_DEC": "", "TAG1": "", "TAG2": "", "TAG3": "", "STAGE": "", "NAME": "42", "LABEL": "", "AGAM_ID": 99000310859.0}, "geometry": {"type": "Point", "coordinates": [34.829460872958656, 32.01227228751345]}}, {"type": "Feature", "properties": {"OBJECTID": 11811088, "LAYER_ID": 2612671, "GROUP_ID": 254011, "SCENARIO": "", "DEFQ": 0, "PLAN_NAME": "", "DATA_DATE": null, "MAVAT_CODE": 23505, "MAVAT_NAME": "בלוק מידות - מספר", "BLOCKNAME": "", "ROTATION": 50.25041559, "TYPE_CODE": 0, "TYPE_NAME": "", "SOURCE_COD": 0, "STATUS": "", "PL_CHANGE": "", "PLACE_NO": 0, "ADDRESS": "", "RADIUS": 0.0, "LENGTH": 0.0, "WIDTH": 0.0, "REMARKS": "", "DATE_DEC": "", "TAG1": "", "TAG2": "", "TAG3": "", "STAGE": "", "NAME": "30", "LABEL": "", "AGAM_ID": 99000310859.0}, "geometry": {"type": "Point", "coordinates": [34.82903056709714, 32.01208381223768]}}, {"type": "Feature", "properties": {"OBJECTID": 11811089, "LAYER_ID": 2612671, "GROUP_ID": 254011, "SCENARIO": "", "DEFQ": 0, "PLAN_NAME": "", "DATA_DATE": null, "MAVAT_CODE": 23505, "MAVAT_NAME": "בלוק מידות - מספר", "BLOCKNAME": "", "ROTATION": 50.25041559, "TYPE_CODE": 0, "TYPE_NAME": "", "SOURCE_COD": 0, "STATUS": "", "PL_CHANGE": "", "PLACE_NO": 0, "ADDRESS": "", "RADIUS": 0.0, "LENGTH": 0.0, "WIDTH": 0.0, "REMARKS": "", "DATE_DEC": "", "TAG1": "", "TAG2": "", "TAG3": "", "STAGE": "", "NAME": "176", "LABEL": "", "AGAM_ID": 99000310859.0}, "geometry": {"type": "Point", "coordinates": [34.83310764103183, 32.00995760271654]}}, {"type": "Feature", "properties": {"OBJECTID": 11811090, "LAYER_ID": 2612671, "GROUP_ID": 254011, "SCENARIO": "", "DEFQ": 0, "PLAN_NAME": "", "DATA_DATE": null, "MAVAT_CODE": 23505, "MAVAT_NAME": "בלוק מידות - מספר", "BLOCKNAME": "", "ROTATION": 41.46559196, "TYPE_CODE": 0, "TYPE_NAME": "", "SOURCE_COD": 0, "STATUS": "", "PL_CHANGE": "", "PLACE_NO": 0, "ADDRESS": "", "RADIUS": 0.0, "LENGTH": 0.0, "WIDTH": 0.0, "REMARKS": "", "DATE_DEC": "", "TAG1": "", "TAG2": "", "TAG3": "", "STAGE": "", "NAME": "178", "LABEL": "", "AGAM_ID": 99000310859.0}, "geometry": {"type": "Point", "coordinates": [34.84368993888778, 32.002121750913645]}}, {"type": "Feature", "properties": {"OBJECTID": 11811091, "LAYER_ID": 2612671, "GROUP_ID": 254011, "SCENARIO": "", "DEFQ": 0, "PLAN_NAME": "", "DATA_DATE": null, "MAVAT_CODE": 23505, "MAVAT_NAME": "בלוק מידות - מספר", "BLOCKNAME": "", "ROTATION": 2.0, "TYPE_CODE": 0, "TYPE_NAME": "", "SOURCE_COD": 0, "STATUS": "", "PL_CHANGE": "", "PLACE_NO": 0, "ADDRESS": "", "RADIUS": 0.0, "LENGTH": 0.0, "WIDTH": 0.0, "REMARKS": "", "DATE_DEC": "", "TAG1": "", "TAG2": "", "TAG3": "", "STAGE": "", "NAME": "246", "LABEL": "", "AGAM_ID": 99000310859.0}, "geometry": {"type": "Point", "coordinates": [34.88861596003229, 31.957143463061318]}}, {"type": "Feature", "properties": {"OBJECTID": 11811092, "LAYER_ID": 2612671, "GROUP_ID": 254011, "SCENARIO": "", "DEFQ": 0, "PLAN_NAME": "", "DATA_DATE": null, "MAVAT_CODE": 23505, "MAVAT_NAME": "בלוק מידות - מספר", "BLOCKNAME": "", "ROTATION": 39.67159489, "TYPE_CODE": 0, "TYPE_NAME": "", "SOURCE_COD": 0, "STATUS": "", "PL_CHANGE": "", "PLACE_NO": 0, "ADDRESS": "", "RADIUS": 0.0, "LENGTH": 0.0, "WIDTH": 0.0, "REMARKS": "", "DATE_DEC": "", "TAG1": "", "TAG2": "", "TAG3": "", "STAGE": "", "NAME": "268", "LABEL": "", "AGAM_ID": 99000310859.0}, "geometry": {"type": "Point", "coordinates": [34.85430666939194, 31.99138113620797]}}, {"type": "Feature", "properties": {"OBJECTID": 11811093, "LAYER_ID": 2612671, "GROUP_ID": 254011, "SCENARIO": "", "DEFQ": 0, "PLAN_NAME": "", "DATA_DATE": null, "MAVAT_CODE": 23505, "MAVAT_NAME": "בלוק מידות - מספר", "BLOCKNAME": "", "ROTATION": 39.67159489, "TYPE_CODE": 0, "TYPE_NAME": "", "SOURCE_COD": 0, "STATUS": "", "PL_CHANGE": "", "PLACE_NO": 0, "ADDRESS": "", "RADIUS": 0.0, "LENGTH": 0.0, "WIDTH": 0.0, "REMARKS": "", "DATE_DEC": "", "TAG1": "", "TAG2": "", "TAG3": "", "STAGE": "", "NAME": "171", "LABEL": "", "AGAM_ID": 99000310859.0}, "geometry": {"type": "Point", "coordinates": [34.85916948666497, 31.98696757769029]}}, {"type": "Feature", "properties": {"OBJECTID": 11811094, "LAYER_ID": 2612671, "GROUP_ID": 254011, "SCENARIO": "", "DEFQ": 0, "PLAN_NAME": "", "DATA_DATE": null, "MAVAT_CODE": 23505, "MAVAT_NAME": "בלוק מידות - מספר", "BLOCKNAME": "", "ROTATION": 40.0, "TYPE_CODE": 0, "TYPE_NAME": "", "SOURCE_COD": 0, "STATUS": "", "PL_CHANGE": "", "PLACE_NO": 0, "ADDRESS": "", "RADIUS": 0.0, "LENGTH": 0.0, "WIDTH": 0.0, "REMARKS": "", "DATE_DEC": "", "TAG1": "", "TAG2": "", "TAG3": "", "STAGE": "", "NAME": "48", "LABEL": "", "AGAM_ID": 99000310859.0}, "geometry": {"type": "Point", "coordinates": [34.86592031443568, 31.980511485185787]}}, {"type": "Feature", "properties": {"OBJECTID": 11811095, "LAYER_ID": 2612671, "GROUP_ID": 254011, "SCENARIO": "", "DEFQ": 0, "PLAN_NAME": "", "DATA_DATE": null, "MAVAT_CODE": 23505, "MAVAT_NAME": "בלוק מידות - מספר", "BLOCKNAME": "", "ROTATION": 40.0, "TYPE_CODE": 0, "TYPE_NAME": "", "SOURCE_COD": 0, "STATUS": "", "PL_CHANGE": "", "PLACE_NO": 0, "ADDRESS": "", "RADIUS": 0.0, "LENGTH": 0.0, "WIDTH": 0.0, "REMARKS": "", "DATE_DEC": "", "TAG1": "", "TAG2": "", "TAG3": "", "STAGE": "", "NAME": "71", "LABEL": "", "AGAM_ID": 99000310859.0}, "geometry": {"type": "Point", "coordinates": [34.865648560387655, 31.979908520125942]}}, {"type": "Feature", "properties": {"OBJECTID": 11811096, "LAYER_ID": 2612671, "GROUP_ID": 254011, "SCENARIO": "", "DEFQ": 0, "PLAN_NAME": "", "DATA_DATE": null, "MAVAT_CODE": 23505, "MAVAT_NAME": "בלוק מידות - מספר", "BLOCKNAME": "", "ROTATION": 45.0, "TYPE_CODE": 0, "TYPE_NAME": "", "SOURCE_COD": 0, "STATUS": "", "PL_CHANGE": "", "PLACE_NO": 0, "ADDRESS": "", "RADIUS": 0.0, "LENGTH": 0.0, "WIDTH": 0.0, "REMARKS": "", "DATE_DEC": "", "TAG1": "", "TAG2": "", "TAG3": "", "STAGE": "", "NAME": "76", "LABEL": "", "AGAM_ID": 99000310859.0}, "geometry": {"type": "Point", "coordinates": [34.874797949741065, 31.970946222095943]}}, {"type": "Feature", "properties": {"OBJECTID": 11811097, "LAYER_ID": 2612671, "GROUP_ID": 254011, "SCENARIO": "", "DEFQ": 0, "PLAN_NAME": "", "DATA_DATE": null, "MAVAT_CODE": 23505, "MAVAT_NAME": "בלוק מידות - מספר", "BLOCKNAME": "", "ROTATION": 45.0, "TYPE_CODE": 0, "TYPE_NAME": "", "SOURCE_COD": 0, "STATUS": "", "PL_CHANGE": "", "PLACE_NO": 0, "ADDRESS": "", "RADIUS": 0.0, "LENGTH": 0.0, "WIDTH": 0.0, "REMARKS": "", "DATE_DEC": "", "TAG1": "", "TAG2": "", "TAG3": "", "STAGE": "", "NAME": "136", "LABEL": "", "AGAM_ID": 99000310859.0}, "geometry": {"type": "Point", "coordinates": [34.88117650704971, 31.964693095400552]}}, {"type": "Feature", "properties": {"OBJECTID": 11811098, "LAYER_ID": 2612671, "GROUP_ID": 254011, "SCENARIO": "", "DEFQ": 0, "PLAN_NAME": "", "DATA_DATE": null, "MAVAT_CODE": 23505, "MAVAT_NAME": "בלוק מידות - מספר", "BLOCKNAME": "", "ROTATION": 50.0, "TYPE_CODE": 0, "TYPE_NAME": "", "SOURCE_COD": 0, "STATUS": "", "PL_CHANGE": "", "PLACE_NO": 0, "ADDRESS": "", "RADIUS": 0.0, "LENGTH": 0.0, "WIDTH": 0.0, "REMARKS": "", "DATE_DEC": "", "TAG1": "", "TAG2": "", "TAG3": "", "STAGE": "", "NAME": "73", "LABEL": "", "AGAM_ID": 99000310859.0}, "geometry": {"type": "Point", "coordinates": [34.88444291829068, 31.9622282227316]}}, {"type": "Feature", "properties": {"OBJECTID": 11811099, "LAYER_ID": 2612671, "GROUP_ID": 254011, "SCENARIO": "", "DEFQ": 0, "PLAN_NAME": "", "DATA_DATE": null, "MAVAT_CODE": 23505, "MAVAT_NAME": "בלוק מידות - מספר", "BLOCKNAME": "", "ROTATION": 332.0, "TYPE_CODE": 0, "TYPE_NAME": "", "SOURCE_COD": 0, "STATUS": "", "PL_CHANGE": "", "PLACE_NO": 0, "ADDRESS": "", "RADIUS": 0.0, "LENGTH": 0.0, "WIDTH": 0.0, "REMARKS": "", "DATE_DEC": "", "TAG1": "", "TAG2": "", "TAG3": "", "STAGE": "", "NAME": "184", "LABEL": "", "AGAM_ID": 99000310859.0}, "geometry": {"type": "Point", "coordinates": [34.88766798713358, 31.955436726788204]}}, {"type": "Feature", "properties": {"OBJECTID": 11811100, "LAYER_ID": 2612671, "GROUP_ID": 254011, "SCENARIO": "", "DEFQ": 0, "PLAN_NAME": "", "DATA_DATE": null, "MAVAT_CODE": 23505, "MAVAT_NAME": "בלוק מידות - מספר", "BLOCKNAME": "", "ROTATION": 315.0, "TYPE_CODE": 0, "TYPE_NAME": "", "SOURCE_COD": 0, "STATUS": "", "PL_CHANGE": "", "PLACE_NO": 0, "ADDRESS": "", "RADIUS": 0.0, "LENGTH": 0.0, "WIDTH": 0.0, "REMARKS": "", "DATE_DEC": "", "TAG1": "", "TAG2": "", "TAG3": "", "STAGE": "", "NAME": "117", "LABEL": "", "AGAM_ID": 99000310859.0}, "geometry": {"type": "Point", "coordinates": [34.88614639408792, 31.953752370762558]}}, {"type": "Feature", "properties": {"OBJECTID": 11811101, "LAYER_ID": 2612671, "GROUP_ID": 254011, "SCENARIO": "", "DEFQ": 0, "PLAN_NAME": "", "DATA_DATE": null, "MAVAT_CODE": 23505, "MAVAT_NAME": "בלוק מידות - מספר", "BLOCKNAME": "", "ROTATION": 315.0, "TYPE_CODE": 0, "TYPE_NAME": "", "SOURCE_COD": 0, "STATUS": "", "PL_CHANGE": "", "PLACE_NO": 0, "ADDRESS": "", "RADIUS": 0.0, "LENGTH": 0.0, "WIDTH": 0.0, "REMARKS": "", "DATE_DEC": "", "TAG1": "", "TAG2": "", "TAG3": "", "STAGE": "", "NAME": "72", "LABEL": "", "AGAM_ID": 99000310859.0}, "geometry": {"type": "Point", "coordinates": [34.88586184584699, 31.95343010251216]}}, {"type": "Feature", "properties": {"OBJECTID": 11811102, "LAYER_ID": 2612671, "GROUP_ID": 254011, "SCENARIO": "", "DEFQ": 0, "PLAN_NAME": "", "DATA_DATE": null, "MAVAT_CODE": 23505, "MAVAT_NAME": "בלוק מידות - מספר", "BLOCKNAME": "", "ROTATION": 312.0, "TYPE_CODE": 0, "TYPE_NAME": "", "SOURCE_COD": 0, "STATUS": "", "PL_CHANGE": "", "PLACE_NO": 0, "ADDRESS": "", "RADIUS": 0.0, "LENGTH": 0.0, "WIDTH": 0.0, "REMARKS": "", "DATE_DEC": "", "TAG1": "", "TAG2": "", "TAG3": "", "STAGE": "", "NAME": "86", "LABEL": "", "AGAM_ID": 99000310859.0}, "geometry": {"type": "Point", "coordinates": [34.88156883267176, 31.950357808735525]}}, {"type": "Feature", "properties": {"OBJECTID": 11811103, "LAYER_ID": 2612671, "GROUP_ID": 254011, "SCENARIO": "", "DEFQ": 0, "PLAN_NAME": "", "DATA_DATE": null, "MAVAT_CODE": 23505, "MAVAT_NAME": "בלוק מידות - מספר", "BLOCKNAME": "", "ROTATION": 312.0, "TYPE_CODE": 0, "TYPE_NAME": "", "SOURCE_COD": 0, "STATUS": "", "PL_CHANGE": "", "PLACE_NO": 0, "ADDRESS": "", "RADIUS": 0.0, "LENGTH": 0.0, "WIDTH": 0.0, "REMARKS": "", "DATE_DEC": "", "TAG1": "", "TAG2": "", "TAG3": "", "STAGE": "", "NAME": "137", "LABEL": "", "AGAM_ID": 99000310859.0}, "geometry": {"type": "Point", "coordinates": [34.88029914797164, 31.949028592421364]}}, {"type": "Feature", "properties": {"OBJECTID": 11811104, "LAYER_ID": 2612671, "GROUP_ID": 254011, "SCENARIO": "", "DEFQ": 0, "PLAN_NAME": "", "DATA_DATE": null, "MAVAT_CODE": 23505, "MAVAT_NAME": "בלוק מידות - מספר", "BLOCKNAME": "", "ROTATION": 344.73479934, "TYPE_CODE": 0, "TYPE_NAME": "", "SOURCE_COD": 0, "STATUS": "", "PL_CHANGE": "", "PLACE_NO": 0, "ADDRESS": "", "RADIUS": 0.0, "LENGTH": 0.0, "WIDTH": 0.0, "REMARKS": "", "DATE_DEC": "", "TAG1": "", "TAG2": "", "TAG3": "", "STAGE": "", "NAME": "92", "LABEL": "", "AGAM_ID": 99000310859.0}, "geometry": {"type": "Point", "coordinates": [34.79769038770127, 32.08153614428837]}}, {"type": "Feature", "properties": {"OBJECTID": 11811105, "LAYER_ID": 2612671, "GROUP_ID": 254011, "SCENARIO": "", "DEFQ": 0, "PLAN_NAME": "", "DATA_DATE": null, "MAVAT_CODE": 23505, "MAVAT_NAME": "בלוק מידות - מספר", "BLOCKNAME": "", "ROTATION": 320.0, "TYPE_CODE": 0, "TYPE_NAME": "", "SOURCE_COD": 0, "STATUS": "", "PL_CHANGE": "", "PLACE_NO": 0, "ADDRESS": "", "RADIUS": 0.0, "LENGTH": 0.0, "WIDTH": 0.0, "REMARKS": "", "DATE_DEC": "", "TAG1": "", "TAG2": "", "TAG3": "", "STAGE": "", "NAME": "87", "LABEL": "", "AGAM_ID": 99000310859.0}, "geometry": {"type": "Point", "coordinates": [34.794899548023636, 32.07752381682036]}}, {"type": "Feature", "properties": {"OBJECTID": 11811106, "LAYER_ID": 2612671, "GROUP_ID": 254011, "SCENARIO": "", "DEFQ": 0, "PLAN_NAME": "", "DATA_DATE": null, "MAVAT_CODE": 23505, "MAVAT_NAME": "בלוק מידות - מספר", "BLOCKNAME": "", "ROTATION": 350.0, "TYPE_CODE": 0, "TYPE_NAME": "", "SOURCE_COD": 0, "STATUS": "", "PL_CHANGE": "", "PLACE_NO": 0, "ADDRESS": "", "RADIUS": 0.0, "LENGTH": 0.0, "WIDTH": 0.0, "REMARKS": "", "DATE_DEC": "", "TAG1": "", "TAG2": "", "TAG3": "", "STAGE": "", "NAME": "115", "LABEL": "", "AGAM_ID": 99000310859.0}, "geometry": {"type": "Point", "coordinates": [34.79318340201759, 32.07449252250009]}}, {"type": "Feature", "properties": {"OBJECTID": 11811107, "LAYER_ID": 2612671, "GROUP_ID": 254011, "SCENARIO": "", "DEFQ": 0, "PLAN_NAME": "", "DATA_DATE": null, "MAVAT_CODE": 23505, "MAVAT_NAME": "בלוק מידות - מספר", "BLOCKNAME": "", "ROTATION": 317.26224757, "TYPE_CODE": 0, "TYPE_NAME": "", "SOURCE_COD": 0, "STATUS": "", "PL_CHANGE": "", "PLACE_NO": 0, "ADDRESS": "", "RADIUS": 0.0, "LENGTH": 0.0, "WIDTH": 0.0, "REMARKS": "", "DATE_DEC": "", "TAG1": "", "TAG2": "", "TAG3": "", "STAGE": "", "NAME": "89", "LABEL": "", "AGAM_ID": 99000310859.0}, "geometry": {"type": "Point", "coordinates": [34.788449567763706, 32.06357841204892]}}, {"type": "Feature", "properties": {"OBJECTID": 11811108, "LAYER_ID": 2612671, "GROUP_ID": 254011, "SCENARIO": "", "DEFQ": 0, "PLAN_NAME": "", "DATA_DATE": null, "MAVAT_CODE": 23505, "MAVAT_NAME": "בלוק מידות - מספר", "BLOCKNAME": "", "ROTATION": 358.60166461, "TYPE_CODE": 0, "TYPE_NAME": "", "SOURCE_COD": 0, "STATUS": "", "PL_CHANGE": "", "PLACE_NO": 0, "ADDRESS": "", "RADIUS": 0.0, "LENGTH": 0.0, "WIDTH": 0.0, "REMARKS": "", "DATE_DEC": "", "TAG1": "", "TAG2": "", "TAG3": "", "STAGE": "", "NAME": "113", "LABEL": "", "AGAM_ID": 99000310859.0}, "geometry": {"type": "Point", "coordinates": [34.78465617220084, 32.05393942949276]}}, {"type": "Feature", "properties": {"OBJECTID": 11811109, "LAYER_ID": 2612671, "GROUP_ID": 254011, "SCENARIO": "", "DEFQ": 0, "PLAN_NAME": "", "DATA_DATE": null, "MAVAT_CODE": 23505, "MAVAT_NAME": "בלוק מידות - מספר", "BLOCKNAME": "", "ROTATION": 50.25041559, "TYPE_CODE": 0, "TYPE_NAME": "", "SOURCE_COD": 0, "STATUS": "", "PL_CHANGE": "", "PLACE_NO": 0, "ADDRESS": "", "RADIUS": 0.0, "LENGTH": 0.0, "WIDTH": 0.0, "REMARKS": "", "DATE_DEC": "", "TAG1": "", "TAG2": "", "TAG3": "", "STAGE": "", "NAME": "36", "LABEL": "", "AGAM_ID": 99000310859.0}, "geometry": {"type": "Point", "coordinates": [34.82989211567205, 32.01221416528755]}}, {"type": "Feature", "properties": {"OBJECTID": 11811110, "LAYER_ID": 2612671, "GROUP_ID": 254011, "SCENARIO": "", "DEFQ": 0, "PLAN_NAME": "", "DATA_DATE": null, "MAVAT_CODE": 23505, "MAVAT_NAME": "בלוק מידות - מספר", "BLOCKNAME": "", "ROTATION": 42.43358461, "TYPE_CODE": 0, "TYPE_NAME": "", "SOURCE_COD": 0, "STATUS": "", "PL_CHANGE": "", "PLACE_NO": 0, "ADDRESS": "", "RADIUS": 0.0, "LENGTH": 0.0, "WIDTH": 0.0, "REMARKS": "", "DATE_DEC": "", "TAG1": "", "TAG2": "", "TAG3": "", "STAGE": "", "NAME": "56", "LABEL": "", "AGAM_ID": 99000310859.0}, "geometry": {"type": "Point", "coordinates": [34.85328233941835, 31.9934676360418]}}, {"type": "Feature", "properties": {"OBJECTID": 11811111, "LAYER_ID": 2612671, "GROUP_ID": 254011, "SCENARIO": "", "DEFQ": 0, "PLAN_NAME": "", "DATA_DATE": null, "MAVAT_CODE": 23505, "MAVAT_NAME": "בלוק מידות - מספר", "BLOCKNAME": "", "ROTATION": 42.43358461, "TYPE_CODE": 0, "TYPE_NAME": "", "SOURCE_COD": 0, "STATUS": "", "PL_CHANGE": "", "PLACE_NO": 0, "ADDRESS": "", "RADIUS": 0.0, "LENGTH": 0.0, "WIDTH": 0.0, "REMARKS": "", "DATE_DEC": "", "TAG1": "", "TAG2": "", "TAG3": "", "STAGE": "", "NAME": "65", "LABEL": "", "AGAM_ID": 99000310859.0}, "geometry": {"type": "Point", "coordinates": [34.852980379787816, 31.992952909530914]}}]}