{"type": "FeatureCollection", "features": [{"type": "Feature", "properties": {"OBJECTID": 5999276, "LAYER_ID": 2612669, "GROUP_ID": 254011, "SCENARIO": "", "DEFQ": 0, "PLAN_NAME": "תתל/ 33", "DATA_DATE": null, "MAVAT_CODE": 20010, "MAVAT_NAME": "גבול תכנית אמיתי", "NAME": "", "LABEL": "", "TYPE_CODE": 0, "TYPE_NAME": "", "SOURCE_COD": 0, "LEGAL_AREA": 0.0, "IS_ANALITY": 0, "HASAVA": 0, "STATUS": "", "PL_CHANGE": "", "ADDRESS": "", "PLACE_NO": 0, "REMARKS": "", "AGAM_ID": 99000310859.0, "VER_ID": 99000940697.0, "SHAPE_AREA": 3377581.29527, "SHAPE_LEN": 44396.5265493}, "geometry": {"type": "Polygon", "coordinates": [[[34.825327657404046, 32.014299416558934], [34.82529671972976, 32.01432020893163], [34.82492380195208, 32.0145658461866], [34.82478498813342, 32.01465497453442], [34.824440410000314, 32.01487353083551], [34.82417959693968, 32.01502837271968], [34.82391428970249, 32.015191440315895], [34.82340089670799, 32.01550020517919], [34.82288265057524, 32.015803029392124], [34.82247158659468, 32.01603705599835], [34.822432501975925, 32.01605946647038], [34.82226989392898, 32.01614722138769], [34.82223427940836, 32.0161653092404], [34.82217908622347, 32.01620349822749], [34.82228877748173, 32.01641550963981], [34.82236443371695, 32.01646122784127], [34.82195220424828, 32.0165645725636], [34.82164841963645, 32.016526462493296], [34.82159172293854, 32.01651934935608], [34.821341559064415, 32.016441629256505], [34.81694962696278, 32.01961036851796], [34.81691994354996, 32.019696240797096], [34.81687199250374, 32.0198113548562], [34.816761248561946, 32.02005250521519], [34.81666797643142, 32.020206959562636], [34.81652039836288, 32.0204344953739], [34.81637978053509, 32.020631815026434], [34.81616497981245, 32.020905159848304], [34.815823657134665, 32.021246350327246], [34.815509294839266, 32.02156681625766], [34.81511709676606, 32.021968276400884], [34.81473705199468, 32.022284525744965], [34.814211398671915, 32.02273087199683], [34.81401010008282, 32.022908260073635], [34.81415976249137, 32.02299297915474], [34.81309366812768, 32.02384340754205], [34.81277121765371, 32.024116484554284], [34.81215740833935, 32.024560371079474], [34.8070928890285, 32.02820150215781], [34.806925157390666, 32.0281333544971], [34.80639380968267, 32.02851650238611], [34.806274889740415, 32.028395360611256], [34.80599478033008, 32.02806195814589], [34.80593648775167, 32.02800986943689], [34.80592293371738, 32.02799520693451], [34.80578684813075, 32.02808989348732], [34.80614660237465, 32.02856028224142], [34.806186730635936, 32.02861666047242], [34.806088346630816, 32.02867814616299], [34.804999423314584, 32.02944578378058], [34.80363379469442, 32.03034969539135], [34.80361955430766, 32.03031470761653], [34.80083029014444, 32.03231742785569], [34.79862202340048, 32.033902048768624], [34.79851453998476, 32.033790553169645], [34.79815923146396, 32.03343969579163], [34.793319077189665, 32.03692582241984], [34.79265004712143, 32.037397263056015], [34.79135904049211, 32.03832214813385], [34.791339419315584, 32.03833550888311], [34.79111411985597, 32.03849397862315], [34.79089435194133, 32.03865798789168], [34.79068030324113, 32.038827396655506], [34.79047215654466, 32.03900206027046], [34.79027008960505, 32.03918182960491], [34.79007427498741, 32.03936655116705], [34.789884879921466, 32.039556067235765], [34.78970206615881, 32.03975021599537], [34.78952598983457, 32.03994883167364], [34.789356801334186, 32.04015174468318], [34.78919464516479, 32.0403587817663], [34.78903965983185, 32.04056976614287], [34.788891977720645, 32.04078451766107], [34.78875172498329, 32.04100285295129], [34.78861902143073, 32.041224585582526], [34.78850445687948, 32.04143001028458], [34.78865093147915, 32.04134720826056], [34.788891810054416, 32.041211040741544], [34.7890305068561, 32.041132393497016], [34.789203815605305, 32.04103067975157], [34.78950658337223, 32.04082549565359], [34.78963556849319, 32.04096193333476], [34.789591226691776, 32.0410164784291], [34.78944470470642, 32.04120303090363], [34.78933963989641, 32.041329028238465], [34.789225506947325, 32.04147023609377], [34.78910731062954, 32.04162026810507], [34.788989733272594, 32.04177381902174], [34.78892762230044, 32.04185946621252], [34.788861050740465, 32.041948164848606], [34.78871826871294, 32.04214987882167], [34.78857581374615, 32.042372785832875], [34.78843505433908, 32.04261860377705], [34.788350814329455, 32.04277451791586], [34.78825507059148, 32.042969081152265], [34.78814037792131, 32.043209753893116], [34.788054286550064, 32.04340020040275], [34.78777112418758, 32.04399607669482], [34.787585756053005, 32.04438873922076], [34.787321810328955, 32.04494824514047], [34.78714773561046, 32.045324531475124], [34.78703214513454, 32.04555176343134], [34.78692985015883, 32.045742155740406], [34.786883360737534, 32.045825779168226], [34.7860467465885, 32.0472731934566], [34.78591623561999, 32.047543931622975], [34.78582421245651, 32.04773300417492], [34.78570041948646, 32.04794650047643], [34.78562539989215, 32.0480751187768], [34.785475529105376, 32.04834173442678], [34.78531269082282, 32.04861912852081], [34.78510695479769, 32.04896942566094], [34.78491417104707, 32.04928856330073], [34.7847214732865, 32.04960526787473], [34.784318558608064, 32.0503837650017], [34.784041032315145, 32.051219022296785], [34.78403607386145, 32.05140035612945], [34.784051601787034, 32.05161692775609], [34.78406497513398, 32.051795256272314], [34.78408657907325, 32.05211880049043], [34.78410478595138, 32.05237478925286], [34.78412523673415, 32.05260319062729], [34.784151184450444, 32.052879946228046], [34.78416850588972, 32.0530980567837], [34.784189881910436, 32.05333259337103], [34.7842107796525, 32.053602298218344], [34.78423764666231, 32.05386336564171], [34.78426200557156, 32.0540476823109], [34.78429111666117, 32.05425798630413], [34.78431142780196, 32.05437808201265], [34.7843405650539, 32.05453635272645], [34.784382813865136, 32.05483778111433], [34.784402719791444, 32.054907555516664], [34.784450336529815, 32.055100245657705], [34.78448235378366, 32.05525401690967], [34.78452222208975, 32.05542765355738], [34.784565946970375, 32.05559156361964], [34.78459914375665, 32.05574218247056], [34.784645851896165, 32.05590213449856], [34.7848000113867, 32.05646238648367], [34.78504467299838, 32.05734492567597], [34.7853755477779, 32.05866429893417], [34.78566005146573, 32.05960075659066], [34.785700444789626, 32.05972975587973], [34.785775936380574, 32.05996465109141], [34.785795030964266, 32.0600270278694], [34.78583061066481, 32.060143476326786], [34.7858614950724, 32.06024457883255], [34.78592509090327, 32.06048746059312], [34.785957725630624, 32.060599570691615], [34.786004479958955, 32.06077368038176], [34.78605344385696, 32.06090442123222], [34.78611545830077, 32.06105288021957], [34.78617736044881, 32.0611795154801], [34.78624221836732, 32.06130823457771], [34.78632633741221, 32.06146289855294], [34.786434178445155, 32.061640636348145], [34.78651491510154, 32.06177076034704], [34.7866050122748, 32.061915073253715], [34.786712985672246, 32.062087220142104], [34.78680130536758, 32.062226657381046], [34.78690532223344, 32.06238409188643], [34.78707717059742, 32.062622279518955], [34.78719517605145, 32.06277768572263], [34.78730889663672, 32.06292063301156], [34.78740538192457, 32.063034576033424], [34.78751630285015, 32.06316452814652], [34.787630095152345, 32.0632918744124], [34.78772705141788, 32.06339553832956], [34.78793767914488, 32.06360670838273], [34.788119876137785, 32.06378234436232], [34.78831214672284, 32.06395521760129], [34.78845804434387, 32.06407906135498], [34.78860144773415, 32.06419252617348], [34.78872872662645, 32.06428880393898], [34.788944848039385, 32.06445697495004], [34.7891247792332, 32.06459580902513], [34.78923971314717, 32.06468230649644], [34.78963014709656, 32.06496791917685], [34.78971601844402, 32.065041335328374], [34.78995860080068, 32.06523691541718], [34.79023756759044, 32.06548978741942], [34.79062435483753, 32.06588116506016], [34.79074867332732, 32.06602441437647], [34.79097192183154, 32.06630496818938], [34.791042977631676, 32.06640006824038], [34.79125649572742, 32.06670178186618], [34.79140898557082, 32.066939449559726], [34.791557715780804, 32.0671890986203], [34.791713162719674, 32.06747610346269], [34.79180127122139, 32.06766540544156], [34.79191253204808, 32.06793459108916], [34.79206387993872, 32.06828596991029], [34.792180613668165, 32.06865752621645], [34.79227251257233, 32.068970295146656], [34.79232855185847, 32.069179331802104], [34.79241100522805, 32.069567639846795], [34.792455683107946, 32.069807029794596], [34.79248089424386, 32.0699947740983], [34.79250752303453, 32.07029154932173], [34.792513911648, 32.07040203926885], [34.792519688703116, 32.07045995291405], [34.792516697853664, 32.0707018932403], [34.79252266045472, 32.07081292286895], [34.79252689218538, 32.071050197352385], [34.7925300757941, 32.0712377798399], [34.79253176176478, 32.07147594782267], [34.79253279170963, 32.07155332467356], [34.79253600081516, 32.07164071846452], [34.79253697498395, 32.07169509951115], [34.792542753295045, 32.07221346662129], [34.792542649784494, 32.072425567050985], [34.79252339677908, 32.073509672941846], [34.79266046752671, 32.074151973746645], [34.792777905833454, 32.07456934236372], [34.79281138399265, 32.07467256943981], [34.79288220943368, 32.07487015698376], [34.792961180758454, 32.07506549314969], [34.79301408379754, 32.07518512916474], [34.79349510660539, 32.07607996012605], [34.79363516513473, 32.07629517153656], [34.79373734119838, 32.07646774430588], [34.79386106524676, 32.07665346273629], [34.79396504550868, 32.07680169287483], [34.79407523465084, 32.076958960915796], [34.79419128761258, 32.077107680852315], [34.79430767398473, 32.077252974964225], [34.7944034499228, 32.07736501647095], [34.79462217334711, 32.077611050093836], [34.79467423658613, 32.07766902308189], [34.79481400915869, 32.077819352176085], [34.79499259598304, 32.078006238776354], [34.79502992058876, 32.07804423447456], [34.79513091612581, 32.07814997977104], [34.79526382826421, 32.07829523619205], [34.79543908669289, 32.078468855124086], [34.795677743851165, 32.07872410980533], [34.795833666030866, 32.07888765596567], [34.795973452371584, 32.0790357293449], [34.79608698059251, 32.079158016993624], [34.79631662251702, 32.079416848563206], [34.796462648195494, 32.07961517109196], [34.79664948754877, 32.07987720085674], [34.79680851326314, 32.08012985245606], [34.79693826023389, 32.08036906323677], [34.79703867025324, 32.080584011645456], [34.79709457165704, 32.08071250858259], [34.79717328852714, 32.08091075154603], [34.79724387703586, 32.081111201060075], [34.79730625208055, 32.08131361561173], [34.797360338453096, 32.08151775131883], [34.797383530455164, 32.08161714588571], [34.79757185788065, 32.08192397803907], [34.79759236580185, 32.08212442114467], [34.797606910813606, 32.082331969220384], [34.797611275225286, 32.08251838276887], [34.7976204137862, 32.08289436742177], [34.79762567162833, 32.082974733587804], [34.79762838436803, 32.08310360775985], [34.79764259218321, 32.08329167610452], [34.79764916119978, 32.08341082334328], [34.79766645187815, 32.083572479196086], [34.797688130558974, 32.0837478563001], [34.79774971483036, 32.084118317132805], [34.79777886379854, 32.0842596414365], [34.797815193876204, 32.08442740032847], [34.797859924193, 32.08458788168189], [34.79790132625248, 32.084734554989524], [34.79795003582917, 32.08488152226007], [34.79802308714115, 32.08508105161554], [34.79814079217076, 32.08536287694879], [34.79820126022199, 32.08550979163674], [34.79828551721774, 32.08571458711902], [34.798415828804245, 32.086044337492375], [34.798562080237204, 32.08641066116462], [34.79866001002098, 32.08666185203849], [34.79877167693885, 32.08694464936396], [34.79889440723807, 32.08726490616045], [34.799011282245196, 32.08756801013516], [34.799065317567916, 32.08770904217408], [34.79910404802125, 32.087813773385825], [34.79914183375357, 32.08792329185549], [34.79939613394156, 32.0882738649715], [34.79948268183294, 32.0884743708047], [34.79960604562425, 32.08877208420737], [34.79972797680867, 32.08910421050461], [34.80097776676966, 32.08881115320843], [34.800842914504365, 32.088410135475584], [34.800750648047185, 32.08814597862848], [34.800645643697834, 32.08786392572603], [34.8005206273407, 32.08755610799764], [34.80039744822252, 32.08726425762798], [34.80029770873144, 32.08703795165042], [34.80018858584219, 32.08677770844936], [34.800029128509294, 32.08642595344705], [34.79994976304607, 32.08625910391656], [34.79992216302391, 32.086205305350155], [34.79982931979442, 32.0860010246064], [34.79975564821855, 32.08584505064907], [34.7996694949276, 32.085661171542526], [34.79959112337742, 32.08549021279812], [34.79950770801559, 32.08531012982989], [34.79943245651393, 32.08512835950179], [34.79932444643498, 32.084857027072076], [34.79925951467909, 32.08468917715376], [34.79919838557471, 32.0845237741869], [34.79914741641094, 32.08438437516739], [34.799071040539154, 32.08414569821072], [34.79899746158319, 32.08389738102252], [34.798971432935616, 32.083795035015676], [34.79895643361912, 32.08373763332283], [34.79881063044006, 32.083198438692904], [34.79847768738224, 32.08195975886531], [34.798332249272484, 32.0814230897382], [34.79830167797457, 32.0813046845029], [34.798247660892244, 32.081123316795136], [34.79821280893891, 32.08101969784383], [34.798141841585526, 32.08082856179503], [34.798054050741875, 32.08060959667831], [34.79793900588062, 32.080346513365214], [34.798084542903155, 32.08024460194418], [34.79788438342288, 32.0798886139231], [34.7978515656167, 32.07983701652606], [34.79773459676535, 32.07967774609749], [34.79766182364546, 32.07958390690118], [34.79757302783603, 32.07947279206452], [34.79743627777771, 32.07930804711373], [34.79737621067557, 32.07923913791437], [34.797212319161865, 32.0790567206607], [34.79703816978041, 32.07887084342004], [34.79686842349491, 32.07869535066481], [34.796717016868584, 32.07854020692496], [34.79660555279112, 32.07843010061364], [34.796371827272836, 32.07818487339012], [34.79620913925921, 32.07801851053604], [34.796030234180975, 32.07783117371839], [34.79591502387175, 32.077706445750756], [34.795866183372844, 32.077661920306134], [34.79569295645508, 32.077484160272455], [34.79552816348959, 32.07731535492001], [34.79540438321291, 32.07718888543342], [34.79525177043035, 32.07702029939], [34.79515336929895, 32.076903019663575], [34.795014057546, 32.07672076910332], [34.79481065292388, 32.076447050237455], [34.79464274283345, 32.076194277136594], [34.794511914015665, 32.07598653282912], [34.794417818807084, 32.07581998190228], [34.79430234009598, 32.07560079103331], [34.79428030616467, 32.07555427761], [34.794226093077, 32.075432541034615], [34.794188539083514, 32.07532763163273], [34.79415493240584, 32.075252737660215], [34.794100657939836, 32.07511584094424], [34.794054596663536, 32.07497677930865], [34.79401686678081, 32.07483590973125], [34.793987565107045, 32.074693593829366], [34.79396676682098, 32.074550196931284], [34.79395452527211, 32.0744060871386], [34.79395087184419, 32.074261634381216], [34.793955815874995, 32.07411720946767], [34.79395642780567, 32.07410793224196], [34.79396052421712, 32.07396618702628], [34.7939743767009, 32.073717730421095], [34.793996710098874, 32.07346972196313], [34.79402750544663, 32.07322237148733], [34.79406673662093, 32.072975888270285], [34.794068015566516, 32.07296866694875], [34.79401714326365, 32.07234693512903], [34.79398685483605, 32.072228071422174], [34.79393095023559, 32.071963936694715], [34.79387725225138, 32.07170377695364], [34.79380080283072, 32.07134470737457], [34.79372158805488, 32.07096470726072], [34.793677037313714, 32.0707907880948], [34.793623860423175, 32.070556511246586], [34.79356165288109, 32.07025763697834], [34.79347041344621, 32.06984351003161], [34.79341368406391, 32.0695986706106], [34.79335938976384, 32.06937773647425], [34.79331202139673, 32.0691947901107], [34.79323077274929, 32.06891515215473], [34.793118512783956, 32.06856047479069], [34.79299473709911, 32.0682234350054], [34.79294509139759, 32.06809999919867], [34.792869349146876, 32.067891890767285], [34.79280326624803, 32.06772619776969], [34.79271895069805, 32.067540786495016], [34.79265008498354, 32.06738175761509], [34.79257854005177, 32.06722984412758], [34.79247249228064, 32.06702596554925], [34.79236651206139, 32.06683074427917], [34.79223431516049, 32.06660153036397], [34.79210037960425, 32.066382320516524], [34.79199585059944, 32.066218035036094], [34.79189370787239, 32.06606484924883], [34.791756682383394, 32.06587376481393], [34.79162645140382, 32.06570263191315], [34.791522928873256, 32.065573970011535], [34.79140220223039, 32.06543253672591], [34.79123633206423, 32.06525073633699], [34.791096237378525, 32.06510689496334], [34.790927316019946, 32.06494447270039], [34.79079000889134, 32.06481678212017], [34.79069748356501, 32.06473928691618], [34.79069412173595, 32.06473706114644], [34.79022245013739, 32.064356007750106], [34.790038395044746, 32.06421553851783], [34.7896066624831, 32.063882989017024], [34.78922664365885, 32.06359019603656], [34.78895687017427, 32.06336702080474], [34.78870798608933, 32.06313805187627], [34.78849632561024, 32.06292092788065], [34.78829366670848, 32.06268056689671], [34.78805982340655, 32.06238148679309], [34.78788375877485, 32.06213850712971], [34.78773225287194, 32.061897772250575], [34.78760776967923, 32.06167633418088], [34.7875297492896, 32.06150735264275], [34.787443934024985, 32.06128261477236], [34.78730945172374, 32.06083804057715], [34.787129663305564, 32.05985350532158], [34.78712142809839, 32.05980847730943], [34.78711740708985, 32.05974549082662], [34.78712199981919, 32.05968253270064], [34.78713514416017, 32.059620454331046], [34.78715666234164, 32.05956009521859], [34.787173885933285, 32.059524271919535], [34.78687824241308, 32.05892716977347], [34.786790161665365, 32.058782412754326], [34.78670942127945, 32.0586302851779], [34.78660313681075, 32.05841359532322], [34.786534623670406, 32.05825068644369], [34.78647991313966, 32.05810306329569], [34.78644950858525, 32.05801287415643], [34.78635692863536, 32.05776340408599], [34.78633191781301, 32.0576980319486], [34.78624784863679, 32.05744002284716], [34.786127339873254, 32.0570918947218], [34.78605474605167, 32.05691860149851], [34.78594852748403, 32.05661840543879], [34.78584574397693, 32.056331386769166], [34.785742629245135, 32.05597772456212], [34.78570401125919, 32.05585450254489], [34.785641152569426, 32.055590070146614], [34.785581551778755, 32.05530788318892], [34.78550638678035, 32.05486278129131], [34.78547203408818, 32.05452404520252], [34.785468345250386, 32.054380828577315], [34.78544898536868, 32.05407487702671], [34.78542833005651, 32.05382086435289], [34.78541801873139, 32.053574100185664], [34.78540720980802, 32.05336683282262], [34.785398330421415, 32.05306145693278], [34.78538934081696, 32.05273380641643], [34.785381873099546, 32.052327795237396], [34.78537763095013, 32.052027214119924], [34.78537010767241, 32.051726351605154], [34.78536390541407, 32.05150737611674], [34.785361395384115, 32.051244946470604], [34.78537173121741, 32.051044782897755], [34.78538432463609, 32.05090685040343], [34.785402594274196, 32.05075477853643], [34.78542046677764, 32.050643376155456], [34.78545191358389, 32.05050406308749], [34.78548800922229, 32.05036692967034], [34.785677926406684, 32.04984027945279], [34.78585670293144, 32.0494810548682], [34.786108296055296, 32.049104846057595], [34.78619094336856, 32.04899861709655], [34.78629750366413, 32.04887262752256], [34.786579233469965, 32.04852762893546], [34.786850635686015, 32.04824139252316], [34.78701995887626, 32.04809703209977], [34.787281510280366, 32.0479044585072], [34.78733333288856, 32.047870721616746], [34.78756034658818, 32.04770580900993], [34.78775206895539, 32.04757144094601], [34.787772941490296, 32.04754984602713], [34.78785704605185, 32.04745574583808], [34.78793418946207, 32.04735741428749], [34.788004079101945, 32.04725522439349], [34.78806644987205, 32.04714956380949], [34.78812106519809, 32.04704083335358], [34.788167717927955, 32.04692944548778], [34.78820623111712, 32.04681582275338], [34.7882200990382, 32.04676695626584], [34.78825256327735, 32.04665893792555], [34.78830816944231, 32.04644395276877], [34.78839671854282, 32.04622564886732], [34.78850977242216, 32.04599687430967], [34.78862965970581, 32.045755316595894], [34.788778592399524, 32.045459024988276], [34.78891729244105, 32.045177669411466], [34.78905071537034, 32.044892418669555], [34.789256064049816, 32.044411443741836], [34.78938366243031, 32.04410254656039], [34.78951132880192, 32.04380185576869], [34.78967752172394, 32.04343320549236], [34.78986505619621, 32.043027290519106], [34.78992852715525, 32.04289827108657], [34.78999486140204, 32.04283914452621], [34.7901376652702, 32.04257719303037], [34.790298772148134, 32.04221921147511], [34.7905779122695, 32.04231862211479], [34.79082295528214, 32.04181942785305], [34.79111037837987, 32.041698731204725], [34.79128589126924, 32.04165665919225], [34.79146401403711, 32.04165249961027], [34.79164486805427, 32.041660196429376], [34.79173172536736, 32.04167883786404], [34.79216214734757, 32.04150099940868], [34.79217438891323, 32.041486233566694], [34.792183400202674, 32.04104550775503], [34.79256771799175, 32.04103778740532], [34.792567980035436, 32.040643446612904], [34.79252025681752, 32.040553669556765], [34.79256293811335, 32.04005986703535], [34.793535749025075, 32.03978741691689], [34.7938138103384, 32.039563603287185], [34.795494657540836, 32.03821063050962], [34.807241466740535, 32.02974447850071], [34.80831935193176, 32.02974452378589], [34.80841300716505, 32.02946818679211], [34.80779668456572, 32.02934425686242], [34.810571730865526, 32.02734380622551], [34.81199250012407, 32.026316075498116], [34.813115072632584, 32.02550758793756], [34.818929898720505, 32.02131977158428], [34.81993795863608, 32.02060345649044], [34.81993118651395, 32.020583154534116], [34.81992642100749, 32.02056858481046], [34.81988723819507, 32.020438136697095], [34.819888731671554, 32.0203163130184], [34.81989805617702, 32.020125632162156], [34.81990794422961, 32.02000933334894], [34.819953104387274, 32.01987920869414], [34.820016045756255, 32.019720672701936], [34.82011945298821, 32.01978813209446], [34.82035513725669, 32.01989304324913], [34.82070849354637, 32.020055913220304], [34.82320736725758, 32.01828012794923], [34.823137039669916, 32.01803397999535], [34.823134590105404, 32.01790982208137], [34.82314061168176, 32.01773830554421], [34.823180292457344, 32.01771703235322], [34.82318093261801, 32.01771273630705], [34.823220319584394, 32.01761874121372], [34.82327875603971, 32.017529474660265], [34.82336177521859, 32.01744501456463], [34.82365201018709, 32.01724172438956], [34.8236941983652, 32.01730102521888], [34.824839683127394, 32.016468857129595], [34.82550469101439, 32.01598573361961], [34.826052512410435, 32.01559544353343], [34.82685181922728, 32.015010815489745], [34.827266112500354, 32.014716858507526], [34.827681065497444, 32.014422433170004], [34.828077511285386, 32.014140758893625], [34.82931137098621, 32.01326945185862], [34.82970185263344, 32.01366504377817], [34.83337190367679, 32.01100100421183], [34.83521741159891, 32.00968255543528], [34.838432518206496, 32.00738045993525], [34.84209584305573, 32.00472666764845], [34.84235245996452, 32.00452982288704], [34.84272732405089, 32.00423413522091], [34.84309638174304, 32.00393319173112], [34.843459531604836, 32.0036270751777], [34.84381667382789, 32.003315869742444], [34.84416771025884, 32.002999661005845], [34.8444651770034, 32.002723284299854], [34.847260103300165, 32.00012955532132], [34.8517101426567, 31.99600867372693], [34.85342367643587, 31.994379569420673], [34.85550181297631, 31.99226629219781], [34.855503504364414, 31.99226505917367], [34.85569591200038, 31.992119988522834], [34.85583490267111, 31.99200895095962], [34.85586131590241, 31.991985878101644], [34.855920037466134, 31.991927248590155], [34.85597205885956, 31.99186419043117], [34.8560169229238, 31.991797257790484], [34.856054235402475, 31.99172703888231], [34.85607155509899, 31.99168689226683], [34.856519811121345, 31.991231032039398], [34.86033713265218, 31.987355485376295], [34.861106399110454, 31.986572860069447], [34.86108014109114, 31.98632401550298], [34.86166339716705, 31.985728664233907], [34.861808672067184, 31.985832065990337], [34.86187717689919, 31.98576211756797], [34.86189255700096, 31.985773031230636], [34.870309255119324, 31.977204834763544], [34.87557380817592, 31.9719586638615], [34.877801369338634, 31.96965800837196], [34.877598780950215, 31.969513136506198], [34.87760939185375, 31.969502957165762], [34.877784262629966, 31.969330027517998], [34.877954075733584, 31.96916015436876], [34.87812933636494, 31.96899268477591], [34.87830898803128, 31.968815843808223], [34.87848122590043, 31.968631635617406], [34.87855498485161, 31.968554298368826], [34.87849424591729, 31.968518010632323], [34.87936847627156, 31.967648510586766], [34.879403165141305, 31.96761525595751], [34.880349579338954, 31.96672861000178], [34.880606772263505, 31.966460323669107], [34.88105628407517, 31.965969964161932], [34.88110284128064, 31.966010279921083], [34.88129119251219, 31.96617337885793], [34.88167565703911, 31.96585072131601], [34.8814288477092, 31.96563700184489], [34.88137559762991, 31.965590893995103], [34.88146478175319, 31.965479082050233], [34.881614274051515, 31.9653292318141], [34.88187332056019, 31.965106521315896], [34.881955484136036, 31.965033322836707], [34.881811206130045, 31.96489631073496], [34.8820609755406, 31.964688463799853], [34.88233868567005, 31.96446373767838], [34.88238139852193, 31.96449615420637], [34.8825084614664, 31.96438083574842], [34.88257833138135, 31.964310760208473], [34.88264820118376, 31.96424068643219], [34.88263713948115, 31.96422940383017], [34.8827517125575, 31.964141356703887], [34.88310518644086, 31.963876175583042], [34.883227679885564, 31.96378649516892], [34.88323603938629, 31.963780414931843], [34.883561124671466, 31.96354790631215], [34.88364371667175, 31.963490123152102], [34.88405231219313, 31.96320941734073], [34.884223631591276, 31.963093706644095], [34.884548228708596, 31.962875851403346], [34.88562461738656, 31.962154909411176], [34.88570067793873, 31.962104260006797], [34.885964689303336, 31.961922550991343], [34.88604396167348, 31.961866143707763], [34.88611960654318, 31.961810334342093], [34.88628963302675, 31.96167865298541], [34.88648705539209, 31.96152768507502], [34.88655103275759, 31.961657443230813], [34.88656567584241, 31.96168512671318], [34.886674681354606, 31.961590750026303], [34.88684115756787, 31.96143818471349], [34.88700132187991, 31.96128078537237], [34.88715498131286, 31.961118741680846], [34.8873019507307, 31.96095224891259], [34.88744205306223, 31.96078150770176], [34.88754620716604, 31.960645847521683], [34.88767641220346, 31.960464106165453], [34.88770099307514, 31.960428101319582], [34.887819516310756, 31.960245867290336], [34.887836554068414, 31.960218392831568], [34.88805519151869, 31.96013308373519], [34.8879702881115, 31.959989361870928], [34.888008033674915, 31.95992020612143], [34.88810394591569, 31.959732664195], [34.8881618147736, 31.959609829295896], [34.88819781062146, 31.959528612891685], [34.888278272568414, 31.959332439859093], [34.888285044871466, 31.959314856772682], [34.888340185839425, 31.959163280016817], [34.8884037256683, 31.958966903637954], [34.88845905020155, 31.958768728392663], [34.888506089780634, 31.958569003991], [34.88852392098544, 31.958481856635277], [34.88853649984493, 31.95841077103339], [34.88855836929094, 31.9582517902047], [34.888571728591664, 31.958092125516085], [34.88857252410896, 31.958077508813645], [34.888576021195426, 31.958025086603868], [34.88858978035173, 31.95774288501386], [34.88859251246743, 31.957647040109713], [34.88859586904894, 31.957545259417557], [34.88868083652115, 31.957559946398835], [34.888893031315774, 31.957601792766837], [34.8890422501622, 31.957635725557697], [34.88916871191289, 31.957669476271686], [34.889299146526746, 31.95770773074249], [34.88930251069579, 31.95763820460934], [34.88930750961695, 31.957419061983295], [34.88930754140324, 31.957403371021826], [34.89001710672715, 31.957445283843683], [34.89021917936446, 31.957451335549848], [34.89016428773833, 31.956965367826843], [34.88988465862758, 31.956414926909634], [34.89032786789817, 31.955954181928718], [34.888679509985685, 31.954789874269988], [34.88787372780856, 31.954220700131383], [34.88767689112447, 31.954083541826794], [34.88771102513131, 31.95404809745287], [34.8876054874752, 31.953970879147555], [34.88746578108046, 31.95390168274801], [34.887299395719104, 31.953773708137483], [34.88670715121054, 31.953313240771926], [34.886633309989946, 31.953208022195422], [34.88657734048206, 31.953168453183952], [34.88661051878307, 31.95302597808848], [34.8864357282086, 31.95299477979302], [34.8864171432773, 31.953055197815473], [34.88576057561061, 31.952591020815607], [34.88480541919596, 31.9519142180048], [34.88430627193136, 31.951558837965553], [34.884007090374155, 31.95137842484144], [34.88375060243586, 31.95119936332135], [34.88349411549413, 31.951020301284636], [34.88236501266374, 31.950239251046302], [34.882123022099755, 31.950096333283675], [34.881823732412116, 31.94988466700821], [34.881909691167074, 31.9497699622288], [34.88161384671909, 31.949488145160696], [34.8813517493087, 31.94887531535907], [34.88129524287156, 31.94880077224066], [34.881064362610594, 31.94849072834265], [34.88076825993002, 31.94792119859192], [34.88053846363279, 31.94772719604798], [34.88032694729613, 31.947552309422296], [34.87878128865762, 31.94916460737904], [34.87930269451054, 31.94921688471101], [34.87939179086327, 31.949228495715705], [34.879494344664295, 31.949248729818233], [34.87959462296341, 31.949276023759644], [34.87969195844531, 31.949310195909426], [34.87978570337603, 31.94935101886512], [34.879875233913, 31.949398220965243], [34.879959954256236, 31.949451488097072], [34.87996904202283, 31.949457763341908], [34.88009828899209, 31.949547841633557], [34.88014539043239, 31.949658404813054], [34.88022349097352, 31.949635099426683], [34.88067704733896, 31.949951193844928], [34.88072066722832, 31.950016060421408], [34.880898041155135, 31.950344967922874], [34.88092307911041, 31.950443870103324], [34.880913968115635, 31.950605674929744], [34.8812381098426, 31.950484306748486], [34.88142489506594, 31.95061448209334], [34.881652822132594, 31.950773325670028], [34.88246668284526, 31.95134050367483], [34.882480895518846, 31.951350407312244], [34.882561955696936, 31.951376693536243], [34.88266756245978, 31.951417772055407], [34.88276932275486, 31.9514653881306], [34.88286668081737, 31.9515192817092], [34.88295910492235, 31.951579158453818], [34.88301401271087, 31.95161937885848], [34.88446526838977, 31.952732994996495], [34.88438623332948, 31.95288811457988], [34.88466570414256, 31.95308942801092], [34.8849536489744, 31.953302225951695], [34.88521160590332, 31.953492570350132], [34.88534585602728, 31.953599804680454], [34.88566395252635, 31.953888847233785], [34.885844106262894, 31.954047204421013], [34.8858692427434, 31.954026809019247], [34.88600080070197, 31.954168595059006], [34.88614396885199, 31.95432814324965], [34.88628939948086, 31.954510243994434], [34.886394421621134, 31.95464852904831], [34.886547053963085, 31.954861453351292], [34.886141788988525, 31.955072623262758], [34.886266325950594, 31.955489219728822], [34.886710027300936, 31.95539280530791], [34.88673954530238, 31.955531563062525], [34.88688767279443, 31.95550865783933], [34.88692393624468, 31.95567912381333], [34.88700310821518, 31.95566452304226], [34.88700940780793, 31.95567570138929], [34.88734807705443, 31.956344766790608], [34.88742203218675, 31.956489230147444], [34.88748930421014, 31.956684333226626], [34.88753145029711, 31.956828942571416], [34.88755002337576, 31.956888457848848], [34.88760612750621, 31.95714412376532], [34.88649458217254, 31.957053936860643], [34.88647045583532, 31.957390101681153], [34.88761976681959, 31.957480509287215], [34.88761869092117, 31.957563449626406], [34.887607715719966, 31.957668156589865], [34.88759487990746, 31.957773776950173], [34.887573746351094, 31.95786845929805], [34.88754852895032, 31.95800095874669], [34.88753085430674, 31.95807713196135], [34.887504869479024, 31.95819958693229], [34.887485890904635, 31.95829505380011], [34.88745720145514, 31.95839310445636], [34.88742635829493, 31.958499780042978], [34.88739508874203, 31.95857967442644], [34.8873477065389, 31.958683096451807], [34.88730247314685, 31.958778660047038], [34.88722980832136, 31.958889855602965], [34.88703752745387, 31.959330543815998], [34.88678145845998, 31.959793698536725], [34.88653854909279, 31.959986301444264], [34.88642689287376, 31.960060983842084], [34.88614056054765, 31.96027162883143], [34.88580373490999, 31.96050581715227], [34.88531200109355, 31.96084558150097], [34.88448610942025, 31.961411076425865], [34.883662288223924, 31.96199517362716], [34.883427067829, 31.96219072257127], [34.88328864499324, 31.96230873673639], [34.88307693508718, 31.96249250914024], [34.882908018692575, 31.962634116373447], [34.88266559415108, 31.962856133551195], [34.88249527930121, 31.96301859370471], [34.882316855316276, 31.963183846693948], [34.882145922371585, 31.963358163578203], [34.88126939125439, 31.96394082155558], [34.881248190178, 31.963954988512658], [34.88108459283472, 31.964069478078905], [34.880926499334436, 31.964189455750994], [34.880774162843544, 31.96431472941619], [34.88062782731298, 31.964445098480855], [34.880608377465414, 31.964463234131696], [34.880345418740625, 31.964709772280944], [34.880246342962295, 31.964633130792624], [34.8800930998258, 31.964508715559237], [34.87972528657265, 31.964817395059292], [34.87991215644063, 31.964979215304407], [34.87960314229988, 31.965292257936234], [34.877971258130046, 31.966945384363484], [34.877783526645146, 31.967145117260664], [34.87781862066856, 31.967185787087423], [34.8777129643418, 31.967248959219788], [34.877576166296464, 31.96734905767552], [34.87742681553076, 31.967491420233536], [34.877221384019826, 31.967707656656913], [34.87715186983468, 31.967778164772366], [34.87709396382255, 31.96772252546638], [34.87692596117197, 31.96755016619577], [34.876912460098154, 31.9675353633671], [34.87531752038986, 31.969198101981757], [34.87423316887816, 31.97030420085394], [34.872562400085975, 31.972024375224535], [34.870347987723086, 31.97411180094615], [34.867635274013004, 31.97681708913127], [34.86679317941628, 31.97761807617881], [34.86380143654114, 31.980663768035964], [34.86266003302391, 31.981904978127837], [34.86141120426052, 31.983163524811708], [34.85905903801573, 31.98553984914311], [34.859269115133664, 31.986036250656188], [34.85829600713152, 31.98702723726712], [34.857764581122474, 31.9866090866287], [34.85384515127554, 31.99059341926529], [34.853580285941646, 31.99045059195992], [34.85328137541328, 31.990804197437672], [34.852978766732484, 31.990411446876944], [34.852840348711055, 31.990486304550497], [34.852873906818864, 31.990535681067488], [34.85288326028638, 31.99055086951883], [34.85289618986807, 31.990583928035303], [34.852900478501496, 31.99061858246336], [34.85289592564531, 31.990653212401252], [34.85288274417651, 31.990686198590637], [34.85286155043815, 31.990715998631345], [34.85283333542143, 31.99074121910289], [34.85280816830146, 31.99075650209173], [34.85260216497805, 31.99090302971889], [34.852668248495725, 31.99097350486077], [34.85278071217454, 31.990897211945462], [34.852902004443465, 31.99081492835495], [34.852916647124694, 31.99080520606893], [34.852949224875005, 31.990790749168042], [34.85298491555595, 31.990783356761703], [34.853021644962716, 31.99078345846806], [34.85304879230524, 31.99078852063318], [34.85310354620887, 31.990843236731745], [34.853107503235535, 31.99085170355003], [34.85313702684846, 31.990903146219498], [34.85317417666672, 31.990950864567836], [34.853179200322266, 31.990956389793308], [34.85322430859767, 31.99098936011156], [34.853395954184116, 31.99129653469215], [34.8534368277282, 31.991358466356377], [34.85364660318939, 31.991625377715902], [34.85367864397685, 31.99162614549752], [34.853719700552176, 31.99163370151116], [34.85375801658937, 31.991648367212527], [34.85379191750031, 31.991669501643244], [34.853815969840554, 31.99169167196533], [34.853149823066644, 31.9923915517448], [34.85314421555057, 31.992491856407746], [34.8523340868978, 31.993326782135014], [34.85203699826688, 31.99363744926836], [34.851948203011936, 31.99371961302301], [34.85191232166078, 31.99370977027837], [34.85186451268182, 31.99379779951686], [34.85017580824807, 31.99538085020745], [34.85006806843414, 31.995432574387564], [34.849882559767416, 31.994982356147915], [34.849604952735056, 31.99504813327899], [34.849564158682256, 31.994952067414633], [34.84949529897727, 31.994962126530478], [34.84914901291456, 31.99521446304216], [34.84921923829845, 31.995738045964362], [34.84766896909301, 31.997209850059058], [34.84612429049567, 31.999239622312952], [34.845139880680925, 32.00010672579865], [34.844896569105465, 32.000328390256115], [34.8446078066808, 32.00059381243284], [34.84407425741965, 32.001086501788684], [34.84364680977251, 32.00148120863867], [34.843506296872256, 32.001254729224655], [34.84303854720433, 32.001665012504674], [34.842998863566166, 32.00207951345647], [34.842808697900324, 32.00225510965688], [34.84277100483532, 32.002289988158196], [34.8424499918568, 32.00258412625888], [34.842374441664404, 32.00265221552797], [34.842046028819766, 32.002941691401794], [34.84171155157019, 32.003226081462486], [34.841371118325476, 32.00350529348855], [34.8410248394298, 32.00377923693675], [34.84088578919347, 32.00388649742022], [34.84033214943501, 32.00429422652746], [34.84013201945792, 32.00443936325684], [34.83867781149757, 32.0054922289394], [34.83883878833377, 32.005308155613434], [34.83898290300667, 32.005132734081656], [34.839048420677, 32.005051196182876], [34.83920332485762, 32.0048496712751], [34.83931366993959, 32.00468163708455], [34.83944421333404, 32.004490129305765], [34.83989479859919, 32.00380315760896], [34.84039313273422, 32.00310514428786], [34.839967192994244, 32.00287527709367], [34.8388944652564, 32.00436047296514], [34.83885323051677, 32.004411408714226], [34.83869598623069, 32.00460684471868], [34.838615434546064, 32.00470695947848], [34.83853167439417, 32.004820802964275], [34.83817645846778, 32.00525318710109], [34.83746194198321, 32.00601062798874], [34.83664099381456, 32.00662340143733], [34.836487635662124, 32.006618527147374], [34.83612470867228, 32.00646123181528], [34.83361589677612, 32.00800234039449], [34.83263066628604, 32.00870620846555], [34.83281329091077, 32.0091366621786], [34.83283085157948, 32.00918064749885], [34.83287438427946, 32.00928134732131], [34.832305462582134, 32.009689338669425], [34.83224983488063, 32.00954055168111], [34.83220852259028, 32.009430048387514], [34.83214690624884, 32.00936733499784], [34.831580372692386, 32.00978579275887], [34.830421252193744, 32.010641931260515], [34.82998462316355, 32.010951668545715], [34.82965915419943, 32.011185233078365], [34.825327657404046, 32.014299416558934]]]}}]}