{"type": "FeatureCollection", "features": [{"type": "Feature", "properties": {"OBJECTID": 2581365, "LAYER_ID": 1234005, "GROUP_ID": 196926, "DEFQ": 0, "DATA_DATE": null, "MAVAT_CODE": 1601, "MAVAT_NAME": "גבול גוש", "LABEL": "", "LOT_NUM": 6068, "GUSH_SUFFI": 0, "CALC_AREA": 0.0, "LEGAL_AREA": 0.0, "TYPE_CODE": 0, "STATUS": 6, "IS_ANALITY": 0, "PLAN_NAME": "", "STATUS_NAM": "מוסדר", "AGAM_ID": 4000266689.0, "SHAPE_AREA": 308228.211677, "SHAPE_LEN": 2615.81451972}, "geometry": {"type": "Polygon", "coordinates": [[[34.83710589132629, 32.00705708394686], [34.836529222202635, 32.00747435703484], [34.83661160043106, 32.00755887813254], [34.83609858750295, 32.00792747420207], [34.835863607698684, 32.0080950244261], [34.83604433208712, 32.00828006482057], [34.8363329407152, 32.00857545926154], [34.83670438771419, 32.00896285673277], [34.836965421929634, 32.00927360500617], [34.837123072068124, 32.009509092244514], [34.83753129205765, 32.01022003689637], [34.837567244562, 32.01028551053532], [34.83758924065298, 32.01031237202454], [34.83762757207007, 32.01034605145323], [34.837703319321115, 32.01031908657515], [34.83808380843099, 32.01017872590432], [34.838659045074664, 32.010731309650325], [34.83878236674435, 32.010847705138616], [34.838467247962186, 32.01115054075624], [34.838342074690196, 32.01126673183011], [34.83840591844797, 32.0112545144917], [34.83849484579982, 32.011233798769524], [34.838755238858774, 32.011081102931236], [34.83896236916288, 32.01093585710405], [34.839005167979614, 32.010853159087475], [34.83911515319994, 32.01074256527255], [34.83914873520649, 32.01072717625937], [34.83919818234509, 32.01070803813734], [34.8392497424732, 32.01066955705906], [34.83926930024823, 32.01063885476162], [34.83929995697138, 32.0105315891256], [34.839309008473144, 32.01051229862108], [34.83936294883393, 32.01045429857256], [34.83941727317319, 32.010405148066255], [34.83950753979799, 32.01032288582821], [34.83965656526179, 32.010230407352495], [34.83968219254627, 32.010193564948736], [34.83977227862202, 32.01002740573877], [34.83983293143167, 32.00994191987534], [34.83992028306253, 32.00985255720108], [34.8399772620996, 32.00979032354467], [34.84000849328162, 32.009760145239404], [34.84003866877965, 32.00974319510491], [34.84009118940429, 32.00971852840357], [34.84015111978382, 32.00970211819437], [34.84021477791269, 32.00968190945467], [34.84023474018424, 32.00966761731708], [34.84024676287564, 32.009643079579824], [34.840280460238596, 32.00961014156273], [34.84030074898709, 32.00960321264765], [34.840328603990166, 32.00959280285206], [34.84036672061725, 32.0095771090909], [34.84042696348993, 32.00955229126273], [34.84047687420893, 32.00952060090691], [34.840517972490254, 32.009492777423446], [34.84052807927075, 32.00946560451366], [34.84053916229072, 32.009405637735135], [34.84054240757261, 32.00939001343578], [34.8405473292413, 32.009376547443196], [34.84097140323415, 32.00908780541643], [34.84100567298511, 32.009071696433566], [34.84105557730418, 32.00905117011399], [34.84109396992824, 32.009034106185545], [34.841182346283745, 32.0089935365549], [34.841294605261155, 32.008936377167544], [34.84139887370614, 32.00886359006408], [34.84174829243603, 32.008560404952796], [34.84195714713561, 32.00838203773687], [34.84198077773986, 32.00837888040864], [34.84198291868829, 32.00838025004701], [34.84198508517886, 32.00838158368629], [34.84198728143075, 32.008382884945725], [34.84198950321061, 32.00838415381325], [34.84199175051842, 32.008385390288865], [34.84199402335419, 32.00838659437253], [34.841996317498754, 32.00838776244503], [34.84199863717126, 32.008388898125595], [34.84200098238592, 32.00838999780705], [34.842003344676, 32.00839106146524], [34.84200573250822, 32.008392089124335], [34.84200814163501, 32.0083930843794], [34.84201056785143, 32.00839404000401], [34.842013015362426, 32.008394963224596], [34.84201547996303, 32.00839584681476], [34.84201796163903, 32.0083966943816], [34.842020460390444, 32.00839750592518], [34.84202297621727, 32.00839828144547], [34.84202550913368, 32.00839901733528], [34.84202805489214, 32.00839971718975], [34.842030613506815, 32.008400377401635], [34.8420331849777, 32.008400997971], [34.842035773523996, 32.008401582517074], [34.84203837069315, 32.0084021274085], [34.84204097647095, 32.00840263625244], [34.84204359511916, 32.0084031018467], [34.84204622237603, 32.00840353139344], [34.84204885825575, 32.00840392128558], [34.84205149852494, 32.00840427151095], [34.84205414741696, 32.00840458208171], [34.84205680491763, 32.008404856604955], [34.842059466821965, 32.008405087854335], [34.842062128882404, 32.00840527942487], [34.84206479956567, 32.00840543134076], [34.84206747039084, 32.008405547185], [34.842070145619665, 32.00840561975533], [34.84207281677121, 32.008405652634764], [34.842075492312205, 32.00840564584744], [34.8420781679951, 32.008405602988454], [34.842080839614894, 32.008405516831395], [34.84208351139076, 32.008405390995506], [34.842086179089364, 32.00840522546869], [34.842088842710666, 32.00840502025099], [34.842091502254675, 32.00840477534235], [34.84209415347384, 32.00840449433786], [34.842096804863246, 32.00840417004739], [34.842099443708626, 32.008403806041834], [34.84210207846252, 32.00840340595251], [34.84210470067237, 32.00840296614809], [34.84210731457155, 32.00840248664069], [34.84210992016005, 32.00840196743027], [34.84211251320451, 32.00840140850476], [34.842115093690744, 32.008400813471326], [34.842117665866276, 32.00840017873486], [34.84212022125023, 32.00839950787841], [34.84212275985674, 32.00839879729477], [34.842125290138384, 32.0083980506153], [34.8421298128803, 32.00839660261399], [34.84217544897511, 32.00835570822248], [34.8421948983458, 32.00833605039766], [34.84230233627328, 32.00825355739376], [34.842397073595244, 32.00818081439445], [34.84258618840968, 32.00795653865189], [34.842602204845114, 32.007938905433676], [34.84267666571296, 32.00784301108578], [34.842705054566, 32.0078074889445], [34.8427325410442, 32.00777320870872], [34.84303957093453, 32.007443065123496], [34.84306751981994, 32.00740524024949], [34.84320871383348, 32.00719830032975], [34.84336092464385, 32.00694541780016], [34.8433814663199, 32.006913711231505], [34.84341696629915, 32.00688475262439], [34.84341765683204, 32.00687490331907], [34.843419866948416, 32.0068445766414], [34.84346369385272, 32.0068199414991], [34.843574838461755, 32.006688511797286], [34.84363384865545, 32.00665346249692], [34.84377860032364, 32.00656982621662], [34.8438146198471, 32.006589760998956], [34.84376830780171, 32.0064977142258], [34.842668150374784, 32.00426666158211], [34.84285600939867, 32.004172443027755], [34.843395263229745, 32.00390305591061], [34.8428784099991, 32.00311785772235], [34.84238670601854, 32.003321615432085], [34.84228506293378, 32.00336262064414], [34.84222303306759, 32.003387672373655], [34.84219169997074, 32.00334437943901], [34.84213861948299, 32.00338438689499], [34.84195848159088, 32.0035488190465], [34.84176111159087, 32.003709551191314], [34.841604782257136, 32.003823939598895], [34.8415671855899, 32.00385122519122], [34.84129269895803, 32.004049287020635], [34.84115920462601, 32.0041427174366], [34.84035260216053, 32.00472701254456], [34.83976541143696, 32.005145767426995], [34.83954122863901, 32.00530448912601], [34.83873502201555, 32.00588522540118], [34.837926435470976, 32.00646679727124], [34.83710589132629, 32.00705708394686]]]}}, {"type": "Feature", "properties": {"OBJECTID": 2581374, "LAYER_ID": 1234005, "GROUP_ID": 196926, "DEFQ": 0, "DATA_DATE": null, "MAVAT_CODE": 1601, "MAVAT_NAME": "גבול גוש", "LABEL": "", "LOT_NUM": 6069, "GUSH_SUFFI": 0, "CALC_AREA": 0.0, "LEGAL_AREA": 0.0, "TYPE_CODE": 0, "STATUS": 6, "IS_ANALITY": 0, "PLAN_NAME": "", "STATUS_NAM": "מוסדר", "AGAM_ID": 4000266689.0, "SHAPE_AREA": 410753.451775, "SHAPE_LEN": 2605.74093989}, "geometry": {"type": "Polygon", "coordinates": [[[34.840380190721596, 32.000349352288545], [34.8400082939186, 32.000430446088544], [34.83968720289813, 32.00051973612771], [34.83954993723881, 32.00056587443573], [34.83952055413358, 32.00057694702558], [34.83862001640111, 32.000904041793596], [34.837900784969996, 32.00113925181655], [34.8378810661084, 32.00110763181294], [34.83733716610126, 32.00129169703099], [34.83705202234958, 32.00138704706457], [34.83695936974786, 32.001432395481984], [34.836908262482844, 32.001454983673284], [34.83644546085258, 32.00166013315905], [34.836414907872616, 32.00168306933367], [34.836332152741434, 32.00175463429622], [34.83619809044096, 32.00185736806394], [34.835977847111515, 32.00200955873546], [34.835932766442895, 32.00204081410416], [34.83573657772929, 32.00217535561934], [34.835530717198395, 32.002284160165765], [34.835189658034125, 32.002445881876625], [34.83502985863526, 32.00252366782155], [34.834925913808746, 32.00257964836116], [34.834891256714776, 32.00259346402197], [34.834889225794655, 32.002594273335085], [34.8348635552614, 32.00260924060792], [34.834816754793884, 32.002636392781795], [34.83474512780936, 32.00266965174688], [34.83460544566308, 32.00273847775366], [34.834521392247034, 32.0027785576653], [34.83440044260574, 32.002840775549096], [34.83437445638113, 32.002854205132465], [34.83436574339145, 32.00285871036818], [34.83403000036825, 32.00302273139915], [34.833895328965575, 32.00313161841013], [34.83368238271108, 32.00331178938039], [34.83365141407018, 32.003337775356876], [34.83347382920835, 32.00346053244826], [34.83339688689371, 32.00350153780277], [34.8333823800205, 32.003508836038186], [34.833367209086305, 32.0035170485594], [34.83311270454318, 32.003660242223276], [34.83308056019431, 32.00367958015002], [34.83274664743887, 32.00387234528414], [34.832433541004704, 32.00406788314552], [34.832339299811736, 32.00411647718566], [34.83232272638106, 32.004126012917716], [34.83230737322562, 32.0041342247761], [34.832303758734554, 32.00413615485009], [34.83217497500793, 32.00420450149391], [34.83218449256236, 32.00421885000906], [34.83221085738336, 32.0042575280246], [34.832220725777006, 32.00427200742546], [34.83230997225812, 32.004401518855545], [34.83238904183991, 32.00453743562918], [34.832442611842005, 32.004640554863265], [34.83245057196441, 32.00465587453987], [34.832513771684944, 32.00481849751706], [34.83252390034192, 32.00484455857768], [34.8325355406982, 32.00487628196424], [34.832549917165494, 32.00489926229769], [34.8326022358587, 32.004956946891056], [34.832610806975815, 32.00496511346309], [34.83286485657572, 32.00520713259506], [34.8329938195476, 32.00533289291675], [34.833133955269986, 32.00549206684548], [34.833199511288704, 32.00553524929804], [34.833257891589504, 32.0056216033553], [34.83339134656656, 32.00574646739601], [34.833414054825916, 32.00576936377891], [34.833527489526574, 32.00587040849542], [34.83355904362688, 32.00589795875031], [34.833952698950874, 32.006229164128726], [34.833933717647334, 32.00625105852193], [34.834164715536936, 32.00645037781531], [34.8344040531672, 32.00664254628598], [34.83449698107575, 32.00672317849504], [34.83463169502365, 32.00680098535075], [34.835003432728534, 32.00715772748483], [34.83529878723892, 32.007405456746966], [34.835573367745575, 32.00764004882271], [34.83572049634751, 32.00776858621185], [34.83589049562267, 32.00793695203825], [34.836014327265865, 32.007847820639945], [34.83629254877893, 32.007644579706216], [34.836529222202635, 32.00747435703484], [34.83710589132629, 32.00705708394686], [34.837926435470976, 32.00646679727124], [34.83873502201555, 32.00588522540118], [34.83954122863901, 32.00530448912601], [34.83976541143696, 32.005145767426995], [34.84035260216053, 32.00472701254456], [34.84115920462601, 32.0041427174366], [34.84129269895803, 32.004049287020635], [34.8415671855899, 32.00385122519122], [34.841604782257136, 32.003823939598895], [34.84176111159087, 32.003709551191314], [34.84195848159088, 32.0035488190465], [34.84213861948299, 32.00338438689499], [34.84219169997074, 32.00334437943901], [34.842050393354675, 32.00315577005903], [34.84189004142125, 32.002901768807696], [34.84158081368968, 32.00236108475671], [34.84146244107445, 32.00216591745794], [34.84113264481881, 32.001622168633766], [34.840380190721596, 32.000349352288545]]]}}, {"type": "Feature", "properties": {"OBJECTID": 2581370, "LAYER_ID": 1234005, "GROUP_ID": 196926, "DEFQ": 0, "DATA_DATE": null, "MAVAT_CODE": 1601, "MAVAT_NAME": "גבול גוש", "LABEL": "", "LOT_NUM": 6249, "GUSH_SUFFI": 0, "CALC_AREA": 0.0, "LEGAL_AREA": 0.0, "TYPE_CODE": 0, "STATUS": 6, "IS_ANALITY": 0, "PLAN_NAME": "", "STATUS_NAM": "מוסדר", "AGAM_ID": 4000266689.0, "SHAPE_AREA": 338025.480402, "SHAPE_LEN": 4265.22734878}, "geometry": {"type": "Polygon", "coordinates": [[[34.84219169997074, 32.00334437943901], [34.84222303306759, 32.003387672373655], [34.84228506293378, 32.00336262064414], [34.84238670601854, 32.003321615432085], [34.8428784099991, 32.00311785772235], [34.843395263229745, 32.00390305591061], [34.84285600939867, 32.004172443027755], [34.842668150374784, 32.00426666158211], [34.84376830780171, 32.0064977142258], [34.8438146198471, 32.006589760998956], [34.84383725336419, 32.00663787687505], [34.84402311923452, 32.00646650012436], [34.84403288103141, 32.00647954624853], [34.84525796942528, 32.00812139722662], [34.845293080261, 32.008168332531326], [34.84534057284689, 32.00823180942761], [34.845412272102, 32.00832189840308], [34.845475999291594, 32.00840456100058], [34.845562217042506, 32.008509386706486], [34.84562246207657, 32.00858835642638], [34.84571118294409, 32.00869677466728], [34.84576491415819, 32.008760765031134], [34.84582482008364, 32.00883830163553], [34.84593886082408, 32.008984446859124], [34.845977983976056, 32.009030175877484], [34.84609986476612, 32.00918413646376], [34.84616732536656, 32.00927485511592], [34.84631997422414, 32.00948360377643], [34.84642615597504, 32.0096273185638], [34.84649968813209, 32.00972454352384], [34.84660840507807, 32.00987728872239], [34.84666704011924, 32.00995486462383], [34.846698846408444, 32.01000115354256], [34.84688097696609, 32.010240598957566], [34.84694289520689, 32.0103280785349], [34.84700480933833, 32.01041555626615], [34.847088924714036, 32.01052360704657], [34.847259039689426, 32.01076379902312], [34.84736285233897, 32.01090456106123], [34.84745088731981, 32.011020100356255], [34.84831697742367, 32.01053863377049], [34.84898541756007, 32.01016703486761], [34.84907538854266, 32.01028203920188], [34.84911828777686, 32.01033934071304], [34.84928035690284, 32.01053966593368], [34.849326072745896, 32.01060766880671], [34.849366041637666, 32.010660851624394], [34.849398126820695, 32.010702198782845], [34.84945506423712, 32.01077557347234], [34.849579368921376, 32.01093598355996], [34.84968606244757, 32.01107278384596], [34.84993859854803, 32.01095301281263], [34.850013111714325, 32.010919205084804], [34.85018722466515, 32.010848016272796], [34.850251068990026, 32.01083958052664], [34.85023171225356, 32.010727017871424], [34.85021229560319, 32.01060637851978], [34.850206313239454, 32.01057896512053], [34.850175542278556, 32.010402768402585], [34.85012571708781, 32.01011745471424], [34.85012351175136, 32.01010416683815], [34.85010313977239, 32.009981021393095], [34.85010145556227, 32.009972031149275], [34.850071597650086, 32.009802898039084], [34.85000456195031, 32.00941471290846], [34.84994269170537, 32.00905510037573], [34.84988288837917, 32.00870909633179], [34.84983037511594, 32.00841045895856], [34.849813564332145, 32.00831696377657], [34.8497797165254, 32.00813323368134], [34.849759061926015, 32.008005102202254], [34.849737903948935, 32.00788457870511], [34.84970774738411, 32.007719134793604], [34.84968667917389, 32.007589075892334], [34.8496063522864, 32.00733648952646], [34.84959416910586, 32.007293515305086], [34.8495769053294, 32.00723475617939], [34.84955151797809, 32.00715231648528], [34.84950642402826, 32.007006253715446], [34.84948767918792, 32.00694022372075], [34.84947977210019, 32.006908155203504], [34.84940498251384, 32.00684202610772], [34.8493936901252, 32.00683597408614], [34.84927776292759, 32.00675400058258], [34.84908297658158, 32.00662177061293], [34.84894738115808, 32.00653121429094], [34.84878946752863, 32.00642321936701], [34.84872212638468, 32.0063765265197], [34.848623303979466, 32.006307438408584], [34.84849479242633, 32.00621452792756], [34.848194197937076, 32.006002121799035], [34.84807980570095, 32.00592004690015], [34.84794370191495, 32.00582354340447], [34.84787115235925, 32.005770890798786], [34.84746422796202, 32.00548015665324], [34.847285667065535, 32.005352741899856], [34.84726741242132, 32.00533984165392], [34.84725792965519, 32.005333899145185], [34.84716736888376, 32.00526964155806], [34.846974202651396, 32.00513277043704], [34.84681431599819, 32.00501625809837], [34.846459899132505, 32.00471130482116], [34.84643273392986, 32.00468855689787], [34.84631790999575, 32.00465955559395], [34.84626230135217, 32.00464561550311], [34.84624629670677, 32.0046333238646], [34.846114017860494, 32.004531761078944], [34.84594798430594, 32.004402807075905], [34.845833010691564, 32.00431885997369], [34.84574290721381, 32.00425345556975], [34.84535344692663, 32.00396344216692], [34.84509261913896, 32.00377212432096], [34.8449310238342, 32.00365208774152], [34.844868127577726, 32.0036064046351], [34.84419380347616, 32.003110113721796], [34.84348351133592, 32.00258409093173], [34.84364938894726, 32.00242899836352], [34.843895267510945, 32.00219286257766], [34.84403650339815, 32.00205708459013], [34.84412489326376, 32.00197528972375], [34.84432052811043, 32.00178753092823], [34.84454504153249, 32.00157562413105], [34.84474903409553, 32.001388101184695], [34.8449731923217, 32.0011799332736], [34.84517685959796, 32.00099287763515], [34.84537069864039, 32.000816233105105], [34.845669194076976, 32.0005941448349], [34.84583654203316, 32.000469433377255], [34.84600535841331, 32.00034471862784], [34.84611901987283, 32.00026086546448], [34.846289362141405, 32.00013326165851], [34.84635021971163, 32.000084422289966], [34.8465811722968, 31.999913648517506], [34.84669241113613, 31.999834228469954], [34.84679097876164, 31.99977267517956], [34.846900933116856, 31.99970237755986], [34.847078119395896, 31.99960061956205], [34.8471655406201, 31.99955008706868], [34.84723643955076, 31.999507404183138], [34.84732030000521, 31.999466867951668], [34.847640732536675, 31.999310859410862], [34.847746516735924, 31.999260107602236], [34.84777899970409, 31.999243959255764], [34.84780700885204, 31.99922987968647], [34.84781843469506, 31.99922524407072], [34.84791763961078, 31.99918241669906], [34.84792868070542, 31.99917766095447], [34.847939168625615, 31.999133166654634], [34.8479394463027, 31.999111722584765], [34.84798566153539, 31.998845925444293], [34.84799274406457, 31.99880414140642], [34.847979935886556, 31.998498625411006], [34.84798044602372, 31.99848274069953], [34.84799561154335, 31.998317789597973], [34.84800891481109, 31.998238125699032], [34.84804958666431, 31.998111803673236], [34.848071632115484, 31.998060275291333], [34.84810862683915, 31.998015682258586], [34.84812567378947, 31.99800011451993], [34.848174662652475, 31.99797573026121], [34.848217181893006, 31.99795835105732], [34.84820378440028, 31.997894909545018], [34.848188971615166, 31.997828574683552], [34.848155789885276, 31.997859189692505], [34.847922739679156, 31.998070949237515], [34.84790695884161, 31.998085290447737], [34.84775004124267, 31.998229246024025], [34.84769849868889, 31.99826919164821], [34.847185586208575, 31.99873932620487], [34.846275308172, 31.99958009647298], [34.844079510916124, 32.00160814572063], [34.843829848178, 32.00183717576702], [34.84317219020639, 32.002452115510124], [34.84232162893149, 32.00322695704497], [34.84219169997074, 32.00334437943901]]]}}, {"type": "Feature", "properties": {"OBJECTID": 2581368, "LAYER_ID": 1234005, "GROUP_ID": 196926, "DEFQ": 0, "DATA_DATE": null, "MAVAT_CODE": 1601, "MAVAT_NAME": "גבול גוש", "LABEL": "", "LOT_NUM": 6254, "GUSH_SUFFI": 0, "CALC_AREA": 0.0, "LEGAL_AREA": 0.0, "TYPE_CODE": 0, "STATUS": 6, "IS_ANALITY": 0, "PLAN_NAME": "", "STATUS_NAM": "מוסדר", "AGAM_ID": 4000266689.0, "SHAPE_AREA": 89547.538086, "SHAPE_LEN": 1744.17955661}, "geometry": {"type": "Polygon", "coordinates": [[[34.848217181893006, 31.99795835105732], [34.848174662652475, 31.99797573026121], [34.84812567378947, 31.99800011451993], [34.84810862683915, 31.998015682258586], [34.848071632115484, 31.998060275291333], [34.84804958666431, 31.998111803673236], [34.84800891481109, 31.998238125699032], [34.84799561154335, 31.998317789597973], [34.84798044602372, 31.99848274069953], [34.847979935886556, 31.998498625411006], [34.84799274406457, 31.99880414140642], [34.84798566153539, 31.998845925444293], [34.8479394463027, 31.999111722584765], [34.847939168625615, 31.999133166654634], [34.84792868070542, 31.99917766095447], [34.84805194245181, 31.99912475398608], [34.84824168386921, 31.999044250807433], [34.84837208003363, 31.998987485802854], [34.84881358758312, 31.998795648077735], [34.84934696224882, 31.99857388439169], [34.84952115462723, 31.998501949785105], [34.8498571487158, 31.998350383515874], [34.85007661559126, 31.998264207127555], [34.85057906650664, 31.998051341022965], [34.850720443900265, 31.9979968839603], [34.85103883807405, 31.997871767638138], [34.85122290538434, 31.99780147781258], [34.85133062651547, 31.997753531180013], [34.85164241766166, 31.997613522433813], [34.8517251746303, 31.99757611485964], [34.851822013131404, 31.997532408493363], [34.85209232412223, 31.99740026251002], [34.8522100473352, 31.997339962951795], [34.8522538840429, 31.9973165006831], [34.852395432595884, 31.99723441459539], [34.85257132509788, 31.99713165687431], [34.85281232033216, 31.99699194669657], [34.85291359102687, 31.996924545186104], [34.85309207841631, 31.996808122595333], [34.85323796833583, 31.99670383076761], [34.853323301925656, 31.996640800042574], [34.853448363337016, 31.9965548903957], [34.85378066227867, 31.996296270265805], [34.854164084842175, 31.996694418085077], [34.85426394714297, 31.996624140261115], [34.85431176678094, 31.99659047625322], [34.85384456706659, 31.995938730592474], [34.852860306142986, 31.99456256928352], [34.85279789434651, 31.9945824163859], [34.852551476559825, 31.99464072568538], [34.85229651686961, 31.99476989610523], [34.852112219838425, 31.994968517047294], [34.85219278227067, 31.995191211802943], [34.851899556572036, 31.9956687930399], [34.85167854276482, 31.996045067410506], [34.85141081857128, 31.99636581911657], [34.85137020345301, 31.996399188245586], [34.851301382679495, 31.996465134945744], [34.85125952654352, 31.99650421079812], [34.85123866859579, 31.99652146374673], [34.85110156625749, 31.996628519217186], [34.851033491286174, 31.99667870433846], [34.85088892441884, 31.996766288712337], [34.850837029083934, 31.996795045083466], [34.85073799615811, 31.9968448155217], [34.85071424517704, 31.996855920848333], [34.8506695734554, 31.99687853256397], [34.85051314546139, 31.99702010500537], [34.85045322083517, 31.997036541846672], [34.85034746078413, 31.997053417105164], [34.85026403197476, 31.99707397263369], [34.85020026794502, 31.99709153491028], [34.85013507205792, 31.99710168034195], [34.84994250666446, 31.997099086448927], [34.849845678242424, 31.99711806038368], [34.84978981764756, 31.99713653191083], [34.84962068696003, 31.997203917947264], [34.84907460125405, 31.997477215933174], [34.848786790738664, 31.997620427446808], [34.84875995265923, 31.99763285481234], [34.84873638567505, 31.997642236035333], [34.848611264529104, 31.997691671950246], [34.84853294503055, 31.99772398933919], [34.84851511469351, 31.997736376985753], [34.84850336356746, 31.997748572463173], [34.848461369380594, 31.997786766830647], [34.84842436751208, 31.99781355476755], [34.848348975284225, 31.997867137533778], [34.848217181893006, 31.99795835105732]]]}}, {"type": "Feature", "properties": {"OBJECTID": 2581373, "LAYER_ID": 1234005, "GROUP_ID": 196926, "DEFQ": 0, "DATA_DATE": null, "MAVAT_CODE": 1601, "MAVAT_NAME": "גבול גוש", "LABEL": "", "LOT_NUM": 6256, "GUSH_SUFFI": 0, "CALC_AREA": 0.0, "LEGAL_AREA": 0.0, "TYPE_CODE": 0, "STATUS": 6, "IS_ANALITY": 0, "PLAN_NAME": "", "STATUS_NAM": "מוסדר", "AGAM_ID": 4000266689.0, "SHAPE_AREA": 222029.34207, "SHAPE_LEN": 2347.05854206}, "geometry": {"type": "Polygon", "coordinates": [[[34.840380190721596, 32.000349352288545], [34.84113264481881, 32.001622168633766], [34.84146244107445, 32.00216591745794], [34.84158081368968, 32.00236108475671], [34.84189004142125, 32.002901768807696], [34.842050393354675, 32.00315577005903], [34.84219169997074, 32.00334437943901], [34.84232162893149, 32.00322695704497], [34.84317219020639, 32.002452115510124], [34.843829848178, 32.00183717576702], [34.844079510916124, 32.00160814572063], [34.846275308172, 31.99958009647298], [34.847185586208575, 31.99873932620487], [34.84769849868889, 31.99826919164821], [34.84775004124267, 31.998229246024025], [34.84790695884161, 31.998085290447737], [34.847922739679156, 31.998070949237515], [34.848155789885276, 31.997859189692505], [34.848188971615166, 31.997828574683552], [34.84842915481053, 31.99760978616169], [34.848564698700365, 31.997483275568307], [34.84870033503405, 31.99735903762671], [34.84861665871131, 31.9972900496287], [34.84849957426793, 31.997190952288836], [34.84849172005176, 31.997142204080188], [34.84829554377997, 31.995922730763997], [34.8477072077725, 31.99618882340449], [34.847124953753486, 31.996495691878465], [34.84708964072912, 31.996514891012275], [34.84697445967101, 31.996554336095684], [34.846955682924005, 31.996566277172818], [34.84648523524568, 31.996829629996206], [34.84557014828459, 31.99733025106874], [34.84528341310455, 31.997509078838366], [34.84525189764029, 31.99753117396866], [34.84514895819792, 31.997605912487806], [34.84497492772203, 31.997729237052692], [34.844814251460015, 31.99784718840833], [34.84464308924857, 31.997967454511176], [34.84459652138404, 31.99799599977071], [34.84457563076384, 31.998007122874256], [34.844559915562115, 31.998020785697094], [34.84450259092357, 31.998066885553182], [34.84433061419721, 31.99820581621585], [34.84424085304313, 31.99826580182892], [34.84422960661133, 31.998273254861292], [34.84417199450248, 31.998311598252542], [34.84403279076283, 31.998404449286063], [34.84354465000151, 31.998776588275593], [34.843257337138446, 31.998992654157266], [34.8430997391484, 31.99910709503332], [34.8429938053294, 31.99918783645689], [34.842960616983106, 31.999207704202785], [34.84232719244328, 31.999563307479814], [34.8420014212684, 31.999710575898806], [34.84173880691338, 31.999824184807228], [34.84169914558756, 31.99984087741168], [34.841676407730795, 31.99985007210972], [34.841398603291154, 31.999959690598352], [34.84108861603886, 32.00007858063185], [34.841044404597966, 32.00009619066011], [34.84100720229347, 32.00011506162646], [34.84093350294334, 32.00014033543553], [34.840380190721596, 32.000349352288545]]]}}, {"type": "Feature", "properties": {"OBJECTID": 2581372, "LAYER_ID": 1234005, "GROUP_ID": 196926, "DEFQ": 0, "DATA_DATE": null, "MAVAT_CODE": 1601, "MAVAT_NAME": "גבול גוש", "LABEL": "", "LOT_NUM": 6257, "GUSH_SUFFI": 0, "CALC_AREA": 0.0, "LEGAL_AREA": 0.0, "TYPE_CODE": 0, "STATUS": 6, "IS_ANALITY": 0, "PLAN_NAME": "", "STATUS_NAM": "מוסדר", "AGAM_ID": 4000266689.0, "SHAPE_AREA": 401386.660854, "SHAPE_LEN": 2945.46777533}, "geometry": {"type": "Polygon", "coordinates": [[[34.84100720229347, 32.00011506162646], [34.841044404597966, 32.00009619066011], [34.84108861603886, 32.00007858063185], [34.841398603291154, 31.999959690598352], [34.841676407730795, 31.99985007210972], [34.84169914558756, 31.99984087741168], [34.84173880691338, 31.999824184807228], [34.8420014212684, 31.999710575898806], [34.84232719244328, 31.999563307479814], [34.842960616983106, 31.999207704202785], [34.8429938053294, 31.99918783645689], [34.8430997391484, 31.99910709503332], [34.8430349017417, 31.99901772220012], [34.84298553500024, 31.998948023821203], [34.842849941514686, 31.998211940409767], [34.84281675834276, 31.998169086015682], [34.84273517644457, 31.998091558265287], [34.84269276120332, 31.998050895956066], [34.84268515631081, 31.998047230997255], [34.842674551813985, 31.99803346812753], [34.84264982854833, 31.997766821402013], [34.842627842154414, 31.997548111433314], [34.84256066342842, 31.996564548093332], [34.84253079942756, 31.996220988157834], [34.84250796999411, 31.995787044397606], [34.842488089336584, 31.995419276047844], [34.84246029943198, 31.995037063492713], [34.84295792737719, 31.99487639920002], [34.84297057753488, 31.994870342656036], [34.84298326397732, 31.994860430107416], [34.84299559524587, 31.994849340595685], [34.843002458612126, 31.994840190617257], [34.84298889972759, 31.99460738238685], [34.84297845360494, 31.99441517494175], [34.84301169404144, 31.994393453211078], [34.84312385816489, 31.99434160513824], [34.84324246804241, 31.99427371240647], [34.8432283255207, 31.994089246342885], [34.84323080220598, 31.994061030582905], [34.84327553230725, 31.993663924719062], [34.84339885572575, 31.993569203993264], [34.84348366899555, 31.99352326935302], [34.8435143086622, 31.993504075957176], [34.843705968537584, 31.993432155643855], [34.84371008112062, 31.993430407015076], [34.84371370640951, 31.99342879407507], [34.84371729804867, 31.993427126931163], [34.84372085603804, 31.993425405583356], [34.84372438036355, 31.993423633638823], [34.843727862573935, 31.993421807466333], [34.84373131112042, 31.99341993069711], [34.843734717537664, 31.99341800330712], [34.84373808605834, 31.99341602530837], [34.84374141243565, 31.993414000296053], [34.84374469669782, 31.993411921055756], [34.843747938816605, 31.99340979480187], [34.84375113879204, 31.99340762153441], [34.84375428815873, 31.993405401229285], [34.84375739538207, 31.99340313391058], [34.84376045621522, 31.99340082317342], [34.843763470686454, 31.99339846180349], [34.84376643028805, 31.993396060598236], [34.84376934351359, 31.99339361236739], [34.843772210334855, 31.993391124325257], [34.84377501806792, 31.993388592828627], [34.84377777941084, 31.993386017913558], [34.84378048587, 31.993383406770374], [34.84378313747364, 31.993380752184688], [34.84378573420769, 31.993378057763746], [34.84378827605798, 31.99337532711465], [34.84379076302455, 31.993372560237432], [34.84379319088881, 31.993369753512884], [34.84379555962255, 31.993366914155374], [34.843797873472575, 31.993364038569755], [34.84380012395942, 31.993361130339114], [34.84380231956253, 31.993358185880385], [34.84380445178836, 31.993355212383825], [34.84380652065102, 31.993352206242285], [34.84380853038317, 31.993349167467787], [34.84381047672394, 31.993346103262642], [34.843812359687426, 31.993343010019707], [34.84381417927367, 31.99333988773895], [34.8438159354685, 31.99333674002756], [34.84381762405344, 31.993333563266344], [34.843819253465554, 31.993330364693705], [34.84382081100684, 31.993327144273543], [34.84382230515679, 31.993323898422766], [34.843823731668614, 31.993320630736505], [34.84375972066511, 31.993090142878383], [34.84374443756908, 31.99305197844264], [34.84373296633935, 31.99302292943837], [34.84372726744207, 31.992986585024028], [34.843725800693946, 31.992929832219644], [34.84385126530094, 31.992853275820618], [34.84390287177781, 31.992812862963394], [34.843911407355414, 31.992687785539403], [34.84396146613873, 31.99234067598365], [34.8439274856725, 31.992326756628852], [34.8438472696849, 31.992291729973093], [34.843788493769935, 31.99225738824358], [34.84347759818889, 31.99205252380976], [34.8434637810378, 31.992004335458184], [34.84343283398635, 31.991919496008908], [34.84341059264712, 31.99188135502074], [34.84338561737473, 31.991865819856844], [34.84333729313223, 31.991871244688642], [34.84325498555804, 31.991880832908024], [34.84324478731006, 31.991830522969362], [34.8431574563213, 31.991737338207482], [34.84312224934544, 31.99169302799947], [34.84310464612939, 31.99167026688106], [34.843087506890555, 31.991646839747162], [34.84300127783074, 31.991572801483663], [34.8429697948353, 31.99152439683209], [34.842935190898125, 31.991458033799763], [34.84290057335462, 31.991458822562794], [34.842821832919086, 31.991450399037948], [34.842799666507176, 31.991441801214712], [34.84278984182549, 31.991432282646137], [34.84276448004061, 31.991331926293853], [34.84275895794513, 31.991313210773836], [34.842741511258566, 31.9912969827101], [34.84267739932941, 31.991257178368667], [34.842627279550996, 31.991246729691333], [34.84260446801678, 31.991236441819996], [34.842186469403515, 31.991008619138043], [34.84217750577242, 31.990963121046477], [34.842097474407595, 31.99091928500224], [34.84204726211908, 31.99089259616674], [34.84177002789062, 31.990772842021528], [34.84172449167197, 31.99074859046675], [34.84164980355283, 31.990706573016837], [34.84134186504526, 31.990539010364635], [34.84131105798411, 31.990511655311856], [34.84112998221265, 31.99035201938375], [34.840772697774774, 31.99046889781679], [34.84068504902162, 31.990497958833767], [34.840654175338784, 31.990504698793032], [34.840632399314785, 31.990504538978193], [34.840618677043565, 31.990501379404108], [34.84060636831068, 31.99049396737142], [34.84059567854861, 31.99048709023895], [34.840547388901534, 31.990436717766073], [34.840511713502934, 31.990374272037915], [34.84049507104982, 31.990311007934846], [34.840336223223964, 31.990063270759872], [34.84034349106018, 31.990011701270465], [34.840352027536596, 31.98997863320063], [34.84036352632998, 31.989939253793125], [34.84038138174459, 31.989879681411576], [34.840315478919315, 31.989812657935], [34.84030722044078, 31.98980642262256], [34.84028613526556, 31.989807137676355], [34.8402634361811, 31.989814611617533], [34.84023018955592, 31.989834943854195], [34.84014587039147, 31.989884827669417], [34.84004972200553, 31.989941985675948], [34.83896619966166, 31.990588860732935], [34.8387136446627, 31.990740505399383], [34.838452999299186, 31.99089347532232], [34.838026575242786, 31.99114420135396], [34.83783284515999, 31.99126316319603], [34.83720956760926, 31.99163897121404], [34.83725051063515, 31.99185979682484], [34.83725780965053, 31.99190500185452], [34.837263667833895, 31.991926203947276], [34.837272037993664, 31.99194690108336], [34.83731384862122, 31.992036044371968], [34.83734190487317, 31.99209181724241], [34.83742750316018, 31.992323247280336], [34.83744674037955, 31.992377530094632], [34.837458301371285, 31.992410093342603], [34.83766618275125, 31.992990347619962], [34.837995604068304, 31.99374549093633], [34.83801315983316, 31.99379593794434], [34.83814935091555, 31.99413499752047], [34.83848581274052, 31.994907788213855], [34.83859225091651, 31.99511773162723], [34.839127536563005, 31.996191552341394], [34.839274047254854, 31.996486610747016], [34.83985827345677, 31.99768219685254], [34.83986956549847, 31.997695384778456], [34.8400161213405, 31.997964163905873], [34.840279197886254, 31.998601504566576], [34.84044447035442, 31.99899029453638], [34.84045383114784, 31.999009158219224], [34.84047504519005, 31.999049226594185], [34.840462439710926, 31.999062003235807], [34.84048949371058, 31.99911425907324], [34.84068111020558, 31.999486891838426], [34.840958355713575, 32.00002105139642], [34.84097156483252, 32.000046278351945], [34.84100720229347, 32.00011506162646]]]}}, {"type": "Feature", "properties": {"OBJECTID": 2581371, "LAYER_ID": 1234005, "GROUP_ID": 196926, "DEFQ": 0, "DATA_DATE": null, "MAVAT_CODE": 1601, "MAVAT_NAME": "גבול גוש", "LABEL": "", "LOT_NUM": 6258, "GUSH_SUFFI": 0, "CALC_AREA": 0.0, "LEGAL_AREA": 0.0, "TYPE_CODE": 0, "STATUS": 6, "IS_ANALITY": 0, "PLAN_NAME": "", "STATUS_NAM": "מוסדר", "AGAM_ID": 4000266689.0, "SHAPE_AREA": 200505.598281, "SHAPE_LEN": 2382.37256187}, "geometry": {"type": "Polygon", "coordinates": [[[34.8430349017417, 31.99901772220012], [34.8430997391484, 31.99910709503332], [34.843257337138446, 31.998992654157266], [34.84354465000151, 31.998776588275593], [34.84403279076283, 31.998404449286063], [34.84417199450248, 31.998311598252542], [34.84422960661133, 31.998273254861292], [34.84424085304313, 31.99826580182892], [34.84433061419721, 31.99820581621585], [34.84450259092357, 31.998066885553182], [34.844559915562115, 31.998020785697094], [34.84457563076384, 31.998007122874256], [34.84459652138404, 31.99799599977071], [34.84464308924857, 31.997967454511176], [34.844814251460015, 31.99784718840833], [34.84497492772203, 31.997729237052692], [34.84514895819792, 31.997605912487806], [34.84525189764029, 31.99753117396866], [34.84528341310455, 31.997509078838366], [34.84557014828459, 31.99733025106874], [34.84648523524568, 31.996829629996206], [34.846955682924005, 31.996566277172818], [34.84697445967101, 31.996554336095684], [34.84708964072912, 31.996514891012275], [34.847124953753486, 31.996495691878465], [34.8477072077725, 31.99618882340449], [34.84829554377997, 31.995922730763997], [34.84836897243585, 31.995870812634852], [34.84880287946345, 31.995530967675656], [34.84879253100142, 31.99544301293233], [34.84883098956979, 31.99537629714059], [34.84885192083518, 31.995354351810697], [34.848879221066426, 31.995327284047562], [34.84908983301234, 31.995154908236813], [34.849161859240326, 31.99510965904979], [34.84919171286307, 31.99507899115572], [34.84910605712464, 31.995091286405117], [34.84909901025352, 31.995052669524288], [34.84908470628194, 31.9949750744511], [34.84881851836636, 31.994988306745082], [34.84878517005053, 31.994774475259337], [34.84878529048826, 31.99478659221639], [34.84878540988143, 31.99479843141531], [34.848785036229444, 31.994809702900437], [34.84878416094258, 31.994821535704496], [34.84878296190589, 31.99483280487642], [34.84878109615707, 31.994844634904624], [34.848778902425394, 31.99485590128878], [34.84877604621387, 31.994867728541053], [34.84877286201918, 31.99487899214919], [34.84876918259274, 31.994890254369288], [34.84876517095021, 31.994900952933374], [34.84876292666807, 31.994906671286063], [34.848755498952954, 31.99492290816496], [34.848749997394954, 31.99493359894541], [34.848744212742865, 31.994944159072563], [34.84873784934477, 31.99495442178605], [34.84873102933763, 31.994964546145344], [34.84872400241164, 31.994974543671912], [34.84871640524659, 31.994984232986784], [34.84871308423965, 31.994988169965755], [34.84870494578177, 31.99499772790305], [34.848696475107054, 31.995006722183728], [34.84868698619001, 31.995016330442354], [34.84866892989254, 31.995032569985266], [34.84865897786024, 31.995040434660886], [34.8486486956717, 31.995048298410104], [34.8486382505904, 31.995055595369777], [34.84862659290747, 31.995063415581416], [34.84861637213151, 31.995069623790677], [34.84860405742237, 31.995076590856428], [34.84859334465648, 31.995081957204352], [34.848580498650605, 31.99508839612532], [34.84856932257734, 31.99509316598233], [34.84855690526173, 31.99509820289829], [34.84854349683983, 31.995103402965217], [34.8485371565415, 31.995105482776857], [34.84853173635222, 31.995107150339475], [34.84851882392792, 31.995111056806373], [34.84850485302162, 31.995115036054614], [34.84849267747266, 31.995117750599036], [34.8484794392371, 31.995120530698493], [34.848466033864035, 31.995122747602977], [34.848452467868604, 31.995124906340113], [34.84844486628559, 31.995125866177517], [34.846597081877746, 31.99533250270635], [34.84658174734116, 31.995334443430796], [34.84656092134189, 31.995336772674737], [34.846227794159354, 31.995374025934062], [34.84621456239651, 31.99537511403365], [34.84620133061935, 31.995376205738992], [34.84618793596544, 31.995376730651294], [34.84617470857664, 31.995376693309673], [34.84616131829755, 31.995376092782116], [34.84614809309646, 31.99537549271922], [34.846134870097245, 31.99537432632926], [34.84612164708437, 31.995373163545082], [34.84610859135149, 31.99537143489998], [34.84609553780701, 31.995369143535033], [34.84608265152899, 31.99536628991638], [34.84606976525176, 31.995363436296415], [34.8460570462553, 31.995360016815667], [34.84604466383632, 31.99535603555948], [34.84603227718565, 31.99535205429014], [34.84602005778818, 31.995347514374505], [34.84600800991892, 31.99534240500304], [34.84599628795968, 31.99533730015819], [34.84598473750083, 31.995331633071984], [34.84597335213515, 31.995325962843843], [34.845962297070976, 31.995319168098366], [34.8459514091301, 31.99531293654869], [34.84594085353491, 31.99530614321226], [34.84593063028554, 31.995298788089126], [34.84592881882307, 31.995297653915095], [34.845918927919875, 31.99528973700524], [34.845909367173654, 31.99528182102736], [34.8458999757535, 31.995273901919933], [34.84589107752418, 31.99526542148056], [34.84588251368443, 31.995256941985332], [34.845874282176624, 31.99524790431103], [34.845866545917154, 31.99523886442836], [34.8458589769401, 31.99522925868592], [34.845852068260704, 31.99521965841601], [34.845845328892985, 31.995210058624153], [34.84584093765616, 31.995202911155214], [34.84583908696264, 31.995199893905657], [34.8458331709418, 31.99518973371498], [34.84582775440141, 31.995179571328276], [34.84582283527005, 31.99516885122944], [34.84581825054144, 31.995158128468198], [34.845813991735895, 31.9951474066278], [34.8458103974736, 31.99513668666524], [34.845807131323745, 31.99512540490508], [34.84580436243573, 31.995114690882033], [34.84580306594553, 31.995108486424762], [34.845802193349854, 31.99510429959561], [34.84579942604763, 31.99509100281477], [34.84578859774194, 31.995038999536227], [34.84570573252577, 31.994640922548086], [34.84535201612508, 31.992941755786095], [34.845346511536164, 31.992911868898315], [34.84534216246403, 31.992881985279748], [34.84533914041984, 31.992851539083755], [34.84533743675691, 31.992821662950096], [34.845336729973035, 31.992791223304955], [34.84533750883345, 31.992760791470612], [34.84533928017194, 31.992730925169315], [34.84534039241708, 31.992720305080358], [34.84533928897635, 31.992719973701906], [34.84533809254399, 31.992719609595444], [34.84533689609757, 31.992719249096126], [34.84533569966523, 31.992718884989625], [34.8453345032329, 31.99271852088311], [34.84533330678653, 31.992718160383763], [34.8453321103542, 31.992717796277233], [34.84533101539288, 31.992717461315515], [34.845329818960586, 31.992717097208953], [34.84532872399928, 31.99271676224721], [34.84532752758104, 31.992716394533453], [34.84532643261975, 31.992716059571684], [34.845325337658466, 31.99271572460991], [34.84532424269718, 31.99271538964812], [34.84532314774997, 31.992715051079152], [34.8453220527887, 31.99271471611735], [34.8453209578415, 31.992714377548356], [34.84531986288026, 31.992714042586528], [34.84531876793307, 31.992713704017525], [34.84531757576162, 31.992713332708504], [34.84531648081446, 31.992712994139463], [34.84531528862897, 31.992712626437577], [34.84531419368183, 31.992712287868525], [34.84531300151042, 31.99271191655947], [34.84531180933901, 31.99271154525036], [34.84531071440595, 31.992711203074126], [34.84530942498921, 31.99271080443576], [34.84498054442985, 31.99261872453654], [34.84495211033235, 31.99261085242154], [34.8446942209501, 31.992539387862024], [34.84464841521321, 31.99253279749646], [34.84460269053667, 31.992518455447996], [34.84457533455546, 31.9925087430208], [34.844171015347534, 31.99238988539585], [34.84399817801859, 31.992345595881346], [34.84396146613873, 31.99234067598365], [34.843911407355414, 31.992687785539403], [34.84390287177781, 31.992812862963394], [34.84385126530094, 31.992853275820618], [34.843725800693946, 31.992929832219644], [34.84372726744207, 31.992986585024028], [34.84373296633935, 31.99302292943837], [34.84374443756908, 31.99305197844264], [34.84375972066511, 31.993090142878383], [34.843823731668614, 31.993320630736505], [34.84382230515679, 31.993323898422766], [34.84382081100684, 31.993327144273543], [34.843819253465554, 31.993330364693705], [34.84381762405344, 31.993333563266344], [34.8438159354685, 31.99333674002756], [34.84381417927367, 31.99333988773895], [34.843812359687426, 31.993343010019707], [34.84381047672394, 31.993346103262642], [34.84380853038317, 31.993349167467787], [34.84380652065102, 31.993352206242285], [34.84380445178836, 31.993355212383825], [34.84380231956253, 31.993358185880385], [34.84380012395942, 31.993361130339114], [34.843797873472575, 31.993364038569755], [34.84379555962255, 31.993366914155374], [34.84379319088881, 31.993369753512884], [34.84379076302455, 31.993372560237432], [34.84378827605798, 31.99337532711465], [34.84378573420769, 31.993378057763746], [34.84378313747364, 31.993380752184688], [34.84378048587, 31.993383406770374], [34.84377777941084, 31.993386017913558], [34.84377501806792, 31.993388592828627], [34.843772210334855, 31.993391124325257], [34.84376934351359, 31.99339361236739], [34.84376643028805, 31.993396060598236], [34.843763470686454, 31.99339846180349], [34.84376045621522, 31.99340082317342], [34.84375739538207, 31.99340313391058], [34.84375428815873, 31.993405401229285], [34.84375113879204, 31.99340762153441], [34.843747938816605, 31.99340979480187], [34.84374469669782, 31.993411921055756], [34.84374141243565, 31.993414000296053], [34.84373808605834, 31.99341602530837], [34.843734717537664, 31.99341800330712], [34.84373131112042, 31.99341993069711], [34.843727862573935, 31.993421807466333], [34.84372438036355, 31.993423633638823], [34.84372085603804, 31.993425405583356], [34.84371729804867, 31.993427126931163], [34.84371370640951, 31.99342879407507], [34.84371008112062, 31.993430407015076], [34.843705968537584, 31.993432155643855], [34.8435143086622, 31.993504075957176], [34.84348366899555, 31.99352326935302], [34.84339885572575, 31.993569203993264], [34.84327553230725, 31.993663924719062], [34.84323080220598, 31.994061030582905], [34.8432283255207, 31.994089246342885], [34.84324246804241, 31.99427371240647], [34.84312385816489, 31.99434160513824], [34.84301169404144, 31.994393453211078], [34.84297845360494, 31.99441517494175], [34.84298889972759, 31.99460738238685], [34.843002458612126, 31.994840190617257], [34.84299559524587, 31.994849340595685], [34.84298326397732, 31.994860430107416], [34.84297057753488, 31.994870342656036], [34.84295792737719, 31.99487639920002], [34.84246029943198, 31.995037063492713], [34.842488089336584, 31.995419276047844], [34.84250796999411, 31.995787044397606], [34.84253079942756, 31.996220988157834], [34.84256066342842, 31.996564548093332], [34.842627842154414, 31.997548111433314], [34.84264982854833, 31.997766821402013], [34.842674551813985, 31.99803346812753], [34.84268515631081, 31.998047230997255], [34.84269276120332, 31.998050895956066], [34.84273517644457, 31.998091558265287], [34.84281675834276, 31.998169086015682], [34.842849941514686, 31.998211940409767], [34.84298553500024, 31.998948023821203], [34.8430349017417, 31.99901772220012]]]}}, {"type": "Feature", "properties": {"OBJECTID": 2581369, "LAYER_ID": 1234005, "GROUP_ID": 196926, "DEFQ": 0, "DATA_DATE": null, "MAVAT_CODE": 1601, "MAVAT_NAME": "גבול גוש", "LABEL": "", "LOT_NUM": 6260, "GUSH_SUFFI": 0, "CALC_AREA": 0.0, "LEGAL_AREA": 0.0, "TYPE_CODE": 0, "STATUS": 6, "IS_ANALITY": 0, "PLAN_NAME": "", "STATUS_NAM": "מוסדר", "AGAM_ID": 4000266689.0, "SHAPE_AREA": 297896.436458, "SHAPE_LEN": 4167.44903102}, "geometry": {"type": "Polygon", "coordinates": [[[34.84870033503405, 31.99735903762671], [34.848564698700365, 31.997483275568307], [34.84842915481053, 31.99760978616169], [34.848188971615166, 31.997828574683552], [34.84820378440028, 31.997894909545018], [34.848217181893006, 31.99795835105732], [34.848348975284225, 31.997867137533778], [34.84842436751208, 31.99781355476755], [34.848461369380594, 31.997786766830647], [34.84850336356746, 31.997748572463173], [34.84851511469351, 31.997736376985753], [34.84853294503055, 31.99772398933919], [34.848611264529104, 31.997691671950246], [34.84873638567505, 31.997642236035333], [34.84875995265923, 31.99763285481234], [34.848786790738664, 31.997620427446808], [34.84907460125405, 31.997477215933174], [34.84962068696003, 31.997203917947264], [34.84978981764756, 31.99713653191083], [34.849845678242424, 31.99711806038368], [34.84994250666446, 31.997099086448927], [34.85013507205792, 31.99710168034195], [34.85020026794502, 31.99709153491028], [34.85026403197476, 31.99707397263369], [34.85034746078413, 31.997053417105164], [34.85045322083517, 31.997036541846672], [34.85051314546139, 31.99702010500537], [34.8506695734554, 31.99687853256397], [34.85071424517704, 31.996855920848333], [34.85073799615811, 31.9968448155217], [34.850837029083934, 31.996795045083466], [34.85088892441884, 31.996766288712337], [34.851033491286174, 31.99667870433846], [34.85110156625749, 31.996628519217186], [34.85123866859579, 31.99652146374673], [34.85125952654352, 31.99650421079812], [34.851301382679495, 31.996465134945744], [34.85137020345301, 31.996399188245586], [34.85141081857128, 31.99636581911657], [34.85167854276482, 31.996045067410506], [34.851899556572036, 31.9956687930399], [34.85219278227067, 31.995191211802943], [34.852112219838425, 31.994968517047294], [34.85229651686961, 31.99476989610523], [34.852551476559825, 31.99464072568538], [34.85279789434651, 31.9945824163859], [34.852860306142986, 31.99456256928352], [34.852853489166826, 31.9945453945014], [34.8532854970656, 31.994423638816567], [34.85334923148833, 31.994405432805937], [34.85353672061369, 31.994355749798114], [34.853617825328286, 31.994331102306862], [34.85379978791215, 31.994282074572116], [34.8538659092939, 31.994263900146215], [34.85395206224678, 31.994242927705265], [34.85408266834071, 31.99420728476167], [34.85417495590413, 31.994180362776557], [34.8542454447904, 31.994163448301382], [34.85430300057781, 31.99414817545872], [34.85437672486883, 31.994125260222052], [34.8543352296477, 31.994058801917294], [34.8542588455626, 31.993940667812762], [34.85425337434035, 31.99393130282287], [34.85419678562213, 31.99317749186446], [34.854199976350934, 31.99311641974593], [34.85485418982615, 31.993014393524813], [34.85639749829657, 31.99280002380237], [34.856367012882764, 31.992716368289063], [34.856359880630755, 31.99269511667292], [34.85562846979585, 31.99063979975105], [34.85559535110744, 31.990549961242632], [34.85553950803073, 31.990392944432514], [34.854549292095896, 31.99139731995458], [34.853979292431845, 31.991970621552987], [34.853961465673656, 31.991928007212813], [34.85323308260539, 31.98962350573039], [34.85323020109711, 31.989614393148404], [34.85280325766206, 31.988251217021407], [34.85265091700956, 31.988188209690293], [34.8524160855302, 31.988640624735638], [34.8523009089998, 31.98868205873686], [34.85224707717725, 31.98870274103179], [34.852204524095704, 31.9887347271506], [34.85229527637414, 31.98893779460525], [34.851544819031986, 31.989139698150392], [34.850998167607166, 31.989200311275173], [34.8509561705885, 31.989225084090766], [34.85080913760435, 31.989323061256393], [34.85078809436715, 31.98937467595926], [34.850778969602416, 31.989381143517882], [34.85061589547376, 31.98941279320355], [34.85047097158791, 31.989429793905], [34.85018840311123, 31.98944190130596], [34.84993582879024, 31.989496296258565], [34.84970533636093, 31.989559229379154], [34.84937419458023, 31.989654886543068], [34.84910389323015, 31.989723568911263], [34.84911400202959, 31.989763817640775], [34.84911598257773, 31.98977157869411], [34.84924403907008, 31.99020587767003], [34.84926232405773, 31.990705084138714], [34.84925665879559, 31.990802282666547], [34.84928795136123, 31.991029444272495], [34.84919994264737, 31.991049217991293], [34.84906766497131, 31.99107887771373], [34.84903710761488, 31.991237509493747], [34.84902911600982, 31.99136166539968], [34.84918169987346, 31.9913622729671], [34.84951298680109, 31.9918901234085], [34.84986548869424, 31.992020427291013], [34.85050954998321, 31.991508107131875], [34.85059950185793, 31.99167131377712], [34.850648105846666, 31.991657933053506], [34.85074048614131, 31.991634011400812], [34.850814310024546, 31.991615730158394], [34.850816487853926, 31.991627279306556], [34.850872051378005, 31.991624638523838], [34.85092600208349, 31.991628666567415], [34.85108758449034, 31.991628304926547], [34.8510286149637, 31.991856928179242], [34.85100628209422, 31.991858399052557], [34.85100764249437, 31.991917561123906], [34.851008949974855, 31.991935330285845], [34.85100397700553, 31.991935226256487], [34.851010622982386, 31.99199575575131], [34.85101780288508, 31.992055024207797], [34.851020443786005, 31.992083799079932], [34.85102171495368, 31.992083441898583], [34.851041999372015, 31.992119480326192], [34.851051174543876, 31.992127531922183], [34.85110643447427, 31.992176563508256], [34.851138700390734, 31.992261513002266], [34.851243894219415, 31.99225837894937], [34.85163708350905, 31.992209783239314], [34.8516737222596, 31.99220294120259], [34.85186910708304, 31.99230123960055], [34.85188204679685, 31.99284668602131], [34.851883077556174, 31.99290918383189], [34.851918882731795, 31.992926688091224], [34.851884295459314, 31.992978084962886], [34.85178542823003, 31.993125164875575], [34.851675962850614, 31.993331734240474], [34.851758829731885, 31.993356403413568], [34.85188990086723, 31.99339383169252], [34.85199243257012, 31.993423064354644], [34.85220139313716, 31.993486319802972], [34.85220556787029, 31.99348709611883], [34.85220774636357, 31.99348745206471], [34.852209929213615, 31.993487775557757], [34.85221211642042, 31.993488066597955], [34.852214312216645, 31.99348832519704], [34.852216512369644, 31.993488551343273], [34.85221871687937, 31.993488745036654], [34.852220925745875, 31.99348890627719], [34.85222313898288, 31.99348903145769], [34.85222535233018, 31.99348912778077], [34.85222756581532, 31.993489188032076], [34.8522297836572, 31.993489215830532], [34.852231997390476, 31.993489211152642], [34.85223421548046, 31.993489174021875], [34.852236429461826, 31.9934891044148], [34.85223863934835, 31.993488998724185], [34.8522408535778, 31.99348886418791], [34.85224305947974, 31.993488693556337], [34.85224526125924, 31.993488494055605], [34.85224746317656, 31.993488258483122], [34.85224965675258, 31.99348799042252], [34.852251841987254, 31.993487689873827], [34.85225402734596, 31.99348735686054], [34.852256200116884, 31.993486994954615], [34.85225836456025, 31.993486596953392], [34.852260524894966, 31.99348616647585], [34.852262672641885, 31.993485707105634], [34.85226481206125, 31.99348521164016], [34.852266943125485, 31.99348468729375], [34.8522690616157, 31.99348413044755], [34.85227116753188, 31.993483541101472], [34.852273260860265, 31.99348292286277], [34.85227534161461, 31.993482272124204], [34.85227740554846, 31.993481592481256], [34.85227946114097, 31.993480880350237], [34.852281499912976, 31.993480139314787], [34.852283521878256, 31.99347936576777], [34.85228552702306, 31.993478563316362], [34.85228751534734, 31.993477731960525], [34.852289486851134, 31.993476871700313], [34.85229144154819, 31.993475978928537], [34.85229337941097, 31.993475060859534], [34.852295296234324, 31.993474110267208], [34.85229719199074, 31.99347313436591], [34.85229906669396, 31.993472129548472], [34.85230092457665, 31.993471095826656], [34.8523027571597, 31.993470036784107], [34.85230457292222, 31.993468948837187], [34.85230635915243, 31.993467835557823], [34.852308128548344, 31.993466696981223], [34.852309872658374, 31.993465529476747], [34.85231159146876, 31.993464336651588], [34.85231328496571, 31.99346312211287], [34.852314953176766, 31.99346187864628], [34.85231659608817, 31.993460609859], [34.85231821368614, 31.993459319358195], [34.85210169481991, 31.99365702487919], [34.852237793718686, 31.993708083981637], [34.85225130593799, 31.99371659842773], [34.85216622748785, 31.993799779061007], [34.85198120014771, 31.99398061787844], [34.851902017754945, 31.994043794681183], [34.851796276625045, 31.99413413208119], [34.85165045625392, 31.994272874970946], [34.85163960330112, 31.99431604115344], [34.851611152261995, 31.994339950010527], [34.85158125669714, 31.994354205555062], [34.85157543843347, 31.99435373847617], [34.85156528128671, 31.99435334951278], [34.85145641134313, 31.994459188929476], [34.851334587101626, 31.99457653528139], [34.851335193335615, 31.994584021930798], [34.851298971445125, 31.994619903070465], [34.85126890910567, 31.994650029803825], [34.851226740598584, 31.99469130518938], [34.851202727488456, 31.994716849549185], [34.85112819510274, 31.99478130132332], [34.85069099601614, 31.995182467729308], [34.850633675038566, 31.995173740809243], [34.85064172190231, 31.99522769103913], [34.85049020495119, 31.99536091567904], [34.85038052170882, 31.995457463310423], [34.85035875531367, 31.99547652079533], [34.8503120361358, 31.995517692990752], [34.85015932405793, 31.995658759572176], [34.8501025027906, 31.99551999388211], [34.84995814506504, 31.99516716629158], [34.849882559767416, 31.994982356147933], [34.849697205925494, 31.99502629702701], [34.84960495273505, 31.995048133278974], [34.849564158682256, 31.994952067414633], [34.8495362065819, 31.99495613753902], [34.849514607419394, 31.99495923344219], [34.84940184696566, 31.99497542101519], [34.849284215685394, 31.99499240647877], [34.84929833286178, 31.99506359820902], [34.84919171286307, 31.99507899115572], [34.849161859240326, 31.99510965904979], [34.84908983301234, 31.995154908236813], [34.848879221066426, 31.995327284047562], [34.84885192083518, 31.995354351810697], [34.84883098956979, 31.99537629714059], [34.84879253100142, 31.99544301293233], [34.84880287946345, 31.995530967675656], [34.84836897243585, 31.995870812634852], [34.84829554377997, 31.995922730763997], [34.84849172005176, 31.997142204080188], [34.84849957426793, 31.997190952288836], [34.84861665871131, 31.9972900496287], [34.84870033503405, 31.99735903762671]]]}}, {"type": "Feature", "properties": {"OBJECTID": 2581366, "LAYER_ID": 1234005, "GROUP_ID": 196926, "DEFQ": 0, "DATA_DATE": null, "MAVAT_CODE": 1601, "MAVAT_NAME": "גבול גוש", "LABEL": "", "LOT_NUM": 6838, "GUSH_SUFFI": 0, "CALC_AREA": 0.0, "LEGAL_AREA": 0.0, "TYPE_CODE": 0, "STATUS": 6, "IS_ANALITY": 0, "PLAN_NAME": "", "STATUS_NAM": "מוסדר", "AGAM_ID": 4000266689.0, "SHAPE_AREA": 624709.095733, "SHAPE_LEN": 3292.8568091}, "geometry": {"type": "Polygon", "coordinates": [[[34.85431176678094, 31.99659047625322], [34.85426394714297, 31.996624140261115], [34.854164084842175, 31.996694418085077], [34.85378066227867, 31.996296270265805], [34.853448363337016, 31.9965548903957], [34.853323301925656, 31.996640800042574], [34.85323796833583, 31.99670383076761], [34.85309207841631, 31.996808122595333], [34.85291359102687, 31.996924545186104], [34.85281232033216, 31.99699194669657], [34.85257132509788, 31.99713165687431], [34.852395432595884, 31.99723441459539], [34.8522538840429, 31.9973165006831], [34.8522100473352, 31.997339962951795], [34.85209232412223, 31.99740026251002], [34.851822013131404, 31.997532408493363], [34.8517251746303, 31.99757611485964], [34.85164241766166, 31.997613522433813], [34.85133062651547, 31.997753531180013], [34.85122290538434, 31.99780147781258], [34.85103883807405, 31.997871767638138], [34.850720443900265, 31.9979968839603], [34.85057906650664, 31.998051341022965], [34.85007661559126, 31.998264207127555], [34.8498571487158, 31.998350383515874], [34.84952115462723, 31.998501949785105], [34.84934696224882, 31.99857388439169], [34.84881358758312, 31.998795648077735], [34.84837208003363, 31.998987485802854], [34.84824168386921, 31.999044250807433], [34.84805194245181, 31.99912475398608], [34.84792868070542, 31.99917766095447], [34.84791763961078, 31.99918241669906], [34.84781843469506, 31.99922524407072], [34.84780700885204, 31.99922987968647], [34.84777899970409, 31.999243959255764], [34.847746516735924, 31.999260107602236], [34.847640732536675, 31.999310859410862], [34.84732030000521, 31.999466867951668], [34.84723643955076, 31.999507404183138], [34.8471655406201, 31.99955008706868], [34.847078119395896, 31.99960061956205], [34.846900933116856, 31.99970237755986], [34.84679097876164, 31.99977267517956], [34.84669241113613, 31.999834228469954], [34.8465811722968, 31.999913648517506], [34.84635021971163, 32.000084422289966], [34.846289362141405, 32.00013326165851], [34.84611901987283, 32.00026086546448], [34.84600535841331, 32.00034471862784], [34.84583654203316, 32.000469433377255], [34.845669194076976, 32.0005941448349], [34.84537069864039, 32.000816233105105], [34.84517685959796, 32.00099287763515], [34.8449731923217, 32.0011799332736], [34.84474903409553, 32.001388101184695], [34.84454504153249, 32.00157562413105], [34.84432052811043, 32.00178753092823], [34.84412489326376, 32.00197528972375], [34.84403650339815, 32.00205708459013], [34.843895267510945, 32.00219286257766], [34.84364938894726, 32.00242899836352], [34.84348351133592, 32.00258409093173], [34.84419380347616, 32.003110113721796], [34.844868127577726, 32.0036064046351], [34.8449310238342, 32.00365208774152], [34.84509261913896, 32.00377212432096], [34.84535344692663, 32.00396344216692], [34.84574290721381, 32.00425345556975], [34.845833010691564, 32.00431885997369], [34.84594798430594, 32.004402807075905], [34.846114017860494, 32.004531761078944], [34.84624629670677, 32.0046333238646], [34.84626230135217, 32.00464561550311], [34.84631790999575, 32.00465955559395], [34.84643273392986, 32.00468855689787], [34.84687721432083, 32.004484899372414], [34.84719659627038, 32.00433925630298], [34.847453440366465, 32.00422190094288], [34.847646260025456, 32.004134236305376], [34.84772220991975, 32.0040572340205], [34.847767112483254, 32.00409417898854], [34.847896754983324, 32.0041072046328], [34.8479791103585, 32.00411532137049], [34.84834194892319, 32.00414999900384], [34.84863643064603, 32.00417787914558], [34.848738587699046, 32.004187464939854], [34.848950408014076, 32.00420975950816], [34.849268556216884, 32.00418979719636], [34.84948299293053, 32.00417799568241], [34.84960231121516, 32.00417227652295], [34.849628016916945, 32.004170757629105], [34.849726336084316, 32.004163450176215], [34.84986303816264, 32.00415494771103], [34.850045369568875, 32.0041784818876], [34.85017312259097, 32.00419530913879], [34.85029564797056, 32.004212049526934], [34.850597738653974, 32.004253985598915], [34.850638793225095, 32.00425928724099], [34.850645788798545, 32.0041660893471], [34.850658519470116, 32.00398823550915], [34.851108846844156, 32.00403823086225], [34.85119290303203, 32.004046653256076], [34.85119470989791, 32.004136272092026], [34.851360446244875, 32.004145751400074], [34.85147865059443, 32.00415341010785], [34.85162479988604, 32.00414520977744], [34.85171998336218, 32.0041397750209], [34.85182392946076, 32.00413437175891], [34.85204075022381, 32.00412115491292], [34.85217435389963, 32.00410696721625], [34.85223662693646, 32.00409746195262], [34.85237597213684, 32.00406741106067], [34.85245667906997, 32.0040428354285], [34.852639097023285, 32.00397176354128], [34.852724661306574, 32.00392559043464], [34.852773973175424, 32.00390027466744], [34.852807443782346, 32.00388176867322], [34.85291699553532, 32.00381612528072], [34.85303014888915, 32.00374955389325], [34.853116708939986, 32.003697471065884], [34.8533697410038, 32.003532701645725], [34.85352473021511, 32.00343057028518], [34.85358439367921, 32.00339140229661], [34.85363035263403, 32.00336156430591], [34.853692063283845, 32.00331169213013], [34.85386817503529, 32.00317847771576], [34.8539884786779, 32.00307689563276], [34.85407919466326, 32.002998058143326], [34.85412363197033, 32.0029586169922], [34.85416265057492, 32.002923687911185], [34.85425802799957, 32.00283455376172], [34.854294903574115, 32.002799874836356], [34.854493219320176, 32.0026146038796], [34.85457747060331, 32.002517878092014], [34.854631704005804, 32.00245362814745], [34.854739121097886, 32.00232727158108], [34.854800160831566, 32.002255295645455], [34.85483844639287, 32.002204788409905], [34.854892974899094, 32.002131834970925], [34.854968600526526, 32.00203115329512], [34.85507828685661, 32.00188660431746], [34.855125519909215, 32.00181402747973], [34.855233704733855, 32.00165002777125], [34.855297399630174, 32.00155410342629], [34.8553273426354, 32.00150768529717], [34.855371621874404, 32.001429184414455], [34.85541986594196, 32.0013309629939], [34.85547318786696, 32.0011951972697], [34.85550158997438, 32.00110179097543], [34.8555173109081, 32.00104496657192], [34.85552658899836, 32.001007170508444], [34.85554862558876, 32.00085085863222], [34.855554808456716, 32.000803217198666], [34.85558185313416, 32.0004891253638], [34.855587891187874, 32.000297469341795], [34.85558899352674, 32.00013823215626], [34.85558377465127, 31.99998716595224], [34.85556906927169, 31.99991892403135], [34.85554563181858, 31.99979908944517], [34.85552048829371, 31.999652484672826], [34.855502597806584, 31.9995478769258], [34.85548685495465, 31.99946412114043], [34.85547854077401, 31.999416205365044], [34.855464126464376, 31.99931026889392], [34.85544946879535, 31.999210478434353], [34.855405712245776, 31.998912121258073], [34.85538340261913, 31.998772919013653], [34.85534057386512, 31.998494577145845], [34.855331092408235, 31.998422969598895], [34.855327426829795, 31.99838717238998], [34.85531954715618, 31.998327404501964], [34.85530910942849, 31.9982456508477], [34.8553034495727, 31.99820441930006], [34.85529637413306, 31.998137962247984], [34.85527698826314, 31.9978639846243], [34.85527194447196, 31.997758477897484], [34.85527080115074, 31.9977295449292], [34.85526153252679, 31.99768893831581], [34.85524917585647, 31.997639990549484], [34.855224090992444, 31.99755525309152], [34.855201973976214, 31.997501650409724], [34.85516937706789, 31.99743667781219], [34.85510813292301, 31.997321186732087], [34.8550720797884, 31.997255706799], [34.85503052312877, 31.997187091465257], [34.8549022866667, 31.996983089662095], [34.85484767059494, 31.996902520072734], [34.85470568011221, 31.996683485001583], [34.85466312500889, 31.996615988634414], [34.85454232884721, 31.99642606786943], [34.85446835193575, 31.9964760185312], [34.85431176678094, 31.99659047625322]]]}}, {"type": "Feature", "properties": {"OBJECTID": 2581367, "LAYER_ID": 1234005, "GROUP_ID": 196926, "DEFQ": 0, "DATA_DATE": null, "MAVAT_CODE": 1601, "MAVAT_NAME": "גבול גוש", "LABEL": "", "LOT_NUM": 7188, "GUSH_SUFFI": 0, "CALC_AREA": 0.0, "LEGAL_AREA": 0.0, "TYPE_CODE": 0, "STATUS": 6, "IS_ANALITY": 0, "PLAN_NAME": "", "STATUS_NAM": "מוסדר", "AGAM_ID": 4000266689.0, "SHAPE_AREA": 72392.3554436, "SHAPE_LEN": 1228.69617006}, "geometry": {"type": "Polygon", "coordinates": [[[34.84919171286307, 31.99507899115572], [34.84929833286178, 31.99506359820902], [34.849284215685394, 31.99499240647877], [34.84940184696566, 31.99497542101519], [34.849514607419394, 31.99495923344219], [34.8495362065819, 31.99495613753902], [34.849564158682256, 31.994952067414633], [34.84960495273505, 31.995048133278974], [34.849697205925494, 31.99502629702701], [34.849882559767416, 31.994982356147933], [34.84995814506504, 31.99516716629158], [34.8501025027906, 31.99551999388211], [34.85015932405793, 31.995658759572176], [34.8503120361358, 31.995517692990752], [34.85035875531367, 31.99547652079533], [34.85038052170882, 31.995457463310423], [34.85049020495119, 31.99536091567904], [34.85064172190231, 31.99522769103913], [34.850633675038566, 31.995173740809243], [34.85069099601614, 31.995182467729308], [34.85112819510274, 31.99478130132332], [34.851202727488456, 31.994716849549185], [34.851226740598584, 31.99469130518938], [34.85126890910567, 31.994650029803825], [34.851298971445125, 31.994619903070465], [34.851335193335615, 31.994584021930798], [34.851334587101626, 31.99457653528139], [34.85145641134313, 31.994459188929476], [34.85156528128671, 31.99435334951278], [34.85157543843347, 31.99435373847617], [34.85158125669714, 31.994354205555062], [34.851611152261995, 31.994339950010527], [34.85163960330112, 31.99431604115344], [34.85165045625392, 31.994272874970946], [34.851796276625045, 31.99413413208119], [34.851902017754945, 31.994043794681183], [34.85198120014771, 31.99398061787844], [34.85216622748785, 31.993799779061007], [34.85225130593799, 31.99371659842773], [34.852237793718686, 31.993708083981637], [34.85210169481991, 31.99365702487919], [34.85231821368614, 31.993459319358195], [34.85231659608817, 31.993460609859], [34.852314953176766, 31.99346187864628], [34.85231328496571, 31.99346312211287], [34.85231159146876, 31.993464336651588], [34.852309872658374, 31.993465529476747], [34.852308128548344, 31.993466696981223], [34.85230635915243, 31.993467835557823], [34.85230457292222, 31.993468948837187], [34.8523027571597, 31.993470036784107], [34.85230092457665, 31.993471095826656], [34.85229906669396, 31.993472129548472], [34.85229719199074, 31.99347313436591], [34.852295296234324, 31.993474110267208], [34.85229337941097, 31.993475060859534], [34.85229144154819, 31.993475978928537], [34.852289486851134, 31.993476871700313], [34.85228751534734, 31.993477731960525], [34.85228552702306, 31.993478563316362], [34.852283521878256, 31.99347936576777], [34.852281499912976, 31.993480139314787], [34.85227946114097, 31.993480880350237], [34.85227740554846, 31.993481592481256], [34.85227534161461, 31.993482272124204], [34.852273260860265, 31.99348292286277], [34.85227116753188, 31.993483541101472], [34.8522690616157, 31.99348413044755], [34.852266943125485, 31.99348468729375], [34.85226481206125, 31.99348521164016], [34.852262672641885, 31.993485707105634], [34.852260524894966, 31.99348616647585], [34.85225836456025, 31.993486596953392], [34.852256200116884, 31.993486994954615], [34.85225402734596, 31.99348735686054], [34.852251841987254, 31.993487689873827], [34.85224965675258, 31.99348799042252], [34.85224746317656, 31.993488258483122], [34.85224526125924, 31.993488494055605], [34.85224305947974, 31.993488693556337], [34.8522408535778, 31.99348886418791], [34.85223863934835, 31.993488998724185], [34.852236429461826, 31.9934891044148], [34.85223421548046, 31.993489174021875], [34.852231997390476, 31.993489211152642], [34.8522297836572, 31.993489215830532], [34.85222756581532, 31.993489188032076], [34.85222535233018, 31.99348912778077], [34.85222313898288, 31.99348903145769], [34.852220925745875, 31.99348890627719], [34.85221871687937, 31.993488745036654], [34.852216512369644, 31.993488551343273], [34.852214312216645, 31.99348832519704], [34.85221211642042, 31.993488066597955], [34.852209929213615, 31.993487775557757], [34.85220774636357, 31.99348745206471], [34.85220556787029, 31.99348709611883], [34.85220139313716, 31.993486319802972], [34.85199243257012, 31.993423064354644], [34.85188990086723, 31.99339383169252], [34.851758829731885, 31.993356403413568], [34.851675962850614, 31.993331734240474], [34.85178542823003, 31.993125164875575], [34.851884295459314, 31.992978084962886], [34.851918882731795, 31.992926688091224], [34.851883077556174, 31.99290918383189], [34.85179034297287, 31.99286392621245], [34.85138095863148, 31.992747357203026], [34.85094060444706, 31.992622043306508], [34.85083319398607, 31.9925960426935], [34.85079756687266, 31.992587376293805], [34.850784513509566, 31.992569664580934], [34.85077640789514, 31.992558639996812], [34.850730721866626, 31.99249646862947], [34.850687351387386, 31.99243755019053], [34.85066045548691, 31.99244234495422], [34.85061153432017, 31.992451136421177], [34.85041235590716, 31.992486743255327], [34.85037243562304, 31.992493846312428], [34.85034773584134, 31.992505410658886], [34.85027448437239, 31.992539745313998], [34.850227946635506, 31.992561619426834], [34.850206109046496, 31.99257183902941], [34.850144328579596, 31.992595023269313], [34.850091025494685, 31.99261507483864], [34.8500556609763, 31.992565647470723], [34.850030611319774, 31.992530587565284], [34.84994693682015, 31.992413570386155], [34.8499362130123, 31.992423009362785], [34.8498852487012, 31.992467776780565], [34.8497579431757, 31.992579785707584], [34.849730974310674, 31.992603517931506], [34.84971366730981, 31.992618800208056], [34.8496772339853, 31.99262717531624], [34.849596211498984, 31.992645976844226], [34.849565179631284, 31.992653104498398], [34.84948415814179, 31.99267163541651], [34.84941372760476, 31.992687761042898], [34.849284915246514, 31.992723743288362], [34.84917756728254, 31.992791438771118], [34.84909159774119, 31.992830787232467], [34.84896640690004, 31.992887971659815], [34.848864324571, 31.992934669616414], [34.848811004314804, 31.992959049250423], [34.848808331284005, 31.99310333021354], [34.8488077994601, 31.993131464971295], [34.84880472650299, 31.993297117536002], [34.848823096446814, 31.99347265983436], [34.848868620704714, 31.99363141449771], [34.84893317754819, 31.993766595227026], [34.849012189839705, 31.993912638039873], [34.84906238637407, 31.99401242781386], [34.84890073203863, 31.9940577866102], [34.84890703220385, 31.99408803629375], [34.84896010128384, 31.994338561450498], [34.84897367874654, 31.994404734080916], [34.8489800171363, 31.994434962223185], [34.84900214358065, 31.994542068169295], [34.84904320358995, 31.994748988145883], [34.84908470628194, 31.9949750744511], [34.84909901025352, 31.995052669524288], [34.84910605712464, 31.995091286405117], [34.84919171286307, 31.99507899115572]]]}}, {"type": "Feature", "properties": {"OBJECTID": 2581364, "LAYER_ID": 1234005, "GROUP_ID": 196926, "DEFQ": 0, "DATA_DATE": null, "MAVAT_CODE": 1601, "MAVAT_NAME": "גבול גוש", "LABEL": "", "LOT_NUM": 7196, "GUSH_SUFFI": 0, "CALC_AREA": 0.0, "LEGAL_AREA": 0.0, "TYPE_CODE": 0, "STATUS": 6, "IS_ANALITY": 0, "PLAN_NAME": "", "STATUS_NAM": "מוסדר", "AGAM_ID": 4000266689.0, "SHAPE_AREA": 102731.508333, "SHAPE_LEN": 1441.20445918}, "geometry": {"type": "Polygon", "coordinates": [[[34.84878397449872, 31.994763451881166], [34.84878517005053, 31.994774475259337], [34.84881851836636, 31.994988306745082], [34.84908470628194, 31.9949750744511], [34.84904320358995, 31.994748988145883], [34.84900214358065, 31.994542068169295], [34.8489800171363, 31.994434962223185], [34.84897367874654, 31.994404734080916], [34.84896010128384, 31.994338561450498], [34.84890703220385, 31.99408803629375], [34.84890073203863, 31.9940577866102], [34.84906238637407, 31.99401242781386], [34.849012189839705, 31.993912638039873], [34.84893317754819, 31.993766595227026], [34.848868620704714, 31.99363141449771], [34.848823096446814, 31.99347265983436], [34.84880472650299, 31.993297117536002], [34.8488077994601, 31.993131464971295], [34.84878641790317, 31.99313311847848], [34.84853597617651, 31.993153067674054], [34.84851677484411, 31.99302856503633], [34.84848240513106, 31.99280391973424], [34.84848042205668, 31.992794618388306], [34.84843727456748, 31.992512821036957], [34.84842859800302, 31.992456819988387], [34.84841219885819, 31.992350978074633], [34.84841027020621, 31.992338549427167], [34.84841014904037, 31.99233594828765], [34.84841001835038, 31.9923336212695], [34.8484099384519, 31.992331294393836], [34.848409909358864, 31.992328964053478], [34.848409922578156, 31.992326637439042], [34.84840998660289, 31.992324307359922], [34.848410097172554, 31.992321981018566], [34.84841025430108, 31.992319654807844], [34.84841046220718, 31.992317332346772], [34.84841071667212, 31.9923150100163], [34.84841101766807, 31.9923126950308], [34.84841136519499, 31.992310387390244], [34.84841175928078, 31.992308079880317], [34.84841220411626, 31.992305783334405], [34.84841269126401, 31.992303490514363], [34.84841322917535, 31.99230120505117], [34.84841381360374, 31.9922989305401], [34.84841444456311, 31.992296663374], [34.84841511780687, 31.992294407148123], [34.84841584180029, 31.992292161886276], [34.848416608092045, 31.992289923957475], [34.84841742511952, 31.99228770059986], [34.84841828443139, 31.992285488182482], [34.84841918601373, 31.992283290312542], [34.84842013833176, 31.992281107013763], [34.84842113292028, 31.992278938262384], [34.84842216979315, 31.992276780451263], [34.848423253141235, 31.992274644413772], [34.84842437877372, 31.992272519316536], [34.848425546648784, 31.99227041598104], [34.848426756794275, 31.992268327192974], [34.84842801342892, 31.99226625657137], [34.84843042358256, 31.99226251183212], [34.84843117229966, 31.99226153637803], [34.84843193368677, 31.9922605681739], [34.84843270774384, 31.992259607219733], [34.84843349448483, 31.99225864990834], [34.84843428964926, 31.992257703442206], [34.848435097497614, 31.992256760618893], [34.848435918002004, 31.99225582865267], [34.84843674695772, 31.992254900317402], [34.84843758856946, 31.99225398283923], [34.84843844286514, 31.992253069003848], [34.84843930558424, 31.99225216601374], [34.848440329700225, 31.99225111918789], [34.84844136645832, 31.992250086826303], [34.848442415886396, 31.992249061714727], [34.84844348220314, 31.992248047472124], [34.848444561162005, 31.992247047693823], [34.848445657023476, 31.992246055177333], [34.848446765527044, 31.992245077125162], [34.84844788668667, 31.992244109930123], [34.848449020502336, 31.99224315359218], [34.848450171206686, 31.992242208123244], [34.84845133455315, 31.992241277118627], [34.84845250633697, 31.992240353352084], [34.848453694981586, 31.992239447668872], [34.8484548962962, 31.992238549235612], [34.84845611025291, 31.992237665266654], [34.848457336851745, 31.992236795762004], [34.84845839786289, 31.992236059259675], [34.84845946731139, 31.99223532999546], [34.848460545183336, 31.992234611576475], [34.84846163147871, 31.992233904002756], [34.84846272619752, 31.992233207274296], [34.84846382935368, 31.992232517783886], [34.84846494517985, 31.992231835543464], [34.84846606518287, 31.99223116774358], [34.848467193623286, 31.992230507181766], [34.84846833048712, 31.99222985746522], [34.84846947154176, 31.99222921858204], [34.848470625252475, 31.992228590555992], [34.84847178316793, 31.992227969756144], [34.84847294949287, 31.992227363408716], [34.84847412425521, 31.99222676429938], [34.848475307440964, 31.992226176035285], [34.84847649481753, 31.99222559860457], [34.84847769063147, 31.992225028411948], [34.848478894854914, 31.9922244726717], [34.848480103269175, 31.99222392776488], [34.848481315874274, 31.992223393691432], [34.84848254114932, 31.99222286686791], [34.848483766368666, 31.99222235447309], [34.84848500425799, 31.992221849328196], [34.848486242091575, 31.99222135861201], [34.8484874883486, 31.99222087874104], [34.84848874304301, 31.99222040610817], [34.84848999768166, 31.99221994790396], [34.848491264976396, 31.99221950055687], [34.848492532229315, 31.992219064031293], [34.848493803673065, 31.992218638339093], [34.84849487164457, 31.992218291434874], [34.84849593957428, 31.992217955352142], [34.848497011722685, 31.99221762288846], [34.84849808806188, 31.992217301258147], [34.84849916860587, 31.992216986854057], [34.848500249121976, 31.99221667966431], [34.84850133382891, 31.992216383307905], [34.84850242275452, 31.992216090570555], [34.84850351163835, 31.99221580865473], [34.848504608959544, 31.992215533976957], [34.84850570202026, 31.992215266501667], [34.84850680350443, 31.992215009871607], [34.84850790497465, 31.992214756848732], [34.8485090106357, 31.992214514659224], [34.84851011625497, 31.992214283291233], [34.848511226092924, 31.99221405554227], [34.848512335889076, 31.992213838614823], [34.848513449889985, 31.992213628913568], [34.848514563863034, 31.992213426426652], [34.84851568202692, 31.992213234773118], [34.848516800176874, 31.992213046726754], [34.84851792250371, 31.99221287312093], [34.84851904481664, 31.992212703122284], [34.84903966487906, 31.99213859824761], [34.84901817201005, 31.992031966589057], [34.84849875111672, 31.992105879953172], [34.84839193079881, 31.992119197540944], [34.84812663099361, 31.99215115956035], [34.847354728859095, 31.992213396807813], [34.84574669032016, 31.992297740233525], [34.84573822062471, 31.99229885978105], [34.84572978006612, 31.992300105662753], [34.84572136441168, 31.992301477866658], [34.84571297790807, 31.9923029727976], [34.84570462477384, 31.9923045940747], [34.845696305022955, 31.992306338090792], [34.84568802288804, 31.99230820485786], [34.84567977836907, 31.992310194375897], [34.845671579917195, 31.992312310276017], [34.84566342332785, 31.99231454533191], [34.84565531283363, 31.99231689955557], [34.8456472526531, 31.99231937656612], [34.845639247046925, 31.99232196916121], [34.845631291754394, 31.992324684543224], [34.845623395268795, 31.99232751552177], [34.84561555757605, 31.992330465703983], [34.8456077786902, 31.99233353148278], [34.84560006707645, 31.992336712882036], [34.845592422748844, 31.99234000629464], [34.84558484569329, 31.99234341532774], [34.8455773401705, 31.99234693277899], [34.84556990615234, 31.992350565862758], [34.84556254789955, 31.99235430737666], [34.845555269644706, 31.992358157332696], [34.84554806715517, 31.992362115718894], [34.84554094891023, 31.992366178952025], [34.84553391914249, 31.99237034704411], [34.8455269693867, 31.992374619971205], [34.845520112340694, 31.992378997769205], [34.84551334379998, 31.992383473211866], [34.84550666798308, 31.992388049918286], [34.84550008912264, 31.99239272790049], [34.84549360724672, 31.992397499944158], [34.84548722234131, 31.992402369656446], [34.84548093865305, 31.992407333442173], [34.84547475619598, 31.992412387694213], [34.8454642579491, 31.99242139406353], [34.845459828089346, 31.992425291750134], [34.845455639755976, 31.992429121582777], [34.84545153160338, 31.992433012964675], [34.84544749941298, 31.992436962276688], [34.8454435558686, 31.992440973161898], [34.84543968828643, 31.99244504197725], [34.84543590936436, 31.99244916875865], [34.84543221488381, 31.99245334988698], [34.845428604844756, 31.992457585362242], [34.84542508347988, 31.992461875196394], [34.84542165081725, 31.992466212175113], [34.8454183068288, 31.99247060351276], [34.84541505152856, 31.992475045602173], [34.8454118891773, 31.99247953124097], [34.84540881976095, 31.992484064036347], [34.845405843279536, 31.99248864398831], [34.84540295974712, 31.992493267489685], [34.845400173410376, 31.992497930945273], [34.84539748425529, 31.992502637962275], [34.84539488807731, 31.992507381314358], [34.84539239332769, 31.992512164632664], [34.84538999155522, 31.99251698428608], [34.84538769547186, 31.992521836703343], [34.845385492365665, 31.99252672545573], [34.84538339496266, 31.99253164336481], [34.84538139478354, 31.992536594013842], [34.84537950030764, 31.99254157381956], [34.84537770308375, 31.992546579150876], [34.845376011577166, 31.992551610031754], [34.84537442578787, 31.992556666462168], [34.84537294149734, 31.992561744823004], [34.845371558691525, 31.992566848721424], [34.845370285877856, 31.99257196735987], [34.84536526490662, 31.992588524681196], [34.84536162043111, 31.992601597723887], [34.84535824663256, 31.992614725640465], [34.84535514353915, 31.992627901216608], [34.845352311165065, 31.992641120845168], [34.84534974953852, 31.99265437731181], [34.84534641975126, 31.992673590717345], [34.84534409048786, 31.99268913120578], [34.84534208277793, 31.992704705068885], [34.84534039241708, 31.992720305080358], [34.84533928017194, 31.992730925169315], [34.84533750883345, 31.992760791470612], [34.845336729973035, 31.992791223304955], [34.84533743675691, 31.992821662950096], [34.84533914041984, 31.992851539083755], [34.84534216246403, 31.992881985279748], [34.845346511536164, 31.992911868898315], [34.84535201612508, 31.992941755786095], [34.84570573252577, 31.994640922548086], [34.84578859774194, 31.995038999536227], [34.84579942604763, 31.99509100281477], [34.845802193349854, 31.99510429959561], [34.84580306594553, 31.995108486424762], [34.84580436243573, 31.995114690882033], [34.845807131323745, 31.99512540490508], [34.8458103974736, 31.99513668666524], [34.845813991735895, 31.9951474066278], [34.84581825054144, 31.995158128468198], [34.84582283527005, 31.99516885122944], [34.84582775440141, 31.995179571328276], [34.8458331709418, 31.99518973371498], [34.84583908696264, 31.995199893905657], [34.84584093765616, 31.995202911155214], [34.845845328892985, 31.995210058624153], [34.845852068260704, 31.99521965841601], [34.8458589769401, 31.99522925868592], [34.845866545917154, 31.99523886442836], [34.845874282176624, 31.99524790431103], [34.84588251368443, 31.995256941985332], [34.84589107752418, 31.99526542148056], [34.8458999757535, 31.995273901919933], [34.845909367173654, 31.99528182102736], [34.845918927919875, 31.99528973700524], [34.84592881882307, 31.995297653915095], [34.84593063028554, 31.995298788089126], [34.84594085353491, 31.99530614321226], [34.8459514091301, 31.99531293654869], [34.845962297070976, 31.995319168098366], [34.84597335213515, 31.995325962843843], [34.84598473750083, 31.995331633071984], [34.84599628795968, 31.99533730015819], [34.84600800991892, 31.99534240500304], [34.84602005778818, 31.995347514374505], [34.84603227718565, 31.99535205429014], [34.84604466383632, 31.99535603555948], [34.8460570462553, 31.995360016815667], [34.84606976525176, 31.995363436296415], [34.84608265152899, 31.99536628991638], [34.84609553780701, 31.995369143535033], [34.84610859135149, 31.99537143489998], [34.84612164708437, 31.995373163545082], [34.846134870097245, 31.99537432632926], [34.84614809309646, 31.99537549271922], [34.84616131829755, 31.995376092782116], [34.84617470857664, 31.995376693309673], [34.84618793596544, 31.995376730651294], [34.84620133061935, 31.995376205738992], [34.84621456239651, 31.99537511403365], [34.846227794159354, 31.995374025934062], [34.84656092134189, 31.995336772674737], [34.84658174734116, 31.995334443430796], [34.846597081877746, 31.99533250270635], [34.84844486628559, 31.995125866177517], [34.848452467868604, 31.995124906340113], [34.848466033864035, 31.995122747602977], [34.8484794392371, 31.995120530698493], [34.84849267747266, 31.995117750599036], [34.84850485302162, 31.995115036054614], [34.84851882392792, 31.995111056806373], [34.84853173635222, 31.995107150339475], [34.8485371565415, 31.995105482776857], [34.84854349683983, 31.995103402965217], [34.84855690526173, 31.99509820289829], [34.84856932257734, 31.99509316598233], [34.848580498650605, 31.99508839612532], [34.84859334465648, 31.995081957204352], [34.84860405742237, 31.995076590856428], [34.84861637213151, 31.995069623790677], [34.84862659290747, 31.995063415581416], [34.8486382505904, 31.995055595369777], [34.8486486956717, 31.995048298410104], [34.84865897786024, 31.995040434660886], [34.84866892989254, 31.995032569985266], [34.84868698619001, 31.995016330442354], [34.848696475107054, 31.995006722183728], [34.84870494578177, 31.99499772790305], [34.84871308423965, 31.994988169965755], [34.84871640524659, 31.994984232986784], [34.84872400241164, 31.994974543671912], [34.84873102933763, 31.994964546145344], [34.84873784934477, 31.99495442178605], [34.848744212742865, 31.994944159072563], [34.848749997394954, 31.99493359894541], [34.848755498952954, 31.99492290816496], [34.84876292666807, 31.994906671286063], [34.84876517095021, 31.994900952933374], [34.84876918259274, 31.994890254369288], [34.84877286201918, 31.99487899214919], [34.84877604621387, 31.994867728541053], [34.848778902425394, 31.99485590128878], [34.84878109615707, 31.994844634904624], [34.84878296190589, 31.99483280487642], [34.84878416094258, 31.994821535704496], [34.848785036229444, 31.994809702900437], [34.84878540988143, 31.99479843141531], [34.84878529048826, 31.99478659221639], [34.84878517005053, 31.994774475259337], [34.84878218261787, 31.99475175228342], [34.84878301109892, 31.99475753335626], [34.84878397449872, 31.994763451881166]]]}}]}