{"type": "FeatureCollection", "features": [{"type": "Feature", "properties": {"OBJECTID": 4263937, "LAYER_ID": 1234012, "GROUP_ID": 196926, "SCENARIO": "", "DEFQ": 0, "PLAN_NAME": "", "DATA_DATE": null, "MAVAT_CODE": 995, "MAVAT_NAME": "", "NAME": "", "LABEL": "", "NUM": "1", "LEGAL_AREA": 1261.2316, "TYPE_CODE": 0, "TYPE_NAME": "", "SOURCE_COD": 0, "HASAVA": 0, "STATUS": "", "PL_CHANGE": "", "ADDRESS": "", "PLACE_NO": 0, "CALC_AREA": 0.0, "OLD_MIG": "", "AGAM_ID": 4000266689.0, "FONT_SIZE": 3.0, "ROTATION": 0.0}, "geometry": {"type": "Point", "coordinates": [34.83841273998437, 32.005733771150254]}}, {"type": "Feature", "properties": {"OBJECTID": 4263938, "LAYER_ID": 1234012, "GROUP_ID": 196926, "SCENARIO": "", "DEFQ": 0, "PLAN_NAME": "", "DATA_DATE": null, "MAVAT_CODE": 870, "MAVAT_NAME": "", "NAME": "", "LABEL": "", "NUM": "4", "LEGAL_AREA": 84075.5603, "TYPE_CODE": 0, "TYPE_NAME": "", "SOURCE_COD": 0, "HASAVA": 0, "STATUS": "", "PL_CHANGE": "", "ADDRESS": "", "PLACE_NO": 0, "CALC_AREA": 0.0, "OLD_MIG": "", "AGAM_ID": 4000266689.0, "FONT_SIZE": 3.0, "ROTATION": 0.0}, "geometry": {"type": "Point", "coordinates": [34.843607934528215, 32.00065713111436]}}, {"type": "Feature", "properties": {"OBJECTID": 4263939, "LAYER_ID": 1234012, "GROUP_ID": 196926, "SCENARIO": "", "DEFQ": 0, "PLAN_NAME": "", "DATA_DATE": null, "MAVAT_CODE": 870, "MAVAT_NAME": "", "NAME": "", "LABEL": "", "NUM": "3", "LEGAL_AREA": 7868.2488, "TYPE_CODE": 0, "TYPE_NAME": "", "SOURCE_COD": 0, "HASAVA": 0, "STATUS": "", "PL_CHANGE": "", "ADDRESS": "", "PLACE_NO": 0, "CALC_AREA": 0.0, "OLD_MIG": "", "AGAM_ID": 4000266689.0, "FONT_SIZE": 3.0, "ROTATION": 0.0}, "geometry": {"type": "Point", "coordinates": [34.83980538531814, 32.00441169022692]}}, {"type": "Feature", "properties": {"OBJECTID": 4263940, "LAYER_ID": 1234012, "GROUP_ID": 196926, "SCENARIO": "", "DEFQ": 0, "PLAN_NAME": "", "DATA_DATE": null, "MAVAT_CODE": 820, "MAVAT_NAME": "", "NAME": "", "LABEL": "", "NUM": "2", "LEGAL_AREA": 14816.8921, "TYPE_CODE": 0, "TYPE_NAME": "", "SOURCE_COD": 0, "HASAVA": 0, "STATUS": "", "PL_CHANGE": "", "ADDRESS": "", "PLACE_NO": 0, "CALC_AREA": 0.0, "OLD_MIG": "", "AGAM_ID": 4000266689.0, "FONT_SIZE": 3.0, "ROTATION": 0.0}, "geometry": {"type": "Point", "coordinates": [34.84467909754744, 31.999541583181074]}}]}