{"type": "FeatureCollection", "features": [{"type": "Feature", "properties": {"OBJECTID": 2679402, "LAYER_ID": 1234003, "GROUP_ID": 196926, "SCENARIO": "", "DEFQ": 0, "PLAN_NAME": "תתל/ 66", "DATA_DATE": null, "MAVAT_CODE": 20010, "MAVAT_NAME": "גבול תכנית אמיתי", "NAME": "", "LABEL": "", "TYPE_CODE": 0, "TYPE_NAME": "", "SOURCE_COD": 0, "LEGAL_AREA": 0.0, "IS_ANALITY": 0, "HASAVA": 0, "STATUS": "", "PL_CHANGE": "", "ADDRESS": "", "PLACE_NO": 0, "REMARKS": "", "AGAM_ID": 4000266689.0, "VER_ID": 99000379113.0, "SHAPE_AREA": 107984.589797, "SHAPE_LEN": 2403.79640955}, "geometry": {"type": "Polygon", "coordinates": [[[34.83863087767039, 32.00566108926585], [34.8386455757203, 32.0056477380979], [34.83865520206749, 32.00565576842831], [34.838786807961775, 32.00555669719132], [34.83896641263267, 32.00542505396718], [34.83899672277505, 32.00540159525414], [34.83907667953454, 32.0053512056432], [34.839145990504335, 32.00529523565112], [34.83919570745513, 32.00526282737847], [34.839245448546166, 32.00522859210732], [34.839327808614236, 32.005158133365434], [34.83938400173567, 32.00512213103936], [34.83948138574473, 32.005049987569954], [34.83957222081948, 32.00498691534365], [34.83973660797069, 32.00487156607288], [34.83992032511827, 32.004740340906196], [34.83993187004328, 32.00473209373775], [34.839933472618455, 32.00473094944735], [34.8399736768395, 32.004701767233534], [34.840003764038855, 32.00467996514446], [34.84015197764168, 32.00457409910151], [34.84018874140001, 32.00454887306055], [34.84027743356585, 32.00448577973938], [34.84030336259483, 32.0044695856666], [34.840439534244794, 32.004381365430014], [34.840576387131726, 32.00428190334507], [34.840625610460435, 32.004246127565665], [34.84078354082562, 32.004132542161614], [34.84080949381023, 32.00411452100363], [34.840863638227646, 32.004071194926816], [34.84088367591114, 32.00405783895399], [34.840939306856, 32.00402076297669], [34.84099768673321, 32.00398112832295], [34.84105481552943, 32.00394474375678], [34.84110026247935, 32.003907715625864], [34.84140342054968, 32.00365495201575], [34.841436861100505, 32.00362644104476], [34.84153097670558, 32.00354552472141], [34.84162887218376, 32.0034603572227], [34.84173149277616, 32.003370079119755], [34.84184014274139, 32.003273494732426], [34.841906246476725, 32.0032141647449], [34.841956820944745, 32.003168773687946], [34.84208491972026, 32.00305281083001], [34.84208781287721, 32.00305017320749], [34.8422311281437, 32.002919485755285], [34.84241308129197, 32.00275265416982], [34.84249288477159, 32.00267933814239], [34.84312371007536, 32.002099699625774], [34.8431061862756, 32.002003294059946], [34.84312857819309, 32.00170134996472], [34.84335943082763, 32.00148950480717], [34.84345025024635, 32.0014061626116], [34.84368981474735, 32.001186320997995], [34.8439192088627, 32.0013687689094], [34.84396692209137, 32.00132494524859], [34.844107353892284, 32.001196323373065], [34.84423696228022, 32.00107828842513], [34.84435426222711, 32.00097228812522], [34.84441894802172, 32.000914251362765], [34.844613646904314, 32.000741592788195], [34.84486261812259, 32.000525102569874], [34.84508203623782, 32.000339039251344], [34.84518919821409, 32.000240653118816], [34.845286482832485, 32.00015133270547], [34.84534203692829, 32.000100328917185], [34.8454507450249, 31.999999896235867], [34.84572328424463, 31.99974809935489], [34.84587509454702, 31.99960784553352], [34.84597252232956, 31.999517832400056], [34.84621431817805, 31.99929557537977], [34.84632917371571, 31.999190000971925], [34.846360433803135, 31.99916126579527], [34.84619110169463, 31.99896146980509], [34.84609298221199, 31.998983385897972], [34.8458383833769, 31.9990454505793], [34.845795544934646, 31.999056641464822], [34.84554578677263, 31.99912363487683], [34.84529182554089, 31.999199240871793], [34.84504079127751, 31.999281640658197], [34.84479293417158, 31.999370752115667], [34.84454850124782, 31.999466486434695], [34.84430773612062, 31.999568748205107], [34.84407087875131, 31.999677435511103], [34.84383816520915, 31.999792440032806], [34.84360982743608, 31.999913647154013], [34.84349958297035, 31.999975281013274], [34.84339996378297, 32.00003303142182], [34.843181504954266, 32.00016600189294], [34.842968080318414, 32.00030478256315], [34.84275990260454, 32.00044923511831], [34.84255717931542, 32.00059921559078], [34.8423601125206, 32.000754574502984], [34.84216889865512, 32.000915157016095], [34.841983728323626, 32.00108080308453], [34.84180478611047, 32.001251347615096], [34.84163225039561, 32.00142662063172], [34.841466293176836, 32.00160644744462], [34.84130707989826, 32.001790648824375], [34.84115476928534, 32.00197904118049], [34.84100951318654, 32.00217143674427], [34.84096560001124, 32.002232337738704], [34.840533778888485, 32.00282881203797], [34.83922271604932, 32.00463321915919], [34.83901120964198, 32.004912637359794], [34.83891552403418, 32.00502931988746], [34.838762287624, 32.00520984630294], [34.838706426854976, 32.005271682636405], [34.83849648135619, 32.005496528645594], [34.838482174880305, 32.00551143410299], [34.838509845012005, 32.00553451703692], [34.838366971809315, 32.00567304893331], [34.83817690376594, 32.005846616462875], [34.83807061931904, 32.0059587262638], [34.83793756330262, 32.00610220623163], [34.83778635372453, 32.00626341710223], [34.83769987129292, 32.006333109000714], [34.83767953089876, 32.0063499535543], [34.83767896510364, 32.006351967718665], [34.83767781144738, 32.006364491018196], [34.83821654395907, 32.005981412991495], [34.838299242966265, 32.005921371706975], [34.838553128079084, 32.0057370546096], [34.83863087767039, 32.00566108926585]]]}}]}