{"type": "FeatureCollection", "features": [{"type": "Feature", "properties": {"OBJECTID": 4669505, "LAYER_ID": 1234007, "GROUP_ID": 196926, "SCENARIO": "", "DEFQ": 0, "PLAN_NAME": "", "DATA_DATE": null, "MAVAT_CODE": 20350, "MAVAT_NAME": "הנחיות מיוחדות", "NAME": "", "LABEL": "", "TYPE_CODE": 0, "TYPE_NAME": "", "SOURCE_COD": 0, "PL_CHANGE": "", "PLACE_NO": 0, "ADDRESS": "", "RADIUS": 0.0, "PERIMETER": 0.0, "WIDTH": 0.0, "REMARKS": "", "DATE_DEC": "", "POL_AREA": 0.0, "STATUS": "", "STAGE": "", "AGAM_ID": 4000266689.0, "SHAPE_AREA": 1261.23051827, "SHAPE_LEN": 260.710547843}, "geometry": {"type": "Polygon", "coordinates": [[[34.838299242966265, 32.005921371706975], [34.838553128079084, 32.0057370546096], [34.83863087767039, 32.00566108926585], [34.8386455757203, 32.0056477380979], [34.838584043495885, 32.00559641055884], [34.83850984448285, 32.00553451703539], [34.838366971809315, 32.00567304893331], [34.83817690376594, 32.005846616462875], [34.83807061931904, 32.0059587262638], [34.83793756383179, 32.00610220623316], [34.83778635372453, 32.00626341710223], [34.83769987129292, 32.006333109000714], [34.837679530900566, 32.00634995310342], [34.83767896507944, 32.00635196735204], [34.83767781144738, 32.006364491018196], [34.83821654395907, 32.005981412991495], [34.838299242966265, 32.005921371706975]]]}}]}