{"type": "FeatureCollection", "features": [{"type": "Feature", "properties": {"OBJECTID": 4829095, "LAYER_ID": 1234018, "GROUP_ID": 196926, "SCENARIO": "", "DEFQ": 0, "PLAN_NAME": "", "DATA_DATE": null, "MAVAT_CODE": 30001, "MAVAT_NAME": "עברית ENTITY", "BLOCKNAME": "dim", "ROTATION": 272.98432136, "TYPE_CODE": 0, "TYPE_NAME": "", "SOURCE_COD": 0, "STATUS": "", "PL_CHANGE": "", "PLACE_NO": 0, "REMARKS": "", "VALUE1": "", "TAGNAME1": "190227.373015", "TAGNAME2": "674486.636805", "VALUE2": "", "TAGNAME3": "0", "VALUE3": "1.0000", "DATE_DEC": "", "STAGE": "", "NAME": "NUMBER", "LABEL": "5", "FONT_SIZE": 3.0, "AGAM_ID": 4000266689.0}, "geometry": {"type": "Point", "coordinates": [34.83786425403076, 32.00560566508141]}}]}