{"type": "FeatureCollection", "features": [{"type": "Feature", "properties": {"OBJECTID": 13496642, "LAYER_ID": 1234015, "GROUP_ID": 196926, "DEFQ": 0, "DATA_DATE": null, "MAVAT_CODE": 0, "MAVAT_NAME": "", "TYPE_CODE": 0, "LABEL": "", "LOT_NUM": 6249, "GUSH_SUFFI": 0, "PARCEL_NUM": 84, "CALC_AREA": 0.0, "LEGAL_AREA": 0.0, "IS_ANALITY": 0, "STATUS": 0, "PLAN_NAME": "", "AGAM_ID": 4000266689.0, "FONT_SIZE": 2.5, "ROTATION": 0.0}, "geometry": {"type": "Point", "coordinates": [34.84507121196772, 32.00072933899433]}}, {"type": "Feature", "properties": {"OBJECTID": 13496643, "LAYER_ID": 1234015, "GROUP_ID": 196926, "DEFQ": 0, "DATA_DATE": null, "MAVAT_CODE": 0, "MAVAT_NAME": "", "TYPE_CODE": 0, "LABEL": "", "LOT_NUM": 6068, "GUSH_SUFFI": 0, "PARCEL_NUM": 2, "CALC_AREA": 0.0, "LEGAL_AREA": 0.0, "IS_ANALITY": 0, "STATUS": 0, "PLAN_NAME": "", "AGAM_ID": 4000266689.0, "FONT_SIZE": 2.5, "ROTATION": 0.0}, "geometry": {"type": "Point", "coordinates": [34.83804571860359, 32.00848408491801]}}, {"type": "Feature", "properties": {"OBJECTID": 13496644, "LAYER_ID": 1234015, "GROUP_ID": 196926, "DEFQ": 0, "DATA_DATE": null, "MAVAT_CODE": 0, "MAVAT_NAME": "", "TYPE_CODE": 0, "LABEL": "", "LOT_NUM": 6069, "GUSH_SUFFI": 0, "PARCEL_NUM": 64, "CALC_AREA": 0.0, "LEGAL_AREA": 0.0, "IS_ANALITY": 0, "STATUS": 0, "PLAN_NAME": "", "AGAM_ID": 4000266689.0, "FONT_SIZE": 2.5, "ROTATION": 0.0}, "geometry": {"type": "Point", "coordinates": [34.841140586501936, 32.00301130246655]}}, {"type": "Feature", "properties": {"OBJECTID": 13496645, "LAYER_ID": 1234015, "GROUP_ID": 196926, "DEFQ": 0, "DATA_DATE": null, "MAVAT_CODE": 0, "MAVAT_NAME": "", "TYPE_CODE": 0, "LABEL": "", "LOT_NUM": 6068, "GUSH_SUFFI": 0, "PARCEL_NUM": 3, "CALC_AREA": 0.0, "LEGAL_AREA": 0.0, "IS_ANALITY": 0, "STATUS": 0, "PLAN_NAME": "", "AGAM_ID": 4000266689.0, "FONT_SIZE": 2.5, "ROTATION": 0.0}, "geometry": {"type": "Point", "coordinates": [34.83845580586802, 32.00822066409734]}}, {"type": "Feature", "properties": {"OBJECTID": 13496646, "LAYER_ID": 1234015, "GROUP_ID": 196926, "DEFQ": 0, "DATA_DATE": null, "MAVAT_CODE": 0, "MAVAT_NAME": "", "TYPE_CODE": 0, "LABEL": "", "LOT_NUM": 6068, "GUSH_SUFFI": 0, "PARCEL_NUM": 6, "CALC_AREA": 0.0, "LEGAL_AREA": 0.0, "IS_ANALITY": 0, "STATUS": 0, "PLAN_NAME": "", "AGAM_ID": 4000266689.0, "FONT_SIZE": 2.5, "ROTATION": 0.0}, "geometry": {"type": "Point", "coordinates": [34.83944934371086, 32.005440137026945]}}, {"type": "Feature", "properties": {"OBJECTID": 13496647, "LAYER_ID": 1234015, "GROUP_ID": 196926, "DEFQ": 0, "DATA_DATE": null, "MAVAT_CODE": 0, "MAVAT_NAME": "", "TYPE_CODE": 0, "LABEL": "", "LOT_NUM": 6069, "GUSH_SUFFI": 0, "PARCEL_NUM": 128, "CALC_AREA": 0.0, "LEGAL_AREA": 0.0, "IS_ANALITY": 0, "STATUS": 0, "PLAN_NAME": "", "AGAM_ID": 4000266689.0, "FONT_SIZE": 2.5, "ROTATION": 0.0}, "geometry": {"type": "Point", "coordinates": [34.83643863515935, 32.00597837367891]}}, {"type": "Feature", "properties": {"OBJECTID": 13496648, "LAYER_ID": 1234015, "GROUP_ID": 196926, "DEFQ": 0, "DATA_DATE": null, "MAVAT_CODE": 0, "MAVAT_NAME": "", "TYPE_CODE": 0, "LABEL": "", "LOT_NUM": 6249, "GUSH_SUFFI": 0, "PARCEL_NUM": 104, "CALC_AREA": 0.0, "LEGAL_AREA": 0.0, "IS_ANALITY": 0, "STATUS": 0, "PLAN_NAME": "", "AGAM_ID": 4000266689.0, "FONT_SIZE": 2.5, "ROTATION": 0.0}, "geometry": {"type": "Point", "coordinates": [34.84426910040387, 32.00373073962093]}}, {"type": "Feature", "properties": {"OBJECTID": 13496649, "LAYER_ID": 1234015, "GROUP_ID": 196926, "DEFQ": 0, "DATA_DATE": null, "MAVAT_CODE": 0, "MAVAT_NAME": "", "TYPE_CODE": 0, "LABEL": "", "LOT_NUM": 6069, "GUSH_SUFFI": 0, "PARCEL_NUM": 68, "CALC_AREA": 0.0, "LEGAL_AREA": 0.0, "IS_ANALITY": 0, "STATUS": 0, "PLAN_NAME": "", "AGAM_ID": 4000266689.0, "FONT_SIZE": 2.5, "ROTATION": 0.0}, "geometry": {"type": "Point", "coordinates": [34.838990709118214, 32.004889950332384]}}, {"type": "Feature", "properties": {"OBJECTID": 13496650, "LAYER_ID": 1234015, "GROUP_ID": 196926, "DEFQ": 0, "DATA_DATE": null, "MAVAT_CODE": 0, "MAVAT_NAME": "", "TYPE_CODE": 0, "LABEL": "", "LOT_NUM": 6249, "GUSH_SUFFI": 0, "PARCEL_NUM": 51, "CALC_AREA": 0.0, "LEGAL_AREA": 0.0, "IS_ANALITY": 0, "STATUS": 0, "PLAN_NAME": "", "AGAM_ID": 4000266689.0, "FONT_SIZE": 2.5, "ROTATION": 0.0}, "geometry": {"type": "Point", "coordinates": [34.84354281778477, 32.00334218385143]}}, {"type": "Feature", "properties": {"OBJECTID": 13496651, "LAYER_ID": 1234015, "GROUP_ID": 196926, "DEFQ": 0, "DATA_DATE": null, "MAVAT_CODE": 0, "MAVAT_NAME": "", "TYPE_CODE": 0, "LABEL": "", "LOT_NUM": 6249, "GUSH_SUFFI": 0, "PARCEL_NUM": 43, "CALC_AREA": 0.0, "LEGAL_AREA": 0.0, "IS_ANALITY": 0, "STATUS": 0, "PLAN_NAME": "", "AGAM_ID": 4000266689.0, "FONT_SIZE": 2.5, "ROTATION": 0.0}, "geometry": {"type": "Point", "coordinates": [34.84331059931678, 32.00533507508929]}}, {"type": "Feature", "properties": {"OBJECTID": 13496652, "LAYER_ID": 1234015, "GROUP_ID": 196926, "DEFQ": 0, "DATA_DATE": null, "MAVAT_CODE": 0, "MAVAT_NAME": "", "TYPE_CODE": 0, "LABEL": "", "LOT_NUM": 6249, "GUSH_SUFFI": 0, "PARCEL_NUM": 99, "CALC_AREA": 0.0, "LEGAL_AREA": 0.0, "IS_ANALITY": 0, "STATUS": 0, "PLAN_NAME": "", "AGAM_ID": 4000266689.0, "FONT_SIZE": 2.5, "ROTATION": 0.0}, "geometry": {"type": "Point", "coordinates": [34.8478189293211, 31.998559277337893]}}, {"type": "Feature", "properties": {"OBJECTID": 13496653, "LAYER_ID": 1234015, "GROUP_ID": 196926, "DEFQ": 0, "DATA_DATE": null, "MAVAT_CODE": 0, "MAVAT_NAME": "", "TYPE_CODE": 0, "LABEL": "", "LOT_NUM": 6249, "GUSH_SUFFI": 0, "PARCEL_NUM": 95, "CALC_AREA": 0.0, "LEGAL_AREA": 0.0, "IS_ANALITY": 0, "STATUS": 0, "PLAN_NAME": "", "AGAM_ID": 4000266689.0, "FONT_SIZE": 2.5, "ROTATION": 0.0}, "geometry": {"type": "Point", "coordinates": [34.84792095710766, 31.998536090118982]}}, {"type": "Feature", "properties": {"OBJECTID": 13496654, "LAYER_ID": 1234015, "GROUP_ID": 196926, "DEFQ": 0, "DATA_DATE": null, "MAVAT_CODE": 0, "MAVAT_NAME": "", "TYPE_CODE": 0, "LABEL": "", "LOT_NUM": 6249, "GUSH_SUFFI": 0, "PARCEL_NUM": 46, "CALC_AREA": 0.0, "LEGAL_AREA": 0.0, "IS_ANALITY": 0, "STATUS": 0, "PLAN_NAME": "", "AGAM_ID": 4000266689.0, "FONT_SIZE": 2.5, "ROTATION": 0.0}, "geometry": {"type": "Point", "coordinates": [34.843755521065816, 32.00505799256803]}}, {"type": "Feature", "properties": {"OBJECTID": 13496655, "LAYER_ID": 1234015, "GROUP_ID": 196926, "DEFQ": 0, "DATA_DATE": null, "MAVAT_CODE": 0, "MAVAT_NAME": "", "TYPE_CODE": 0, "LABEL": "", "LOT_NUM": 6249, "GUSH_SUFFI": 0, "PARCEL_NUM": 103, "CALC_AREA": 0.0, "LEGAL_AREA": 0.0, "IS_ANALITY": 0, "STATUS": 0, "PLAN_NAME": "", "AGAM_ID": 4000266689.0, "FONT_SIZE": 2.5, "ROTATION": 0.0}, "geometry": {"type": "Point", "coordinates": [34.8464715621251, 32.00525104761128]}}, {"type": "Feature", "properties": {"OBJECTID": 13496656, "LAYER_ID": 1234015, "GROUP_ID": 196926, "DEFQ": 0, "DATA_DATE": null, "MAVAT_CODE": 0, "MAVAT_NAME": "", "TYPE_CODE": 0, "LABEL": "", "LOT_NUM": 6249, "GUSH_SUFFI": 0, "PARCEL_NUM": 88, "CALC_AREA": 0.0, "LEGAL_AREA": 0.0, "IS_ANALITY": 0, "STATUS": 0, "PLAN_NAME": "", "AGAM_ID": 4000266689.0, "FONT_SIZE": 2.5, "ROTATION": 0.0}, "geometry": {"type": "Point", "coordinates": [34.84466182831164, 32.00604468470106]}}, {"type": "Feature", "properties": {"OBJECTID": 13496657, "LAYER_ID": 1234015, "GROUP_ID": 196926, "DEFQ": 0, "DATA_DATE": null, "MAVAT_CODE": 0, "MAVAT_NAME": "", "TYPE_CODE": 0, "LABEL": "", "LOT_NUM": 6249, "GUSH_SUFFI": 0, "PARCEL_NUM": 94, "CALC_AREA": 0.0, "LEGAL_AREA": 0.0, "IS_ANALITY": 0, "STATUS": 0, "PLAN_NAME": "", "AGAM_ID": 4000266689.0, "FONT_SIZE": 2.5, "ROTATION": 0.0}, "geometry": {"type": "Point", "coordinates": [34.84410990274475, 32.005645978039546]}}, {"type": "Feature", "properties": {"OBJECTID": 13496658, "LAYER_ID": 1234015, "GROUP_ID": 196926, "DEFQ": 0, "DATA_DATE": null, "MAVAT_CODE": 0, "MAVAT_NAME": "", "TYPE_CODE": 0, "LABEL": "", "LOT_NUM": 6069, "GUSH_SUFFI": 0, "PARCEL_NUM": 66, "CALC_AREA": 0.0, "LEGAL_AREA": 0.0, "IS_ANALITY": 0, "STATUS": 0, "PLAN_NAME": "", "AGAM_ID": 4000266689.0, "FONT_SIZE": 2.5, "ROTATION": 0.0}, "geometry": {"type": "Point", "coordinates": [34.837317278995705, 32.002666496534175]}}, {"type": "Feature", "properties": {"OBJECTID": 13496659, "LAYER_ID": 1234015, "GROUP_ID": 196926, "DEFQ": 0, "DATA_DATE": null, "MAVAT_CODE": 0, "MAVAT_NAME": "", "TYPE_CODE": 0, "LABEL": "", "LOT_NUM": 6069, "GUSH_SUFFI": 0, "PARCEL_NUM": 73, "CALC_AREA": 0.0, "LEGAL_AREA": 0.0, "IS_ANALITY": 0, "STATUS": 0, "PLAN_NAME": "", "AGAM_ID": 4000266689.0, "FONT_SIZE": 2.5, "ROTATION": 0.0}, "geometry": {"type": "Point", "coordinates": [34.83646735900859, 32.00319539375839]}}, {"type": "Feature", "properties": {"OBJECTID": 13496660, "LAYER_ID": 1234015, "GROUP_ID": 196926, "DEFQ": 0, "DATA_DATE": null, "MAVAT_CODE": 0, "MAVAT_NAME": "", "TYPE_CODE": 0, "LABEL": "", "LOT_NUM": 6069, "GUSH_SUFFI": 0, "PARCEL_NUM": 69, "CALC_AREA": 0.0, "LEGAL_AREA": 0.0, "IS_ANALITY": 0, "STATUS": 0, "PLAN_NAME": "", "AGAM_ID": 4000266689.0, "FONT_SIZE": 2.5, "ROTATION": 0.0}, "geometry": {"type": "Point", "coordinates": [34.83927200737028, 32.00282885021341]}}, {"type": "Feature", "properties": {"OBJECTID": 13496661, "LAYER_ID": 1234015, "GROUP_ID": 196926, "DEFQ": 0, "DATA_DATE": null, "MAVAT_CODE": 0, "MAVAT_NAME": "", "TYPE_CODE": 0, "LABEL": "", "LOT_NUM": 6068, "GUSH_SUFFI": 0, "PARCEL_NUM": 9, "CALC_AREA": 0.0, "LEGAL_AREA": 0.0, "IS_ANALITY": 0, "STATUS": 0, "PLAN_NAME": "", "AGAM_ID": 4000266689.0, "FONT_SIZE": 2.5, "ROTATION": 0.0}, "geometry": {"type": "Point", "coordinates": [34.84178236777667, 32.00581327889437]}}, {"type": "Feature", "properties": {"OBJECTID": 13496662, "LAYER_ID": 1234015, "GROUP_ID": 196926, "DEFQ": 0, "DATA_DATE": null, "MAVAT_CODE": 0, "MAVAT_NAME": "", "TYPE_CODE": 0, "LABEL": "", "LOT_NUM": 6249, "GUSH_SUFFI": 0, "PARCEL_NUM": 98, "CALC_AREA": 0.0, "LEGAL_AREA": 0.0, "IS_ANALITY": 0, "STATUS": 0, "PLAN_NAME": "", "AGAM_ID": 4000266689.0, "FONT_SIZE": 2.5, "ROTATION": 0.0}, "geometry": {"type": "Point", "coordinates": [34.84666986507445, 32.00562770121239]}}, {"type": "Feature", "properties": {"OBJECTID": 13496663, "LAYER_ID": 1234015, "GROUP_ID": 196926, "DEFQ": 0, "DATA_DATE": null, "MAVAT_CODE": 0, "MAVAT_NAME": "", "TYPE_CODE": 0, "LABEL": "", "LOT_NUM": 6249, "GUSH_SUFFI": 0, "PARCEL_NUM": 47, "CALC_AREA": 0.0, "LEGAL_AREA": 0.0, "IS_ANALITY": 0, "STATUS": 0, "PLAN_NAME": "", "AGAM_ID": 4000266689.0, "FONT_SIZE": 2.5, "ROTATION": 0.0}, "geometry": {"type": "Point", "coordinates": [34.84388136529808, 32.00462690701978]}}, {"type": "Feature", "properties": {"OBJECTID": 13496664, "LAYER_ID": 1234015, "GROUP_ID": 196926, "DEFQ": 0, "DATA_DATE": null, "MAVAT_CODE": 0, "MAVAT_NAME": "", "TYPE_CODE": 0, "LABEL": "", "LOT_NUM": 6068, "GUSH_SUFFI": 0, "PARCEL_NUM": 1, "CALC_AREA": 0.0, "LEGAL_AREA": 0.0, "IS_ANALITY": 0, "STATUS": 0, "PLAN_NAME": "", "AGAM_ID": 4000266689.0, "FONT_SIZE": 2.5, "ROTATION": 0.0}, "geometry": {"type": "Point", "coordinates": [34.838047834009906, 32.00892930614852]}}, {"type": "Feature", "properties": {"OBJECTID": 13496665, "LAYER_ID": 1234015, "GROUP_ID": 196926, "DEFQ": 0, "DATA_DATE": null, "MAVAT_CODE": 0, "MAVAT_NAME": "", "TYPE_CODE": 0, "LABEL": "", "LOT_NUM": 6249, "GUSH_SUFFI": 0, "PARCEL_NUM": 45, "CALC_AREA": 0.0, "LEGAL_AREA": 0.0, "IS_ANALITY": 0, "STATUS": 0, "PLAN_NAME": "", "AGAM_ID": 4000266689.0, "FONT_SIZE": 2.5, "ROTATION": 0.0}, "geometry": {"type": "Point", "coordinates": [34.843631786565595, 32.005155991181084]}}, {"type": "Feature", "properties": {"OBJECTID": 13496666, "LAYER_ID": 1234015, "GROUP_ID": 196926, "DEFQ": 0, "DATA_DATE": null, "MAVAT_CODE": 0, "MAVAT_NAME": "", "TYPE_CODE": 0, "LABEL": "", "LOT_NUM": 6069, "GUSH_SUFFI": 0, "PARCEL_NUM": 67, "CALC_AREA": 0.0, "LEGAL_AREA": 0.0, "IS_ANALITY": 0, "STATUS": 0, "PLAN_NAME": "", "AGAM_ID": 4000266689.0, "FONT_SIZE": 2.5, "ROTATION": 0.0}, "geometry": {"type": "Point", "coordinates": [34.838746815997354, 32.00410365111573]}}, {"type": "Feature", "properties": {"OBJECTID": 13496667, "LAYER_ID": 1234015, "GROUP_ID": 196926, "DEFQ": 0, "DATA_DATE": null, "MAVAT_CODE": 0, "MAVAT_NAME": "", "TYPE_CODE": 0, "LABEL": "", "LOT_NUM": 6068, "GUSH_SUFFI": 0, "PARCEL_NUM": 12, "CALC_AREA": 0.0, "LEGAL_AREA": 0.0, "IS_ANALITY": 0, "STATUS": 0, "PLAN_NAME": "", "AGAM_ID": 4000266689.0, "FONT_SIZE": 2.5, "ROTATION": 0.0}, "geometry": {"type": "Point", "coordinates": [34.83740911171305, 32.008997593018236]}}, {"type": "Feature", "properties": {"OBJECTID": 13496668, "LAYER_ID": 1234015, "GROUP_ID": 196926, "DEFQ": 0, "DATA_DATE": null, "MAVAT_CODE": 0, "MAVAT_NAME": "", "TYPE_CODE": 0, "LABEL": "", "LOT_NUM": 6249, "GUSH_SUFFI": 0, "PARCEL_NUM": 44, "CALC_AREA": 0.0, "LEGAL_AREA": 0.0, "IS_ANALITY": 0, "STATUS": 0, "PLAN_NAME": "", "AGAM_ID": 4000266689.0, "FONT_SIZE": 2.5, "ROTATION": 0.0}, "geometry": {"type": "Point", "coordinates": [34.84350899481598, 32.0052380376915]}}, {"type": "Feature", "properties": {"OBJECTID": 13496669, "LAYER_ID": 1234015, "GROUP_ID": 196926, "DEFQ": 0, "DATA_DATE": null, "MAVAT_CODE": 0, "MAVAT_NAME": "", "TYPE_CODE": 0, "LABEL": "", "LOT_NUM": 6069, "GUSH_SUFFI": 0, "PARCEL_NUM": 54, "CALC_AREA": 0.0, "LEGAL_AREA": 0.0, "IS_ANALITY": 0, "STATUS": 0, "PLAN_NAME": "", "AGAM_ID": 4000266689.0, "FONT_SIZE": 2.5, "ROTATION": 0.0}, "geometry": {"type": "Point", "coordinates": [34.83901040983268, 32.005546514358095]}}, {"type": "Feature", "properties": {"OBJECTID": 13496670, "LAYER_ID": 1234015, "GROUP_ID": 196926, "DEFQ": 0, "DATA_DATE": null, "MAVAT_CODE": 0, "MAVAT_NAME": "", "TYPE_CODE": 0, "LABEL": "", "LOT_NUM": 6249, "GUSH_SUFFI": 0, "PARCEL_NUM": 50, "CALC_AREA": 0.0, "LEGAL_AREA": 0.0, "IS_ANALITY": 0, "STATUS": 0, "PLAN_NAME": "", "AGAM_ID": 4000266689.0, "FONT_SIZE": 2.5, "ROTATION": 0.0}, "geometry": {"type": "Point", "coordinates": [34.8433640294159, 32.0031494148121]}}, {"type": "Feature", "properties": {"OBJECTID": 13496671, "LAYER_ID": 1234015, "GROUP_ID": 196926, "DEFQ": 0, "DATA_DATE": null, "MAVAT_CODE": 0, "MAVAT_NAME": "", "TYPE_CODE": 0, "LABEL": "", "LOT_NUM": 6258, "GUSH_SUFFI": 0, "PARCEL_NUM": 55, "CALC_AREA": 0.0, "LEGAL_AREA": 0.0, "IS_ANALITY": 0, "STATUS": 0, "PLAN_NAME": "", "AGAM_ID": 4000266689.0, "FONT_SIZE": 2.5, "ROTATION": 0.0}, "geometry": {"type": "Point", "coordinates": [34.84520573237599, 31.99625769327179]}}, {"type": "Feature", "properties": {"OBJECTID": 13496672, "LAYER_ID": 1234015, "GROUP_ID": 196926, "DEFQ": 0, "DATA_DATE": null, "MAVAT_CODE": 0, "MAVAT_NAME": "", "TYPE_CODE": 0, "LABEL": "", "LOT_NUM": 6258, "GUSH_SUFFI": 0, "PARCEL_NUM": 68, "CALC_AREA": 0.0, "LEGAL_AREA": 0.0, "IS_ANALITY": 0, "STATUS": 0, "PLAN_NAME": "", "AGAM_ID": 4000266689.0, "FONT_SIZE": 2.5, "ROTATION": 0.0}, "geometry": {"type": "Point", "coordinates": [34.84268965847155, 31.9955668878436]}}, {"type": "Feature", "properties": {"OBJECTID": 13496673, "LAYER_ID": 1234015, "GROUP_ID": 196926, "DEFQ": 0, "DATA_DATE": null, "MAVAT_CODE": 0, "MAVAT_NAME": "", "TYPE_CODE": 0, "LABEL": "", "LOT_NUM": 6258, "GUSH_SUFFI": 0, "PARCEL_NUM": 78, "CALC_AREA": 0.0, "LEGAL_AREA": 0.0, "IS_ANALITY": 0, "STATUS": 0, "PLAN_NAME": "", "AGAM_ID": 4000266689.0, "FONT_SIZE": 2.5, "ROTATION": 0.0}, "geometry": {"type": "Point", "coordinates": [34.84476085736911, 31.99670568754077]}}, {"type": "Feature", "properties": {"OBJECTID": 13496674, "LAYER_ID": 1234015, "GROUP_ID": 196926, "DEFQ": 0, "DATA_DATE": null, "MAVAT_CODE": 0, "MAVAT_NAME": "", "TYPE_CODE": 0, "LABEL": "", "LOT_NUM": 6258, "GUSH_SUFFI": 0, "PARCEL_NUM": 51, "CALC_AREA": 0.0, "LEGAL_AREA": 0.0, "IS_ANALITY": 0, "STATUS": 0, "PLAN_NAME": "", "AGAM_ID": 4000266689.0, "FONT_SIZE": 2.5, "ROTATION": 0.0}, "geometry": {"type": "Point", "coordinates": [34.84585148005068, 31.99671874253944]}}, {"type": "Feature", "properties": {"OBJECTID": 13496675, "LAYER_ID": 1234015, "GROUP_ID": 196926, "DEFQ": 0, "DATA_DATE": null, "MAVAT_CODE": 0, "MAVAT_NAME": "", "TYPE_CODE": 0, "LABEL": "", "LOT_NUM": 6258, "GUSH_SUFFI": 0, "PARCEL_NUM": 49, "CALC_AREA": 0.0, "LEGAL_AREA": 0.0, "IS_ANALITY": 0, "STATUS": 0, "PLAN_NAME": "", "AGAM_ID": 4000266689.0, "FONT_SIZE": 2.5, "ROTATION": 0.0}, "geometry": {"type": "Point", "coordinates": [34.84684331210844, 31.9963848822869]}}, {"type": "Feature", "properties": {"OBJECTID": 13496676, "LAYER_ID": 1234015, "GROUP_ID": 196926, "DEFQ": 0, "DATA_DATE": null, "MAVAT_CODE": 0, "MAVAT_NAME": "", "TYPE_CODE": 0, "LABEL": "", "LOT_NUM": 6258, "GUSH_SUFFI": 0, "PARCEL_NUM": 83, "CALC_AREA": 0.0, "LEGAL_AREA": 0.0, "IS_ANALITY": 0, "STATUS": 0, "PLAN_NAME": "", "AGAM_ID": 4000266689.0, "FONT_SIZE": 2.5, "ROTATION": 0.0}, "geometry": {"type": "Point", "coordinates": [34.84593618837762, 31.996337873042872]}}, {"type": "Feature", "properties": {"OBJECTID": 13496677, "LAYER_ID": 1234015, "GROUP_ID": 196926, "DEFQ": 0, "DATA_DATE": null, "MAVAT_CODE": 0, "MAVAT_NAME": "", "TYPE_CODE": 0, "LABEL": "", "LOT_NUM": 6258, "GUSH_SUFFI": 0, "PARCEL_NUM": 63, "CALC_AREA": 0.0, "LEGAL_AREA": 0.0, "IS_ANALITY": 0, "STATUS": 0, "PLAN_NAME": "", "AGAM_ID": 4000266689.0, "FONT_SIZE": 2.5, "ROTATION": 0.0}, "geometry": {"type": "Point", "coordinates": [34.84440655311059, 31.994064591647795]}}, {"type": "Feature", "properties": {"OBJECTID": 13496678, "LAYER_ID": 1234015, "GROUP_ID": 196926, "DEFQ": 0, "DATA_DATE": null, "MAVAT_CODE": 0, "MAVAT_NAME": "", "TYPE_CODE": 0, "LABEL": "", "LOT_NUM": 6258, "GUSH_SUFFI": 0, "PARCEL_NUM": 62, "CALC_AREA": 0.0, "LEGAL_AREA": 0.0, "IS_ANALITY": 0, "STATUS": 0, "PLAN_NAME": "", "AGAM_ID": 4000266689.0, "FONT_SIZE": 2.5, "ROTATION": 0.0}, "geometry": {"type": "Point", "coordinates": [34.8444913441008, 31.992525904213725]}}, {"type": "Feature", "properties": {"OBJECTID": 13496679, "LAYER_ID": 1234015, "GROUP_ID": 196926, "DEFQ": 0, "DATA_DATE": null, "MAVAT_CODE": 0, "MAVAT_NAME": "", "TYPE_CODE": 0, "LABEL": "", "LOT_NUM": 6258, "GUSH_SUFFI": 0, "PARCEL_NUM": 10, "CALC_AREA": 0.0, "LEGAL_AREA": 0.0, "IS_ANALITY": 0, "STATUS": 0, "PLAN_NAME": "", "AGAM_ID": 4000266689.0, "FONT_SIZE": 2.5, "ROTATION": 0.0}, "geometry": {"type": "Point", "coordinates": [34.84672790618542, 31.996115850613442]}}, {"type": "Feature", "properties": {"OBJECTID": 13496680, "LAYER_ID": 1234015, "GROUP_ID": 196926, "DEFQ": 0, "DATA_DATE": null, "MAVAT_CODE": 0, "MAVAT_NAME": "", "TYPE_CODE": 0, "LABEL": "", "LOT_NUM": 6258, "GUSH_SUFFI": 0, "PARCEL_NUM": 58, "CALC_AREA": 0.0, "LEGAL_AREA": 0.0, "IS_ANALITY": 0, "STATUS": 0, "PLAN_NAME": "", "AGAM_ID": 4000266689.0, "FONT_SIZE": 2.5, "ROTATION": 0.0}, "geometry": {"type": "Point", "coordinates": [34.84656526325797, 31.99613386096559]}}, {"type": "Feature", "properties": {"OBJECTID": 13496681, "LAYER_ID": 1234015, "GROUP_ID": 196926, "DEFQ": 0, "DATA_DATE": null, "MAVAT_CODE": 0, "MAVAT_NAME": "", "TYPE_CODE": 0, "LABEL": "", "LOT_NUM": 6258, "GUSH_SUFFI": 0, "PARCEL_NUM": 89, "CALC_AREA": 0.0, "LEGAL_AREA": 0.0, "IS_ANALITY": 0, "STATUS": 0, "PLAN_NAME": "", "AGAM_ID": 4000266689.0, "FONT_SIZE": 2.5, "ROTATION": 0.0}, "geometry": {"type": "Point", "coordinates": [34.84739024894121, 31.99584656195143]}}, {"type": "Feature", "properties": {"OBJECTID": 13496682, "LAYER_ID": 1234015, "GROUP_ID": 196926, "DEFQ": 0, "DATA_DATE": null, "MAVAT_CODE": 0, "MAVAT_NAME": "", "TYPE_CODE": 0, "LABEL": "", "LOT_NUM": 6258, "GUSH_SUFFI": 0, "PARCEL_NUM": 71, "CALC_AREA": 0.0, "LEGAL_AREA": 0.0, "IS_ANALITY": 0, "STATUS": 0, "PLAN_NAME": "", "AGAM_ID": 4000266689.0, "FONT_SIZE": 2.5, "ROTATION": 0.0}, "geometry": {"type": "Point", "coordinates": [34.84267507057197, 31.997908869446146]}}, {"type": "Feature", "properties": {"OBJECTID": 13496683, "LAYER_ID": 1234015, "GROUP_ID": 196926, "DEFQ": 0, "DATA_DATE": null, "MAVAT_CODE": 0, "MAVAT_NAME": "", "TYPE_CODE": 0, "LABEL": "", "LOT_NUM": 6258, "GUSH_SUFFI": 0, "PARCEL_NUM": 65, "CALC_AREA": 0.0, "LEGAL_AREA": 0.0, "IS_ANALITY": 0, "STATUS": 0, "PLAN_NAME": "", "AGAM_ID": 4000266689.0, "FONT_SIZE": 2.5, "ROTATION": 0.0}, "geometry": {"type": "Point", "coordinates": [34.84396794392588, 31.99625854804533]}}, {"type": "Feature", "properties": {"OBJECTID": 13496684, "LAYER_ID": 1234015, "GROUP_ID": 196926, "DEFQ": 0, "DATA_DATE": null, "MAVAT_CODE": 0, "MAVAT_NAME": "", "TYPE_CODE": 0, "LABEL": "", "LOT_NUM": 6258, "GUSH_SUFFI": 0, "PARCEL_NUM": 82, "CALC_AREA": 0.0, "LEGAL_AREA": 0.0, "IS_ANALITY": 0, "STATUS": 0, "PLAN_NAME": "", "AGAM_ID": 4000266689.0, "FONT_SIZE": 2.5, "ROTATION": 0.0}, "geometry": {"type": "Point", "coordinates": [34.84532668110307, 31.992735391318064]}}, {"type": "Feature", "properties": {"OBJECTID": 13496685, "LAYER_ID": 1234015, "GROUP_ID": 196926, "DEFQ": 0, "DATA_DATE": null, "MAVAT_CODE": 0, "MAVAT_NAME": "", "TYPE_CODE": 0, "LABEL": "", "LOT_NUM": 6258, "GUSH_SUFFI": 0, "PARCEL_NUM": 60, "CALC_AREA": 0.0, "LEGAL_AREA": 0.0, "IS_ANALITY": 0, "STATUS": 0, "PLAN_NAME": "", "AGAM_ID": 4000266689.0, "FONT_SIZE": 2.5, "ROTATION": 0.0}, "geometry": {"type": "Point", "coordinates": [34.84456009267122, 31.993062715065054]}}, {"type": "Feature", "properties": {"OBJECTID": 13496686, "LAYER_ID": 1234015, "GROUP_ID": 196926, "DEFQ": 0, "DATA_DATE": null, "MAVAT_CODE": 0, "MAVAT_NAME": "", "TYPE_CODE": 0, "LABEL": "", "LOT_NUM": 6258, "GUSH_SUFFI": 0, "PARCEL_NUM": 3, "CALC_AREA": 0.0, "LEGAL_AREA": 0.0, "IS_ANALITY": 0, "STATUS": 0, "PLAN_NAME": "", "AGAM_ID": 4000266689.0, "FONT_SIZE": 2.5, "ROTATION": 0.0}, "geometry": {"type": "Point", "coordinates": [34.844703573677414, 31.997613924822474]}}, {"type": "Feature", "properties": {"OBJECTID": 13496687, "LAYER_ID": 1234015, "GROUP_ID": 196926, "DEFQ": 0, "DATA_DATE": null, "MAVAT_CODE": 0, "MAVAT_NAME": "", "TYPE_CODE": 0, "LABEL": "", "LOT_NUM": 6258, "GUSH_SUFFI": 0, "PARCEL_NUM": 70, "CALC_AREA": 0.0, "LEGAL_AREA": 0.0, "IS_ANALITY": 0, "STATUS": 0, "PLAN_NAME": "", "AGAM_ID": 4000266689.0, "FONT_SIZE": 2.5, "ROTATION": 0.0}, "geometry": {"type": "Point", "coordinates": [34.842650065136546, 31.997657498435554]}}, {"type": "Feature", "properties": {"OBJECTID": 13496688, "LAYER_ID": 1234015, "GROUP_ID": 196926, "DEFQ": 0, "DATA_DATE": null, "MAVAT_CODE": 0, "MAVAT_NAME": "", "TYPE_CODE": 0, "LABEL": "", "LOT_NUM": 6258, "GUSH_SUFFI": 0, "PARCEL_NUM": 69, "CALC_AREA": 0.0, "LEGAL_AREA": 0.0, "IS_ANALITY": 0, "STATUS": 0, "PLAN_NAME": "", "AGAM_ID": 4000266689.0, "FONT_SIZE": 2.5, "ROTATION": 0.0}, "geometry": {"type": "Point", "coordinates": [34.84266253078469, 31.996887149806334]}}, {"type": "Feature", "properties": {"OBJECTID": 13496689, "LAYER_ID": 1234015, "GROUP_ID": 196926, "DEFQ": 0, "DATA_DATE": null, "MAVAT_CODE": 0, "MAVAT_NAME": "", "TYPE_CODE": 0, "LABEL": "", "LOT_NUM": 6258, "GUSH_SUFFI": 0, "PARCEL_NUM": 61, "CALC_AREA": 0.0, "LEGAL_AREA": 0.0, "IS_ANALITY": 0, "STATUS": 0, "PLAN_NAME": "", "AGAM_ID": 4000266689.0, "FONT_SIZE": 2.5, "ROTATION": 0.0}, "geometry": {"type": "Point", "coordinates": [34.84400041725997, 31.99251441249392]}}, {"type": "Feature", "properties": {"OBJECTID": 13496690, "LAYER_ID": 1234015, "GROUP_ID": 196926, "DEFQ": 0, "DATA_DATE": null, "MAVAT_CODE": 0, "MAVAT_NAME": "", "TYPE_CODE": 0, "LABEL": "", "LOT_NUM": 6258, "GUSH_SUFFI": 0, "PARCEL_NUM": 2, "CALC_AREA": 0.0, "LEGAL_AREA": 0.0, "IS_ANALITY": 0, "STATUS": 0, "PLAN_NAME": "", "AGAM_ID": 4000266689.0, "FONT_SIZE": 2.5, "ROTATION": 0.0}, "geometry": {"type": "Point", "coordinates": [34.8442451422806, 31.99806512700723]}}, {"type": "Feature", "properties": {"OBJECTID": 13496691, "LAYER_ID": 1234015, "GROUP_ID": 196926, "DEFQ": 0, "DATA_DATE": null, "MAVAT_CODE": 0, "MAVAT_NAME": "", "TYPE_CODE": 0, "LABEL": "", "LOT_NUM": 6258, "GUSH_SUFFI": 0, "PARCEL_NUM": 54, "CALC_AREA": 0.0, "LEGAL_AREA": 0.0, "IS_ANALITY": 0, "STATUS": 0, "PLAN_NAME": "", "AGAM_ID": 4000266689.0, "FONT_SIZE": 2.5, "ROTATION": 0.0}, "geometry": {"type": "Point", "coordinates": [34.84646192391992, 31.995706872712883]}}, {"type": "Feature", "properties": {"OBJECTID": 13496692, "LAYER_ID": 1234015, "GROUP_ID": 196926, "DEFQ": 0, "DATA_DATE": null, "MAVAT_CODE": 0, "MAVAT_NAME": "", "TYPE_CODE": 0, "LABEL": "", "LOT_NUM": 6258, "GUSH_SUFFI": 0, "PARCEL_NUM": 57, "CALC_AREA": 0.0, "LEGAL_AREA": 0.0, "IS_ANALITY": 0, "STATUS": 0, "PLAN_NAME": "", "AGAM_ID": 4000266689.0, "FONT_SIZE": 2.5, "ROTATION": 0.0}, "geometry": {"type": "Point", "coordinates": [34.8464577435505, 31.996186475466008]}}, {"type": "Feature", "properties": {"OBJECTID": 13496693, "LAYER_ID": 1234015, "GROUP_ID": 196926, "DEFQ": 0, "DATA_DATE": null, "MAVAT_CODE": 0, "MAVAT_NAME": "", "TYPE_CODE": 0, "LABEL": "", "LOT_NUM": 6258, "GUSH_SUFFI": 0, "PARCEL_NUM": 8, "CALC_AREA": 0.0, "LEGAL_AREA": 0.0, "IS_ANALITY": 0, "STATUS": 0, "PLAN_NAME": "", "AGAM_ID": 4000266689.0, "FONT_SIZE": 2.5, "ROTATION": 0.0}, "geometry": {"type": "Point", "coordinates": [34.84671886007374, 31.99639188843743]}}, {"type": "Feature", "properties": {"OBJECTID": 13496694, "LAYER_ID": 1234015, "GROUP_ID": 196926, "DEFQ": 0, "DATA_DATE": null, "MAVAT_CODE": 0, "MAVAT_NAME": "", "TYPE_CODE": 0, "LABEL": "", "LOT_NUM": 6258, "GUSH_SUFFI": 0, "PARCEL_NUM": 66, "CALC_AREA": 0.0, "LEGAL_AREA": 0.0, "IS_ANALITY": 0, "STATUS": 0, "PLAN_NAME": "", "AGAM_ID": 4000266689.0, "FONT_SIZE": 2.5, "ROTATION": 0.0}, "geometry": {"type": "Point", "coordinates": [34.84343458554325, 31.99795670867125]}}, {"type": "Feature", "properties": {"OBJECTID": 13496695, "LAYER_ID": 1234015, "GROUP_ID": 196926, "DEFQ": 0, "DATA_DATE": null, "MAVAT_CODE": 0, "MAVAT_NAME": "", "TYPE_CODE": 0, "LABEL": "", "LOT_NUM": 6258, "GUSH_SUFFI": 0, "PARCEL_NUM": 73, "CALC_AREA": 0.0, "LEGAL_AREA": 0.0, "IS_ANALITY": 0, "STATUS": 0, "PLAN_NAME": "", "AGAM_ID": 4000266689.0, "FONT_SIZE": 2.5, "ROTATION": 0.0}, "geometry": {"type": "Point", "coordinates": [34.84276728448736, 31.99709734281865]}}, {"type": "Feature", "properties": {"OBJECTID": 13496696, "LAYER_ID": 1234015, "GROUP_ID": 196926, "DEFQ": 0, "DATA_DATE": null, "MAVAT_CODE": 0, "MAVAT_NAME": "", "TYPE_CODE": 0, "LABEL": "", "LOT_NUM": 6258, "GUSH_SUFFI": 0, "PARCEL_NUM": 4, "CALC_AREA": 0.0, "LEGAL_AREA": 0.0, "IS_ANALITY": 0, "STATUS": 0, "PLAN_NAME": "", "AGAM_ID": 4000266689.0, "FONT_SIZE": 2.5, "ROTATION": 0.0}, "geometry": {"type": "Point", "coordinates": [34.84464251177593, 31.997316315758138]}}, {"type": "Feature", "properties": {"OBJECTID": 13496697, "LAYER_ID": 1234015, "GROUP_ID": 196926, "DEFQ": 0, "DATA_DATE": null, "MAVAT_CODE": 0, "MAVAT_NAME": "", "TYPE_CODE": 0, "LABEL": "", "LOT_NUM": 6258, "GUSH_SUFFI": 0, "PARCEL_NUM": 64, "CALC_AREA": 0.0, "LEGAL_AREA": 0.0, "IS_ANALITY": 0, "STATUS": 0, "PLAN_NAME": "", "AGAM_ID": 4000266689.0, "FONT_SIZE": 2.5, "ROTATION": 0.0}, "geometry": {"type": "Point", "coordinates": [34.84419564731953, 31.995153083675643]}}, {"type": "Feature", "properties": {"OBJECTID": 13496698, "LAYER_ID": 1234015, "GROUP_ID": 196926, "DEFQ": 0, "DATA_DATE": null, "MAVAT_CODE": 0, "MAVAT_NAME": "", "TYPE_CODE": 0, "LABEL": "", "LOT_NUM": 6258, "GUSH_SUFFI": 0, "PARCEL_NUM": 67, "CALC_AREA": 0.0, "LEGAL_AREA": 0.0, "IS_ANALITY": 0, "STATUS": 0, "PLAN_NAME": "", "AGAM_ID": 4000266689.0, "FONT_SIZE": 2.5, "ROTATION": 0.0}, "geometry": {"type": "Point", "coordinates": [34.842991689656785, 31.99450039328606]}}, {"type": "Feature", "properties": {"OBJECTID": 13496699, "LAYER_ID": 1234015, "GROUP_ID": 196926, "DEFQ": 0, "DATA_DATE": null, "MAVAT_CODE": 0, "MAVAT_NAME": "", "TYPE_CODE": 0, "LABEL": "", "LOT_NUM": 6258, "GUSH_SUFFI": 0, "PARCEL_NUM": 50, "CALC_AREA": 0.0, "LEGAL_AREA": 0.0, "IS_ANALITY": 0, "STATUS": 0, "PLAN_NAME": "", "AGAM_ID": 4000266689.0, "FONT_SIZE": 2.5, "ROTATION": 0.0}, "geometry": {"type": "Point", "coordinates": [34.845230919842464, 31.99718353301951]}}, {"type": "Feature", "properties": {"OBJECTID": 13496700, "LAYER_ID": 1234015, "GROUP_ID": 196926, "DEFQ": 0, "DATA_DATE": null, "MAVAT_CODE": 0, "MAVAT_NAME": "", "TYPE_CODE": 0, "LABEL": "", "LOT_NUM": 6258, "GUSH_SUFFI": 0, "PARCEL_NUM": 87, "CALC_AREA": 0.0, "LEGAL_AREA": 0.0, "IS_ANALITY": 0, "STATUS": 0, "PLAN_NAME": "", "AGAM_ID": 4000266689.0, "FONT_SIZE": 2.5, "ROTATION": 0.0}, "geometry": {"type": "Point", "coordinates": [34.84594867517527, 31.997079492722666]}}, {"type": "Feature", "properties": {"OBJECTID": 13496701, "LAYER_ID": 1234015, "GROUP_ID": 196926, "DEFQ": 0, "DATA_DATE": null, "MAVAT_CODE": 0, "MAVAT_NAME": "", "TYPE_CODE": 0, "LABEL": "", "LOT_NUM": 6258, "GUSH_SUFFI": 0, "PARCEL_NUM": 72, "CALC_AREA": 0.0, "LEGAL_AREA": 0.0, "IS_ANALITY": 0, "STATUS": 0, "PLAN_NAME": "", "AGAM_ID": 4000266689.0, "FONT_SIZE": 2.5, "ROTATION": 0.0}, "geometry": {"type": "Point", "coordinates": [34.84271739270443, 31.998064359731266]}}, {"type": "Feature", "properties": {"OBJECTID": 13496702, "LAYER_ID": 1234015, "GROUP_ID": 196926, "DEFQ": 0, "DATA_DATE": null, "MAVAT_CODE": 0, "MAVAT_NAME": "", "TYPE_CODE": 0, "LABEL": "", "LOT_NUM": 6260, "GUSH_SUFFI": 0, "PARCEL_NUM": 9, "CALC_AREA": 0.0, "LEGAL_AREA": 0.0, "IS_ANALITY": 0, "STATUS": 0, "PLAN_NAME": "", "AGAM_ID": 4000266689.0, "FONT_SIZE": 2.5, "ROTATION": 0.0}, "geometry": {"type": "Point", "coordinates": [34.852861144713394, 31.994453698758235]}}, {"type": "Feature", "properties": {"OBJECTID": 13496703, "LAYER_ID": 1234015, "GROUP_ID": 196926, "DEFQ": 0, "DATA_DATE": null, "MAVAT_CODE": 0, "MAVAT_NAME": "", "TYPE_CODE": 0, "LABEL": "", "LOT_NUM": 6260, "GUSH_SUFFI": 0, "PARCEL_NUM": 36, "CALC_AREA": 0.0, "LEGAL_AREA": 0.0, "IS_ANALITY": 0, "STATUS": 0, "PLAN_NAME": "", "AGAM_ID": 4000266689.0, "FONT_SIZE": 2.5, "ROTATION": 0.0}, "geometry": {"type": "Point", "coordinates": [34.849915715069045, 31.99545887107388]}}, {"type": "Feature", "properties": {"OBJECTID": 13496704, "LAYER_ID": 1234015, "GROUP_ID": 196926, "DEFQ": 0, "DATA_DATE": null, "MAVAT_CODE": 0, "MAVAT_NAME": "", "TYPE_CODE": 0, "LABEL": "", "LOT_NUM": 6260, "GUSH_SUFFI": 0, "PARCEL_NUM": 44, "CALC_AREA": 0.0, "LEGAL_AREA": 0.0, "IS_ANALITY": 0, "STATUS": 0, "PLAN_NAME": "", "AGAM_ID": 4000266689.0, "FONT_SIZE": 2.5, "ROTATION": 0.0}, "geometry": {"type": "Point", "coordinates": [34.85305004830228, 31.99172537325826]}}, {"type": "Feature", "properties": {"OBJECTID": 13496705, "LAYER_ID": 1234015, "GROUP_ID": 196926, "DEFQ": 0, "DATA_DATE": null, "MAVAT_CODE": 0, "MAVAT_NAME": "", "TYPE_CODE": 0, "LABEL": "", "LOT_NUM": 6260, "GUSH_SUFFI": 0, "PARCEL_NUM": 10, "CALC_AREA": 0.0, "LEGAL_AREA": 0.0, "IS_ANALITY": 0, "STATUS": 0, "PLAN_NAME": "", "AGAM_ID": 4000266689.0, "FONT_SIZE": 2.5, "ROTATION": 0.0}, "geometry": {"type": "Point", "coordinates": [34.85329513332058, 31.993757487461675]}}, {"type": "Feature", "properties": {"OBJECTID": 13496706, "LAYER_ID": 1234015, "GROUP_ID": 196926, "DEFQ": 0, "DATA_DATE": null, "MAVAT_CODE": 0, "MAVAT_NAME": "", "TYPE_CODE": 0, "LABEL": "", "LOT_NUM": 6260, "GUSH_SUFFI": 0, "PARCEL_NUM": 57, "CALC_AREA": 0.0, "LEGAL_AREA": 5.537, "IS_ANALITY": 0, "STATUS": 0, "PLAN_NAME": "", "AGAM_ID": 4000266689.0, "FONT_SIZE": 2.5, "ROTATION": 0.0}, "geometry": {"type": "Point", "coordinates": [34.85194764433882, 31.990207043222828]}}, {"type": "Feature", "properties": {"OBJECTID": 13496707, "LAYER_ID": 1234015, "GROUP_ID": 196926, "DEFQ": 0, "DATA_DATE": null, "MAVAT_CODE": 0, "MAVAT_NAME": "", "TYPE_CODE": 0, "LABEL": "", "LOT_NUM": 6260, "GUSH_SUFFI": 0, "PARCEL_NUM": 60, "CALC_AREA": 0.0, "LEGAL_AREA": 0.0, "IS_ANALITY": 0, "STATUS": 0, "PLAN_NAME": "", "AGAM_ID": 4000266689.0, "FONT_SIZE": 2.5, "ROTATION": 0.0}, "geometry": {"type": "Point", "coordinates": [34.85198064960598, 31.99177128919553]}}, {"type": "Feature", "properties": {"OBJECTID": 13496708, "LAYER_ID": 1234015, "GROUP_ID": 196926, "DEFQ": 0, "DATA_DATE": null, "MAVAT_CODE": 0, "MAVAT_NAME": "", "TYPE_CODE": 0, "LABEL": "", "LOT_NUM": 6260, "GUSH_SUFFI": 0, "PARCEL_NUM": 68, "CALC_AREA": 0.0, "LEGAL_AREA": 2.093, "IS_ANALITY": 0, "STATUS": 0, "PLAN_NAME": "", "AGAM_ID": 4000266689.0, "FONT_SIZE": 2.5, "ROTATION": 0.0}, "geometry": {"type": "Point", "coordinates": [34.851633588980384, 31.990148545353613]}}, {"type": "Feature", "properties": {"OBJECTID": 13496709, "LAYER_ID": 1234015, "GROUP_ID": 196926, "DEFQ": 0, "DATA_DATE": null, "MAVAT_CODE": 0, "MAVAT_NAME": "", "TYPE_CODE": 0, "LABEL": "", "LOT_NUM": 6260, "GUSH_SUFFI": 0, "PARCEL_NUM": 45, "CALC_AREA": 0.0, "LEGAL_AREA": 0.0, "IS_ANALITY": 0, "STATUS": 0, "PLAN_NAME": "", "AGAM_ID": 4000266689.0, "FONT_SIZE": 2.5, "ROTATION": 0.0}, "geometry": {"type": "Point", "coordinates": [34.851580190875055, 31.991933718414924]}}, {"type": "Feature", "properties": {"OBJECTID": 13496710, "LAYER_ID": 1234015, "GROUP_ID": 196926, "DEFQ": 0, "DATA_DATE": null, "MAVAT_CODE": 0, "MAVAT_NAME": "", "TYPE_CODE": 0, "LABEL": "", "LOT_NUM": 6260, "GUSH_SUFFI": 0, "PARCEL_NUM": 62, "CALC_AREA": 0.0, "LEGAL_AREA": 1.836, "IS_ANALITY": 0, "STATUS": 0, "PLAN_NAME": "", "AGAM_ID": 4000266689.0, "FONT_SIZE": 2.5, "ROTATION": 0.0}, "geometry": {"type": "Point", "coordinates": [34.85231664481031, 31.990295587552726]}}, {"type": "Feature", "properties": {"OBJECTID": 13496711, "LAYER_ID": 1234015, "GROUP_ID": 196926, "DEFQ": 0, "DATA_DATE": null, "MAVAT_CODE": 0, "MAVAT_NAME": "", "TYPE_CODE": 0, "LABEL": "", "LOT_NUM": 6260, "GUSH_SUFFI": 0, "PARCEL_NUM": 53, "CALC_AREA": 0.0, "LEGAL_AREA": 0.0, "IS_ANALITY": 0, "STATUS": 0, "PLAN_NAME": "", "AGAM_ID": 4000266689.0, "FONT_SIZE": 2.5, "ROTATION": 0.0}, "geometry": {"type": "Point", "coordinates": [34.85172991551051, 31.991163047810748]}}, {"type": "Feature", "properties": {"OBJECTID": 13496712, "LAYER_ID": 1234015, "GROUP_ID": 196926, "DEFQ": 0, "DATA_DATE": null, "MAVAT_CODE": 0, "MAVAT_NAME": "", "TYPE_CODE": 0, "LABEL": "", "LOT_NUM": 6260, "GUSH_SUFFI": 0, "PARCEL_NUM": 90, "CALC_AREA": 0.0, "LEGAL_AREA": 0.657, "IS_ANALITY": 0, "STATUS": 0, "PLAN_NAME": "", "AGAM_ID": 4000266689.0, "FONT_SIZE": 2.5, "ROTATION": 0.0}, "geometry": {"type": "Point", "coordinates": [34.852768875863276, 31.989447629364257]}}, {"type": "Feature", "properties": {"OBJECTID": 13496713, "LAYER_ID": 1234015, "GROUP_ID": 196926, "DEFQ": 0, "DATA_DATE": null, "MAVAT_CODE": 0, "MAVAT_NAME": "", "TYPE_CODE": 0, "LABEL": "", "LOT_NUM": 6260, "GUSH_SUFFI": 0, "PARCEL_NUM": 12, "CALC_AREA": 0.0, "LEGAL_AREA": 0.0, "IS_ANALITY": 0, "STATUS": 0, "PLAN_NAME": "", "AGAM_ID": 4000266689.0, "FONT_SIZE": 2.5, "ROTATION": 0.0}, "geometry": {"type": "Point", "coordinates": [34.8514098984457, 31.99628998939717]}}, {"type": "Feature", "properties": {"OBJECTID": 13496714, "LAYER_ID": 1234015, "GROUP_ID": 196926, "DEFQ": 0, "DATA_DATE": null, "MAVAT_CODE": 0, "MAVAT_NAME": "", "TYPE_CODE": 0, "LABEL": "", "LOT_NUM": 6260, "GUSH_SUFFI": 0, "PARCEL_NUM": 94, "CALC_AREA": 0.0, "LEGAL_AREA": 0.101, "IS_ANALITY": 0, "STATUS": 0, "PLAN_NAME": "", "AGAM_ID": 4000266689.0, "FONT_SIZE": 2.5, "ROTATION": 0.0}, "geometry": {"type": "Point", "coordinates": [34.85244059846444, 31.98942920630632]}}, {"type": "Feature", "properties": {"OBJECTID": 13496715, "LAYER_ID": 1234015, "GROUP_ID": 196926, "DEFQ": 0, "DATA_DATE": null, "MAVAT_CODE": 0, "MAVAT_NAME": "", "TYPE_CODE": 0, "LABEL": "", "LOT_NUM": 6260, "GUSH_SUFFI": 0, "PARCEL_NUM": 1, "CALC_AREA": 0.0, "LEGAL_AREA": 0.0, "IS_ANALITY": 0, "STATUS": 0, "PLAN_NAME": "", "AGAM_ID": 4000266689.0, "FONT_SIZE": 2.5, "ROTATION": 0.0}, "geometry": {"type": "Point", "coordinates": [34.84897132979227, 31.996253906025306]}}, {"type": "Feature", "properties": {"OBJECTID": 13496716, "LAYER_ID": 1234015, "GROUP_ID": 196926, "DEFQ": 0, "DATA_DATE": null, "MAVAT_CODE": 0, "MAVAT_NAME": "", "TYPE_CODE": 0, "LABEL": "", "LOT_NUM": 6260, "GUSH_SUFFI": 0, "PARCEL_NUM": 64, "CALC_AREA": 0.0, "LEGAL_AREA": 2.086, "IS_ANALITY": 0, "STATUS": 0, "PLAN_NAME": "", "AGAM_ID": 4000266689.0, "FONT_SIZE": 2.5, "ROTATION": 0.0}, "geometry": {"type": "Point", "coordinates": [34.85250735489222, 31.988665102096004]}}, {"type": "Feature", "properties": {"OBJECTID": 13496717, "LAYER_ID": 1234015, "GROUP_ID": 196926, "DEFQ": 0, "DATA_DATE": null, "MAVAT_CODE": 0, "MAVAT_NAME": "", "TYPE_CODE": 0, "LABEL": "", "LOT_NUM": 6260, "GUSH_SUFFI": 0, "PARCEL_NUM": 32, "CALC_AREA": 0.0, "LEGAL_AREA": 0.0, "IS_ANALITY": 0, "STATUS": 0, "PLAN_NAME": "", "AGAM_ID": 4000266689.0, "FONT_SIZE": 2.5, "ROTATION": 0.0}, "geometry": {"type": "Point", "coordinates": [34.84944678187382, 31.99498542145778]}}, {"type": "Feature", "properties": {"OBJECTID": 13496718, "LAYER_ID": 1234015, "GROUP_ID": 196926, "DEFQ": 0, "DATA_DATE": null, "MAVAT_CODE": 0, "MAVAT_NAME": "", "TYPE_CODE": 0, "LABEL": "", "LOT_NUM": 6260, "GUSH_SUFFI": 0, "PARCEL_NUM": 85, "CALC_AREA": 0.0, "LEGAL_AREA": 0.692, "IS_ANALITY": 0, "STATUS": 0, "PLAN_NAME": "", "AGAM_ID": 4000266689.0, "FONT_SIZE": 2.5, "ROTATION": 0.0}, "geometry": {"type": "Point", "coordinates": [34.85284958639115, 31.99003962182686]}}, {"type": "Feature", "properties": {"OBJECTID": 13496719, "LAYER_ID": 1234015, "GROUP_ID": 196926, "DEFQ": 0, "DATA_DATE": null, "MAVAT_CODE": 0, "MAVAT_NAME": "", "TYPE_CODE": 0, "LABEL": "", "LOT_NUM": 6260, "GUSH_SUFFI": 0, "PARCEL_NUM": 47, "CALC_AREA": 0.0, "LEGAL_AREA": 0.0, "IS_ANALITY": 0, "STATUS": 0, "PLAN_NAME": "", "AGAM_ID": 4000266689.0, "FONT_SIZE": 2.5, "ROTATION": 0.0}, "geometry": {"type": "Point", "coordinates": [34.8511883528347, 31.99190282377445]}}, {"type": "Feature", "properties": {"OBJECTID": 13496720, "LAYER_ID": 1234015, "GROUP_ID": 196926, "DEFQ": 0, "DATA_DATE": null, "MAVAT_CODE": 0, "MAVAT_NAME": "", "TYPE_CODE": 0, "LABEL": "", "LOT_NUM": 6260, "GUSH_SUFFI": 0, "PARCEL_NUM": 87, "CALC_AREA": 0.0, "LEGAL_AREA": 0.723, "IS_ANALITY": 0, "STATUS": 0, "PLAN_NAME": "", "AGAM_ID": 4000266689.0, "FONT_SIZE": 2.5, "ROTATION": 0.0}, "geometry": {"type": "Point", "coordinates": [34.85251617131844, 31.989563131695864]}}, {"type": "Feature", "properties": {"OBJECTID": 13496721, "LAYER_ID": 1234015, "GROUP_ID": 196926, "DEFQ": 0, "DATA_DATE": null, "MAVAT_CODE": 0, "MAVAT_NAME": "", "TYPE_CODE": 0, "LABEL": "", "LOT_NUM": 6260, "GUSH_SUFFI": 0, "PARCEL_NUM": 25, "CALC_AREA": 0.0, "LEGAL_AREA": 0.0, "IS_ANALITY": 0, "STATUS": 0, "PLAN_NAME": "", "AGAM_ID": 4000266689.0, "FONT_SIZE": 2.5, "ROTATION": 0.0}, "geometry": {"type": "Point", "coordinates": [34.84970045595606, 31.991483528558646]}}, {"type": "Feature", "properties": {"OBJECTID": 13496722, "LAYER_ID": 1234015, "GROUP_ID": 196926, "DEFQ": 0, "DATA_DATE": null, "MAVAT_CODE": 0, "MAVAT_NAME": "", "TYPE_CODE": 0, "LABEL": "", "LOT_NUM": 6260, "GUSH_SUFFI": 0, "PARCEL_NUM": 86, "CALC_AREA": 0.0, "LEGAL_AREA": 0.715, "IS_ANALITY": 0, "STATUS": 0, "PLAN_NAME": "", "AGAM_ID": 4000266689.0, "FONT_SIZE": 2.5, "ROTATION": 0.0}, "geometry": {"type": "Point", "coordinates": [34.85267140014077, 31.989784909691043]}}, {"type": "Feature", "properties": {"OBJECTID": 13496723, "LAYER_ID": 1234015, "GROUP_ID": 196926, "DEFQ": 0, "DATA_DATE": null, "MAVAT_CODE": 0, "MAVAT_NAME": "", "TYPE_CODE": 0, "LABEL": "", "LOT_NUM": 6260, "GUSH_SUFFI": 0, "PARCEL_NUM": 72, "CALC_AREA": 0.0, "LEGAL_AREA": 0.0, "IS_ANALITY": 0, "STATUS": 0, "PLAN_NAME": "", "AGAM_ID": 4000266689.0, "FONT_SIZE": 2.5, "ROTATION": 0.0}, "geometry": {"type": "Point", "coordinates": [34.8496173920875, 31.99074584683805]}}, {"type": "Feature", "properties": {"OBJECTID": 13496724, "LAYER_ID": 1234015, "GROUP_ID": 196926, "DEFQ": 0, "DATA_DATE": null, "MAVAT_CODE": 0, "MAVAT_NAME": "", "TYPE_CODE": 0, "LABEL": "", "LOT_NUM": 6260, "GUSH_SUFFI": 0, "PARCEL_NUM": 91, "CALC_AREA": 0.0, "LEGAL_AREA": 0.826, "IS_ANALITY": 0, "STATUS": 0, "PLAN_NAME": "", "AGAM_ID": 4000266689.0, "FONT_SIZE": 2.5, "ROTATION": 0.0}, "geometry": {"type": "Point", "coordinates": [34.85287581500562, 31.989654669496105]}}, {"type": "Feature", "properties": {"OBJECTID": 13496725, "LAYER_ID": 1234015, "GROUP_ID": 196926, "DEFQ": 0, "DATA_DATE": null, "MAVAT_CODE": 0, "MAVAT_NAME": "", "TYPE_CODE": 0, "LABEL": "", "LOT_NUM": 6260, "GUSH_SUFFI": 0, "PARCEL_NUM": 49, "CALC_AREA": 0.0, "LEGAL_AREA": 0.0, "IS_ANALITY": 0, "STATUS": 0, "PLAN_NAME": "", "AGAM_ID": 4000266689.0, "FONT_SIZE": 2.5, "ROTATION": 0.0}, "geometry": {"type": "Point", "coordinates": [34.85145110672189, 31.99116964399965]}}, {"type": "Feature", "properties": {"OBJECTID": 13496726, "LAYER_ID": 1234015, "GROUP_ID": 196926, "DEFQ": 0, "DATA_DATE": null, "MAVAT_CODE": 0, "MAVAT_NAME": "", "TYPE_CODE": 0, "LABEL": "", "LOT_NUM": 6260, "GUSH_SUFFI": 0, "PARCEL_NUM": 89, "CALC_AREA": 0.0, "LEGAL_AREA": 0.759, "IS_ANALITY": 0, "STATUS": 0, "PLAN_NAME": "", "AGAM_ID": 4000266689.0, "FONT_SIZE": 2.5, "ROTATION": 0.0}, "geometry": {"type": "Point", "coordinates": [34.85250385619431, 31.989139204804687]}}, {"type": "Feature", "properties": {"OBJECTID": 13496727, "LAYER_ID": 1234015, "GROUP_ID": 196926, "DEFQ": 0, "DATA_DATE": null, "MAVAT_CODE": 0, "MAVAT_NAME": "", "TYPE_CODE": 0, "LABEL": "", "LOT_NUM": 6260, "GUSH_SUFFI": 0, "PARCEL_NUM": 80, "CALC_AREA": 0.0, "LEGAL_AREA": 0.0, "IS_ANALITY": 0, "STATUS": 0, "PLAN_NAME": "", "AGAM_ID": 4000266689.0, "FONT_SIZE": 2.5, "ROTATION": 0.0}, "geometry": {"type": "Point", "coordinates": [34.851718985702426, 31.991375184676215]}}, {"type": "Feature", "properties": {"OBJECTID": 13496728, "LAYER_ID": 1234015, "GROUP_ID": 196926, "DEFQ": 0, "DATA_DATE": null, "MAVAT_CODE": 0, "MAVAT_NAME": "", "TYPE_CODE": 0, "LABEL": "", "LOT_NUM": 6260, "GUSH_SUFFI": 0, "PARCEL_NUM": 92, "CALC_AREA": 0.0, "LEGAL_AREA": 0.717, "IS_ANALITY": 0, "STATUS": 0, "PLAN_NAME": "", "AGAM_ID": 4000266689.0, "FONT_SIZE": 2.5, "ROTATION": 0.0}, "geometry": {"type": "Point", "coordinates": [34.85305586738594, 31.989916240224375]}}, {"type": "Feature", "properties": {"OBJECTID": 13496729, "LAYER_ID": 1234015, "GROUP_ID": 196926, "DEFQ": 0, "DATA_DATE": null, "MAVAT_CODE": 0, "MAVAT_NAME": "", "TYPE_CODE": 0, "LABEL": "", "LOT_NUM": 6260, "GUSH_SUFFI": 0, "PARCEL_NUM": 82, "CALC_AREA": 0.0, "LEGAL_AREA": 0.0, "IS_ANALITY": 0, "STATUS": 0, "PLAN_NAME": "", "AGAM_ID": 4000266689.0, "FONT_SIZE": 2.5, "ROTATION": 0.0}, "geometry": {"type": "Point", "coordinates": [34.85235575818029, 31.99092111831857]}}, {"type": "Feature", "properties": {"OBJECTID": 13496730, "LAYER_ID": 1234015, "GROUP_ID": 196926, "DEFQ": 0, "DATA_DATE": null, "MAVAT_CODE": 0, "MAVAT_NAME": "", "TYPE_CODE": 0, "LABEL": "", "LOT_NUM": 6260, "GUSH_SUFFI": 0, "PARCEL_NUM": 70, "CALC_AREA": 0.0, "LEGAL_AREA": 0.052, "IS_ANALITY": 0, "STATUS": 0, "PLAN_NAME": "", "AGAM_ID": 4000266689.0, "FONT_SIZE": 2.5, "ROTATION": 0.0}, "geometry": {"type": "Point", "coordinates": [34.85226885460816, 31.989014870588075]}}, {"type": "Feature", "properties": {"OBJECTID": 13496731, "LAYER_ID": 1234015, "GROUP_ID": 196926, "DEFQ": 0, "DATA_DATE": null, "MAVAT_CODE": 0, "MAVAT_NAME": "", "TYPE_CODE": 0, "LABEL": "", "LOT_NUM": 6260, "GUSH_SUFFI": 0, "PARCEL_NUM": 8, "CALC_AREA": 0.0, "LEGAL_AREA": 0.0, "IS_ANALITY": 0, "STATUS": 0, "PLAN_NAME": "", "AGAM_ID": 4000266689.0, "FONT_SIZE": 2.5, "ROTATION": 0.0}, "geometry": {"type": "Point", "coordinates": [34.85060190375643, 31.996242593038925]}}, {"type": "Feature", "properties": {"OBJECTID": 13496732, "LAYER_ID": 1234015, "GROUP_ID": 196926, "DEFQ": 0, "DATA_DATE": null, "MAVAT_CODE": 0, "MAVAT_NAME": "", "TYPE_CODE": 0, "LABEL": "", "LOT_NUM": 6260, "GUSH_SUFFI": 0, "PARCEL_NUM": 88, "CALC_AREA": 0.0, "LEGAL_AREA": 0.735, "IS_ANALITY": 0, "STATUS": 0, "PLAN_NAME": "", "AGAM_ID": 4000266689.0, "FONT_SIZE": 2.5, "ROTATION": 0.0}, "geometry": {"type": "Point", "coordinates": [34.85238578611773, 31.989308100781905]}}, {"type": "Feature", "properties": {"OBJECTID": 13496733, "LAYER_ID": 1234015, "GROUP_ID": 196926, "DEFQ": 0, "DATA_DATE": null, "MAVAT_CODE": 0, "MAVAT_NAME": "", "TYPE_CODE": 0, "LABEL": "", "LOT_NUM": 6260, "GUSH_SUFFI": 0, "PARCEL_NUM": 5, "CALC_AREA": 0.0, "LEGAL_AREA": 0.0, "IS_ANALITY": 0, "STATUS": 0, "PLAN_NAME": "", "AGAM_ID": 4000266689.0, "FONT_SIZE": 2.5, "ROTATION": 0.0}, "geometry": {"type": "Point", "coordinates": [34.84843247607608, 31.99653087746881]}}, {"type": "Feature", "properties": {"OBJECTID": 13496734, "LAYER_ID": 1234015, "GROUP_ID": 196926, "DEFQ": 0, "DATA_DATE": null, "MAVAT_CODE": 0, "MAVAT_NAME": "", "TYPE_CODE": 0, "LABEL": "", "LOT_NUM": 6260, "GUSH_SUFFI": 0, "PARCEL_NUM": 39, "CALC_AREA": 0.0, "LEGAL_AREA": 1.003, "IS_ANALITY": 0, "STATUS": 0, "PLAN_NAME": "", "AGAM_ID": 4000266689.0, "FONT_SIZE": 2.5, "ROTATION": 0.0}, "geometry": {"type": "Point", "coordinates": [34.850149302032875, 31.989482328224156]}}, {"type": "Feature", "properties": {"OBJECTID": 13496735, "LAYER_ID": 1234015, "GROUP_ID": 196926, "DEFQ": 0, "DATA_DATE": null, "MAVAT_CODE": 0, "MAVAT_NAME": "", "TYPE_CODE": 0, "LABEL": "", "LOT_NUM": 6260, "GUSH_SUFFI": 0, "PARCEL_NUM": 30, "CALC_AREA": 0.0, "LEGAL_AREA": 0.0, "IS_ANALITY": 0, "STATUS": 0, "PLAN_NAME": "", "AGAM_ID": 4000266689.0, "FONT_SIZE": 2.5, "ROTATION": 0.0}, "geometry": {"type": "Point", "coordinates": [34.85133972745594, 31.99102655707652]}}, {"type": "Feature", "properties": {"OBJECTID": 13496736, "LAYER_ID": 1234015, "GROUP_ID": 196926, "DEFQ": 0, "DATA_DATE": null, "MAVAT_CODE": 0, "MAVAT_NAME": "", "TYPE_CODE": 0, "LABEL": "", "LOT_NUM": 6260, "GUSH_SUFFI": 0, "PARCEL_NUM": 95, "CALC_AREA": 0.0, "LEGAL_AREA": 2.495, "IS_ANALITY": 0, "STATUS": 0, "PLAN_NAME": "", "AGAM_ID": 4000266689.0, "FONT_SIZE": 2.5, "ROTATION": 0.0}, "geometry": {"type": "Point", "coordinates": [34.85227562221012, 31.98956557568264]}}, {"type": "Feature", "properties": {"OBJECTID": 13496737, "LAYER_ID": 1234015, "GROUP_ID": 196926, "DEFQ": 0, "DATA_DATE": null, "MAVAT_CODE": 0, "MAVAT_NAME": "", "TYPE_CODE": 0, "LABEL": "", "LOT_NUM": 6260, "GUSH_SUFFI": 0, "PARCEL_NUM": 33, "CALC_AREA": 0.0, "LEGAL_AREA": 0.0, "IS_ANALITY": 0, "STATUS": 0, "PLAN_NAME": "", "AGAM_ID": 4000266689.0, "FONT_SIZE": 2.5, "ROTATION": 0.0}, "geometry": {"type": "Point", "coordinates": [34.84936434427904, 31.99519244850524]}}, {"type": "Feature", "properties": {"OBJECTID": 13496738, "LAYER_ID": 1234015, "GROUP_ID": 196926, "DEFQ": 0, "DATA_DATE": null, "MAVAT_CODE": 0, "MAVAT_NAME": "", "TYPE_CODE": 0, "LABEL": "", "LOT_NUM": 6260, "GUSH_SUFFI": 0, "PARCEL_NUM": 93, "CALC_AREA": 0.0, "LEGAL_AREA": 0.097, "IS_ANALITY": 0, "STATUS": 0, "PLAN_NAME": "", "AGAM_ID": 4000266689.0, "FONT_SIZE": 2.5, "ROTATION": 0.0}, "geometry": {"type": "Point", "coordinates": [34.85276258059233, 31.989913443919285]}}, {"type": "Feature", "properties": {"OBJECTID": 13496739, "LAYER_ID": 1234015, "GROUP_ID": 196926, "DEFQ": 0, "DATA_DATE": null, "MAVAT_CODE": 0, "MAVAT_NAME": "", "TYPE_CODE": 0, "LABEL": "", "LOT_NUM": 6260, "GUSH_SUFFI": 0, "PARCEL_NUM": 54, "CALC_AREA": 0.0, "LEGAL_AREA": 0.0, "IS_ANALITY": 0, "STATUS": 0, "PLAN_NAME": "", "AGAM_ID": 4000266689.0, "FONT_SIZE": 2.5, "ROTATION": 0.0}, "geometry": {"type": "Point", "coordinates": [34.851935747533716, 31.991510092469785]}}, {"type": "Feature", "properties": {"OBJECTID": 13496740, "LAYER_ID": 1234015, "GROUP_ID": 196926, "DEFQ": 0, "DATA_DATE": null, "MAVAT_CODE": 0, "MAVAT_NAME": "", "TYPE_CODE": 0, "LABEL": "", "LOT_NUM": 6260, "GUSH_SUFFI": 0, "PARCEL_NUM": 13, "CALC_AREA": 0.0, "LEGAL_AREA": 0.0, "IS_ANALITY": 0, "STATUS": 0, "PLAN_NAME": "", "AGAM_ID": 4000266689.0, "FONT_SIZE": 2.5, "ROTATION": 0.0}, "geometry": {"type": "Point", "coordinates": [34.8552305329915, 31.992165104997063]}}, {"type": "Feature", "properties": {"OBJECTID": 13496741, "LAYER_ID": 1234015, "GROUP_ID": 196926, "DEFQ": 0, "DATA_DATE": null, "MAVAT_CODE": 0, "MAVAT_NAME": "", "TYPE_CODE": 0, "LABEL": "", "LOT_NUM": 6260, "GUSH_SUFFI": 0, "PARCEL_NUM": 84, "CALC_AREA": 0.0, "LEGAL_AREA": 0.0, "IS_ANALITY": 0, "STATUS": 0, "PLAN_NAME": "", "AGAM_ID": 4000266689.0, "FONT_SIZE": 2.5, "ROTATION": 0.0}, "geometry": {"type": "Point", "coordinates": [34.85208986208875, 31.991309643768094]}}, {"type": "Feature", "properties": {"OBJECTID": 13496742, "LAYER_ID": 1234015, "GROUP_ID": 196926, "DEFQ": 0, "DATA_DATE": null, "MAVAT_CODE": 0, "MAVAT_NAME": "", "TYPE_CODE": 0, "LABEL": "", "LOT_NUM": 6260, "GUSH_SUFFI": 0, "PARCEL_NUM": 11, "CALC_AREA": 0.0, "LEGAL_AREA": 0.0, "IS_ANALITY": 0, "STATUS": 0, "PLAN_NAME": "", "AGAM_ID": 4000266689.0, "FONT_SIZE": 2.5, "ROTATION": 0.0}, "geometry": {"type": "Point", "coordinates": [34.85417764931444, 31.993562382687152]}}, {"type": "Feature", "properties": {"OBJECTID": 13496743, "LAYER_ID": 1234015, "GROUP_ID": 196926, "DEFQ": 0, "DATA_DATE": null, "MAVAT_CODE": 0, "MAVAT_NAME": "", "TYPE_CODE": 0, "LABEL": "", "LOT_NUM": 6260, "GUSH_SUFFI": 0, "PARCEL_NUM": 83, "CALC_AREA": 0.0, "LEGAL_AREA": 0.0, "IS_ANALITY": 0, "STATUS": 0, "PLAN_NAME": "", "AGAM_ID": 4000266689.0, "FONT_SIZE": 2.5, "ROTATION": 0.0}, "geometry": {"type": "Point", "coordinates": [34.85191506298984, 31.990943341870103]}}, {"type": "Feature", "properties": {"OBJECTID": 13496744, "LAYER_ID": 1234015, "GROUP_ID": 196926, "DEFQ": 0, "DATA_DATE": null, "MAVAT_CODE": 0, "MAVAT_NAME": "", "TYPE_CODE": 0, "LABEL": "", "LOT_NUM": 6260, "GUSH_SUFFI": 0, "PARCEL_NUM": 65, "CALC_AREA": 0.0, "LEGAL_AREA": 0.0, "IS_ANALITY": 0, "STATUS": 0, "PLAN_NAME": "", "AGAM_ID": 4000266689.0, "FONT_SIZE": 2.5, "ROTATION": 0.0}, "geometry": {"type": "Point", "coordinates": [34.85056935949909, 31.99047769321537]}}, {"type": "Feature", "properties": {"OBJECTID": 13496745, "LAYER_ID": 1234015, "GROUP_ID": 196926, "DEFQ": 0, "DATA_DATE": null, "MAVAT_CODE": 0, "MAVAT_NAME": "", "TYPE_CODE": 0, "LABEL": "", "LOT_NUM": 6260, "GUSH_SUFFI": 0, "PARCEL_NUM": 74, "CALC_AREA": 0.0, "LEGAL_AREA": 0.0, "IS_ANALITY": 0, "STATUS": 0, "PLAN_NAME": "", "AGAM_ID": 4000266689.0, "FONT_SIZE": 2.5, "ROTATION": 0.0}, "geometry": {"type": "Point", "coordinates": [34.84911706232244, 31.991205538998788]}}, {"type": "Feature", "properties": {"OBJECTID": 13496746, "LAYER_ID": 1234015, "GROUP_ID": 196926, "DEFQ": 0, "DATA_DATE": null, "MAVAT_CODE": 0, "MAVAT_NAME": "", "TYPE_CODE": 0, "LABEL": "", "LOT_NUM": 6260, "GUSH_SUFFI": 0, "PARCEL_NUM": 28, "CALC_AREA": 0.0, "LEGAL_AREA": 0.0, "IS_ANALITY": 0, "STATUS": 0, "PLAN_NAME": "", "AGAM_ID": 4000266689.0, "FONT_SIZE": 2.5, "ROTATION": 0.0}, "geometry": {"type": "Point", "coordinates": [34.850906224400404, 31.99124313571842]}}, {"type": "Feature", "properties": {"OBJECTID": 13496747, "LAYER_ID": 1234015, "GROUP_ID": 196926, "DEFQ": 0, "DATA_DATE": null, "MAVAT_CODE": 0, "MAVAT_NAME": "", "TYPE_CODE": 0, "LABEL": "", "LOT_NUM": 6257, "GUSH_SUFFI": 0, "PARCEL_NUM": 110, "CALC_AREA": 0.0, "LEGAL_AREA": 0.0, "IS_ANALITY": 0, "STATUS": 0, "PLAN_NAME": "", "AGAM_ID": 4000266689.0, "FONT_SIZE": 2.5, "ROTATION": 0.0}, "geometry": {"type": "Point", "coordinates": [34.84351062070334, 31.993104996190542]}}, {"type": "Feature", "properties": {"OBJECTID": 13496748, "LAYER_ID": 1234015, "GROUP_ID": 196926, "DEFQ": 0, "DATA_DATE": null, "MAVAT_CODE": 0, "MAVAT_NAME": "", "TYPE_CODE": 0, "LABEL": "", "LOT_NUM": 6260, "GUSH_SUFFI": 0, "PARCEL_NUM": 31, "CALC_AREA": 0.0, "LEGAL_AREA": 0.0, "IS_ANALITY": 0, "STATUS": 0, "PLAN_NAME": "", "AGAM_ID": 4000266689.0, "FONT_SIZE": 2.5, "ROTATION": 0.0}, "geometry": {"type": "Point", "coordinates": [34.84954866788613, 31.995021553075293]}}, {"type": "Feature", "properties": {"OBJECTID": 13496749, "LAYER_ID": 1234015, "GROUP_ID": 196926, "DEFQ": 0, "DATA_DATE": null, "MAVAT_CODE": 0, "MAVAT_NAME": "", "TYPE_CODE": 0, "LABEL": "", "LOT_NUM": 6260, "GUSH_SUFFI": 0, "PARCEL_NUM": 37, "CALC_AREA": 0.0, "LEGAL_AREA": 0.0, "IS_ANALITY": 0, "STATUS": 0, "PLAN_NAME": "", "AGAM_ID": 4000266689.0, "FONT_SIZE": 2.5, "ROTATION": 0.0}, "geometry": {"type": "Point", "coordinates": [34.8518203532427, 31.99318577289742]}}, {"type": "Feature", "properties": {"OBJECTID": 13496750, "LAYER_ID": 1234015, "GROUP_ID": 196926, "DEFQ": 0, "DATA_DATE": null, "MAVAT_CODE": 0, "MAVAT_NAME": "", "TYPE_CODE": 0, "LABEL": "", "LOT_NUM": 6260, "GUSH_SUFFI": 0, "PARCEL_NUM": 2, "CALC_AREA": 0.0, "LEGAL_AREA": 0.0, "IS_ANALITY": 0, "STATUS": 0, "PLAN_NAME": "", "AGAM_ID": 4000266689.0, "FONT_SIZE": 2.5, "ROTATION": 0.0}, "geometry": {"type": "Point", "coordinates": [34.84884817345613, 31.995569727817617]}}, {"type": "Feature", "properties": {"OBJECTID": 13496751, "LAYER_ID": 1234015, "GROUP_ID": 196926, "DEFQ": 0, "DATA_DATE": null, "MAVAT_CODE": 0, "MAVAT_NAME": "", "TYPE_CODE": 0, "LABEL": "", "LOT_NUM": 6260, "GUSH_SUFFI": 0, "PARCEL_NUM": 76, "CALC_AREA": 0.0, "LEGAL_AREA": 0.0, "IS_ANALITY": 0, "STATUS": 0, "PLAN_NAME": "", "AGAM_ID": 4000266689.0, "FONT_SIZE": 2.5, "ROTATION": 0.0}, "geometry": {"type": "Point", "coordinates": [34.85151104369802, 31.990878641871543]}}, {"type": "Feature", "properties": {"OBJECTID": 13496752, "LAYER_ID": 1234015, "GROUP_ID": 196926, "DEFQ": 0, "DATA_DATE": null, "MAVAT_CODE": 0, "MAVAT_NAME": "", "TYPE_CODE": 0, "LABEL": "", "LOT_NUM": 6260, "GUSH_SUFFI": 0, "PARCEL_NUM": 55, "CALC_AREA": 0.0, "LEGAL_AREA": 0.0, "IS_ANALITY": 0, "STATUS": 0, "PLAN_NAME": "", "AGAM_ID": 4000266689.0, "FONT_SIZE": 2.5, "ROTATION": 0.0}, "geometry": {"type": "Point", "coordinates": [34.85181290414287, 31.990633694450985]}}, {"type": "Feature", "properties": {"OBJECTID": 13496753, "LAYER_ID": 1234015, "GROUP_ID": 196926, "DEFQ": 0, "DATA_DATE": null, "MAVAT_CODE": 0, "MAVAT_NAME": "", "TYPE_CODE": 0, "LABEL": "", "LOT_NUM": 6260, "GUSH_SUFFI": 0, "PARCEL_NUM": 81, "CALC_AREA": 0.0, "LEGAL_AREA": 0.0, "IS_ANALITY": 0, "STATUS": 0, "PLAN_NAME": "", "AGAM_ID": 4000266689.0, "FONT_SIZE": 2.5, "ROTATION": 0.0}, "geometry": {"type": "Point", "coordinates": [34.852027166751185, 31.991150662143273]}}, {"type": "Feature", "properties": {"OBJECTID": 13496754, "LAYER_ID": 1234015, "GROUP_ID": 196926, "DEFQ": 0, "DATA_DATE": null, "MAVAT_CODE": 0, "MAVAT_NAME": "", "TYPE_CODE": 0, "LABEL": "", "LOT_NUM": 6260, "GUSH_SUFFI": 0, "PARCEL_NUM": 4, "CALC_AREA": 0.0, "LEGAL_AREA": 0.0, "IS_ANALITY": 0, "STATUS": 0, "PLAN_NAME": "", "AGAM_ID": 4000266689.0, "FONT_SIZE": 2.5, "ROTATION": 0.0}, "geometry": {"type": "Point", "coordinates": [34.84930992417315, 31.99544538530542]}}, {"type": "Feature", "properties": {"OBJECTID": 13496755, "LAYER_ID": 1234015, "GROUP_ID": 196926, "DEFQ": 0, "DATA_DATE": null, "MAVAT_CODE": 0, "MAVAT_NAME": "", "TYPE_CODE": 0, "LABEL": "", "LOT_NUM": 6260, "GUSH_SUFFI": 0, "PARCEL_NUM": 14, "CALC_AREA": 0.0, "LEGAL_AREA": 0.0, "IS_ANALITY": 0, "STATUS": 0, "PLAN_NAME": "", "AGAM_ID": 4000266689.0, "FONT_SIZE": 2.5, "ROTATION": 0.0}, "geometry": {"type": "Point", "coordinates": [34.85324378182001, 31.992913751962597]}}, {"type": "Feature", "properties": {"OBJECTID": 13496561, "LAYER_ID": 1234015, "GROUP_ID": 196926, "DEFQ": 0, "DATA_DATE": null, "MAVAT_CODE": 0, "MAVAT_NAME": "", "TYPE_CODE": 0, "LABEL": "", "LOT_NUM": 6254, "GUSH_SUFFI": 0, "PARCEL_NUM": 138, "CALC_AREA": 0.0, "LEGAL_AREA": 0.0, "IS_ANALITY": 0, "STATUS": 0, "PLAN_NAME": "", "AGAM_ID": 4000266689.0, "FONT_SIZE": 2.5, "ROTATION": 0.0}, "geometry": {"type": "Point", "coordinates": [34.85300824080403, 31.996619184671207]}}, {"type": "Feature", "properties": {"OBJECTID": 13496562, "LAYER_ID": 1234015, "GROUP_ID": 196926, "DEFQ": 0, "DATA_DATE": null, "MAVAT_CODE": 0, "MAVAT_NAME": "", "TYPE_CODE": 0, "LABEL": "", "LOT_NUM": 6254, "GUSH_SUFFI": 0, "PARCEL_NUM": 102, "CALC_AREA": 0.0, "LEGAL_AREA": 0.0, "IS_ANALITY": 0, "STATUS": 0, "PLAN_NAME": "", "AGAM_ID": 4000266689.0, "FONT_SIZE": 2.5, "ROTATION": 0.0}, "geometry": {"type": "Point", "coordinates": [34.853243668718754, 31.996220424470476]}}, {"type": "Feature", "properties": {"OBJECTID": 13496563, "LAYER_ID": 1234015, "GROUP_ID": 196926, "DEFQ": 0, "DATA_DATE": null, "MAVAT_CODE": 0, "MAVAT_NAME": "", "TYPE_CODE": 0, "LABEL": "", "LOT_NUM": 6257, "GUSH_SUFFI": 0, "PARCEL_NUM": 131, "CALC_AREA": 0.0, "LEGAL_AREA": 0.0, "IS_ANALITY": 0, "STATUS": 0, "PLAN_NAME": "", "AGAM_ID": 4000266689.0, "FONT_SIZE": 2.5, "ROTATION": 0.0}, "geometry": {"type": "Point", "coordinates": [34.84213821756511, 31.993981827442187]}}, {"type": "Feature", "properties": {"OBJECTID": 13496564, "LAYER_ID": 1234015, "GROUP_ID": 196926, "DEFQ": 0, "DATA_DATE": null, "MAVAT_CODE": 0, "MAVAT_NAME": "", "TYPE_CODE": 0, "LABEL": "", "LOT_NUM": 6254, "GUSH_SUFFI": 0, "PARCEL_NUM": 69, "CALC_AREA": 0.0, "LEGAL_AREA": 0.0, "IS_ANALITY": 0, "STATUS": 0, "PLAN_NAME": "", "AGAM_ID": 4000266689.0, "FONT_SIZE": 2.5, "ROTATION": 0.0}, "geometry": {"type": "Point", "coordinates": [34.84949335158216, 31.998236253423922]}}, {"type": "Feature", "properties": {"OBJECTID": 13496565, "LAYER_ID": 1234015, "GROUP_ID": 196926, "DEFQ": 0, "DATA_DATE": null, "MAVAT_CODE": 0, "MAVAT_NAME": "", "TYPE_CODE": 0, "LABEL": "", "LOT_NUM": 6838, "GUSH_SUFFI": 0, "PARCEL_NUM": 25, "CALC_AREA": 0.0, "LEGAL_AREA": 0.0, "IS_ANALITY": 0, "STATUS": 0, "PLAN_NAME": "", "AGAM_ID": 4000266689.0, "FONT_SIZE": 2.5, "ROTATION": 0.0}, "geometry": {"type": "Point", "coordinates": [34.84873925442945, 32.00415457090282]}}, {"type": "Feature", "properties": {"OBJECTID": 13496566, "LAYER_ID": 1234015, "GROUP_ID": 196926, "DEFQ": 0, "DATA_DATE": null, "MAVAT_CODE": 0, "MAVAT_NAME": "", "TYPE_CODE": 0, "LABEL": "", "LOT_NUM": 6256, "GUSH_SUFFI": 0, "PARCEL_NUM": 32, "CALC_AREA": 0.0, "LEGAL_AREA": 0.0, "IS_ANALITY": 0, "STATUS": 0, "PLAN_NAME": "", "AGAM_ID": 4000266689.0, "FONT_SIZE": 2.5, "ROTATION": 0.0}, "geometry": {"type": "Point", "coordinates": [34.84536969704617, 31.998041864154953]}}, {"type": "Feature", "properties": {"OBJECTID": 13496567, "LAYER_ID": 1234015, "GROUP_ID": 196926, "DEFQ": 0, "DATA_DATE": null, "MAVAT_CODE": 0, "MAVAT_NAME": "", "TYPE_CODE": 0, "LABEL": "", "LOT_NUM": 6257, "GUSH_SUFFI": 0, "PARCEL_NUM": 124, "CALC_AREA": 0.0, "LEGAL_AREA": 0.0, "IS_ANALITY": 0, "STATUS": 0, "PLAN_NAME": "", "AGAM_ID": 4000266689.0, "FONT_SIZE": 2.5, "ROTATION": 0.0}, "geometry": {"type": "Point", "coordinates": [34.84146728888929, 31.998078339236717]}}, {"type": "Feature", "properties": {"OBJECTID": 13496568, "LAYER_ID": 1234015, "GROUP_ID": 196926, "DEFQ": 0, "DATA_DATE": null, "MAVAT_CODE": 0, "MAVAT_NAME": "", "TYPE_CODE": 0, "LABEL": "", "LOT_NUM": 6256, "GUSH_SUFFI": 0, "PARCEL_NUM": 50, "CALC_AREA": 0.0, "LEGAL_AREA": 0.0, "IS_ANALITY": 0, "STATUS": 0, "PLAN_NAME": "", "AGAM_ID": 4000266689.0, "FONT_SIZE": 2.5, "ROTATION": 0.0}, "geometry": {"type": "Point", "coordinates": [34.842471231568176, 32.000714033042954]}}, {"type": "Feature", "properties": {"OBJECTID": 13496569, "LAYER_ID": 1234015, "GROUP_ID": 196926, "DEFQ": 0, "DATA_DATE": null, "MAVAT_CODE": 0, "MAVAT_NAME": "", "TYPE_CODE": 0, "LABEL": "", "LOT_NUM": 6256, "GUSH_SUFFI": 0, "PARCEL_NUM": 34, "CALC_AREA": 0.0, "LEGAL_AREA": 0.0, "IS_ANALITY": 0, "STATUS": 0, "PLAN_NAME": "", "AGAM_ID": 4000266689.0, "FONT_SIZE": 2.5, "ROTATION": 0.0}, "geometry": {"type": "Point", "coordinates": [34.84587964179658, 31.998750335016876]}}, {"type": "Feature", "properties": {"OBJECTID": 13496570, "LAYER_ID": 1234015, "GROUP_ID": 196926, "DEFQ": 0, "DATA_DATE": null, "MAVAT_CODE": 0, "MAVAT_NAME": "", "TYPE_CODE": 0, "LABEL": "", "LOT_NUM": 6254, "GUSH_SUFFI": 0, "PARCEL_NUM": 70, "CALC_AREA": 0.0, "LEGAL_AREA": 0.0, "IS_ANALITY": 0, "STATUS": 0, "PLAN_NAME": "", "AGAM_ID": 4000266689.0, "FONT_SIZE": 2.5, "ROTATION": 0.0}, "geometry": {"type": "Point", "coordinates": [34.8496792809649, 31.997544203700052]}}, {"type": "Feature", "properties": {"OBJECTID": 13496571, "LAYER_ID": 1234015, "GROUP_ID": 196926, "DEFQ": 0, "DATA_DATE": null, "MAVAT_CODE": 0, "MAVAT_NAME": "", "TYPE_CODE": 0, "LABEL": "", "LOT_NUM": 6838, "GUSH_SUFFI": 0, "PARCEL_NUM": 27, "CALC_AREA": 0.0, "LEGAL_AREA": 0.0, "IS_ANALITY": 0, "STATUS": 0, "PLAN_NAME": "", "AGAM_ID": 4000266689.0, "FONT_SIZE": 2.5, "ROTATION": 0.0}, "geometry": {"type": "Point", "coordinates": [34.847514093553194, 32.001572613387616]}}, {"type": "Feature", "properties": {"OBJECTID": 13496572, "LAYER_ID": 1234015, "GROUP_ID": 196926, "DEFQ": 0, "DATA_DATE": null, "MAVAT_CODE": 0, "MAVAT_NAME": "", "TYPE_CODE": 0, "LABEL": "", "LOT_NUM": 6838, "GUSH_SUFFI": 0, "PARCEL_NUM": 28, "CALC_AREA": 0.0, "LEGAL_AREA": 0.0, "IS_ANALITY": 0, "STATUS": 0, "PLAN_NAME": "", "AGAM_ID": 4000266689.0, "FONT_SIZE": 2.5, "ROTATION": 0.0}, "geometry": {"type": "Point", "coordinates": [34.845733203131445, 32.00194927718607]}}, {"type": "Feature", "properties": {"OBJECTID": 13496573, "LAYER_ID": 1234015, "GROUP_ID": 196926, "DEFQ": 0, "DATA_DATE": null, "MAVAT_CODE": 0, "MAVAT_NAME": "", "TYPE_CODE": 0, "LABEL": "", "LOT_NUM": 6256, "GUSH_SUFFI": 0, "PARCEL_NUM": 22, "CALC_AREA": 0.0, "LEGAL_AREA": 0.0, "IS_ANALITY": 0, "STATUS": 0, "PLAN_NAME": "", "AGAM_ID": 4000266689.0, "FONT_SIZE": 2.5, "ROTATION": 0.0}, "geometry": {"type": "Point", "coordinates": [34.8437405423165, 32.000349205622534]}}, {"type": "Feature", "properties": {"OBJECTID": 13496574, "LAYER_ID": 1234015, "GROUP_ID": 196926, "DEFQ": 0, "DATA_DATE": null, "MAVAT_CODE": 0, "MAVAT_NAME": "", "TYPE_CODE": 0, "LABEL": "", "LOT_NUM": 6257, "GUSH_SUFFI": 0, "PARCEL_NUM": 109, "CALC_AREA": 0.0, "LEGAL_AREA": 0.0, "IS_ANALITY": 0, "STATUS": 0, "PLAN_NAME": "", "AGAM_ID": 4000266689.0, "FONT_SIZE": 2.5, "ROTATION": 0.0}, "geometry": {"type": "Point", "coordinates": [34.84123403589533, 31.990628644033162]}}, {"type": "Feature", "properties": {"OBJECTID": 13496575, "LAYER_ID": 1234015, "GROUP_ID": 196926, "DEFQ": 0, "DATA_DATE": null, "MAVAT_CODE": 0, "MAVAT_NAME": "", "TYPE_CODE": 0, "LABEL": "", "LOT_NUM": 6254, "GUSH_SUFFI": 0, "PARCEL_NUM": 133, "CALC_AREA": 0.0, "LEGAL_AREA": 0.0, "IS_ANALITY": 0, "STATUS": 0, "PLAN_NAME": "", "AGAM_ID": 4000266689.0, "FONT_SIZE": 2.5, "ROTATION": 0.0}, "geometry": {"type": "Point", "coordinates": [34.851610776104366, 31.996190713109797]}}, {"type": "Feature", "properties": {"OBJECTID": 13496576, "LAYER_ID": 1234015, "GROUP_ID": 196926, "DEFQ": 0, "DATA_DATE": null, "MAVAT_CODE": 0, "MAVAT_NAME": "", "TYPE_CODE": 0, "LABEL": "", "LOT_NUM": 6256, "GUSH_SUFFI": 0, "PARCEL_NUM": 45, "CALC_AREA": 0.0, "LEGAL_AREA": 0.0, "IS_ANALITY": 0, "STATUS": 0, "PLAN_NAME": "", "AGAM_ID": 4000266689.0, "FONT_SIZE": 2.5, "ROTATION": 0.0}, "geometry": {"type": "Point", "coordinates": [34.84340807478595, 32.000077054134536]}}, {"type": "Feature", "properties": {"OBJECTID": 13496577, "LAYER_ID": 1234015, "GROUP_ID": 196926, "DEFQ": 0, "DATA_DATE": null, "MAVAT_CODE": 0, "MAVAT_NAME": "", "TYPE_CODE": 0, "LABEL": "", "LOT_NUM": 6254, "GUSH_SUFFI": 0, "PARCEL_NUM": 68, "CALC_AREA": 0.0, "LEGAL_AREA": 0.0, "IS_ANALITY": 0, "STATUS": 0, "PLAN_NAME": "", "AGAM_ID": 4000266689.0, "FONT_SIZE": 2.5, "ROTATION": 0.0}, "geometry": {"type": "Point", "coordinates": [34.849531658340354, 31.99840477391423]}}, {"type": "Feature", "properties": {"OBJECTID": 13496578, "LAYER_ID": 1234015, "GROUP_ID": 196926, "DEFQ": 0, "DATA_DATE": null, "MAVAT_CODE": 0, "MAVAT_NAME": "", "TYPE_CODE": 0, "LABEL": "", "LOT_NUM": 6254, "GUSH_SUFFI": 0, "PARCEL_NUM": 106, "CALC_AREA": 0.0, "LEGAL_AREA": 0.0, "IS_ANALITY": 0, "STATUS": 0, "PLAN_NAME": "", "AGAM_ID": 4000266689.0, "FONT_SIZE": 2.5, "ROTATION": 0.0}, "geometry": {"type": "Point", "coordinates": [34.85208689734253, 31.996442098598376]}}, {"type": "Feature", "properties": {"OBJECTID": 13496579, "LAYER_ID": 1234015, "GROUP_ID": 196926, "DEFQ": 0, "DATA_DATE": null, "MAVAT_CODE": 0, "MAVAT_NAME": "", "TYPE_CODE": 0, "LABEL": "", "LOT_NUM": 6256, "GUSH_SUFFI": 0, "PARCEL_NUM": 52, "CALC_AREA": 0.0, "LEGAL_AREA": 0.0, "IS_ANALITY": 0, "STATUS": 0, "PLAN_NAME": "", "AGAM_ID": 4000266689.0, "FONT_SIZE": 2.5, "ROTATION": 0.0}, "geometry": {"type": "Point", "coordinates": [34.843259571621495, 32.00051177243315]}}, {"type": "Feature", "properties": {"OBJECTID": 13496580, "LAYER_ID": 1234015, "GROUP_ID": 196926, "DEFQ": 0, "DATA_DATE": null, "MAVAT_CODE": 0, "MAVAT_NAME": "", "TYPE_CODE": 0, "LABEL": "", "LOT_NUM": 6254, "GUSH_SUFFI": 0, "PARCEL_NUM": 103, "CALC_AREA": 0.0, "LEGAL_AREA": 0.0, "IS_ANALITY": 0, "STATUS": 0, "PLAN_NAME": "", "AGAM_ID": 4000266689.0, "FONT_SIZE": 2.5, "ROTATION": 0.0}, "geometry": {"type": "Point", "coordinates": [34.85160746592316, 31.996840295666367]}}, {"type": "Feature", "properties": {"OBJECTID": 13496581, "LAYER_ID": 1234015, "GROUP_ID": 196926, "DEFQ": 0, "DATA_DATE": null, "MAVAT_CODE": 0, "MAVAT_NAME": "", "TYPE_CODE": 0, "LABEL": "", "LOT_NUM": 6257, "GUSH_SUFFI": 0, "PARCEL_NUM": 119, "CALC_AREA": 0.0, "LEGAL_AREA": 0.0, "IS_ANALITY": 0, "STATUS": 0, "PLAN_NAME": "", "AGAM_ID": 4000266689.0, "FONT_SIZE": 2.5, "ROTATION": 0.0}, "geometry": {"type": "Point", "coordinates": [34.83964217480181, 31.995461637059275]}}, {"type": "Feature", "properties": {"OBJECTID": 13496582, "LAYER_ID": 1234015, "GROUP_ID": 196926, "DEFQ": 0, "DATA_DATE": null, "MAVAT_CODE": 0, "MAVAT_NAME": "", "TYPE_CODE": 0, "LABEL": "", "LOT_NUM": 6257, "GUSH_SUFFI": 0, "PARCEL_NUM": 126, "CALC_AREA": 0.0, "LEGAL_AREA": 0.0, "IS_ANALITY": 0, "STATUS": 0, "PLAN_NAME": "", "AGAM_ID": 4000266689.0, "FONT_SIZE": 2.5, "ROTATION": 0.0}, "geometry": {"type": "Point", "coordinates": [34.84172302917262, 31.99904645665595]}}, {"type": "Feature", "properties": {"OBJECTID": 13496583, "LAYER_ID": 1234015, "GROUP_ID": 196926, "DEFQ": 0, "DATA_DATE": null, "MAVAT_CODE": 0, "MAVAT_NAME": "", "TYPE_CODE": 0, "LABEL": "", "LOT_NUM": 6256, "GUSH_SUFFI": 0, "PARCEL_NUM": 31, "CALC_AREA": 0.0, "LEGAL_AREA": 0.0, "IS_ANALITY": 0, "STATUS": 0, "PLAN_NAME": "", "AGAM_ID": 4000266689.0, "FONT_SIZE": 2.5, "ROTATION": 0.0}, "geometry": {"type": "Point", "coordinates": [34.84572981197814, 31.99904768835115]}}, {"type": "Feature", "properties": {"OBJECTID": 13496584, "LAYER_ID": 1234015, "GROUP_ID": 196926, "DEFQ": 0, "DATA_DATE": null, "MAVAT_CODE": 0, "MAVAT_NAME": "", "TYPE_CODE": 0, "LABEL": "", "LOT_NUM": 6256, "GUSH_SUFFI": 0, "PARCEL_NUM": 47, "CALC_AREA": 0.0, "LEGAL_AREA": 0.0, "IS_ANALITY": 0, "STATUS": 0, "PLAN_NAME": "", "AGAM_ID": 4000266689.0, "FONT_SIZE": 2.5, "ROTATION": 0.0}, "geometry": {"type": "Point", "coordinates": [34.847276786571726, 31.998258485993908]}}, {"type": "Feature", "properties": {"OBJECTID": 13496585, "LAYER_ID": 1234015, "GROUP_ID": 196926, "DEFQ": 0, "DATA_DATE": null, "MAVAT_CODE": 0, "MAVAT_NAME": "", "TYPE_CODE": 0, "LABEL": "", "LOT_NUM": 6256, "GUSH_SUFFI": 0, "PARCEL_NUM": 39, "CALC_AREA": 0.0, "LEGAL_AREA": 0.0, "IS_ANALITY": 0, "STATUS": 0, "PLAN_NAME": "", "AGAM_ID": 4000266689.0, "FONT_SIZE": 2.5, "ROTATION": 0.0}, "geometry": {"type": "Point", "coordinates": [34.84711598037078, 31.996602607735174]}}, {"type": "Feature", "properties": {"OBJECTID": 13496586, "LAYER_ID": 1234015, "GROUP_ID": 196926, "DEFQ": 0, "DATA_DATE": null, "MAVAT_CODE": 0, "MAVAT_NAME": "", "TYPE_CODE": 0, "LABEL": "", "LOT_NUM": 6256, "GUSH_SUFFI": 0, "PARCEL_NUM": 46, "CALC_AREA": 0.0, "LEGAL_AREA": 0.0, "IS_ANALITY": 0, "STATUS": 0, "PLAN_NAME": "", "AGAM_ID": 4000266689.0, "FONT_SIZE": 2.5, "ROTATION": 0.0}, "geometry": {"type": "Point", "coordinates": [34.8455617077297, 31.998350403349747]}}, {"type": "Feature", "properties": {"OBJECTID": 13496587, "LAYER_ID": 1234015, "GROUP_ID": 196926, "DEFQ": 0, "DATA_DATE": null, "MAVAT_CODE": 0, "MAVAT_NAME": "", "TYPE_CODE": 0, "LABEL": "", "LOT_NUM": 6256, "GUSH_SUFFI": 0, "PARCEL_NUM": 48, "CALC_AREA": 0.0, "LEGAL_AREA": 0.0, "IS_ANALITY": 0, "STATUS": 0, "PLAN_NAME": "", "AGAM_ID": 4000266689.0, "FONT_SIZE": 2.5, "ROTATION": 0.0}, "geometry": {"type": "Point", "coordinates": [34.84806061641692, 31.997562653390176]}}, {"type": "Feature", "properties": {"OBJECTID": 13496588, "LAYER_ID": 1234015, "GROUP_ID": 196926, "DEFQ": 0, "DATA_DATE": null, "MAVAT_CODE": 0, "MAVAT_NAME": "", "TYPE_CODE": 0, "LABEL": "", "LOT_NUM": 6257, "GUSH_SUFFI": 0, "PARCEL_NUM": 113, "CALC_AREA": 0.0, "LEGAL_AREA": 0.0, "IS_ANALITY": 0, "STATUS": 0, "PLAN_NAME": "", "AGAM_ID": 4000266689.0, "FONT_SIZE": 2.5, "ROTATION": 0.0}, "geometry": {"type": "Point", "coordinates": [34.843207842758176, 31.99392250969833]}}, {"type": "Feature", "properties": {"OBJECTID": 13496589, "LAYER_ID": 1234015, "GROUP_ID": 196926, "DEFQ": 0, "DATA_DATE": null, "MAVAT_CODE": 0, "MAVAT_NAME": "", "TYPE_CODE": 0, "LABEL": "", "LOT_NUM": 6257, "GUSH_SUFFI": 0, "PARCEL_NUM": 111, "CALC_AREA": 0.0, "LEGAL_AREA": 0.0, "IS_ANALITY": 0, "STATUS": 0, "PLAN_NAME": "", "AGAM_ID": 4000266689.0, "FONT_SIZE": 2.5, "ROTATION": 0.0}, "geometry": {"type": "Point", "coordinates": [34.843407224416644, 31.99231553098909]}}, {"type": "Feature", "properties": {"OBJECTID": 13496590, "LAYER_ID": 1234015, "GROUP_ID": 196926, "DEFQ": 0, "DATA_DATE": null, "MAVAT_CODE": 0, "MAVAT_NAME": "", "TYPE_CODE": 0, "LABEL": "", "LOT_NUM": 6838, "GUSH_SUFFI": 0, "PARCEL_NUM": 26, "CALC_AREA": 0.0, "LEGAL_AREA": 0.0, "IS_ANALITY": 0, "STATUS": 0, "PLAN_NAME": "", "AGAM_ID": 4000266689.0, "FONT_SIZE": 2.5, "ROTATION": 0.0}, "geometry": {"type": "Point", "coordinates": [34.84708592332622, 32.00431895352921]}}, {"type": "Feature", "properties": {"OBJECTID": 13496591, "LAYER_ID": 1234015, "GROUP_ID": 196926, "DEFQ": 0, "DATA_DATE": null, "MAVAT_CODE": 0, "MAVAT_NAME": "", "TYPE_CODE": 0, "LABEL": "", "LOT_NUM": 6256, "GUSH_SUFFI": 0, "PARCEL_NUM": 21, "CALC_AREA": 0.0, "LEGAL_AREA": 0.0, "IS_ANALITY": 0, "STATUS": 0, "PLAN_NAME": "", "AGAM_ID": 4000266689.0, "FONT_SIZE": 2.5, "ROTATION": 0.0}, "geometry": {"type": "Point", "coordinates": [34.844066685812074, 32.00105368356908]}}, {"type": "Feature", "properties": {"OBJECTID": 13496592, "LAYER_ID": 1234015, "GROUP_ID": 196926, "DEFQ": 0, "DATA_DATE": null, "MAVAT_CODE": 0, "MAVAT_NAME": "", "TYPE_CODE": 0, "LABEL": "", "LOT_NUM": 6256, "GUSH_SUFFI": 0, "PARCEL_NUM": 25, "CALC_AREA": 0.0, "LEGAL_AREA": 0.0, "IS_ANALITY": 0, "STATUS": 0, "PLAN_NAME": "", "AGAM_ID": 4000266689.0, "FONT_SIZE": 2.5, "ROTATION": 0.0}, "geometry": {"type": "Point", "coordinates": [34.844235764181704, 32.00066412726348]}}, {"type": "Feature", "properties": {"OBJECTID": 13496593, "LAYER_ID": 1234015, "GROUP_ID": 196926, "DEFQ": 0, "DATA_DATE": null, "MAVAT_CODE": 0, "MAVAT_NAME": "", "TYPE_CODE": 0, "LABEL": "", "LOT_NUM": 6254, "GUSH_SUFFI": 0, "PARCEL_NUM": 105, "CALC_AREA": 0.0, "LEGAL_AREA": 0.0, "IS_ANALITY": 0, "STATUS": 0, "PLAN_NAME": "", "AGAM_ID": 4000266689.0, "FONT_SIZE": 2.5, "ROTATION": 0.0}, "geometry": {"type": "Point", "coordinates": [34.85185310884198, 31.996646553404908]}}, {"type": "Feature", "properties": {"OBJECTID": 13496594, "LAYER_ID": 1234015, "GROUP_ID": 196926, "DEFQ": 0, "DATA_DATE": null, "MAVAT_CODE": 0, "MAVAT_NAME": "", "TYPE_CODE": 0, "LABEL": "", "LOT_NUM": 6256, "GUSH_SUFFI": 0, "PARCEL_NUM": 23, "CALC_AREA": 0.0, "LEGAL_AREA": 0.0, "IS_ANALITY": 0, "STATUS": 0, "PLAN_NAME": "", "AGAM_ID": 4000266689.0, "FONT_SIZE": 2.5, "ROTATION": 0.0}, "geometry": {"type": "Point", "coordinates": [34.84328511285295, 31.999351511419732]}}, {"type": "Feature", "properties": {"OBJECTID": 13496595, "LAYER_ID": 1234015, "GROUP_ID": 196926, "DEFQ": 0, "DATA_DATE": null, "MAVAT_CODE": 0, "MAVAT_NAME": "", "TYPE_CODE": 0, "LABEL": "", "LOT_NUM": 6257, "GUSH_SUFFI": 0, "PARCEL_NUM": 127, "CALC_AREA": 0.0, "LEGAL_AREA": 0.0, "IS_ANALITY": 0, "STATUS": 0, "PLAN_NAME": "", "AGAM_ID": 4000266689.0, "FONT_SIZE": 2.5, "ROTATION": 0.0}, "geometry": {"type": "Point", "coordinates": [34.840766180629714, 31.99603842911318]}}, {"type": "Feature", "properties": {"OBJECTID": 13496596, "LAYER_ID": 1234015, "GROUP_ID": 196926, "DEFQ": 0, "DATA_DATE": null, "MAVAT_CODE": 0, "MAVAT_NAME": "", "TYPE_CODE": 0, "LABEL": "", "LOT_NUM": 6254, "GUSH_SUFFI": 0, "PARCEL_NUM": 104, "CALC_AREA": 0.0, "LEGAL_AREA": 0.0, "IS_ANALITY": 0, "STATUS": 0, "PLAN_NAME": "", "AGAM_ID": 4000266689.0, "FONT_SIZE": 2.5, "ROTATION": 0.0}, "geometry": {"type": "Point", "coordinates": [34.85172935991461, 31.99673362664053]}}, {"type": "Feature", "properties": {"OBJECTID": 13496597, "LAYER_ID": 1234015, "GROUP_ID": 196926, "DEFQ": 0, "DATA_DATE": null, "MAVAT_CODE": 0, "MAVAT_NAME": "", "TYPE_CODE": 0, "LABEL": "", "LOT_NUM": 6256, "GUSH_SUFFI": 0, "PARCEL_NUM": 36, "CALC_AREA": 0.0, "LEGAL_AREA": 0.0, "IS_ANALITY": 0, "STATUS": 0, "PLAN_NAME": "", "AGAM_ID": 4000266689.0, "FONT_SIZE": 2.5, "ROTATION": 0.0}, "geometry": {"type": "Point", "coordinates": [34.846166445147034, 31.998026617547517]}}, {"type": "Feature", "properties": {"OBJECTID": 13496598, "LAYER_ID": 1234015, "GROUP_ID": 196926, "DEFQ": 0, "DATA_DATE": null, "MAVAT_CODE": 0, "MAVAT_NAME": "", "TYPE_CODE": 0, "LABEL": "", "LOT_NUM": 6257, "GUSH_SUFFI": 0, "PARCEL_NUM": 1, "CALC_AREA": 0.0, "LEGAL_AREA": 0.0, "IS_ANALITY": 0, "STATUS": 0, "PLAN_NAME": "", "AGAM_ID": 4000266689.0, "FONT_SIZE": 2.5, "ROTATION": 0.0}, "geometry": {"type": "Point", "coordinates": [34.842225010814076, 31.999566839488907]}}, {"type": "Feature", "properties": {"OBJECTID": 13496599, "LAYER_ID": 1234015, "GROUP_ID": 196926, "DEFQ": 0, "DATA_DATE": null, "MAVAT_CODE": 0, "MAVAT_NAME": "", "TYPE_CODE": 0, "LABEL": "", "LOT_NUM": 6256, "GUSH_SUFFI": 0, "PARCEL_NUM": 53, "CALC_AREA": 0.0, "LEGAL_AREA": 0.0, "IS_ANALITY": 0, "STATUS": 0, "PLAN_NAME": "", "AGAM_ID": 4000266689.0, "FONT_SIZE": 2.5, "ROTATION": 0.0}, "geometry": {"type": "Point", "coordinates": [34.84194821292092, 32.00257372988334]}}, {"type": "Feature", "properties": {"OBJECTID": 13496600, "LAYER_ID": 1234015, "GROUP_ID": 196926, "DEFQ": 0, "DATA_DATE": null, "MAVAT_CODE": 0, "MAVAT_NAME": "", "TYPE_CODE": 0, "LABEL": "", "LOT_NUM": 6254, "GUSH_SUFFI": 0, "PARCEL_NUM": 137, "CALC_AREA": 0.0, "LEGAL_AREA": 0.0, "IS_ANALITY": 0, "STATUS": 0, "PLAN_NAME": "", "AGAM_ID": 4000266689.0, "FONT_SIZE": 2.5, "ROTATION": 0.0}, "geometry": {"type": "Point", "coordinates": [34.84967632513047, 31.998402193469662]}}, {"type": "Feature", "properties": {"OBJECTID": 13496601, "LAYER_ID": 1234015, "GROUP_ID": 196926, "DEFQ": 0, "DATA_DATE": null, "MAVAT_CODE": 0, "MAVAT_NAME": "", "TYPE_CODE": 0, "LABEL": "", "LOT_NUM": 6254, "GUSH_SUFFI": 0, "PARCEL_NUM": 107, "CALC_AREA": 0.0, "LEGAL_AREA": 0.0, "IS_ANALITY": 0, "STATUS": 0, "PLAN_NAME": "", "AGAM_ID": 4000266689.0, "FONT_SIZE": 2.5, "ROTATION": 0.0}, "geometry": {"type": "Point", "coordinates": [34.85280668971803, 31.995861137461]}}, {"type": "Feature", "properties": {"OBJECTID": 13496602, "LAYER_ID": 1234015, "GROUP_ID": 196926, "DEFQ": 0, "DATA_DATE": null, "MAVAT_CODE": 0, "MAVAT_NAME": "", "TYPE_CODE": 0, "LABEL": "", "LOT_NUM": 6256, "GUSH_SUFFI": 0, "PARCEL_NUM": 24, "CALC_AREA": 0.0, "LEGAL_AREA": 0.0, "IS_ANALITY": 0, "STATUS": 0, "PLAN_NAME": "", "AGAM_ID": 4000266689.0, "FONT_SIZE": 2.5, "ROTATION": 0.0}, "geometry": {"type": "Point", "coordinates": [34.844047322418334, 32.000171399724344]}}, {"type": "Feature", "properties": {"OBJECTID": 13496603, "LAYER_ID": 1234015, "GROUP_ID": 196926, "DEFQ": 0, "DATA_DATE": null, "MAVAT_CODE": 0, "MAVAT_NAME": "", "TYPE_CODE": 0, "LABEL": "", "LOT_NUM": 6256, "GUSH_SUFFI": 0, "PARCEL_NUM": 37, "CALC_AREA": 0.0, "LEGAL_AREA": 0.0, "IS_ANALITY": 0, "STATUS": 0, "PLAN_NAME": "", "AGAM_ID": 4000266689.0, "FONT_SIZE": 2.5, "ROTATION": 0.0}, "geometry": {"type": "Point", "coordinates": [34.846927611082684, 31.99719300473342]}}, {"type": "Feature", "properties": {"OBJECTID": 13496604, "LAYER_ID": 1234015, "GROUP_ID": 196926, "DEFQ": 0, "DATA_DATE": null, "MAVAT_CODE": 0, "MAVAT_NAME": "", "TYPE_CODE": 0, "LABEL": "", "LOT_NUM": 6256, "GUSH_SUFFI": 0, "PARCEL_NUM": 30, "CALC_AREA": 0.0, "LEGAL_AREA": 0.0, "IS_ANALITY": 0, "STATUS": 0, "PLAN_NAME": "", "AGAM_ID": 4000266689.0, "FONT_SIZE": 2.5, "ROTATION": 0.0}, "geometry": {"type": "Point", "coordinates": [34.84527821068385, 31.998243872218623]}}, {"type": "Feature", "properties": {"OBJECTID": 13496605, "LAYER_ID": 1234015, "GROUP_ID": 196926, "DEFQ": 0, "DATA_DATE": null, "MAVAT_CODE": 0, "MAVAT_NAME": "", "TYPE_CODE": 0, "LABEL": "", "LOT_NUM": 6256, "GUSH_SUFFI": 0, "PARCEL_NUM": 35, "CALC_AREA": 0.0, "LEGAL_AREA": 0.0, "IS_ANALITY": 0, "STATUS": 0, "PLAN_NAME": "", "AGAM_ID": 4000266689.0, "FONT_SIZE": 2.5, "ROTATION": 0.0}, "geometry": {"type": "Point", "coordinates": [34.846033142567606, 31.999233376942787]}}, {"type": "Feature", "properties": {"OBJECTID": 13496606, "LAYER_ID": 1234015, "GROUP_ID": 196926, "DEFQ": 0, "DATA_DATE": null, "MAVAT_CODE": 0, "MAVAT_NAME": "", "TYPE_CODE": 0, "LABEL": "", "LOT_NUM": 6256, "GUSH_SUFFI": 0, "PARCEL_NUM": 38, "CALC_AREA": 0.0, "LEGAL_AREA": 0.0, "IS_ANALITY": 0, "STATUS": 0, "PLAN_NAME": "", "AGAM_ID": 4000266689.0, "FONT_SIZE": 2.5, "ROTATION": 0.0}, "geometry": {"type": "Point", "coordinates": [34.8479220606348, 31.996760042598538]}}, {"type": "Feature", "properties": {"OBJECTID": 13496607, "LAYER_ID": 1234015, "GROUP_ID": 196926, "DEFQ": 0, "DATA_DATE": null, "MAVAT_CODE": 0, "MAVAT_NAME": "", "TYPE_CODE": 0, "LABEL": "", "LOT_NUM": 6256, "GUSH_SUFFI": 0, "PARCEL_NUM": 54, "CALC_AREA": 0.0, "LEGAL_AREA": 0.0, "IS_ANALITY": 0, "STATUS": 0, "PLAN_NAME": "", "AGAM_ID": 4000266689.0, "FONT_SIZE": 2.5, "ROTATION": 0.0}, "geometry": {"type": "Point", "coordinates": [34.84111938394331, 32.00105496797528]}}, {"type": "Feature", "properties": {"OBJECTID": 13496608, "LAYER_ID": 1234015, "GROUP_ID": 196926, "DEFQ": 0, "DATA_DATE": null, "MAVAT_CODE": 0, "MAVAT_NAME": "", "TYPE_CODE": 0, "LABEL": "", "LOT_NUM": 6256, "GUSH_SUFFI": 0, "PARCEL_NUM": 26, "CALC_AREA": 0.0, "LEGAL_AREA": 0.0, "IS_ANALITY": 0, "STATUS": 0, "PLAN_NAME": "", "AGAM_ID": 4000266689.0, "FONT_SIZE": 2.5, "ROTATION": 0.0}, "geometry": {"type": "Point", "coordinates": [34.84423314521675, 31.999498613359094]}}, {"type": "Feature", "properties": {"OBJECTID": 13496609, "LAYER_ID": 1234015, "GROUP_ID": 196926, "DEFQ": 0, "DATA_DATE": null, "MAVAT_CODE": 0, "MAVAT_NAME": "", "TYPE_CODE": 0, "LABEL": "", "LOT_NUM": 6257, "GUSH_SUFFI": 0, "PARCEL_NUM": 133, "CALC_AREA": 0.0, "LEGAL_AREA": 0.0, "IS_ANALITY": 0, "STATUS": 0, "PLAN_NAME": "", "AGAM_ID": 4000266689.0, "FONT_SIZE": 2.5, "ROTATION": 0.0}, "geometry": {"type": "Point", "coordinates": [34.84022937428381, 31.993399597885656]}}, {"type": "Feature", "properties": {"OBJECTID": 13496610, "LAYER_ID": 1234015, "GROUP_ID": 196926, "DEFQ": 0, "DATA_DATE": null, "MAVAT_CODE": 0, "MAVAT_NAME": "", "TYPE_CODE": 0, "LABEL": "", "LOT_NUM": 6257, "GUSH_SUFFI": 0, "PARCEL_NUM": 112, "CALC_AREA": 0.0, "LEGAL_AREA": 0.0, "IS_ANALITY": 0, "STATUS": 0, "PLAN_NAME": "", "AGAM_ID": 4000266689.0, "FONT_SIZE": 2.5, "ROTATION": 0.0}, "geometry": {"type": "Point", "coordinates": [34.84269219078141, 31.99170354798017]}}, {"type": "Feature", "properties": {"OBJECTID": 13496611, "LAYER_ID": 1234015, "GROUP_ID": 196926, "DEFQ": 0, "DATA_DATE": null, "MAVAT_CODE": 0, "MAVAT_NAME": "", "TYPE_CODE": 0, "LABEL": "", "LOT_NUM": 6257, "GUSH_SUFFI": 0, "PARCEL_NUM": 129, "CALC_AREA": 0.0, "LEGAL_AREA": 0.0, "IS_ANALITY": 0, "STATUS": 0, "PLAN_NAME": "", "AGAM_ID": 4000266689.0, "FONT_SIZE": 2.5, "ROTATION": 0.0}, "geometry": {"type": "Point", "coordinates": [34.842975801050166, 31.99243427156955]}}, {"type": "Feature", "properties": {"OBJECTID": 13496612, "LAYER_ID": 1234015, "GROUP_ID": 196926, "DEFQ": 0, "DATA_DATE": null, "MAVAT_CODE": 0, "MAVAT_NAME": "", "TYPE_CODE": 0, "LABEL": "", "LOT_NUM": 6257, "GUSH_SUFFI": 0, "PARCEL_NUM": 120, "CALC_AREA": 0.0, "LEGAL_AREA": 0.0, "IS_ANALITY": 0, "STATUS": 0, "PLAN_NAME": "", "AGAM_ID": 4000266689.0, "FONT_SIZE": 2.5, "ROTATION": 0.0}, "geometry": {"type": "Point", "coordinates": [34.84103818094233, 31.994167804615945]}}, {"type": "Feature", "properties": {"OBJECTID": 13496613, "LAYER_ID": 1234015, "GROUP_ID": 196926, "DEFQ": 0, "DATA_DATE": null, "MAVAT_CODE": 0, "MAVAT_NAME": "", "TYPE_CODE": 0, "LABEL": "", "LOT_NUM": 6257, "GUSH_SUFFI": 0, "PARCEL_NUM": 108, "CALC_AREA": 0.0, "LEGAL_AREA": 0.0, "IS_ANALITY": 0, "STATUS": 0, "PLAN_NAME": "", "AGAM_ID": 4000266689.0, "FONT_SIZE": 2.5, "ROTATION": 0.0}, "geometry": {"type": "Point", "coordinates": [34.84229895012808, 31.991367065880706]}}, {"type": "Feature", "properties": {"OBJECTID": 13496614, "LAYER_ID": 1234015, "GROUP_ID": 196926, "DEFQ": 0, "DATA_DATE": null, "MAVAT_CODE": 0, "MAVAT_NAME": "", "TYPE_CODE": 0, "LABEL": "", "LOT_NUM": 6256, "GUSH_SUFFI": 0, "PARCEL_NUM": 27, "CALC_AREA": 0.0, "LEGAL_AREA": 0.0, "IS_ANALITY": 0, "STATUS": 0, "PLAN_NAME": "", "AGAM_ID": 4000266689.0, "FONT_SIZE": 2.5, "ROTATION": 0.0}, "geometry": {"type": "Point", "coordinates": [34.84458391238154, 31.999374052510774]}}, {"type": "Feature", "properties": {"OBJECTID": 13496615, "LAYER_ID": 1234015, "GROUP_ID": 196926, "DEFQ": 0, "DATA_DATE": null, "MAVAT_CODE": 0, "MAVAT_NAME": "", "TYPE_CODE": 0, "LABEL": "", "LOT_NUM": 6257, "GUSH_SUFFI": 0, "PARCEL_NUM": 130, "CALC_AREA": 0.0, "LEGAL_AREA": 0.0, "IS_ANALITY": 0, "STATUS": 0, "PLAN_NAME": "", "AGAM_ID": 4000266689.0, "FONT_SIZE": 2.5, "ROTATION": 0.0}, "geometry": {"type": "Point", "coordinates": [34.84288772262904, 31.998581463958597]}}, {"type": "Feature", "properties": {"OBJECTID": 13496616, "LAYER_ID": 1234015, "GROUP_ID": 196926, "DEFQ": 0, "DATA_DATE": null, "MAVAT_CODE": 0, "MAVAT_NAME": "", "TYPE_CODE": 0, "LABEL": "", "LOT_NUM": 6838, "GUSH_SUFFI": 0, "PARCEL_NUM": 30, "CALC_AREA": 0.0, "LEGAL_AREA": 0.0, "IS_ANALITY": 0, "STATUS": 0, "PLAN_NAME": "", "AGAM_ID": 4000266689.0, "FONT_SIZE": 2.5, "ROTATION": 0.0}, "geometry": {"type": "Point", "coordinates": [34.849892886359065, 31.999365623907725]}}, {"type": "Feature", "properties": {"OBJECTID": 13496617, "LAYER_ID": 1234015, "GROUP_ID": 196926, "DEFQ": 0, "DATA_DATE": null, "MAVAT_CODE": 0, "MAVAT_NAME": "", "TYPE_CODE": 0, "LABEL": "", "LOT_NUM": 6256, "GUSH_SUFFI": 0, "PARCEL_NUM": 28, "CALC_AREA": 0.0, "LEGAL_AREA": 0.0, "IS_ANALITY": 0, "STATUS": 0, "PLAN_NAME": "", "AGAM_ID": 4000266689.0, "FONT_SIZE": 2.5, "ROTATION": 0.0}, "geometry": {"type": "Point", "coordinates": [34.84480038724443, 31.99883240196953]}}, {"type": "Feature", "properties": {"OBJECTID": 13496618, "LAYER_ID": 1234015, "GROUP_ID": 196926, "DEFQ": 0, "DATA_DATE": null, "MAVAT_CODE": 0, "MAVAT_NAME": "", "TYPE_CODE": 0, "LABEL": "", "LOT_NUM": 6256, "GUSH_SUFFI": 0, "PARCEL_NUM": 40, "CALC_AREA": 0.0, "LEGAL_AREA": 0.0, "IS_ANALITY": 0, "STATUS": 0, "PLAN_NAME": "", "AGAM_ID": 4000266689.0, "FONT_SIZE": 2.5, "ROTATION": 0.0}, "geometry": {"type": "Point", "coordinates": [34.845350432716295, 32.00026771985168]}}, {"type": "Feature", "properties": {"OBJECTID": 13496619, "LAYER_ID": 1234015, "GROUP_ID": 196926, "DEFQ": 0, "DATA_DATE": null, "MAVAT_CODE": 0, "MAVAT_NAME": "", "TYPE_CODE": 0, "LABEL": "", "LOT_NUM": 6256, "GUSH_SUFFI": 0, "PARCEL_NUM": 29, "CALC_AREA": 0.0, "LEGAL_AREA": 0.0, "IS_ANALITY": 0, "STATUS": 0, "PLAN_NAME": "", "AGAM_ID": 4000266689.0, "FONT_SIZE": 2.5, "ROTATION": 0.0}, "geometry": {"type": "Point", "coordinates": [34.84533027646355, 31.99912465796541]}}, {"type": "Feature", "properties": {"OBJECTID": 13496620, "LAYER_ID": 1234015, "GROUP_ID": 196926, "DEFQ": 0, "DATA_DATE": null, "MAVAT_CODE": 0, "MAVAT_NAME": "", "TYPE_CODE": 0, "LABEL": "", "LOT_NUM": 6256, "GUSH_SUFFI": 0, "PARCEL_NUM": 33, "CALC_AREA": 0.0, "LEGAL_AREA": 0.0, "IS_ANALITY": 0, "STATUS": 0, "PLAN_NAME": "", "AGAM_ID": 4000266689.0, "FONT_SIZE": 2.5, "ROTATION": 0.0}, "geometry": {"type": "Point", "coordinates": [34.84560269053562, 31.997935291742806]}}, {"type": "Feature", "properties": {"OBJECTID": 13496621, "LAYER_ID": 1234015, "GROUP_ID": 196926, "DEFQ": 0, "DATA_DATE": null, "MAVAT_CODE": 0, "MAVAT_NAME": "", "TYPE_CODE": 0, "LABEL": "", "LOT_NUM": 6257, "GUSH_SUFFI": 0, "PARCEL_NUM": 123, "CALC_AREA": 0.0, "LEGAL_AREA": 0.0, "IS_ANALITY": 0, "STATUS": 0, "PLAN_NAME": "", "AGAM_ID": 4000266689.0, "FONT_SIZE": 2.5, "ROTATION": 0.0}, "geometry": {"type": "Point", "coordinates": [34.84178399019396, 31.996923751518537]}}, {"type": "Feature", "properties": {"OBJECTID": 13496622, "LAYER_ID": 1234015, "GROUP_ID": 196926, "DEFQ": 0, "DATA_DATE": null, "MAVAT_CODE": 0, "MAVAT_NAME": "", "TYPE_CODE": 0, "LABEL": "", "LOT_NUM": 6254, "GUSH_SUFFI": 0, "PARCEL_NUM": 131, "CALC_AREA": 0.0, "LEGAL_AREA": 0.0, "IS_ANALITY": 0, "STATUS": 0, "PLAN_NAME": "", "AGAM_ID": 4000266689.0, "FONT_SIZE": 2.5, "ROTATION": 0.0}, "geometry": {"type": "Point", "coordinates": [34.853563164326125, 31.995593359631588]}}, {"type": "Feature", "properties": {"OBJECTID": 13496623, "LAYER_ID": 1234015, "GROUP_ID": 196926, "DEFQ": 0, "DATA_DATE": null, "MAVAT_CODE": 0, "MAVAT_NAME": "", "TYPE_CODE": 0, "LABEL": "", "LOT_NUM": 6257, "GUSH_SUFFI": 0, "PARCEL_NUM": 121, "CALC_AREA": 0.0, "LEGAL_AREA": 0.0, "IS_ANALITY": 0, "STATUS": 0, "PLAN_NAME": "", "AGAM_ID": 4000266689.0, "FONT_SIZE": 2.5, "ROTATION": 0.0}, "geometry": {"type": "Point", "coordinates": [34.84184154577337, 31.992999146315853]}}, {"type": "Feature", "properties": {"OBJECTID": 13496624, "LAYER_ID": 1234015, "GROUP_ID": 196926, "DEFQ": 0, "DATA_DATE": null, "MAVAT_CODE": 0, "MAVAT_NAME": "", "TYPE_CODE": 0, "LABEL": "", "LOT_NUM": 6257, "GUSH_SUFFI": 0, "PARCEL_NUM": 107, "CALC_AREA": 0.0, "LEGAL_AREA": 0.0, "IS_ANALITY": 0, "STATUS": 0, "PLAN_NAME": "", "AGAM_ID": 4000266689.0, "FONT_SIZE": 2.5, "ROTATION": 0.0}, "geometry": {"type": "Point", "coordinates": [34.841647049422726, 31.990931013047938]}}, {"type": "Feature", "properties": {"OBJECTID": 13496625, "LAYER_ID": 1234015, "GROUP_ID": 196926, "DEFQ": 0, "DATA_DATE": null, "MAVAT_CODE": 0, "MAVAT_NAME": "", "TYPE_CODE": 0, "LABEL": "", "LOT_NUM": 6257, "GUSH_SUFFI": 0, "PARCEL_NUM": 122, "CALC_AREA": 0.0, "LEGAL_AREA": 0.0, "IS_ANALITY": 0, "STATUS": 0, "PLAN_NAME": "", "AGAM_ID": 4000266689.0, "FONT_SIZE": 2.5, "ROTATION": 0.0}, "geometry": {"type": "Point", "coordinates": [34.84187292760152, 31.995531385166974]}}, {"type": "Feature", "properties": {"OBJECTID": 13496626, "LAYER_ID": 1234015, "GROUP_ID": 196926, "DEFQ": 0, "DATA_DATE": null, "MAVAT_CODE": 0, "MAVAT_NAME": "", "TYPE_CODE": 0, "LABEL": "", "LOT_NUM": 6069, "GUSH_SUFFI": 0, "PARCEL_NUM": 70, "CALC_AREA": 0.0, "LEGAL_AREA": 0.0, "IS_ANALITY": 0, "STATUS": 0, "PLAN_NAME": "", "AGAM_ID": 4000266689.0, "FONT_SIZE": 2.5, "ROTATION": 0.0}, "geometry": {"type": "Point", "coordinates": [34.83844506376932, 32.00308768876228]}}, {"type": "Feature", "properties": {"OBJECTID": 13496627, "LAYER_ID": 1234015, "GROUP_ID": 196926, "DEFQ": 0, "DATA_DATE": null, "MAVAT_CODE": 0, "MAVAT_NAME": "", "TYPE_CODE": 0, "LABEL": "", "LOT_NUM": 6069, "GUSH_SUFFI": 0, "PARCEL_NUM": 71, "CALC_AREA": 0.0, "LEGAL_AREA": 0.0, "IS_ANALITY": 0, "STATUS": 0, "PLAN_NAME": "", "AGAM_ID": 4000266689.0, "FONT_SIZE": 2.5, "ROTATION": 0.0}, "geometry": {"type": "Point", "coordinates": [34.83983714882127, 32.001118073968115]}}, {"type": "Feature", "properties": {"OBJECTID": 13496628, "LAYER_ID": 1234015, "GROUP_ID": 196926, "DEFQ": 0, "DATA_DATE": null, "MAVAT_CODE": 0, "MAVAT_NAME": "", "TYPE_CODE": 0, "LABEL": "", "LOT_NUM": 6068, "GUSH_SUFFI": 0, "PARCEL_NUM": 7, "CALC_AREA": 0.0, "LEGAL_AREA": 0.0, "IS_ANALITY": 0, "STATUS": 0, "PLAN_NAME": "", "AGAM_ID": 4000266689.0, "FONT_SIZE": 2.5, "ROTATION": 0.0}, "geometry": {"type": "Point", "coordinates": [34.84067360465771, 32.00675647614377]}}, {"type": "Feature", "properties": {"OBJECTID": 13496629, "LAYER_ID": 1234015, "GROUP_ID": 196926, "DEFQ": 0, "DATA_DATE": null, "MAVAT_CODE": 0, "MAVAT_NAME": "", "TYPE_CODE": 0, "LABEL": "", "LOT_NUM": 6249, "GUSH_SUFFI": 0, "PARCEL_NUM": 81, "CALC_AREA": 0.0, "LEGAL_AREA": 0.0, "IS_ANALITY": 0, "STATUS": 0, "PLAN_NAME": "", "AGAM_ID": 4000266689.0, "FONT_SIZE": 2.5, "ROTATION": 0.0}, "geometry": {"type": "Point", "coordinates": [34.84464958568002, 32.007233744581434]}}, {"type": "Feature", "properties": {"OBJECTID": 13496630, "LAYER_ID": 1234015, "GROUP_ID": 196926, "DEFQ": 0, "DATA_DATE": null, "MAVAT_CODE": 0, "MAVAT_NAME": "", "TYPE_CODE": 0, "LABEL": "", "LOT_NUM": 6068, "GUSH_SUFFI": 0, "PARCEL_NUM": 10, "CALC_AREA": 0.0, "LEGAL_AREA": 0.0, "IS_ANALITY": 0, "STATUS": 0, "PLAN_NAME": "", "AGAM_ID": 4000266689.0, "FONT_SIZE": 2.5, "ROTATION": 0.0}, "geometry": {"type": "Point", "coordinates": [34.8427487999017, 32.00514376483615]}}, {"type": "Feature", "properties": {"OBJECTID": 13496631, "LAYER_ID": 1234015, "GROUP_ID": 196926, "DEFQ": 0, "DATA_DATE": null, "MAVAT_CODE": 0, "MAVAT_NAME": "", "TYPE_CODE": 0, "LABEL": "", "LOT_NUM": 6068, "GUSH_SUFFI": 0, "PARCEL_NUM": 11, "CALC_AREA": 0.0, "LEGAL_AREA": 0.0, "IS_ANALITY": 0, "STATUS": 0, "PLAN_NAME": "", "AGAM_ID": 4000266689.0, "FONT_SIZE": 2.5, "ROTATION": 0.0}, "geometry": {"type": "Point", "coordinates": [34.8427734810381, 32.00366175417085]}}, {"type": "Feature", "properties": {"OBJECTID": 13496632, "LAYER_ID": 1234015, "GROUP_ID": 196926, "DEFQ": 0, "DATA_DATE": null, "MAVAT_CODE": 0, "MAVAT_NAME": "", "TYPE_CODE": 0, "LABEL": "", "LOT_NUM": 6249, "GUSH_SUFFI": 0, "PARCEL_NUM": 89, "CALC_AREA": 0.0, "LEGAL_AREA": 0.0, "IS_ANALITY": 0, "STATUS": 0, "PLAN_NAME": "", "AGAM_ID": 4000266689.0, "FONT_SIZE": 2.5, "ROTATION": 0.0}, "geometry": {"type": "Point", "coordinates": [34.84534487417207, 32.00565516233998]}}, {"type": "Feature", "properties": {"OBJECTID": 13496633, "LAYER_ID": 1234015, "GROUP_ID": 196926, "DEFQ": 0, "DATA_DATE": null, "MAVAT_CODE": 0, "MAVAT_NAME": "", "TYPE_CODE": 0, "LABEL": "", "LOT_NUM": 6069, "GUSH_SUFFI": 0, "PARCEL_NUM": 65, "CALC_AREA": 0.0, "LEGAL_AREA": 0.0, "IS_ANALITY": 0, "STATUS": 0, "PLAN_NAME": "", "AGAM_ID": 4000266689.0, "FONT_SIZE": 2.5, "ROTATION": 0.0}, "geometry": {"type": "Point", "coordinates": [34.84068349348383, 32.00159876247158]}}, {"type": "Feature", "properties": {"OBJECTID": 13496634, "LAYER_ID": 1234015, "GROUP_ID": 196926, "DEFQ": 0, "DATA_DATE": null, "MAVAT_CODE": 0, "MAVAT_NAME": "", "TYPE_CODE": 0, "LABEL": "", "LOT_NUM": 6249, "GUSH_SUFFI": 0, "PARCEL_NUM": 48, "CALC_AREA": 0.0, "LEGAL_AREA": 0.0, "IS_ANALITY": 0, "STATUS": 0, "PLAN_NAME": "", "AGAM_ID": 4000266689.0, "FONT_SIZE": 2.5, "ROTATION": 0.0}, "geometry": {"type": "Point", "coordinates": [34.84325256999771, 32.00344208376207]}}, {"type": "Feature", "properties": {"OBJECTID": 13496635, "LAYER_ID": 1234015, "GROUP_ID": 196926, "DEFQ": 0, "DATA_DATE": null, "MAVAT_CODE": 0, "MAVAT_NAME": "", "TYPE_CODE": 0, "LABEL": "", "LOT_NUM": 6068, "GUSH_SUFFI": 0, "PARCEL_NUM": 13, "CALC_AREA": 0.0, "LEGAL_AREA": 0.0, "IS_ANALITY": 0, "STATUS": 0, "PLAN_NAME": "", "AGAM_ID": 4000266689.0, "FONT_SIZE": 2.5, "ROTATION": 0.0}, "geometry": {"type": "Point", "coordinates": [34.83897496122538, 32.010791955295865]}}, {"type": "Feature", "properties": {"OBJECTID": 13496636, "LAYER_ID": 1234015, "GROUP_ID": 196926, "DEFQ": 0, "DATA_DATE": null, "MAVAT_CODE": 0, "MAVAT_NAME": "", "TYPE_CODE": 0, "LABEL": "", "LOT_NUM": 6068, "GUSH_SUFFI": 0, "PARCEL_NUM": 8, "CALC_AREA": 0.0, "LEGAL_AREA": 0.0, "IS_ANALITY": 0, "STATUS": 0, "PLAN_NAME": "", "AGAM_ID": 4000266689.0, "FONT_SIZE": 2.5, "ROTATION": 0.0}, "geometry": {"type": "Point", "coordinates": [34.84111436784042, 32.0065597198804]}}, {"type": "Feature", "properties": {"OBJECTID": 13496637, "LAYER_ID": 1234015, "GROUP_ID": 196926, "DEFQ": 0, "DATA_DATE": null, "MAVAT_CODE": 0, "MAVAT_NAME": "", "TYPE_CODE": 0, "LABEL": "", "LOT_NUM": 6069, "GUSH_SUFFI": 0, "PARCEL_NUM": 78, "CALC_AREA": 0.0, "LEGAL_AREA": 0.0, "IS_ANALITY": 0, "STATUS": 0, "PLAN_NAME": "", "AGAM_ID": 4000266689.0, "FONT_SIZE": 2.5, "ROTATION": 0.0}, "geometry": {"type": "Point", "coordinates": [34.8346301794893, 32.00675774862906]}}, {"type": "Feature", "properties": {"OBJECTID": 13496638, "LAYER_ID": 1234015, "GROUP_ID": 196926, "DEFQ": 0, "DATA_DATE": null, "MAVAT_CODE": 0, "MAVAT_NAME": "", "TYPE_CODE": 0, "LABEL": "", "LOT_NUM": 6249, "GUSH_SUFFI": 0, "PARCEL_NUM": 92, "CALC_AREA": 0.0, "LEGAL_AREA": 0.0, "IS_ANALITY": 0, "STATUS": 0, "PLAN_NAME": "", "AGAM_ID": 4000266689.0, "FONT_SIZE": 2.5, "ROTATION": 0.0}, "geometry": {"type": "Point", "coordinates": [34.84793088250684, 31.999157798640272]}}, {"type": "Feature", "properties": {"OBJECTID": 13496639, "LAYER_ID": 1234015, "GROUP_ID": 196926, "DEFQ": 0, "DATA_DATE": null, "MAVAT_CODE": 0, "MAVAT_NAME": "", "TYPE_CODE": 0, "LABEL": "", "LOT_NUM": 6068, "GUSH_SUFFI": 0, "PARCEL_NUM": 4, "CALC_AREA": 0.0, "LEGAL_AREA": 0.0, "IS_ANALITY": 0, "STATUS": 0, "PLAN_NAME": "", "AGAM_ID": 4000266689.0, "FONT_SIZE": 2.5, "ROTATION": 0.0}, "geometry": {"type": "Point", "coordinates": [34.84157523629087, 32.008615331171285]}}, {"type": "Feature", "properties": {"OBJECTID": 13496640, "LAYER_ID": 1234015, "GROUP_ID": 196926, "DEFQ": 0, "DATA_DATE": null, "MAVAT_CODE": 0, "MAVAT_NAME": "", "TYPE_CODE": 0, "LABEL": "", "LOT_NUM": 6068, "GUSH_SUFFI": 0, "PARCEL_NUM": 5, "CALC_AREA": 0.0, "LEGAL_AREA": 0.0, "IS_ANALITY": 0, "STATUS": 0, "PLAN_NAME": "", "AGAM_ID": 4000266689.0, "FONT_SIZE": 2.5, "ROTATION": 0.0}, "geometry": {"type": "Point", "coordinates": [34.83957017771503, 32.00741336440231]}}, {"type": "Feature", "properties": {"OBJECTID": 13496641, "LAYER_ID": 1234015, "GROUP_ID": 196926, "DEFQ": 0, "DATA_DATE": null, "MAVAT_CODE": 0, "MAVAT_NAME": "", "TYPE_CODE": 0, "LABEL": "", "LOT_NUM": 6249, "GUSH_SUFFI": 0, "PARCEL_NUM": 49, "CALC_AREA": 0.0, "LEGAL_AREA": 0.0, "IS_ANALITY": 0, "STATUS": 0, "PLAN_NAME": "", "AGAM_ID": 4000266689.0, "FONT_SIZE": 2.5, "ROTATION": 0.0}, "geometry": {"type": "Point", "coordinates": [34.84269319838319, 32.00312649033037]}}]}