{"type": "FeatureCollection", "features": [{"type": "Feature", "properties": {"OBJECTID": 2548081, "LAYER_ID": 1234011, "GROUP_ID": 196926, "DEFQ": 0, "MAVAT_CODE": 22340, "MAVAT_NAME": "מלבן הדפסה", "PAGE_SIZE": 0, "SCALE": 1250, "PAGE": 1, "PAGES": 1, "PLAN_NAME": "", "VER_ID": 99000379113.0, "AGAM_ID": 4000266689.0, "SHAPE_AREA": 973750.0, "SHAPE_LEN": 3950.0}, "geometry": {"type": "Polygon", "coordinates": [[[34.84727869817442, 31.997795836256167], [34.83722562469569, 31.997767143420646], [34.83718878392314, 32.00701049702209], [34.847242866051836, 32.0070392001203], [34.84727869817442, 31.997795836256167]]]}}]}