{"type": "FeatureCollection", "features": [{"type": "Feature", "properties": {"OBJECTID": 2399665, "LAYER_ID": 1234016, "GROUP_ID": 196926, "DEFQ": 0, "DATA_DATE": null, "MAVAT_CODE": 0, "MAVAT_NAME": "", "LABEL": "", "LOT_NUM": 6257, "GUSH_SUFFI": 0, "CALC_AREA": 0.0, "LEGAL_AREA": 0.0, "TYPE_CODE": 0, "STATUS": 6, "IS_ANALITY": 0, "PLAN_NAME": "", "STATUS_NAM": "", "AGAM_ID": 4000266689.0, "FONT_SIZE": 20.0, "ROTATION": 0.0}, "geometry": {"type": "Point", "coordinates": [34.84114346967108, 31.996355434478048]}}, {"type": "Feature", "properties": {"OBJECTID": 2399666, "LAYER_ID": 1234016, "GROUP_ID": 196926, "DEFQ": 0, "DATA_DATE": null, "MAVAT_CODE": 0, "MAVAT_NAME": "", "LABEL": "", "LOT_NUM": 6258, "GUSH_SUFFI": 0, "CALC_AREA": 0.0, "LEGAL_AREA": 0.0, "TYPE_CODE": 0, "STATUS": 6, "IS_ANALITY": 0, "PLAN_NAME": "", "STATUS_NAM": "", "AGAM_ID": 4000266689.0, "FONT_SIZE": 20.0, "ROTATION": 0.0}, "geometry": {"type": "Point", "coordinates": [34.844503581532784, 31.995888437524926]}}, {"type": "Feature", "properties": {"OBJECTID": 2399667, "LAYER_ID": 1234016, "GROUP_ID": 196926, "DEFQ": 0, "DATA_DATE": null, "MAVAT_CODE": 0, "MAVAT_NAME": "", "LABEL": "", "LOT_NUM": 6249, "GUSH_SUFFI": 0, "CALC_AREA": 0.0, "LEGAL_AREA": 0.0, "TYPE_CODE": 0, "STATUS": 6, "IS_ANALITY": 0, "PLAN_NAME": "", "STATUS_NAM": "", "AGAM_ID": 4000266689.0, "FONT_SIZE": 20.0, "ROTATION": 0.0}, "geometry": {"type": "Point", "coordinates": [34.84683749981121, 32.00629324834856]}}, {"type": "Feature", "properties": {"OBJECTID": 2399668, "LAYER_ID": 1234016, "GROUP_ID": 196926, "DEFQ": 0, "DATA_DATE": null, "MAVAT_CODE": 0, "MAVAT_NAME": "", "LABEL": "", "LOT_NUM": 6256, "GUSH_SUFFI": 0, "CALC_AREA": 0.0, "LEGAL_AREA": 0.0, "TYPE_CODE": 0, "STATUS": 6, "IS_ANALITY": 0, "PLAN_NAME": "", "STATUS_NAM": "", "AGAM_ID": 4000266689.0, "FONT_SIZE": 20.0, "ROTATION": 0.0}, "geometry": {"type": "Point", "coordinates": [34.84329010528253, 32.000943068352015]}}, {"type": "Feature", "properties": {"OBJECTID": 2399669, "LAYER_ID": 1234016, "GROUP_ID": 196926, "DEFQ": 0, "DATA_DATE": null, "MAVAT_CODE": 0, "MAVAT_NAME": "", "LABEL": "", "LOT_NUM": 6069, "GUSH_SUFFI": 0, "CALC_AREA": 0.0, "LEGAL_AREA": 0.0, "TYPE_CODE": 0, "STATUS": 6, "IS_ANALITY": 0, "PLAN_NAME": "", "STATUS_NAM": "", "AGAM_ID": 4000266689.0, "FONT_SIZE": 20.0, "ROTATION": 0.0}, "geometry": {"type": "Point", "coordinates": [34.838053353269764, 32.00426530220197]}}, {"type": "Feature", "properties": {"OBJECTID": 2399670, "LAYER_ID": 1234016, "GROUP_ID": 196926, "DEFQ": 0, "DATA_DATE": null, "MAVAT_CODE": 0, "MAVAT_NAME": "", "LABEL": "", "LOT_NUM": 6068, "GUSH_SUFFI": 0, "CALC_AREA": 0.0, "LEGAL_AREA": 0.0, "TYPE_CODE": 0, "STATUS": 6, "IS_ANALITY": 0, "PLAN_NAME": "", "STATUS_NAM": "", "AGAM_ID": 4000266689.0, "FONT_SIZE": 20.0, "ROTATION": 0.0}, "geometry": {"type": "Point", "coordinates": [34.84036219082766, 32.00754734750766]}}, {"type": "Feature", "properties": {"OBJECTID": 2399671, "LAYER_ID": 1234016, "GROUP_ID": 196926, "DEFQ": 0, "DATA_DATE": null, "MAVAT_CODE": 0, "MAVAT_NAME": "", "LABEL": "", "LOT_NUM": 6254, "GUSH_SUFFI": 0, "CALC_AREA": 0.0, "LEGAL_AREA": 0.0, "TYPE_CODE": 0, "STATUS": 6, "IS_ANALITY": 0, "PLAN_NAME": "", "STATUS_NAM": "", "AGAM_ID": 4000266689.0, "FONT_SIZE": 20.0, "ROTATION": 0.0}, "geometry": {"type": "Point", "coordinates": [34.85087677577956, 31.997301478171313]}}, {"type": "Feature", "properties": {"OBJECTID": 2399672, "LAYER_ID": 1234016, "GROUP_ID": 196926, "DEFQ": 0, "DATA_DATE": null, "MAVAT_CODE": 0, "MAVAT_NAME": "", "LABEL": "", "LOT_NUM": 7188, "GUSH_SUFFI": 0, "CALC_AREA": 0.0, "LEGAL_AREA": 0.0, "TYPE_CODE": 0, "STATUS": 6, "IS_ANALITY": 0, "PLAN_NAME": "", "STATUS_NAM": "", "AGAM_ID": 4000266689.0, "FONT_SIZE": 20.0, "ROTATION": 0.0}, "geometry": {"type": "Point", "coordinates": [34.851007247593564, 31.99356486547482]}}, {"type": "Feature", "properties": {"OBJECTID": 2399673, "LAYER_ID": 1234016, "GROUP_ID": 196926, "DEFQ": 0, "DATA_DATE": null, "MAVAT_CODE": 0, "MAVAT_NAME": "", "LABEL": "", "LOT_NUM": 6260, "GUSH_SUFFI": 0, "CALC_AREA": 0.0, "LEGAL_AREA": 0.0, "TYPE_CODE": 0, "STATUS": 6, "IS_ANALITY": 0, "PLAN_NAME": "", "STATUS_NAM": "", "AGAM_ID": 4000266689.0, "FONT_SIZE": 20.0, "ROTATION": 0.0}, "geometry": {"type": "Point", "coordinates": [34.85393627093792, 31.993348286551107]}}, {"type": "Feature", "properties": {"OBJECTID": 2399674, "LAYER_ID": 1234016, "GROUP_ID": 196926, "DEFQ": 0, "DATA_DATE": null, "MAVAT_CODE": 0, "MAVAT_NAME": "", "LABEL": "", "LOT_NUM": 6838, "GUSH_SUFFI": 0, "CALC_AREA": 0.0, "LEGAL_AREA": 0.0, "TYPE_CODE": 0, "STATUS": 6, "IS_ANALITY": 0, "PLAN_NAME": "", "STATUS_NAM": "", "AGAM_ID": 4000266689.0, "FONT_SIZE": 20.0, "ROTATION": 0.0}, "geometry": {"type": "Point", "coordinates": [34.8505806222143, 31.999536732448274]}}, {"type": "Feature", "properties": {"OBJECTID": 2399675, "LAYER_ID": 1234016, "GROUP_ID": 196926, "DEFQ": 0, "DATA_DATE": null, "MAVAT_CODE": 0, "MAVAT_NAME": "", "LABEL": "", "LOT_NUM": 7196, "GUSH_SUFFI": 0, "CALC_AREA": 0.0, "LEGAL_AREA": 0.0, "TYPE_CODE": 0, "STATUS": 6, "IS_ANALITY": 0, "PLAN_NAME": "", "STATUS_NAM": "", "AGAM_ID": 4000266689.0, "FONT_SIZE": 20.0, "ROTATION": 0.0}, "geometry": {"type": "Point", "coordinates": [34.847766167816594, 31.993770867014845]}}]}