{"type": "FeatureCollection", "features": [{"type": "Feature", "properties": {"OBJECTID": 4675169, "GROUP_ID": 196926, "LAYER_ID": 1253551, "DEFQ": "", "MAVAT_CODE": 2200, "MAVAT_NAME": "מבנה / בית", "LABEL": "", "NAME": "", "NUM": 0, "TYPE": "", "STATUS": "", "POL_AREA": 0.0, "HEIGHT": 0.0, "PLAN_NAME": "", "DATA_DATE": "", "AGAM_ID": 4000266689.0, "SHAPE_AREA": 940.74927076, "SHAPE_LEN": 137.076513119}, "geometry": {"type": "Polygon", "coordinates": [[[34.84352003315539, 32.00171134132934], [34.84389200089302, 32.00136385253751], [34.843731787805126, 32.0013615034264], [34.843616908375736, 32.00137605698718], [34.8435075638644, 32.00140947293528], [34.84338382568767, 32.001470172867215], [34.84333979937036, 32.00149773289023], [34.84352003315539, 32.00171134132934]]]}}, {"type": "Feature", "properties": {"OBJECTID": 4675170, "GROUP_ID": 196926, "LAYER_ID": 1253551, "DEFQ": "", "MAVAT_CODE": 2200, "MAVAT_NAME": "מבנה / בית", "LABEL": "", "NAME": "", "NUM": 0, "TYPE": "", "STATUS": "", "POL_AREA": 0.0, "HEIGHT": 0.0, "PLAN_NAME": "", "DATA_DATE": "", "AGAM_ID": 4000266689.0, "SHAPE_AREA": 961.63964475, "SHAPE_LEN": 142.920503257}, "geometry": {"type": "Polygon", "coordinates": [[[34.83988407849462, 32.00447596945555], [34.839998943701204, 32.004653412654626], [34.840331545579055, 32.004418637240974], [34.84004767019442, 32.0042943657799], [34.83997580033077, 32.004377395579645], [34.83996947512347, 32.00434455186034], [34.83996994940677, 32.00430478380538], [34.83986168354389, 32.00430510403246], [34.83985951113307, 32.004345949368584], [34.839874227021724, 32.00442480904391], [34.83989332491044, 32.00446607621228], [34.83988407849462, 32.00447596945555]]]}}, {"type": "Feature", "properties": {"OBJECTID": 4675171, "GROUP_ID": 196926, "LAYER_ID": 1253551, "DEFQ": "", "MAVAT_CODE": 2200, "MAVAT_NAME": "מבנה / בית", "LABEL": "", "NAME": "", "NUM": 0, "TYPE": "", "STATUS": "", "POL_AREA": 0.0, "HEIGHT": 0.0, "PLAN_NAME": "", "DATA_DATE": "", "AGAM_ID": 4000266689.0, "SHAPE_AREA": 189.669701265, "SHAPE_LEN": 75.3645423216}, "geometry": {"type": "Polygon", "coordinates": [[[34.84243156244664, 32.00266288704838], [34.84249145706504, 32.00261012263174], [34.842483756463125, 32.00260378850815], [34.84252241134789, 32.00256972005044], [34.842471567661484, 32.002527821626025], [34.84243694732965, 32.00255829392301], [34.84242133520061, 32.002545443804934], [34.8424467164992, 32.00252297118582], [34.842409796006855, 32.00249256578268], [34.84238101777929, 32.00251782428567], [34.84239061635224, 32.002525786622215], [34.84233337627017, 32.00257630541701], [34.84234698493678, 32.002587435955554], [34.84230270057993, 32.00262644729791], [34.84234067581655, 32.002657758444556], [34.842386446543976, 32.002617398177534], [34.842403957551376, 32.00263178632878], [34.842399073009894, 32.002636101488854], [34.84243156244664, 32.00266288704838]]]}}]}