{"type": "FeatureCollection", "features": [{"type": "Feature", "properties": {"OBJECTID": 4612774, "LAYER_ID": 1234004, "GROUP_ID": 196926, "SCENARIO": "", "DEFQ": 0, "PLAN_NAME": "", "DATA_DATE": null, "MAVAT_CODE": 995, "MAVAT_NAME": "יעוד עפ\"י תכנית מאושרת אחרת", "NAME": "", "LABEL": "", "NUM": "1", "LEGAL_AREA": 1261.2316, "TYPE_CODE": 0, "TYPE_NAME": "", "SOURCE_COD": 0, "HASAVA": 0, "STATUS": "", "PL_CHANGE": "", "ADDRESS": "", "PLACE_NO": 0, "CALC_AREA": 0.0, "OLD_MIG": "", "AGAM_ID": 4000266689.0, "SHAPE_AREA": 1261.19668704, "SHAPE_LEN": 260.707206571}, "geometry": {"type": "Polygon", "coordinates": [[[34.838584043495885, 32.00559641055884], [34.838509845012005, 32.00553451703692], [34.838366971809315, 32.00567304893331], [34.83817690376594, 32.005846616462875], [34.83807061931904, 32.0059587262638], [34.83793756330262, 32.00610220623163], [34.83778635372453, 32.00626341710223], [34.83769987129292, 32.006333109000714], [34.83767953089876, 32.0063499535543], [34.837678965103635, 32.00635196771867], [34.83767781144738, 32.006364491018196], [34.83821654395907, 32.005981412991495], [34.838299242966265, 32.005921371706975], [34.838553128079084, 32.0057370546096], [34.83863087767039, 32.00566108926585], [34.8386455757203, 32.0056477380979], [34.838584043495885, 32.00559641055884]]]}}, {"type": "Feature", "properties": {"OBJECTID": 4612775, "LAYER_ID": 1234004, "GROUP_ID": 196926, "SCENARIO": "", "DEFQ": 0, "PLAN_NAME": "", "DATA_DATE": null, "MAVAT_CODE": 870, "MAVAT_NAME": "חניון", "NAME": "", "LABEL": "", "NUM": "4", "LEGAL_AREA": 84075.5603, "TYPE_CODE": 0, "TYPE_NAME": "", "SOURCE_COD": 0, "HASAVA": 0, "STATUS": "", "PL_CHANGE": "", "ADDRESS": "", "PLACE_NO": 0, "CALC_AREA": 0.0, "OLD_MIG": "", "AGAM_ID": 4000266689.0, "SHAPE_AREA": 84068.3407924, "SHAPE_LEN": 1767.1530256}, "geometry": {"type": "Polygon", "coordinates": [[[34.83993831022978, 32.003808861151285], [34.83992616859196, 32.0038267252164], [34.839969055789, 32.00384956297533], [34.839968402648765, 32.003850370815975], [34.8399394893002, 32.00389271428432], [34.83991830504248, 32.00393825686603], [34.83990532310671, 32.0039859812191], [34.83990083350002, 32.00403482126294], [34.8399049365262, 32.004083685992676], [34.839917540543865, 32.00413148385023], [34.839938364012404, 32.00417714710815], [34.839966941780034, 32.004219655720924], [34.84000263547362, 32.004258060111525], [34.84004464775823, 32.00429150238377], [34.840092040148065, 32.00431923548694], [34.84014375397068, 32.004340639903916], [34.84019863401643, 32.004355237490884], [34.8402554543447, 32.00436270215854], [34.84031294567033, 32.004362867156736], [34.840369823718554, 32.00435572879957], [34.840424817914716, 32.00434144654764], [34.840476699768054, 32.00432033944597], [34.84052431031504, 32.00429287899671], [34.840558557259975, 32.00426678492472], [34.84056000360515, 32.004265535569296], [34.840576387131726, 32.00428190334507], [34.840625610460435, 32.004246127565665], [34.84078354082562, 32.004132542161614], [34.84080949381023, 32.00411452100363], [34.840863638227646, 32.004071194926816], [34.84088367591114, 32.00405783895399], [34.840939306856, 32.00402076297669], [34.84099768673321, 32.00398112832295], [34.84105481552943, 32.00394474375678], [34.841100262479344, 32.003907715625886], [34.841403420549696, 32.00365495201575], [34.841436861100505, 32.00362644104476], [34.84153097670558, 32.00354552472141], [34.84162887218376, 32.0034603572227], [34.84173149277616, 32.003370079119755], [34.84184014274139, 32.003273494732426], [34.841906246476725, 32.0032141647449], [34.841956820944745, 32.003168773687946], [34.84208491972026, 32.00305281083001], [34.84208781287721, 32.00305017320749], [34.8422311281437, 32.002919485755285], [34.84241308129197, 32.00275265416982], [34.84249288477159, 32.00267933814239], [34.84312371007536, 32.002099699625774], [34.8431061862756, 32.002003294059946], [34.84312857819309, 32.00170134996472], [34.84335943082763, 32.00148950480717], [34.84345025024635, 32.0014061626116], [34.84368981474735, 32.001186320997995], [34.8439192088627, 32.0013687689094], [34.84396692209137, 32.00132494524859], [34.844107353892284, 32.001196323373065], [34.84423696228022, 32.00107828842513], [34.84435426222711, 32.00097228812522], [34.84441894802172, 32.000914251362765], [34.844613646904314, 32.000741592788195], [34.84486261812259, 32.00052510256986], [34.84508203623782, 32.000339039251344], [34.84518919821409, 32.000240653118816], [34.845286482832485, 32.00015133270547], [34.84534203692829, 32.000100328917185], [34.8454507450249, 31.999999896235867], [34.84572328424463, 31.99974809935489], [34.84587509454702, 31.99960784553352], [34.84597252232956, 31.999517832400056], [34.84621431817805, 31.99929557537977], [34.84632917371571, 31.999190000971925], [34.84591078879911, 31.999277791338976], [34.84589108255074, 31.999282574728525], [34.84576540700007, 31.999313073813816], [34.84559773425036, 31.999353765221354], [34.845577417851906, 31.99936086807442], [34.84546840310065, 31.999398989114944], [34.84512610433078, 31.999506388050712], [34.84491523011977, 31.999583663154887], [34.844869795814496, 31.999600313343784], [34.844752296416466, 31.99964468806625], [34.84457966143324, 31.999701665023476], [34.84440515706278, 31.99975926048718], [34.84433310748151, 31.99978079307097], [34.843743282158016, 32.00000612659885], [34.843720482865166, 32.00001483631982], [34.84361123860881, 32.00005009819386], [34.84345856296226, 32.000136262167686], [34.84309598686478, 32.00034088245382], [34.84293243208061, 32.00044789692242], [34.84282833672353, 32.000516003770805], [34.842572292457795, 32.00069116121858], [34.84225759288347, 32.00092419608857], [34.8421285191321, 32.001018175882635], [34.8420378373927, 32.00110666861621], [34.84180139869873, 32.001370285859835], [34.841668228042366, 32.001548205757786], [34.841531801413915, 32.00173047550402], [34.84134270928882, 32.00196129527868], [34.84126427543568, 32.002057038698936], [34.841018152047724, 32.002362758853955], [34.84079817391995, 32.002624816085714], [34.84079298736483, 32.0026497270048], [34.84048611468731, 32.003083051768314], [34.84042743762434, 32.00315888904554], [34.84018814799037, 32.00346815496138], [34.83993831022978, 32.003808861151285]]]}}, {"type": "Feature", "properties": {"OBJECTID": 4612776, "LAYER_ID": 1234004, "GROUP_ID": 196926, "SCENARIO": "", "DEFQ": 0, "PLAN_NAME": "", "DATA_DATE": null, "MAVAT_CODE": 870, "MAVAT_NAME": "חניון", "NAME": "", "LABEL": "", "NUM": "3", "LEGAL_AREA": 7868.2488, "TYPE_CODE": 0, "TYPE_NAME": "", "SOURCE_COD": 0, "HASAVA": 0, "STATUS": "", "PL_CHANGE": "", "ADDRESS": "", "PLACE_NO": 0, "CALC_AREA": 0.0, "OLD_MIG": "", "AGAM_ID": 4000266689.0, "SHAPE_AREA": 7875.42428211, "SHAPE_LEN": 595.414878352}, "geometry": {"type": "Polygon", "coordinates": [[[34.83992616859196, 32.0038267252164], [34.839828049683355, 32.00397106511647], [34.839657105625434, 32.00420437648219], [34.83955841538989, 32.00433350294259], [34.83952125622178, 32.004382120377414], [34.839297658623394, 32.0047006352374], [34.8392633830343, 32.004753264886155], [34.839201160871674, 32.00484880472813], [34.83917150923348, 32.00488721183411], [34.83904379436049, 32.00505263836653], [34.83902481230492, 32.00507722269969], [34.8388539525028, 32.00528826590491], [34.838584043495885, 32.00559641055884], [34.8386455757203, 32.0056477380979], [34.83865520206749, 32.00565576842831], [34.838786807961775, 32.00555669719132], [34.83896641263267, 32.00542505396718], [34.83899672277505, 32.00540159525414], [34.83907667953454, 32.0053512056432], [34.839145990504335, 32.00529523565112], [34.83919570745513, 32.00526282737847], [34.839245448546166, 32.00522859210732], [34.839327808614236, 32.005158133365434], [34.83938400173567, 32.00512213103936], [34.83948138574473, 32.005049987569954], [34.83957222081948, 32.00498691534365], [34.83973660797069, 32.00487156607288], [34.83992032511827, 32.004740340906196], [34.83993187004328, 32.00473209373775], [34.839933472618455, 32.00473094944735], [34.8399736768395, 32.004701767233534], [34.840003764038855, 32.00467996514446], [34.84015197764168, 32.00457409910151], [34.84018874140001, 32.00454887306055], [34.84027743356585, 32.00448577973938], [34.84030336259483, 32.0044695856666], [34.840439534244794, 32.004381365430014], [34.840576387131726, 32.00428190334507], [34.84056000360515, 32.004265535569296], [34.84052431174582, 32.00429287727143], [34.84047670119718, 32.00432033772164], [34.84042481934208, 32.004341444824014], [34.84036982514403, 32.00435572707643], [34.84031294709384, 32.004362865433855], [34.84025545576624, 32.00436270043566], [34.84019863543602, 32.00435523576774], [34.84014375538838, 32.004340638180274], [34.840092041564006, 32.004319233762544], [34.84004464917255, 32.004291500658454], [34.840002636886496, 32.00425805838506], [34.83996694319167, 32.00421965399313], [34.83993836542306, 32.00417714537889], [34.83991754195381, 32.00413148211941], [34.839904937935714, 32.004083684260195], [34.839900834909386, 32.00403481952881], [34.83990532451622, 32.00398597948328], [34.839918306452425, 32.00393825512856], [34.83993949071089, 32.00389271254529], [34.83996840406045, 32.003850369075494], [34.839969055789, 32.00384956297533], [34.83992616859196, 32.0038267252164]]]}}, {"type": "Feature", "properties": {"OBJECTID": 4612777, "LAYER_ID": 1234004, "GROUP_ID": 196926, "SCENARIO": "", "DEFQ": 0, "PLAN_NAME": "", "DATA_DATE": null, "MAVAT_CODE": 820, "MAVAT_NAME": "דרך מאושרת", "NAME": "", "LABEL": "", "NUM": "2", "LEGAL_AREA": 14816.8921, "TYPE_CODE": 0, "TYPE_NAME": "", "SOURCE_COD": 0, "HASAVA": 0, "STATUS": "", "PL_CHANGE": "", "ADDRESS": "", "PLACE_NO": 0, "CALC_AREA": 0.0, "OLD_MIG": "", "AGAM_ID": 4000266689.0, "SHAPE_AREA": 14779.6703629, "SHAPE_LEN": 2166.98591756}, "geometry": {"type": "Polygon", "coordinates": [[[34.83992616859196, 32.0038267252164], [34.83993831022978, 32.003808861151285], [34.84018814799037, 32.00346815496138], [34.84042743762434, 32.00315888904554], [34.84048611468731, 32.003083051768314], [34.84079298736483, 32.0026497270048], [34.84079817391995, 32.002624816085714], [34.841018152047724, 32.002362758853955], [34.84126427543568, 32.002057038698936], [34.84134270928882, 32.00196129527868], [34.841531801413915, 32.00173047550402], [34.841668228042366, 32.001548205757786], [34.84180139869873, 32.001370285859835], [34.8420378373927, 32.00110666861621], [34.8421285191321, 32.001018175882635], [34.84225759288347, 32.00092419608857], [34.842572292457795, 32.00069116121858], [34.84282833672353, 32.000516003770805], [34.84293243208061, 32.00044789692242], [34.84309598686478, 32.00034088245382], [34.84345856296226, 32.000136262167686], [34.84361123860881, 32.00005009819386], [34.843720482865166, 32.00001483631982], [34.843743282158016, 32.00000612659885], [34.84433310748151, 31.99978079307097], [34.84440515706278, 31.99975926048718], [34.84457966143324, 31.999701665023476], [34.844752296416466, 31.99964468806625], [34.844869795814496, 31.999600313343784], [34.84491523011977, 31.999583663154887], [34.84512610433078, 31.999506388050712], [34.84546840310065, 31.999398989114944], [34.845577417851906, 31.99936086807442], [34.84559773425036, 31.999353765221354], [34.84576540700007, 31.999313073813816], [34.84589108255074, 31.999282574728525], [34.84591078879911, 31.999277791338976], [34.84632917371571, 31.999190000971925], [34.846360433803135, 31.99916126579527], [34.84619110169463, 31.99896146980509], [34.84609298221199, 31.998983385897965], [34.845838383376886, 31.9990454505793], [34.845795544934646, 31.999056641464822], [34.84554578677264, 31.99912363487683], [34.845291825540905, 31.999199240871786], [34.84504079127752, 31.999281640658197], [34.84479293417158, 31.999370752115667], [34.84454850124782, 31.999466486434695], [34.84430773612062, 31.999568748205107], [34.84407087875131, 31.99967743551111], [34.843838165209135, 31.999792440032806], [34.84360982743606, 31.99991364715402], [34.84349958297035, 31.999975281013274], [34.843399963782986, 32.00003303142181], [34.84318150495427, 32.00016600189294], [34.84296808031842, 32.00030478256315], [34.842759902604556, 32.00044923511831], [34.84255717931543, 32.00059921559078], [34.8423601125206, 32.000754574502984], [34.842168898655125, 32.000915157016095], [34.841983728323626, 32.00108080308453], [34.84180478611047, 32.001251347615096], [34.84163225039561, 32.001426620631726], [34.84146629317683, 32.00160644744464], [34.84130707989825, 32.0017906488244], [34.84115476928532, 32.0019790411805], [34.84100951318652, 32.0021714367443], [34.84096560001124, 32.002232337738704], [34.840533778888485, 32.00282881203797], [34.83922271604932, 32.00463321915919], [34.83901120964198, 32.004912637359794], [34.83891552403418, 32.00502931988746], [34.838762287624, 32.00520984630294], [34.83870642685503, 32.005271682636334], [34.83849648135608, 32.005496528645686], [34.838482174880305, 32.00551143410299], [34.838509845012005, 32.00553451703692], [34.838584043495885, 32.00559641055884], [34.8388539525028, 32.00528826590491], [34.83902481230492, 32.00507722269969], [34.83904379436049, 32.00505263836653], [34.83917150923348, 32.00488721183411], [34.839201160871674, 32.00484880472813], [34.8392633830343, 32.004753264886155], [34.839297658623394, 32.0047006352374], [34.83952125622178, 32.004382120377414], [34.83955841538989, 32.00433350294259], [34.839657105625434, 32.00420437648219], [34.839828049683355, 32.00397106511647], [34.83992616859196, 32.0038267252164]]]}}]}