<?xml version="1.0" encoding="UTF-8"?>
<kml xmlns="http://www.opengis.net/kml/2.2"
 xmlns:gx="http://www.google.com/kml/ext/2.2">
<Document>
  <Style id="Plan">
	<LabelStyle>		
<color>00000000</color>
			
<scale>0</scale>
		
</LabelStyle>
		
<LineStyle>
			
<color>ffff0000</color>
			
<width>3</width>
		
</LineStyle>
		
<PolyStyle>
			
<fill>0</fill>
		
</PolyStyle>

   <BalloonStyle>
    <text>


<![CDATA[<?xml version="1.0"?>
<table border="0"  width="560" cellpadding="2" cellspacing="2" dir="rtl" xmlns:fo="http://www.w3.org/1999/XSL/Format">
<tr>
<td align="center" colspan="2" height="20" style="border-bottom: Solid 1px #b4b5b4">
<font face="Arial" size="3" color="#b50027">
<b>פרטי גבול תכנית</b>
</font>
</td>
</tr>


<tr>
<td  align="right"><font face="Arial" size="3">מספר תכנית</font>
</td>
<td align="right" bgcolor="#efefef" height="20">
<font face="Arial" size="3" color="#202520">
<b>$[PL_NUMBER]</b>
</font>
</td>
</tr>

<tr>
<td  align="right"><font face="Arial" size="3">שם תכנית</font>
</td>
<td align="right" bgcolor="#efefef" height="20">
<font face="Arial" size="3" color="#202520">
<b>$[PL_NAME]</b>
</font>
</td>
</tr>

<tr>
<td  align="right"><font face="Arial" size="3">שטח התכנית</font>
</td>
<td align="right" bgcolor="#efefef" height="20">
<font face="Arial" size="3" color="#202520">
<b>$[PL_AREA]</b>
</font>
</td>
</tr>

<tr>
<td  align="right"><font face="Arial" size="3">קישור לתכנית</font>
</td>
<td align="right" bgcolor="#efefef" height="20">
<font face="Arial" size="3" color="#202520">
<b>$[PL_URL]</b>
</font>
</td>
</tr>


<tr>
<td  align="right"><font face="Arial" size="3">תאריך יצור הקובץ</font>
</td>
<td align="right" bgcolor="#efefef" height="20">
<font face="Arial" size="3" color="#202520">
<b>$[CREATE_DATE]</b>
</font>
</td>
</tr>

</table>]]> 

</text>
     </BalloonStyle>
  </Style>

  <Placemark>
   <name name="name"><value>גבול תכנית</value></name>
   <description/>   
   <styleUrl>#Plan</styleUrl>
<MultiGeometry>
<Polygon><outerBoundaryIs><LinearRing><coordinates>34.8505462301014,31.9893871108631,0 34.8509525682989,31.9891985801551,0 34.8511525856125,31.989121715729,0 34.8513526025881,31.989044852788,0 34.8515668563912,31.9889610780332,0 34.8515753256324,31.9889573631465,0 34.8515904700695,31.9889483881931,0 34.8516035557769,31.9889373083108,0 34.8516116978093,31.9889279226237,0 34.8516141843177,31.9889244612612,0 34.8516220344047,31.9889102351994,0 34.8516268666677,31.9888950635013,0 34.8516285342881,31.9888794055783,0 34.851624345076,31.9888539855675,0 34.851611922286,31.9888306006344,0 34.8516088537186,31.9888267270698,0 34.8515122525557,31.9887113216667,0 34.8514191847704,31.9884862397846,0 34.851070643629,31.9886498917623,0 34.8509418480412,31.9884624089716,0 34.8503642412363,31.9874179972046,0 34.850306813466,31.9874410655614,0 34.8503962923596,31.9876028605829,0 34.8497167991532,31.9878666066647,0 34.8505462301014,31.9893871108631,0 </coordinates></LinearRing></outerBoundaryIs></Polygon>
</MultiGeometry>

   <ExtendedData>
  
    <Data name="PL_NUMBER"><value>425-0449702</value></Data>
	 <Data name="PL_NAME"><value>שינוי תשריט והוראות מעון יום כפר חבד</value></Data>
	  <Data name="PL_AREA"><value>16.3</value></Data>
	   <Data name="PL_URL"><value>http://mavat.moin.gov.il/MavatPS/Forms/SV3.aspx?tid=3&amp;tnumb=425-0449702</value></Data>
	    <Data name="CREATE_DATE"><value>02/11/2016 10:46:10</value></Data>
   </ExtendedData>
  </Placemark>

</Document>
</kml>