<?xml version="1.0" encoding="UTF-8"?>
<kml xmlns="http://www.opengis.net/kml/2.2"
 xmlns:gx="http://www.google.com/kml/ext/2.2">
<Document>
  <Style id="Plan">
	<LabelStyle>		
<color>00000000</color>
			
<scale>0</scale>
		
</LabelStyle>
		
<LineStyle>
			
<color>ffff0000</color>
			
<width>3</width>
		
</LineStyle>
		
<PolyStyle>
			
<fill>0</fill>
		
</PolyStyle>

   <BalloonStyle>
    <text>


<![CDATA[<?xml version="1.0"?>
<table border="0"  width="560" cellpadding="2" cellspacing="2" dir="rtl" xmlns:fo="http://www.w3.org/1999/XSL/Format">
<tr>
<td align="center" colspan="2" height="20" style="border-bottom: Solid 1px #b4b5b4">
<font face="Arial" size="3" color="#b50027">
<b>פרטי גבול תכנית</b>
</font>
</td>
</tr>


<tr>
<td  align="right"><font face="Arial" size="3">מספר תכנית</font>
</td>
<td align="right" bgcolor="#efefef" height="20">
<font face="Arial" size="3" color="#202520">
<b>$[PL_NUMBER]</b>
</font>
</td>
</tr>

<tr>
<td  align="right"><font face="Arial" size="3">שם תכנית</font>
</td>
<td align="right" bgcolor="#efefef" height="20">
<font face="Arial" size="3" color="#202520">
<b>$[PL_NAME]</b>
</font>
</td>
</tr>

<tr>
<td  align="right"><font face="Arial" size="3">שטח התכנית</font>
</td>
<td align="right" bgcolor="#efefef" height="20">
<font face="Arial" size="3" color="#202520">
<b>$[PL_AREA]</b>
</font>
</td>
</tr>

<tr>
<td  align="right"><font face="Arial" size="3">קישור לתכנית</font>
</td>
<td align="right" bgcolor="#efefef" height="20">
<font face="Arial" size="3" color="#202520">
<b>$[PL_URL]</b>
</font>
</td>
</tr>


<tr>
<td  align="right"><font face="Arial" size="3">תאריך יצור הקובץ</font>
</td>
<td align="right" bgcolor="#efefef" height="20">
<font face="Arial" size="3" color="#202520">
<b>$[CREATE_DATE]</b>
</font>
</td>
</tr>

</table>]]> 

</text>
     </BalloonStyle>
  </Style>

  <Placemark>
   <name name="name"><value>גבול תכנית</value></name>
   <description/>   
   <styleUrl>#Plan</styleUrl>
<MultiGeometry>
<Polygon><outerBoundaryIs><LinearRing><coordinates>34.8477459638346,31.989907604497,0 34.8477459938831,31.989909177099,0 34.8477460575778,31.9899107503817,0 34.84774615286,31.989912323167,0 34.8477462804806,31.9899138927968,0 34.8477464391132,31.9899154602593,0 34.8477466300229,31.9899170267303,0 34.8477468545453,31.989918588877,0 34.8477471087609,31.9899201478607,0 34.8477473972792,31.9899217019358,0 34.847747716765,31.9899232516791,0 34.8477480666381,31.9899247965931,0 34.847748450126,31.9899263366416,0 34.8477488633179,31.9899278707316,0 34.8477493101863,31.9899293977019,0 34.8477497867034,31.9899309192996,0 34.8477502929881,31.9899324321884,0 34.8477508309914,31.989933937997,0 34.8477514006142,31.9899354350569,0 34.847752000635,31.989936924537,0 34.8477526316997,31.9899384035983,0 34.8477532925341,31.9899398734096,0 34.8477539830892,31.9899413328887,0 34.8477547034207,31.9899427814044,0 34.847755453469,31.9899442206249,0 34.8477562307051,31.9899456478377,0 34.8477570402631,31.9899470625161,0 34.8477578770049,31.9899484662239,0 34.8477587435357,31.9899498556767,0 34.8477596378405,31.9899512320413,0 34.8477605593333,31.9899525963531,0 34.8477615086574,31.9899539464496,0 34.8477624851778,31.9899552823289,0 34.8477634920778,31.9899566017456,0 34.8477645216708,31.9899579085558,0 34.8477655810146,31.9899591973233,0 34.8477666643276,31.9899604718196,0 34.8477677742086,31.9899617304287,0 34.8477689105602,31.9899629709859,0 34.847770058632,31.9899642043617,0 34.8477712584809,31.9899654016305,0 34.8478796166487,31.9900735619159,0 34.8482617890934,31.9899715594454,0 34.8481478089522,31.989730007336,0 34.8481088552616,31.9897336853728,0 34.8481055790553,31.9897343273176,0 34.8481032684286,31.9897347842642,0 34.8481009596916,31.9897352450938,0 34.8480986509946,31.989735709215,0 34.8480963448224,31.9897361771759,0 34.8480940380086,31.9897366468484,0 34.8480917318615,31.9897371219787,0 34.8480894276127,31.9897375987375,0 34.8480871232895,31.9897380810421,0 34.8480848209703,31.9897385650206,0 34.8480825205409,31.9897390528371,0 34.8480802181941,31.9897395439397,0 34.8480779203357,31.9897400372643,0 34.8480756224561,31.9897405360897,0 34.8480733239289,31.989741038205,0 34.84807102603,31.9897415419902,0 34.8480687319785,31.9897420496189,0 34.8480664359565,31.9897425605787,0 34.8480641444696,31.9897430753838,0 34.8480618504282,31.9897435940594,0 34.8480595608183,31.989744115994,0 34.8480572686538,31.9897446418442,0 34.8480549810351,31.9897451687441,0 34.8480526913889,31.9897457000572,0 34.8480504056384,31.9897462363862,0 34.8480481179748,31.9897467748741,0 34.8480458347491,31.9897473149976,0 34.8480435489645,31.9897478601189,0 34.8480412677129,31.9897484096267,0 34.8480389864042,31.9897489602164,0 34.8480367050719,31.9897495168932,0 34.848034425693,31.9897500746576,0 34.8480321482565,31.9897506363051,0 34.8480298714401,31.9897512017871,0 34.8480275939761,31.9897517705587,0 34.8480253190429,31.9897523415468,0 34.848023046048,31.9897529175453,0 34.8480207730448,31.989753495663,0 34.848018501986,31.9897540771679,0 34.8480162334521,31.9897546624674,0 34.8480139623636,31.9897552516374,0 34.8480116957615,31.9897558435704,0 34.8480094291488,31.989756438254,0 34.8480071644829,31.9897570356934,0 34.8480048997934,31.9897576392199,0 34.8480026370023,31.9897582443749,0 34.8480003748862,31.9897588528234,0 34.8479981140312,31.9897594634847,0 34.8479958557495,31.9897600791132,0 34.8479935974592,31.989760696951,0 34.8479913410522,31.9897613202951,0 34.8479890853267,31.9897619452643,0 34.847986830858,31.9897625735737,0 34.8479845789669,31.9897632057229,0 34.8479823270692,31.9897638395404,0 34.8479800770549,31.9897644788641,0 34.8479778270851,31.9897651203522,0 34.847975579007,31.9897657651823,0 34.8479733335086,31.9897664133112,0 34.8479710898997,31.9897670653231,0 34.8479688437451,31.989767718951,0 34.8479666020639,31.9897683786786,0 34.8479643604313,31.9897690394885,0 34.8479621213235,31.9897697041381,0 34.8479598841073,31.9897703721297,0 34.8479576463007,31.9897710422839,0 34.8479554110122,31.9897717179911,0 34.8479531757174,31.9897723953216,0 34.8479509423673,31.9897730759491,0 34.8479487115946,31.9897737604615,0 34.8479464808071,31.9897744488066,0 34.8479442538687,31.989775140499,0 34.8479420243317,31.9897758338074,0 34.8479397999646,31.9897765309629,0 34.8479375748947,31.9897772319941,0 34.8479353524572,31.9897779363694,0 34.8479331293193,31.9897786439891,0 34.8479309087651,31.9897793538706,0 34.8479286907821,31.9897800692152,0 34.8479264740624,31.9897807862316,0 34.8479242573891,31.9897815049164,0 34.8479220432342,31.9897822290642,0 34.8479198290641,31.9897829571347,0 34.84791761875,31.9897836867942,0 34.8479154091085,31.9897844203784,0 34.8479132007241,31.9897851572125,0 34.8479109929617,31.989785897385,0 34.8479087871484,31.9897866397273,0 34.8479065832268,31.9897873854116,0 34.8479043812478,31.9897881349339,0 34.8479021792538,31.9897888883339,0 34.8478999798395,31.9897896450327,0 34.8478977823762,31.9897904034052,0 34.8478955848451,31.9897911656102,0 34.8478933918492,31.9897919316606,0 34.8478911982054,31.9897927010457,0 34.8478890051837,31.9897934737242,0 34.8478868160156,31.9897942486228,0 34.8478846268326,31.989795027354,0 34.8478824395944,31.9897958093823,0 34.8478802549357,31.9897965947544,0 34.8478780695805,31.989797382334,0 34.8478758868053,31.9897981731672,0 34.8478737085647,31.989798967936,0 34.847871527717,31.989799766485,0 34.8478693513535,31.9898005683832,0 34.8478671744015,31.9898013719481,0 34.8478649999212,31.9898021793525,0 34.8478628280734,31.9898029900559,0 34.8478606574804,31.9898038046405,0 34.8478584875688,31.9898046208502,0 34.8478563215044,31.9898054409485,0 34.8478541553742,31.9898062643381,0 34.8478519892822,31.9898070915604,0 34.8478498276806,31.9898079204637,0 34.8478476654229,31.989808754866,0 34.847845508297,31.9898095892828,0 34.8478433505677,31.9898104292439,0 34.8478411947283,31.9898112729979,0 34.8478390395194,31.9898121178808,0 34.8478368881555,31.9898129671933,0 34.8478347368339,31.9898138192565,0 34.8478325874084,31.9898146734892,0 34.8478304405602,31.989815531652,0 34.847828295604,31.9898163930665,0 34.8478261506856,31.9898172583589,0 34.8478240095702,31.9898181252852,0 34.8478218684885,31.9898189971714,0 34.8478197299885,31.9898198718154,0 34.8478175933887,31.9898207475919,0 34.8478154587251,31.9898216288748,0 34.8478133265926,31.9898225123291,0 34.8478111938652,31.9898233991184,0 34.8478090636709,31.9898242875831,0 34.8478069380053,31.9898251815164,0 34.8478048116454,31.989826077116,0 34.8478029886451,31.9898268657128,0 34.8478013563105,31.989827602541,0 34.8477997407021,31.9898283647117,0 34.8477981418284,31.9898291500607,0 34.8477965576705,31.9898299607917,0 34.8477949908888,31.9898307929893,0 34.8477934407866,31.9898316489512,0 34.8477919093217,31.9898325285926,0 34.8477903945979,31.9898334297891,0 34.847788901051,31.9898343546723,0 34.8477874248821,31.9898353005712,0 34.8477859693123,31.9898362690731,0 34.8477845323376,31.989837258504,0 34.8477831172929,31.9898382684223,0 34.8477817227924,31.9898393014844,0 34.8477803495428,31.9898403527776,0 34.8477789968965,31.9898414255916,0 34.8477776680344,31.9898425182671,0 34.8477763604232,31.9898436291735,0 34.8477750772817,31.9898447605295,0 34.8477738160748,31.9898459112005,0 34.847772579928,31.9898470801134,0 34.8477713669389,31.9898482667215,0 34.8477701791139,31.9898494720677,0 34.8477690144464,31.9898506951543,0 34.8477678774911,31.9898519347766,0 34.8477667637526,31.9898531904713,0 34.8477656776734,31.9898544627015,0 34.8477646167685,31.9898557510095,0 34.84776358289,31.9898570553554,0 34.8477625767299,31.9898583746138,0 34.8477615963855,31.9898597082835,0 34.8477606430718,31.9898610568638,0 34.8477597187505,31.989862419278,0 34.8477588228415,31.9898637950286,0 34.8477579539675,31.9898651845627,0 34.8477571147227,31.9898665874364,0 34.8477563032664,31.9898680008042,0 34.847755522762,31.9898694275154,0 34.8477547699423,31.9898708641792,0 34.847754047446,31.9898723125164,0 34.8477533540079,31.9898737713511,0 34.8477526902141,31.9898752396478,0 34.8477520580177,31.9898767184944,0 34.8477514555187,31.989878206758,0 34.8477508820397,31.9898797017315,0 34.8477503407887,31.9898812083837,0 34.8477498318446,31.9898827200416,0 34.8477493519099,31.9898842411146,0 34.8477489035939,31.9898857672816,0 34.8477484868864,31.9898873012028,0 34.8477480998928,31.9898888402125,0 34.8477477471087,31.9898903847742,0 34.8477474259475,31.9898919333027,0 34.8477471338045,31.9898934890369,0 34.8477468759384,31.9898950465358,0 34.8477466496361,31.9898966096245,0 34.8477464556533,31.9898981744723,0 34.8477462926121,31.9898997416166,0 34.8477461618841,31.9899013121433,0 34.8477460647517,31.9899028827644,0 34.8477459973379,31.9899044573018,0 34.8477459634754,31.9899060297241,0 34.8477459638346,31.989907604497,0 </coordinates></LinearRing></outerBoundaryIs></Polygon>
</MultiGeometry>

   <ExtendedData>
  
    <Data name="PL_NUMBER"><value>425-1248244</value></Data>
	 <Data name="PL_NAME"><value>פיצול מגרש 73 כפ"ח</value></Data>
	  <Data name="PL_AREA"><value>1199</value></Data>
	   <Data name="PL_URL"><value>http://mavat.moin.gov.il/MavatPS/Forms/SV3.aspx?tid=3&amp;tnumb=425-1248244</value></Data>
	    <Data name="CREATE_DATE"><value>12/02/2024 15:21:35</value></Data>
   </ExtendedData>
  </Placemark>

</Document>
</kml>