{"type": "FeatureCollection", "features": [{"type": "Feature", "properties": {"OBJECTID": 7476065, "LAYER_ID": 1890800, "GROUP_ID": 224798, "SCENARIO": "", "DEFQ": 0, "PLAN_NAME": "", "DATA_DATE": null, "MAVAT_CODE": 10, "MAVAT_NAME": "", "NAME": "", "LABEL": "", "NUM": "101", "LEGAL_AREA": 0.0, "TYPE_CODE": 0, "TYPE_NAME": "", "SOURCE_COD": 0, "HASAVA": 0, "STATUS": "", "PL_CHANGE": "", "ADDRESS": "", "PLACE_NO": 0, "CALC_AREA": 0.0, "OLD_MIG": "", "AGAM_ID": 4000664309.0, "FONT_SIZE": 0.75, "ROTATION": 0.0}, "geometry": {"type": "Point", "coordinates": [34.84580535607957, 31.98624733296369]}}]}