{"type": "FeatureCollection", "features": [{"type": "Feature", "properties": {"OBJECTID": 3936849, "LAYER_ID": 1890799, "GROUP_ID": 224798, "DEFQ": 0, "MAVAT_CODE": 22340, "MAVAT_NAME": "מלבן הדפסה", "PAGE_SIZE": 3, "SCALE": 250, "PAGE": 1, "PAGES": 1, "PLAN_NAME": "", "VER_ID": 4000220923.0, "AGAM_ID": 4000664309.0, "SHAPE_AREA": 3881.25, "SHAPE_LEN": 250.0}, "geometry": {"type": "Polygon", "coordinates": [[[34.84618868597941, 31.98602620026021], [34.84558028784392, 31.986024481570144], [34.84557791853783, 31.98663319233098], [34.846186320690485, 31.98663491106152], [34.84618868597941, 31.98602620026021]]]}}]}