{"type": "FeatureCollection", "features": [{"type": "Feature", "properties": {"OBJECTID": 23727499, "LAYER_ID": 1890805, "GROUP_ID": 224798, "DEFQ": 0, "DATA_DATE": null, "MAVAT_CODE": 1602, "MAVAT_NAME": "גבול חלקה", "TYPE_CODE": 0, "LABEL": "", "LOT_NUM": 6272, "GUSH_SUFFI": 0, "PARCEL_NUM": 136, "CALC_AREA": 0.0, "LEGAL_AREA": 0.0, "IS_ANALITY": 0, "STATUS": 0, "PLAN_NAME": "", "AGAM_ID": 4000664309.0, "SHAPE_AREA": 1107.5794332, "SHAPE_LEN": 139.324885282}, "geometry": {"type": "Polygon", "coordinates": [[[34.84547096159127, 31.98603470909479], [34.84534143457674, 31.986038851718497], [34.845339506375744, 31.986038941854353], [34.84533853901317, 31.986039009458143], [34.84533757160144, 31.986039089687043], [34.8453366083588, 31.98603918616018], [34.84533564505997, 31.98603929706202], [34.84533468382813, 31.986039420594935], [34.845333726772424, 31.986039558568535], [34.84533277176965, 31.986039712780396], [34.845331820950044, 31.98603987962933], [34.8453308721904, 31.986040060912977], [34.84532992972306, 31.986040256643243], [34.845328989322695, 31.986040465004592], [34.84532805309847, 31.986040687806646], [34.845327123166555, 31.98604092505533], [34.84532619741075, 31.986041176744703], [34.84532527795428, 31.986041441077116], [34.84532436267394, 31.986041719850203], [34.84532345369291, 31.986042011266363], [34.8453225510042, 31.986042317129183], [34.845321654614786, 31.986042635635062], [34.84532076451768, 31.98604296858761], [34.84531988072692, 31.986043312379632], [34.84531900534461, 31.9860436706243], [34.84531813837078, 31.986044043321616], [34.84531727770328, 31.98604442685841], [34.84531642545129, 31.986044823044253], [34.845315579491576, 31.986045233676762], [34.845314744070556, 31.986045655160716], [34.845313917065006, 31.986046089293733], [34.845313100591106, 31.9860465360818], [34.845312290416544, 31.98604699551292], [34.84531149289682, 31.98604746580151], [34.84531070379257, 31.986047948739145], [34.845309923110854, 31.98604844252225], [34.84530915508396, 31.98604894716279], [34.84530839547258, 31.986049464452407], [34.84530764851603, 31.986049992599458], [34.845306909981986, 31.986050531591992], [34.845306184095755, 31.986051083245545], [34.845305470871416, 31.98605164395296], [34.84530476818575, 31.986052215511847], [34.84530407604577, 31.98605279611859], [34.845303396560666, 31.986053387582807], [34.84530272973038, 31.98605398990443], [34.84530207555496, 31.986054603083538], [34.84530143404842, 31.986055223512903], [34.84530080519674, 31.986055854799726], [34.84530018900693, 31.986056495140403], [34.845299587595164, 31.98605714454092], [34.84529899673612, 31.98605780118574], [34.84529842064808, 31.986058468693972], [34.84529785934511, 31.986059143458483], [34.84529731070403, 31.98605982727686], [34.84529677684801, 31.986060518351486], [34.84529625777001, 31.98606121848599], [34.845295751360936, 31.986061925870732], [34.845295261853074, 31.986062640517737], [34.84529478502115, 31.986063360611443], [34.845294322967256, 31.98606408976499], [34.84529387782164, 31.986064824377202], [34.845293445344915, 31.986065566239684], [34.845293029769415, 31.98606631536442], [34.84529262898604, 31.98606706994184], [34.8452922451109, 31.986067829977916], [34.84529187602786, 31.98606859546668], [34.84529152173691, 31.986069366408096], [34.84529118435424, 31.98607014280819], [34.84529086177067, 31.986070922857383], [34.84529055609537, 31.986071708365237], [34.84529026521217, 31.986072499325772], [34.84528999336044, 31.98607329394736], [34.84528973630782, 31.986074092218065], [34.845289494054335, 31.986074894137836], [34.845289270832296, 31.986075699718675], [34.84528906240938, 31.986076508948596], [34.84528887090879, 31.986077320030045], [34.84528869632349, 31.98607813476653], [34.845288538660505, 31.98607895135452], [34.84528839791985, 31.986079769794], [34.84528827409448, 31.986080591888566], [34.84528816508229, 31.986081414025055], [34.8452880751086, 31.986082238019], [34.845288002057224, 31.986083063864452], [34.845287943819024, 31.986083889751804], [34.84528790461931, 31.986084717496663], [34.845287882348956, 31.986085545289406], [34.845287874891774, 31.986086373124078], [34.845287886480115, 31.98608720101262], [34.845287914997805, 31.9860880289491], [34.84515904067485, 31.98608757403444], [34.845169986837966, 31.986428306432614], [34.845431644343094, 31.98643103077663], [34.84547096159127, 31.98603470909479]]]}}, {"type": "Feature", "properties": {"OBJECTID": 23727500, "LAYER_ID": 1890805, "GROUP_ID": 224798, "DEFQ": 0, "DATA_DATE": null, "MAVAT_CODE": 1602, "MAVAT_NAME": "גבול חלקה", "TYPE_CODE": 0, "LABEL": "", "LOT_NUM": 6272, "GUSH_SUFFI": 0, "PARCEL_NUM": 108, "CALC_AREA": 0.0, "LEGAL_AREA": 0.0, "IS_ANALITY": 0, "STATUS": 0, "PLAN_NAME": "", "AGAM_ID": 4000664309.0, "SHAPE_AREA": 6384.58180006, "SHAPE_LEN": 633.820601257}, "geometry": {"type": "Polygon", "coordinates": [[[34.84515469183068, 31.985954545683086], [34.84530866360695, 31.98594966079435], [34.845512901320454, 31.98594311426669], [34.845632045647925, 31.985942368970633], [34.84575580414066, 31.985952277885946], [34.845614935108166, 31.98579857308773], [34.845586827197664, 31.985761790210503], [34.84538793573156, 31.985835626539757], [34.845161176675376, 31.985919574056656], [34.84511695747247, 31.985727184332564], [34.84476688133185, 31.98582376795124], [34.84489106617719, 31.986321193970024], [34.84462843818242, 31.98637744371703], [34.84463637053327, 31.986486764798734], [34.84471858183941, 31.98670451284547], [34.84500286259646, 31.986576901396035], [34.84513513930407, 31.986573307987925], [34.84525346467473, 31.986565707025367], [34.84532614834205, 31.98654057201387], [34.84544314203339, 31.9865216945612], [34.84550245660988, 31.986533225040855], [34.84566569915904, 31.98681090100855], [34.84572894542924, 31.98687258277533], [34.84596785416166, 31.986875512265502], [34.84601305473717, 31.986870499638204], [34.84618761990068, 31.9867672850709], [34.84618203759266, 31.98676068614785], [34.846092510556595, 31.98665474203084], [34.846084189494015, 31.98664497905833], [34.84583650283846, 31.98653227548892], [34.84561839131806, 31.986433001744615], [34.845431644343094, 31.98643103077663], [34.845169986837966, 31.986428306432614], [34.84515904067485, 31.98608757403444], [34.84515469183068, 31.985954545683086]]]}}, {"type": "Feature", "properties": {"OBJECTID": 23727501, "LAYER_ID": 1890805, "GROUP_ID": 224798, "DEFQ": 0, "DATA_DATE": null, "MAVAT_CODE": 1602, "MAVAT_NAME": "גבול חלקה", "TYPE_CODE": 0, "LABEL": "", "LOT_NUM": 6272, "GUSH_SUFFI": 0, "PARCEL_NUM": 154, "CALC_AREA": 0.0, "LEGAL_AREA": 0.0, "IS_ANALITY": 0, "STATUS": 0, "PLAN_NAME": "", "AGAM_ID": 4000664309.0, "SHAPE_AREA": 2950.22040134, "SHAPE_LEN": 622.465903352}, "geometry": {"type": "Polygon", "coordinates": [[[34.84590024848444, 31.985975772171717], [34.84579377773928, 31.98595536114413], [34.84575580414066, 31.985952277885946], [34.845632045647925, 31.985942368970633], [34.845512901320454, 31.98594311426669], [34.84530866360695, 31.98594966079435], [34.84515469183068, 31.985954545683086], [34.84515904067485, 31.98608757403444], [34.845287914997805, 31.9860880289491], [34.845287886480115, 31.98608720101262], [34.845287874891774, 31.986086373124078], [34.845287882348956, 31.986085545289406], [34.84528790461931, 31.986084717496663], [34.845287943819024, 31.986083889751804], [34.845288002057224, 31.986083063864452], [34.8452880751086, 31.986082238019], [34.84528816508229, 31.986081414025055], [34.84528827409448, 31.986080591888566], [34.84528839791985, 31.986079769794], [34.845288538660505, 31.98607895135452], [34.84528869632349, 31.98607813476653], [34.84528887090879, 31.986077320030045], [34.84528906240938, 31.986076508948596], [34.845289270832296, 31.986075699718675], [34.845289494054335, 31.986074894137836], [34.84528973630782, 31.986074092218065], [34.84528999336044, 31.98607329394736], [34.84529026521217, 31.986072499325772], [34.84529055609537, 31.986071708365237], [34.84529086177067, 31.986070922857383], [34.84529118435424, 31.98607014280819], [34.84529152173691, 31.986069366408096], [34.84529187602786, 31.98606859546668], [34.8452922451109, 31.986067829977916], [34.84529262898604, 31.98606706994184], [34.845293029769415, 31.98606631536442], [34.845293445344915, 31.986065566239684], [34.84529387782164, 31.986064824377202], [34.845294322967256, 31.98606408976499], [34.84529478502115, 31.986063360611443], [34.845295261853074, 31.986062640517737], [34.845295751360936, 31.986061925870732], [34.84529625777001, 31.98606121848599], [34.84529677684801, 31.986060518351486], [34.84529731070403, 31.98605982727686], [34.84529785934511, 31.986059143458483], [34.84529842064808, 31.986058468693972], [34.84529899673612, 31.98605780118574], [34.845299587595164, 31.98605714454092], [34.84530018900693, 31.986056495140403], [34.84530080519674, 31.986055854799726], [34.84530143404842, 31.986055223512903], [34.84530207555496, 31.986054603083538], [34.84530272973038, 31.98605398990443], [34.845303396560666, 31.986053387582807], [34.84530407604577, 31.98605279611859], [34.84530476818575, 31.986052215511847], [34.845305470871416, 31.98605164395296], [34.845306184095755, 31.986051083245545], [34.845306909981986, 31.986050531591992], [34.84530764851603, 31.986049992599458], [34.84530839547258, 31.986049464452407], [34.84530915508396, 31.98604894716279], [34.845309923110854, 31.98604844252225], [34.84531070379257, 31.986047948739145], [34.84531149289682, 31.98604746580151], [34.845312290416544, 31.98604699551292], [34.845313100591106, 31.9860465360818], [34.845313917065006, 31.986046089293733], [34.845314744070556, 31.986045655160716], [34.845315579491576, 31.986045233676762], [34.84531642545129, 31.986044823044253], [34.84531727770328, 31.98604442685841], [34.84531813837078, 31.986044043321616], [34.84531900534461, 31.9860436706243], [34.84531988072692, 31.986043312379632], [34.84532076451768, 31.98604296858761], [34.845321654614786, 31.986042635635062], [34.8453225510042, 31.986042317129183], [34.84532345369291, 31.986042011266363], [34.84532436267394, 31.986041719850203], [34.84532527795428, 31.986041441077116], [34.84532619741075, 31.986041176744703], [34.845327123166555, 31.98604092505533], [34.84532805309847, 31.986040687806646], [34.845328989322695, 31.986040465004592], [34.84532992972306, 31.986040256643243], [34.8453308721904, 31.986040060912977], [34.845331820950044, 31.98603987962933], [34.84533277176965, 31.986039712780396], [34.845333726772424, 31.986039558568535], [34.84533468382813, 31.986039420594935], [34.84533564505997, 31.98603929706202], [34.8453366083588, 31.98603918616018], [34.84533757160144, 31.986039089687043], [34.84533853901317, 31.986039009458143], [34.845339506375744, 31.986038941854353], [34.84534143457674, 31.986038851718497], [34.84547096159127, 31.98603470909479], [34.84551530126964, 31.98603330142234], [34.84562746200987, 31.986032626562757], [34.84577713596081, 31.98604459268535], [34.84587292787069, 31.986062989591286], [34.845944804658295, 31.98608195014231], [34.84602248201028, 31.986105796772783], [34.846090851760465, 31.986128715274084], [34.846222963111956, 31.98619473950724], [34.84636672800158, 31.98628433355619], [34.84646306346217, 31.98635359327875], [34.84656915702976, 31.986444072828398], [34.84659783343575, 31.986470847068876], [34.846779692042105, 31.986669215383905], [34.846801093634156, 31.98668929573106], [34.846825313955435, 31.986719213676253], [34.846983484469234, 31.986914358638053], [34.84705831714589, 31.98701719462094], [34.847080735378235, 31.98704800924599], [34.84718451287372, 31.987190425643593], [34.8472056576292, 31.98722222864551], [34.84731180137089, 31.987382146586146], [34.84731269543169, 31.987383523450458], [34.84731356193301, 31.98738491286248], [34.8473143987517, 31.98738631661982], [34.84731520801789, 31.987387731121274], [34.84731598760842, 31.98738915816446], [34.84731673753027, 31.987390595945822], [34.84731745778343, 31.987392044465338], [34.84731814836093, 31.9873935055266], [34.8473188092837, 31.987394973718846], [34.847319440530796, 31.987396454452846], [34.847320040007, 31.98739794231187], [34.847320609821494, 31.987399439105488], [34.84732114997427, 31.987400944833645], [34.847321656239934, 31.987402457680904], [34.84732213496709, 31.987403977665092], [34.84732257980012, 31.987405506571946], [34.84732299499241, 31.98740703900263], [34.84732337841376, 31.98740857855833], [34.84732372794801, 31.987410125233122], [34.84732404784149, 31.98741167543172], [34.84732433597802, 31.98741322914817], [34.847324592350596, 31.987414788186097], [34.84732481696622, 31.98741635074187], [34.84732500771567, 31.98741791500595], [34.84732516882435, 31.98741948279385], [34.84732529605987, 31.98742105409365], [34.84732539155238, 31.98742262530414], [34.84732545529494, 31.987424198228922], [34.84732548728749, 31.987425772867972], [34.84732548542785, 31.987427345608147], [34.84732545181821, 31.987428920062605], [34.84732538647255, 31.987430492624167], [34.847325289383896, 31.987432065096407], [34.84732515845001, 31.987433633866193], [34.847324997889324, 31.98743520255264], [34.84732480348338, 31.98743676753663], [34.84732457734841, 31.98743832882413], [34.84732431947743, 31.987439888218745], [34.847324029884376, 31.987441442113262], [34.847323708562286, 31.987442992311287], [34.84732335340194, 31.987444537003295], [34.84732296863574, 31.987446076201163], [34.84732255214747, 31.987447609898975], [34.84732210606034, 31.987449136299055], [34.84732162613493, 31.987450657193104], [34.847321116617636, 31.987452168985868], [34.84732057537827, 31.987453675278537], [34.84732000455401, 31.98745517066631], [34.847319402014655, 31.98745665875043], [34.8473187698834, 31.987458137733242], [34.847318106044064, 31.987459607608795], [34.84731741261981, 31.987461066579453], [34.84731669172683, 31.9874625146512], [34.84731593913274, 31.987463951812078], [34.84731515695374, 31.98746537806808], [34.84731434731301, 31.98746679162155], [34.84731350808736, 31.9874681942701], [34.84731263928378, 31.9874695842102], [34.847311743025436, 31.987470959644174], [34.84731081930539, 31.987472322375627], [34.84730986813058, 31.987473670600977], [34.8473088873848, 31.987475004314234], [34.84730788129352, 31.98747632533093], [34.84730684776145, 31.98747762823433], [34.84730578888384, 31.987478918441138], [34.84730470256546, 31.987480190534676], [34.847303588799306, 31.9874814463185], [34.84730245181081, 31.987482687608104], [34.84730128950472, 31.987483908986782], [34.847300101867056, 31.98748511406172], [34.84729888890484, 31.9874863010293], [34.84729765272723, 31.987487471699083], [34.847296391239034, 31.987488620654336], [34.84729510865167, 31.987489753317764], [34.84729370944962, 31.987490943368453], [34.847491632158025, 31.98733990696981], [34.847496832205486, 31.98733595365824], [34.84749586680763, 31.987336603849037], [34.84749488876844, 31.98733723957544], [34.8474939002041, 31.987337860843343], [34.84749289688222, 31.987338467640896], [34.847491880919016, 31.98733905997403], [34.84749085443765, 31.98733963604514], [34.847489815314944, 31.987340197651797], [34.847488765674086, 31.987340742996402], [34.847487703398876, 31.987341272073014], [34.847486632714734, 31.987341786697087], [34.84748554939623, 31.98734228505318], [34.84748445767577, 31.987342767153155], [34.847483355437156, 31.987343232991087], [34.84748224480359, 31.987343680769317], [34.84748112364487, 31.987344114089087], [34.847479994091174, 31.98734452934915], [34.84747885613553, 31.987344928353107], [34.84747771190112, 31.987345309303343], [34.84747655925778, 31.98734567580106], [34.84747539822645, 31.98734602243549], [34.84747423090938, 31.98734635281978], [34.847473057313515, 31.9873466651503], [34.847471877431914, 31.987346961230685], [34.84747069127153, 31.98734723925731], [34.8474694988324, 31.9873474992302], [34.847468302230695, 31.987347741155332], [34.84746710146643, 31.987347965032637], [34.8474658965326, 31.98734817266574], [34.847464685327, 31.98734836044153], [34.847463472068036, 31.987348531979052], [34.84746225465351, 31.98734868366523], [34.847461035192595, 31.987348817309538], [34.84745981367834, 31.987348934715587], [34.84745859012472, 31.98734903227624], [34.84745736240853, 31.987349111789076], [34.84745613476217, 31.987349173266043], [34.84745490506944, 31.987349216701155], [34.84745367544655, 31.987349242100382], [34.8474524459005, 31.987349247660145], [34.8474512164173, 31.987349236987615], [34.84744998701091, 31.98734920647559], [34.84744875979055, 31.987349157933643], [34.847447530523844, 31.987349091349845], [34.84744630555939, 31.987349006742086], [34.84744508066474, 31.987348904098404], [34.84744386007236, 31.987348783430768], [34.84744264166603, 31.987348644733203], [34.847441425452686, 31.987348486202098], [34.84744021141844, 31.987348311444645], [34.84743900380261, 31.98734811866919], [34.847437798379815, 31.98734790606018], [34.84743659936848, 31.987347677236745], [34.84743540254319, 31.987347430383366], [34.847434214252544, 31.98734716551791], [34.847433028147925, 31.98734688262252], [34.84743185057797, 31.987346581715077], [34.84743067941946, 31.98734626459317], [34.8474295125632, 31.98734592944728], [34.8474283542346, 31.987345578092903], [34.847427204440656, 31.98734520872647], [34.84742606106514, 31.987344821342003], [34.847424926217315, 31.987344417749036], [34.84742379778094, 31.987343997941647], [34.847422679988405, 31.987343561931702], [34.84742157073053, 31.987343107909684], [34.84742047211652, 31.987342637685153], [34.84741938203016, 31.98734215125211], [34.84741830258768, 31.98734164861656], [34.84741723378207, 31.987341131582042], [34.8474161756273, 31.987340596541404], [34.84741512810942, 31.987340047101846], [34.84741409335159, 31.98733948146568], [34.84741306923064, 31.98733890143058], [34.847412057869754, 31.98733830519891], [34.84741105714575, 31.98733769456827], [34.847410071291016, 31.98733706955062], [34.84740909608015, 31.987336428330433], [34.847408135731584, 31.98733577452679], [34.84740718813608, 31.987335106330157], [34.84740625540987, 31.98733442374648], [34.84740533543672, 31.987333726769826], [34.84740443032587, 31.987333017209718], [34.8474035400843, 31.987332293262565], [34.8474026668212, 31.98733155673794], [34.84740180630423, 31.987330807623895], [34.84740096064953, 31.987330045926413], [34.847400131973316, 31.98732927165143], [34.847399320275585, 31.98732848479895], [34.84739852344018, 31.987327685363038], [34.84739774357624, 31.987326875153208], [34.84739698068383, 31.987326054169458], [34.84739623265369, 31.987325220602298], [34.84739550371127, 31.987324376267175], [34.84739479174034, 31.987323521158135], [34.847394098857116, 31.987322655281147], [34.84739342082221, 31.98732178042789], [34.847392763991195, 31.987320894812633], [34.847392124124724, 31.98732000022706], [34.847391299241266, 31.98731879309698], [34.84727432061866, 31.98714243190601], [34.84725305991571, 31.987113243819252], [34.84711496990986, 31.986923927272745], [34.847081500434484, 31.98687793123736], [34.84707202792769, 31.98686491859438], [34.84704970296671, 31.986837350722837], [34.84703159011402, 31.986815025169538], [34.84688605625, 31.98663551706732], [34.84679101001221, 31.986533796367052], [34.8466787881782, 31.986413720568482], [34.84664220970352, 31.98637826675508], [34.846534637617765, 31.986287061653456], [34.84643218243158, 31.98621336588509], [34.846311322684045, 31.986138085038878], [34.846281134317785, 31.986119242339214], [34.846137195269975, 31.986047323053544], [34.84605572180529, 31.98602012910084], [34.84597836159087, 31.985996373566696], [34.84590024848444, 31.985975772171717]]]}}, {"type": "Feature", "properties": {"OBJECTID": 23727502, "LAYER_ID": 1890805, "GROUP_ID": 224798, "DEFQ": 0, "DATA_DATE": null, "MAVAT_CODE": 1602, "MAVAT_NAME": "גבול חלקה", "TYPE_CODE": 0, "LABEL": "", "LOT_NUM": 6272, "GUSH_SUFFI": 0, "PARCEL_NUM": 139, "CALC_AREA": 0.0, "LEGAL_AREA": 0.0, "IS_ANALITY": 0, "STATUS": 0, "PLAN_NAME": "", "AGAM_ID": 4000664309.0, "SHAPE_AREA": 1643.3283, "SHAPE_LEN": 165.14333969}, "geometry": {"type": "Polygon", "coordinates": [[[34.84636672800158, 31.98628433355619], [34.846222963111956, 31.98619473950724], [34.846090851760465, 31.986128715274084], [34.84602248201028, 31.986105796772783], [34.84583650283846, 31.98653227548892], [34.846084189494015, 31.98664497905833], [34.846092510556595, 31.98665474203084], [34.84636672800158, 31.98628433355619]]]}}, {"type": "Feature", "properties": {"OBJECTID": 23727503, "LAYER_ID": 1890805, "GROUP_ID": 224798, "DEFQ": 0, "DATA_DATE": null, "MAVAT_CODE": 1602, "MAVAT_NAME": "גבול חלקה", "TYPE_CODE": 0, "LABEL": "", "LOT_NUM": 6272, "GUSH_SUFFI": 0, "PARCEL_NUM": 138, "CALC_AREA": 0.0, "LEGAL_AREA": 0.0, "IS_ANALITY": 0, "STATUS": 0, "PLAN_NAME": "", "AGAM_ID": 4000664309.0, "SHAPE_AREA": 1142.7733, "SHAPE_LEN": 143.624654634}, "geometry": {"type": "Polygon", "coordinates": [[[34.84602248201028, 31.986105796772783], [34.845944804658295, 31.98608195014231], [34.84587292787069, 31.986062989591286], [34.84577713596081, 31.98604459268535], [34.84561839131806, 31.986433001744615], [34.84583650283846, 31.98653227548892], [34.84602248201028, 31.986105796772783]]]}}, {"type": "Feature", "properties": {"OBJECTID": 23727504, "LAYER_ID": 1890805, "GROUP_ID": 224798, "DEFQ": 0, "DATA_DATE": null, "MAVAT_CODE": 1602, "MAVAT_NAME": "גבול חלקה", "TYPE_CODE": 0, "LABEL": "", "LOT_NUM": 6272, "GUSH_SUFFI": 0, "PARCEL_NUM": 137, "CALC_AREA": 0.0, "LEGAL_AREA": 0.0, "IS_ANALITY": 0, "STATUS": 0, "PLAN_NAME": "", "AGAM_ID": 4000664309.0, "SHAPE_AREA": 1031.72615, "SHAPE_LEN": 136.365946525}, "geometry": {"type": "Polygon", "coordinates": [[[34.84577713596081, 31.98604459268535], [34.84562746200987, 31.986032626562757], [34.84551530126964, 31.98603330142234], [34.84547096159127, 31.98603470909479], [34.845431644343094, 31.98643103077663], [34.84561839131806, 31.986433001744615], [34.84577713596081, 31.98604459268535]]]}}]}