{"type": "FeatureCollection", "features": [{"type": "Feature", "properties": {"OBJECTID": 7917190, "LAYER_ID": 1890792, "GROUP_ID": 224798, "SCENARIO": "", "DEFQ": 0, "PLAN_NAME": "", "DATA_DATE": null, "MAVAT_CODE": 10, "MAVAT_NAME": "מגורים", "NAME": "", "LABEL": "", "NUM": "101", "LEGAL_AREA": 0.0, "TYPE_CODE": 0, "TYPE_NAME": "", "SOURCE_COD": 0, "HASAVA": 0, "STATUS": "", "PL_CHANGE": "", "ADDRESS": "", "PLACE_NO": 0, "CALC_AREA": 0.0, "OLD_MIG": "", "AGAM_ID": 4000664309.0, "SHAPE_AREA": 1142.76549652, "SHAPE_LEN": 143.624660925}, "geometry": {"type": "Polygon", "coordinates": [[[34.84583650283846, 31.98653227548892], [34.84602248201028, 31.986105796772783], [34.845944804658295, 31.98608195014231], [34.84587292787069, 31.986062989591286], [34.84582503191088, 31.986053791147327], [34.84580571902838, 31.986050116738966], [34.84577713596081, 31.98604459268535], [34.8456788362285, 31.986285107274856], [34.84561839131806, 31.986433001744615], [34.84583650283846, 31.98653227548892]]]}}]}