{"type": "FeatureCollection", "features": [{"type": "Feature", "properties": {"OBJECTID": 7773301, "LAYER_ID": 1890796, "GROUP_ID": 224798, "SCENARIO": "", "DEFQ": 0, "PLAN_NAME": "", "DATA_DATE": null, "MAVAT_CODE": 23505, "MAVAT_NAME": "בלוק מידות - מספר", "BLOCKNAME": "", "ROTATION": 286.53551061, "TYPE_CODE": 0, "TYPE_NAME": "", "SOURCE_COD": 0, "STATUS": "", "PL_CHANGE": "", "PLACE_NO": 0, "ADDRESS": "", "RADIUS": 0.0, "LENGTH": 0.0, "WIDTH": 0.0, "REMARKS": "", "DATE_DEC": "", "TAG1": "", "TAG2": "", "TAG3": "", "STAGE": "", "NAME": "5", "LABEL": "", "AGAM_ID": 4000664309.0}, "geometry": {"type": "Point", "coordinates": [34.845917302793325, 31.986104763846054]}}, {"type": "Feature", "properties": {"OBJECTID": 7773302, "LAYER_ID": 1890796, "GROUP_ID": 224798, "SCENARIO": "", "DEFQ": 0, "PLAN_NAME": "", "DATA_DATE": null, "MAVAT_CODE": 23505, "MAVAT_NAME": "בלוק מידות - מספר", "BLOCKNAME": "", "ROTATION": 19.0149584, "TYPE_CODE": 0, "TYPE_NAME": "", "SOURCE_COD": 0, "STATUS": "", "PL_CHANGE": "", "PLACE_NO": 0, "ADDRESS": "", "RADIUS": 0.0, "LENGTH": 0.0, "WIDTH": 0.0, "REMARKS": "", "DATE_DEC": "", "TAG1": "", "TAG2": "", "TAG3": "", "STAGE": "", "NAME": "3", "LABEL": "", "AGAM_ID": 4000664309.0}, "geometry": {"type": "Point", "coordinates": [34.845688217077075, 31.98628408409075]}}]}