{"type": "FeatureCollection", "features": [{"type": "Feature", "properties": {"OBJECTID": 15378017, "LAYER_ID": 1890794, "GROUP_ID": 224798, "SCENARIO": "", "DEFQ": 0, "PLAN_NAME": "", "DATA_DATE": null, "MAVAT_CODE": 21010, "MAVAT_NAME": "קו בנין", "NAME": "", "LABEL": "", "TYPE_CODE": 0, "TYPE_NAME": "", "SOURCE_COD": 0, "PL_CHANGE": "", "PLACE_NO": 0, "ADDRESS": "", "LENGTH": 0.0, "WIDTH": 0.0, "REMARKS": "", "DATE_DEC": "", "STATUS": "", "STAGE": "", "AGAM_ID": 4000664309.0, "SHAPE_LEN": 194.146577534}, "geometry": {"type": "LineString", "coordinates": [[34.84564673191541, 31.986445899981586], [34.845836502638335, 31.986532275551486], [34.846004262343605, 31.98614757455706], [34.845893639620186, 31.98611565384545], [34.845859269924965, 31.986106587681746], [34.84579078570649, 31.986093435176244], [34.84564673191541, 31.986445899981586], [34.845836502638335, 31.986532275551486], [34.846004262343605, 31.98614757455706]]}}, {"type": "Feature", "properties": {"OBJECTID": 15378018, "LAYER_ID": 1890794, "GROUP_ID": 224798, "SCENARIO": "", "DEFQ": 0, "PLAN_NAME": "", "DATA_DATE": null, "MAVAT_CODE": 23500, "MAVAT_NAME": "מידות - קו", "NAME": "", "LABEL": "", "TYPE_CODE": 0, "TYPE_NAME": "", "SOURCE_COD": 0, "PL_CHANGE": "", "PLACE_NO": 0, "ADDRESS": "", "LENGTH": 0.0, "WIDTH": 0.0, "REMARKS": "", "DATE_DEC": "", "STATUS": "", "STAGE": "", "AGAM_ID": 4000664309.0, "SHAPE_LEN": 5.0001479225}, "geometry": {"type": "LineString", "coordinates": [[34.845910580741545, 31.986072909492446], [34.84589535641765, 31.986116093499817]]}}, {"type": "Feature", "properties": {"OBJECTID": 15378019, "LAYER_ID": 1890794, "GROUP_ID": 224798, "SCENARIO": "", "DEFQ": 0, "PLAN_NAME": "", "DATA_DATE": null, "MAVAT_CODE": 23500, "MAVAT_NAME": "מידות - קו", "NAME": "", "LABEL": "", "TYPE_CODE": 0, "TYPE_NAME": "", "SOURCE_COD": 0, "PL_CHANGE": "", "PLACE_NO": 0, "ADDRESS": "", "LENGTH": 0.0, "WIDTH": 0.0, "REMARKS": "", "DATE_DEC": "", "STATUS": "", "STAGE": "", "AGAM_ID": 4000664309.0, "SHAPE_LEN": 2.99999318293}, "geometry": {"type": "LineString", "coordinates": [[34.84568588024731, 31.98626787195674], [34.84571585581778, 31.9862767727123]]}}]}