{"type": "FeatureCollection", "features": [{"type": "Feature", "properties": {"OBJECTID": 8710215, "LAYER_ID": 1890806, "GROUP_ID": 224798, "SCENARIO": "", "DEFQ": 0, "PLAN_NAME": "", "DATA_DATE": null, "MAVAT_CODE": 30001, "MAVAT_NAME": "עברית ENTITY", "BLOCKNAME": "dim", "ROTATION": 286.53551061, "TYPE_CODE": 0, "TYPE_NAME": "", "SOURCE_COD": 0, "STATUS": "", "PL_CHANGE": "", "PLACE_NO": 0, "REMARKS": "", "VALUE1": "", "TAGNAME1": "", "TAGNAME2": "", "VALUE2": "", "TAGNAME3": "0", "VALUE3": "0.7", "DATE_DEC": "", "STAGE": "", "NAME": "NUMBER", "LABEL": "5", "FONT_SIZE": 2.0, "AGAM_ID": 4000664309.0}, "geometry": {"type": "Point", "coordinates": [34.845917302793325, 31.986104763846054]}}, {"type": "Feature", "properties": {"OBJECTID": 8710216, "LAYER_ID": 1890806, "GROUP_ID": 224798, "SCENARIO": "", "DEFQ": 0, "PLAN_NAME": "", "DATA_DATE": null, "MAVAT_CODE": 30001, "MAVAT_NAME": "עברית ENTITY", "BLOCKNAME": "dim", "ROTATION": 19.0149584, "TYPE_CODE": 0, "TYPE_NAME": "", "SOURCE_COD": 0, "STATUS": "", "PL_CHANGE": "", "PLACE_NO": 0, "REMARKS": "", "VALUE1": "", "TAGNAME1": "", "TAGNAME2": "", "VALUE2": "", "TAGNAME3": "0", "VALUE3": "0.7", "DATE_DEC": "", "STAGE": "", "NAME": "NUMBER", "LABEL": "3", "FONT_SIZE": 2.0, "AGAM_ID": 4000664309.0}, "geometry": {"type": "Point", "coordinates": [34.845688217077075, 31.98628408409075]}}]}