{"type": "FeatureCollection", "features": [{"type": "Feature", "properties": {"OBJECTID": 4039844, "LAYER_ID": 1890793, "GROUP_ID": 224798, "DEFQ": 0, "DATA_DATE": null, "MAVAT_CODE": 1601, "MAVAT_NAME": "גבול גוש", "LABEL": "", "LOT_NUM": 6272, "GUSH_SUFFI": 0, "CALC_AREA": 0.0, "LEGAL_AREA": 0.0, "TYPE_CODE": 0, "STATUS": 6, "IS_ANALITY": 0, "PLAN_NAME": "", "STATUS_NAM": "מוסדר", "AGAM_ID": 4000664309.0, "SHAPE_AREA": 293838.10338, "SHAPE_LEN": 2507.89680904}, "geometry": {"type": "Polygon", "coordinates": [[[34.84854656400629, 31.98660095552456], [34.848509102644414, 31.986328054842474], [34.84847109713449, 31.986059120549296], [34.848432720441735, 31.985804163152807], [34.84839255851292, 31.985518359034895], [34.848309680596586, 31.984978126337392], [34.84826750317198, 31.98488557308387], [34.84817878148245, 31.984698104173894], [34.84815913952967, 31.98464929932117], [34.848154306079174, 31.98463728815346], [34.84798995675084, 31.984228922726622], [34.84798756966602, 31.984222919026127], [34.847765452529956, 31.983664309201444], [34.84775116238194, 31.983635831554125], [34.847749985930555, 31.983629236060032], [34.847748780002355, 31.98362314910061], [34.847706113503286, 31.983630510561674], [34.84770485776915, 31.9836307342871], [34.847702723234086, 31.98363111426017], [34.84770178937238, 31.983631281174706], [34.84745051128396, 31.9836760094012], [34.84731352799042, 31.98370098820501], [34.847142463849394, 31.9837320699315], [34.847037411290565, 31.98375037298066], [34.846258672279326, 31.983895285541845], [34.84585598811837, 31.98396911012704], [34.84570411025553, 31.983997426874495], [34.84551699371947, 31.984032405524758], [34.844978807164686, 31.984131772747542], [34.844907839206996, 31.984142844296336], [34.84460937249685, 31.98420005124875], [34.84392080145636, 31.98432604167385], [34.84368206556468, 31.984369889022354], [34.84323288659817, 31.98445259294485], [34.842853517917824, 31.98452365708794], [34.84240768847456, 31.98460607543846], [34.84245252272234, 31.984654247806404], [34.84247489898546, 31.98467796593194], [34.842498614718586, 31.984710866431524], [34.842667076313035, 31.98499012849811], [34.84269881888902, 31.985083420380743], [34.84277839300159, 31.985255024110785], [34.84292909683232, 31.985576540626074], [34.843146815385694, 31.98603890924672], [34.84316163601481, 31.986074311151278], [34.84331562753784, 31.986408615092383], [34.84343815326123, 31.98665778927144], [34.84361202704428, 31.98694435740348], [34.84366504364723, 31.98701812052645], [34.843889250864784, 31.98733015036423], [34.84392872226384, 31.987343767893762], [34.84411711217933, 31.98755501103296], [34.84397348144823, 31.987674723403877], [34.84413058592458, 31.987762464063614], [34.84430013854017, 31.987914087529834], [34.84453602696111, 31.988122171420944], [34.84466142032821, 31.988229029907878], [34.84490447191286, 31.98836435788826], [34.84506052210205, 31.988451643508203], [34.845227932386, 31.988556365892656], [34.845659249097984, 31.98884895853857], [34.845780190986225, 31.98893109392432], [34.84594783728592, 31.989057188763255], [34.846048818694776, 31.989156852674526], [34.84601301735834, 31.98919345496638], [34.84580499636408, 31.989300272093395], [34.845806681289154, 31.989302351001978], [34.84596328225579, 31.98949352479707], [34.84602236284231, 31.989565745732218], [34.84608965833681, 31.989647909669674], [34.846296183362114, 31.989572200073475], [34.84647073520839, 31.989500908978894], [34.84648986827437, 31.98947859822182], [34.846589293906376, 31.989543177167583], [34.84664333406005, 31.989578319490846], [34.846822607090346, 31.989653764607453], [34.84702215155864, 31.98976813427924], [34.847408247676604, 31.989854892306223], [34.84756927144427, 31.989943361177815], [34.84784853969409, 31.990206065857056], [34.84812552379397, 31.990466617213638], [34.84803473947091, 31.99049278513724], [34.848115441955535, 31.990583733138994], [34.84815252732381, 31.990625500559283], [34.84819888390704, 31.99067775490901], [34.848222150259495, 31.990708481520656], [34.84830668774997, 31.99082027181543], [34.848311951618676, 31.990827230470263], [34.84837831787439, 31.990931574939996], [34.84843069562989, 31.991013966319972], [34.8484577258321, 31.991056517066113], [34.84848528199619, 31.991099880904237], [34.848532507769505, 31.991173780842015], [34.848551545961456, 31.99120341337098], [34.84857836673448, 31.991245422421514], [34.84868750800071, 31.99120622942765], [34.84877439720302, 31.99117500002925], [34.84880660859269, 31.991163727575827], [34.84901651185388, 31.991090367729797], [34.84906766497131, 31.99107887771373], [34.84919994264737, 31.991049217991293], [34.84928795136123, 31.991029444272495], [34.84925665879559, 31.990802282666547], [34.84926232405773, 31.990705084138714], [34.8492440372735, 31.990205794699097], [34.84924205218839, 31.990199205979742], [34.84911598257773, 31.98977157869411], [34.84911400202959, 31.989763817640775], [34.84910389323015, 31.989723568911263], [34.849096702002754, 31.989695051792555], [34.84909651450866, 31.989694281127594], [34.84909634184223, 31.9896935068969], [34.84909618611278, 31.98969273091004], [34.8490960473203, 31.98969195316697], [34.849095923348536, 31.989691173661804], [34.84909581631374, 31.989690392400448], [34.84909572409968, 31.989689609377], [34.84909564882259, 31.989688824597337], [34.84909558835925, 31.98968803985917], [34.84909554483289, 31.989687253364796], [34.84909551823656, 31.989686466917856], [34.849095506453985, 31.989685680512366], [34.84909551160838, 31.989684892350702], [34.84909553156958, 31.989684106034087], [34.84909556846083, 31.98968331976488], [34.84909562227511, 31.989682535346656], [34.84909569091011, 31.989681749166326], [34.84909577646123, 31.98968096664058], [34.849095878942364, 31.989680184162214], [34.849095996230304, 31.989679403528918], [34.849096128325044, 31.989678624740684], [34.84909627734288, 31.98967784780345], [34.84909644327679, 31.98967707452078], [34.849096624024476, 31.98967630127958], [34.84909681956507, 31.98967553349064], [34.849097032028716, 31.989674767552668], [34.84909726140847, 31.989674005269272], [34.84909750347878, 31.989673244825003], [34.84909776245825, 31.98967248983892], [34.84909803835382, 31.989671738507404], [34.849098326932996, 31.989670990818595], [34.849098632421324, 31.98967024858798], [34.84909895270951, 31.989669510005985], [34.84909928779058, 31.989668776876236], [34.849099639780825, 31.989668049204642], [34.84910000444769, 31.98966732697937], [34.84910038390748, 31.989666610206314], [34.84910077816016, 31.98966589888551], [34.849101187205754, 31.989665193016936], [34.84910161104423, 31.98966449260061], [34.84910204966866, 31.989663799440084], [34.84910250096277, 31.989663113529463], [34.849102967042846, 31.98966243487467], [34.849103445799564, 31.989661761666184], [34.84910393933528, 31.989661097517114], [34.84910444766389, 31.989660438820255], [34.84910496653899, 31.98965978917097], [34.849105500200025, 31.989659146777512], [34.849106046530764, 31.989658511633948], [34.84910660764049, 31.989657885549786], [34.849107179296716, 31.989657268513188], [34.849107763615685, 31.989656660530056], [34.84910836060433, 31.989656059796836], [34.849108970255735, 31.989655468117096], [34.84910959256987, 31.989654885490832], [34.849110225423544, 31.989654313715718], [34.84911087093996, 31.989653750994087], [34.84911152700287, 31.989653197320006], [34.849112193612264, 31.989652652693493], [34.849112872877456, 31.98965211892405], [34.849113562682184, 31.98965159600574], [34.84911426091713, 31.989651082129054], [34.84911497180788, 31.98965057910945], [34.849115693238176, 31.989650086940987], [34.84911642309174, 31.989649605617725], [34.84911716347792, 31.989649136949215], [34.84911791441056, 31.98964867732825], [34.849118673766505, 31.98964822855251], [34.849119441538775, 31.98964779242557], [34.849120217734345, 31.989647367143856], [34.84912100446944, 31.98964695271326], [34.84912179750463, 31.989646550925563], [34.84912259895615, 31.989646161786656], [34.849123408830955, 31.98964578349298], [34.849124227122104, 31.9896454178481], [34.84912505171334, 31.989645064846094], [34.849125884727854, 31.98964472268931], [34.84912672191926, 31.989644394973073], [34.84912756753395, 31.98964407810204], [34.84912841944873, 31.989643773873897], [34.8491292776636, 31.989643482288628], [34.84913014217159, 31.989643205149818], [34.8491310108704, 31.98964293884439], [34.84913188586231, 31.98964268698542], [34.849132765038085, 31.98964244776339], [34.849133650513934, 31.989642221184244], [34.84913453805042, 31.989642009039745], [34.84913543188701, 31.989641809538067], [34.8491363299074, 31.989641622673386], [34.84913722998845, 31.98964145024329], [34.849138134253344, 31.989641290450162], [34.849139040585825, 31.989641143288054], [34.849139951095204, 31.98964101056651], [34.849141670325324, 31.98964079894661], [34.84912691799372, 31.989542461083744], [34.849021589411734, 31.989553889609695], [34.849012062118206, 31.989554945093204], [34.84895436929024, 31.98956127649728], [34.84893173105278, 31.98936768608938], [34.84884319994716, 31.98848087513433], [34.84884129388771, 31.988453815689518], [34.848815851341314, 31.98789011720072], [34.84878233971047, 31.987717598455497], [34.848758434051156, 31.9876058881802], [34.84876248367093, 31.987570999729197], [34.84867725784137, 31.987226903145878], [34.84854656400629, 31.98660095552456]]]}}]}