{"type": "FeatureCollection", "features": [{"type": "Feature", "properties": {"OBJECTID": 3858897, "LAYER_ID": 1890804, "GROUP_ID": 224798, "DEFQ": 0, "DATA_DATE": null, "MAVAT_CODE": 0, "MAVAT_NAME": "", "LABEL": "", "LOT_NUM": 6272, "GUSH_SUFFI": 0, "CALC_AREA": 0.0, "LEGAL_AREA": 0.0, "TYPE_CODE": 0, "STATUS": 6, "IS_ANALITY": 0, "PLAN_NAME": "", "STATUS_NAM": "", "AGAM_ID": 4000664309.0, "FONT_SIZE": 8.0, "ROTATION": 0.0}, "geometry": {"type": "Point", "coordinates": [34.84691652806773, 31.988653900496498]}}]}