{"type": "FeatureCollection", "features": [{"type": "Feature", "properties": {"OBJECTID": 23440241, "LAYER_ID": 1890803, "GROUP_ID": 224798, "DEFQ": 0, "DATA_DATE": null, "MAVAT_CODE": 0, "MAVAT_NAME": "", "TYPE_CODE": 0, "LABEL": "", "LOT_NUM": 6272, "GUSH_SUFFI": 0, "PARCEL_NUM": 136, "CALC_AREA": 0.0, "LEGAL_AREA": 0.0, "IS_ANALITY": 0, "STATUS": 0, "PLAN_NAME": "", "AGAM_ID": 4000664309.0, "FONT_SIZE": 2.5, "ROTATION": 0.0}, "geometry": {"type": "Point", "coordinates": [34.845374849556016, 31.98626155287888]}}, {"type": "Feature", "properties": {"OBJECTID": 23440242, "LAYER_ID": 1890803, "GROUP_ID": 224798, "DEFQ": 0, "DATA_DATE": null, "MAVAT_CODE": 0, "MAVAT_NAME": "", "TYPE_CODE": 0, "LABEL": "", "LOT_NUM": 6272, "GUSH_SUFFI": 0, "PARCEL_NUM": 138, "CALC_AREA": 0.0, "LEGAL_AREA": 0.0, "IS_ANALITY": 0, "STATUS": 0, "PLAN_NAME": "", "AGAM_ID": 4000664309.0, "FONT_SIZE": 2.5, "ROTATION": 0.0}, "geometry": {"type": "Point", "coordinates": [34.84587843322652, 31.98629939674573]}}, {"type": "Feature", "properties": {"OBJECTID": 23440243, "LAYER_ID": 1890803, "GROUP_ID": 224798, "DEFQ": 0, "DATA_DATE": null, "MAVAT_CODE": 0, "MAVAT_NAME": "", "TYPE_CODE": 0, "LABEL": "", "LOT_NUM": 6272, "GUSH_SUFFI": 0, "PARCEL_NUM": 108, "CALC_AREA": 0.0, "LEGAL_AREA": 0.0, "IS_ANALITY": 0, "STATUS": 0, "PLAN_NAME": "", "AGAM_ID": 4000664309.0, "FONT_SIZE": 2.5, "ROTATION": 0.0}, "geometry": {"type": "Point", "coordinates": [34.845076664591744, 31.98618777830844]}}, {"type": "Feature", "properties": {"OBJECTID": 23440244, "LAYER_ID": 1890803, "GROUP_ID": 224798, "DEFQ": 0, "DATA_DATE": null, "MAVAT_CODE": 0, "MAVAT_NAME": "", "TYPE_CODE": 0, "LABEL": "", "LOT_NUM": 6272, "GUSH_SUFFI": 0, "PARCEL_NUM": 137, "CALC_AREA": 0.0, "LEGAL_AREA": 0.0, "IS_ANALITY": 0, "STATUS": 0, "PLAN_NAME": "", "AGAM_ID": 4000664309.0, "FONT_SIZE": 2.5, "ROTATION": 0.0}, "geometry": {"type": "Point", "coordinates": [34.84560069355294, 31.986192675146977]}}, {"type": "Feature", "properties": {"OBJECTID": 23440245, "LAYER_ID": 1890803, "GROUP_ID": 224798, "DEFQ": 0, "DATA_DATE": null, "MAVAT_CODE": 0, "MAVAT_NAME": "", "TYPE_CODE": 0, "LABEL": "", "LOT_NUM": 6272, "GUSH_SUFFI": 0, "PARCEL_NUM": 154, "CALC_AREA": 0.0, "LEGAL_AREA": 0.0, "IS_ANALITY": 0, "STATUS": 0, "PLAN_NAME": "", "AGAM_ID": 4000664309.0, "FONT_SIZE": 2.5, "ROTATION": 0.0}, "geometry": {"type": "Point", "coordinates": [34.84638909984984, 31.986226722715507]}}, {"type": "Feature", "properties": {"OBJECTID": 23440246, "LAYER_ID": 1890803, "GROUP_ID": 224798, "DEFQ": 0, "DATA_DATE": null, "MAVAT_CODE": 0, "MAVAT_NAME": "", "TYPE_CODE": 0, "LABEL": "", "LOT_NUM": 6272, "GUSH_SUFFI": 0, "PARCEL_NUM": 139, "CALC_AREA": 0.0, "LEGAL_AREA": 0.0, "IS_ANALITY": 0, "STATUS": 0, "PLAN_NAME": "", "AGAM_ID": 4000664309.0, "FONT_SIZE": 2.5, "ROTATION": 0.0}, "geometry": {"type": "Point", "coordinates": [34.846149063789646, 31.98640104396203]}}]}