{"type": "FeatureCollection", "features": [{"type": "Feature", "properties": {"OBJECTID": 24866228, "LAYER_ID": 7722943, "GROUP_ID": 456793, "SCENARIO": "", "DEFQ": 0, "PLAN_NAME": "", "DATA_DATE": null, "MAVAT_CODE": 20, "MAVAT_NAME": "", "NAME": "", "LABEL": "", "NUM": "172", "LEGAL_AREA": 15.213, "TYPE_CODE": 0, "TYPE_NAME": "", "SOURCE_COD": 0, "HASAVA": 0, "STATUS": "", "PL_CHANGE": "", "ADDRESS": "", "PLACE_NO": 0, "CALC_AREA": 0.0, "OLD_MIG": "", "AGAM_ID": 4005362286.0, "FONT_SIZE": 1.5, "ROTATION": 0.0}, "geometry": {"type": "Point", "coordinates": [34.849570114191955, 31.993423972172554]}}]}