{"type": "FeatureCollection", "features": [{"type": "Feature", "properties": {"OBJECTID": 21485409, "LAYER_ID": 5998401, "GROUP_ID": 387660, "SCENARIO": "", "DEFQ": 0, "PLAN_NAME": "", "DATA_DATE": null, "MAVAT_CODE": 30001, "MAVAT_NAME": "׳¢׳‘׳¨׳™׳× ENTITY", "BLOCKNAME": "dim", "ROTATION": 337.90376695, "TYPE_CODE": 0, "TYPE_NAME": "0", "SOURCE_COD": 0, "STATUS": "", "PL_CHANGE": "", "PLACE_NO": 0, "REMARKS": "", "VALUE1": "", "TAGNAME1": "0", "TAGNAME2": "0", "VALUE2": "", "TAGNAME3": "0", "VALUE3": "0.7", "DATE_DEC": "", "STAGE": "", "NAME": "NUMBER", "LABEL": "2.7", "FONT_SIZE": 2.0, "AGAM_ID": 4005325386.0}, "geometry": {"type": "Point", "coordinates": [34.848225606102424, 31.98991603346647]}}, {"type": "Feature", "properties": {"OBJECTID": 21485410, "LAYER_ID": 5998401, "GROUP_ID": 387660, "SCENARIO": "", "DEFQ": 0, "PLAN_NAME": "", "DATA_DATE": null, "MAVAT_CODE": 30001, "MAVAT_NAME": "׳¢׳‘׳¨׳™׳× ENTITY", "BLOCKNAME": "dim", "ROTATION": 74.28289243, "TYPE_CODE": 0, "TYPE_NAME": "0", "SOURCE_COD": 0, "STATUS": "", "PL_CHANGE": "", "PLACE_NO": 0, "REMARKS": "", "VALUE1": "", "TAGNAME1": "0", "TAGNAME2": "0", "VALUE2": "", "TAGNAME3": "0", "VALUE3": "0.7", "DATE_DEC": "", "STAGE": "", "NAME": "NUMBER", "LABEL": "5", "FONT_SIZE": 2.0, "AGAM_ID": 4005325386.0}, "geometry": {"type": "Point", "coordinates": [34.84807171209402, 31.989774306907876]}}, {"type": "Feature", "properties": {"OBJECTID": 21485411, "LAYER_ID": 5998401, "GROUP_ID": 387660, "SCENARIO": "", "DEFQ": 0, "PLAN_NAME": "", "DATA_DATE": null, "MAVAT_CODE": 30001, "MAVAT_NAME": "׳¢׳‘׳¨׳™׳× ENTITY", "BLOCKNAME": "dim", "ROTATION": 340.34630981, "TYPE_CODE": 0, "TYPE_NAME": "0", "SOURCE_COD": 0, "STATUS": "", "PL_CHANGE": "", "PLACE_NO": 0, "REMARKS": "", "VALUE1": "", "TAGNAME1": "0", "TAGNAME2": "0", "VALUE2": "", "TAGNAME3": "0", "VALUE3": "0.7", "DATE_DEC": "", "STAGE": "", "NAME": "NUMBER", "LABEL": "2.7", "FONT_SIZE": 2.0, "AGAM_ID": 4005325386.0}, "geometry": {"type": "Point", "coordinates": [34.84805925420589, 31.989881983307843]}}, {"type": "Feature", "properties": {"OBJECTID": 21485412, "LAYER_ID": 5998401, "GROUP_ID": 387660, "SCENARIO": "", "DEFQ": 0, "PLAN_NAME": "", "DATA_DATE": null, "MAVAT_CODE": 30001, "MAVAT_NAME": "׳¢׳‘׳¨׳™׳× ENTITY", "BLOCKNAME": "dim", "ROTATION": 340.07345213, "TYPE_CODE": 0, "TYPE_NAME": "0", "SOURCE_COD": 0, "STATUS": "", "PL_CHANGE": "", "PLACE_NO": 0, "REMARKS": "", "VALUE1": "", "TAGNAME1": "0", "TAGNAME2": "0", "VALUE2": "", "TAGNAME3": "0", "VALUE3": "0.7", "DATE_DEC": "", "STAGE": "", "NAME": "NUMBER", "LABEL": "2.7", "FONT_SIZE": 2.0, "AGAM_ID": 4005325386.0}, "geometry": {"type": "Point", "coordinates": [34.8479376566532, 31.989880436995737]}}, {"type": "Feature", "properties": {"OBJECTID": 21485413, "LAYER_ID": 5998401, "GROUP_ID": 387660, "SCENARIO": "", "DEFQ": 0, "PLAN_NAME": "", "DATA_DATE": null, "MAVAT_CODE": 30001, "MAVAT_NAME": "׳¢׳‘׳¨׳™׳× ENTITY", "BLOCKNAME": "dim", "ROTATION": 65.39096484, "TYPE_CODE": 0, "TYPE_NAME": "0", "SOURCE_COD": 0, "STATUS": "", "PL_CHANGE": "", "PLACE_NO": 0, "REMARKS": "", "VALUE1": "", "TAGNAME1": "0", "TAGNAME2": "0", "VALUE2": "", "TAGNAME3": "0", "VALUE3": "0.7", "DATE_DEC": "", "STAGE": "", "NAME": "NUMBER", "LABEL": "5", "FONT_SIZE": 2.0, "AGAM_ID": 4005325386.0}, "geometry": {"type": "Point", "coordinates": [34.847859368709464, 31.989840059766372]}}, {"type": "Feature", "properties": {"OBJECTID": 21485414, "LAYER_ID": 5998401, "GROUP_ID": 387660, "SCENARIO": "", "DEFQ": 0, "PLAN_NAME": "", "DATA_DATE": null, "MAVAT_CODE": 30001, "MAVAT_NAME": "׳¢׳‘׳¨׳™׳× ENTITY", "BLOCKNAME": "dim", "ROTATION": 72.42200612, "TYPE_CODE": 0, "TYPE_NAME": "0", "SOURCE_COD": 0, "STATUS": "", "PL_CHANGE": "", "PLACE_NO": 0, "REMARKS": "", "VALUE1": "", "TAGNAME1": "0", "TAGNAME2": "0", "VALUE2": "", "TAGNAME3": "0", "VALUE3": "0.7", "DATE_DEC": "", "STAGE": "", "NAME": "NUMBER", "LABEL": "3", "FONT_SIZE": 2.0, "AGAM_ID": 4005325386.0}, "geometry": {"type": "Point", "coordinates": [34.8481921229286, 31.98998596991821]}}, {"type": "Feature", "properties": {"OBJECTID": 21485415, "LAYER_ID": 5998401, "GROUP_ID": 387660, "SCENARIO": "", "DEFQ": 0, "PLAN_NAME": "", "DATA_DATE": null, "MAVAT_CODE": 30001, "MAVAT_NAME": "׳¢׳‘׳¨׳™׳× ENTITY", "BLOCKNAME": "dim", "ROTATION": 72.42200612, "TYPE_CODE": 0, "TYPE_NAME": "0", "SOURCE_COD": 0, "STATUS": "", "PL_CHANGE": "", "PLACE_NO": 0, "REMARKS": "", "VALUE1": "", "TAGNAME1": "0", "TAGNAME2": "0", "VALUE2": "", "TAGNAME3": "0", "VALUE3": "0.7", "DATE_DEC": "", "STAGE": "", "NAME": "NUMBER", "LABEL": "3", "FONT_SIZE": 2.0, "AGAM_ID": 4005325386.0}, "geometry": {"type": "Point", "coordinates": [34.84804993984239, 31.99002391901862]}}, {"type": "Feature", "properties": {"OBJECTID": 21485416, "LAYER_ID": 5998401, "GROUP_ID": 387660, "SCENARIO": "", "DEFQ": 0, "PLAN_NAME": "", "DATA_DATE": null, "MAVAT_CODE": 30001, "MAVAT_NAME": "׳¢׳‘׳¨׳™׳× ENTITY", "BLOCKNAME": "dim", "ROTATION": 72.42200612, "TYPE_CODE": 0, "TYPE_NAME": "0", "SOURCE_COD": 0, "STATUS": "", "PL_CHANGE": "", "PLACE_NO": 0, "REMARKS": "", "VALUE1": "", "TAGNAME1": "0", "TAGNAME2": "0", "VALUE2": "", "TAGNAME3": "0", "VALUE3": "0.7", "DATE_DEC": "", "STAGE": "", "NAME": "NUMBER", "LABEL": "3", "FONT_SIZE": 2.0, "AGAM_ID": 4005325386.0}, "geometry": {"type": "Point", "coordinates": [34.84794674920297, 31.990051460661114]}}, {"type": "Feature", "properties": {"OBJECTID": 21485417, "LAYER_ID": 5998401, "GROUP_ID": 387660, "SCENARIO": "", "DEFQ": 0, "PLAN_NAME": "", "DATA_DATE": null, "MAVAT_CODE": 30001, "MAVAT_NAME": "׳¢׳‘׳¨׳™׳× ENTITY", "BLOCKNAME": "dim", "ROTATION": 340.06190387, "TYPE_CODE": 0, "TYPE_NAME": "0", "SOURCE_COD": 0, "STATUS": "", "PL_CHANGE": "", "PLACE_NO": 0, "REMARKS": "", "VALUE1": "", "TAGNAME1": "0", "TAGNAME2": "0", "VALUE2": "", "TAGNAME3": "0", "VALUE3": "0.7", "DATE_DEC": "", "STAGE": "", "NAME": "NUMBER", "LABEL": "2.7", "FONT_SIZE": 2.0, "AGAM_ID": 4005325386.0}, "geometry": {"type": "Point", "coordinates": [34.84794607667562, 31.98997254197182]}}, {"type": "Feature", "properties": {"OBJECTID": 21485418, "LAYER_ID": 5998401, "GROUP_ID": 387660, "SCENARIO": "", "DEFQ": 0, "PLAN_NAME": "", "DATA_DATE": null, "MAVAT_CODE": 30001, "MAVAT_NAME": "׳¢׳‘׳¨׳™׳× ENTITY", "BLOCKNAME": "dim", "ROTATION": 319.29899236, "TYPE_CODE": 0, "TYPE_NAME": "0", "SOURCE_COD": 0, "STATUS": "", "PL_CHANGE": "", "PLACE_NO": 0, "REMARKS": "", "VALUE1": "", "TAGNAME1": "0", "TAGNAME2": "0", "VALUE2": "", "TAGNAME3": "0", "VALUE3": "0.7", "DATE_DEC": "", "STAGE": "", "NAME": "NUMBER", "LABEL": "3", "FONT_SIZE": 2.0, "AGAM_ID": 4005325386.0}, "geometry": {"type": "Point", "coordinates": [34.84780350037823, 31.989975353634183]}}, {"type": "Feature", "properties": {"OBJECTID": 21485419, "LAYER_ID": 5998401, "GROUP_ID": 387660, "SCENARIO": "", "DEFQ": 0, "PLAN_NAME": "", "DATA_DATE": null, "MAVAT_CODE": 30001, "MAVAT_NAME": "׳¢׳‘׳¨׳™׳× ENTITY", "BLOCKNAME": "dim", "ROTATION": 340.34630981, "TYPE_CODE": 0, "TYPE_NAME": "0", "SOURCE_COD": 0, "STATUS": "", "PL_CHANGE": "", "PLACE_NO": 0, "REMARKS": "", "VALUE1": "", "TAGNAME1": "0", "TAGNAME2": "0", "VALUE2": "", "TAGNAME3": "0", "VALUE3": "0.7", "DATE_DEC": "", "STAGE": "", "NAME": "NUMBER", "LABEL": "2.7", "FONT_SIZE": 2.0, "AGAM_ID": 4005325386.0}, "geometry": {"type": "Point", "coordinates": [34.84811934971886, 31.989953829166833]}}, {"type": "Feature", "properties": {"OBJECTID": 21485420, "LAYER_ID": 5998401, "GROUP_ID": 387660, "SCENARIO": "", "DEFQ": 0, "PLAN_NAME": "", "DATA_DATE": null, "MAVAT_CODE": 30001, "MAVAT_NAME": "׳¢׳‘׳¨׳™׳× ENTITY", "BLOCKNAME": "dim", "ROTATION": 66.1933283, "TYPE_CODE": 0, "TYPE_NAME": "0", "SOURCE_COD": 0, "STATUS": "", "PL_CHANGE": "", "PLACE_NO": 0, "REMARKS": "", "VALUE1": "", "TAGNAME1": "0", "TAGNAME2": "0", "VALUE2": "", "TAGNAME3": "0", "VALUE3": "0.7", "DATE_DEC": "", "STAGE": "", "NAME": "NUMBER", "LABEL": "5", "FONT_SIZE": 2.0, "AGAM_ID": 4005325386.0}, "geometry": {"type": "Point", "coordinates": [34.84793011044237, 31.989814109812997]}}]}