{"type": "FeatureCollection", "features": [{"type": "Feature", "properties": {"OBJECTID": 17579633, "LAYER_ID": 5998395, "GROUP_ID": 387660, "SCENARIO": "", "DEFQ": 0, "PLAN_NAME": "", "DATA_DATE": null, "MAVAT_CODE": 20, "MAVAT_NAME": "", "NAME": "", "LABEL": "", "NUM": "73A", "LEGAL_AREA": 0.0, "TYPE_CODE": 0, "TYPE_NAME": "", "SOURCE_COD": 0, "HASAVA": 0, "STATUS": "", "PL_CHANGE": "", "ADDRESS": "", "PLACE_NO": 0, "CALC_AREA": 0.0, "OLD_MIG": "", "AGAM_ID": 4005325386.0, "FONT_SIZE": 1.5, "ROTATION": 0.0}, "geometry": {"type": "Point", "coordinates": [34.84789120118517, 31.98998301827738]}}, {"type": "Feature", "properties": {"OBJECTID": 17579634, "LAYER_ID": 5998395, "GROUP_ID": 387660, "SCENARIO": "", "DEFQ": 0, "PLAN_NAME": "", "DATA_DATE": null, "MAVAT_CODE": 20, "MAVAT_NAME": "", "NAME": "", "LABEL": "", "NUM": "73B", "LEGAL_AREA": 0.0, "TYPE_CODE": 0, "TYPE_NAME": "", "SOURCE_COD": 0, "HASAVA": 0, "STATUS": "", "PL_CHANGE": "", "ADDRESS": "", "PLACE_NO": 0, "CALC_AREA": 0.0, "OLD_MIG": "", "AGAM_ID": 4005325386.0, "FONT_SIZE": 1.5, "ROTATION": 0.0}, "geometry": {"type": "Point", "coordinates": [34.84804004008805, 31.989940113698626]}}, {"type": "Feature", "properties": {"OBJECTID": 17579635, "LAYER_ID": 5998395, "GROUP_ID": 387660, "SCENARIO": "", "DEFQ": 0, "PLAN_NAME": "", "DATA_DATE": null, "MAVAT_CODE": 20, "MAVAT_NAME": "", "NAME": "", "LABEL": "", "NUM": "73C", "LEGAL_AREA": 0.0, "TYPE_CODE": 0, "TYPE_NAME": "", "SOURCE_COD": 0, "HASAVA": 0, "STATUS": "", "PL_CHANGE": "", "ADDRESS": "", "PLACE_NO": 0, "CALC_AREA": 0.0, "OLD_MIG": "", "AGAM_ID": 4005325386.0, "FONT_SIZE": 1.5, "ROTATION": 0.0}, "geometry": {"type": "Point", "coordinates": [34.84816957978414, 31.989884251769695]}}]}