{"type": "FeatureCollection", "features": [{"type": "Feature", "properties": {"OBJECTID": 3981807, "LAYER_ID": 3110064, "GROUP_ID": 275612, "SCENARIO": "", "DEFQ": 0, "PLAN_NAME": "", "DATA_DATE": null, "MAVAT_CODE": 30001, "MAVAT_NAME": "׳¢׳‘׳¨׳™׳× ENTITY", "BLOCKNAME": "DIM", "ROTATION": 2.91161852, "TYPE_CODE": 0, "TYPE_NAME": "DIM", "SOURCE_COD": 0, "STATUS": "", "PL_CHANGE": "", "PLACE_NO": 0, "REMARKS": "", "VALUE1": "", "TAGNAME1": "186132.418453207", "TAGNAME2": "654824.107466008", "VALUE2": "", "TAGNAME3": "0", "VALUE3": "1", "DATE_DEC": "", "STAGE": "", "NAME": "DIM", "LABEL": "3", "FONT_SIZE": 2.0, "AGAM_ID": 4000995519.0}, "geometry": {"type": "Point", "coordinates": [34.851840046027306, 31.986034502803367]}}, {"type": "Feature", "properties": {"OBJECTID": 3981808, "LAYER_ID": 3110064, "GROUP_ID": 275612, "SCENARIO": "", "DEFQ": 0, "PLAN_NAME": "", "DATA_DATE": null, "MAVAT_CODE": 30001, "MAVAT_NAME": "׳¢׳‘׳¨׳™׳× ENTITY", "BLOCKNAME": "DIM", "ROTATION": 2.88370652, "TYPE_CODE": 0, "TYPE_NAME": "DIM", "SOURCE_COD": 0, "STATUS": "", "PL_CHANGE": "", "PLACE_NO": 0, "REMARKS": "", "VALUE1": "", "TAGNAME1": "186096.724133307", "TAGNAME2": "654790.37559035", "VALUE2": "", "TAGNAME3": "0", "VALUE3": "1", "DATE_DEC": "", "STAGE": "", "NAME": "DIM", "LABEL": "3", "FONT_SIZE": 2.0, "AGAM_ID": 4000995519.0}, "geometry": {"type": "Point", "coordinates": [34.85146353370026, 31.985729261579145]}}, {"type": "Feature", "properties": {"OBJECTID": 3981985, "LAYER_ID": 3110064, "GROUP_ID": 275612, "SCENARIO": "", "DEFQ": 0, "PLAN_NAME": "", "DATA_DATE": null, "MAVAT_CODE": 30001, "MAVAT_NAME": "׳¢׳‘׳¨׳™׳× ENTITY", "BLOCKNAME": "DIM", "ROTATION": 88.15612339, "TYPE_CODE": 0, "TYPE_NAME": "DIM", "SOURCE_COD": 0, "STATUS": "", "PL_CHANGE": "", "PLACE_NO": 0, "REMARKS": "", "VALUE1": "", "TAGNAME1": "186109.790197532", "TAGNAME2": "654834.809130999", "VALUE2": "", "TAGNAME3": "0", "VALUE3": "1", "DATE_DEC": "", "STAGE": "", "NAME": "DIM", "LABEL": "5", "FONT_SIZE": 2.0, "AGAM_ID": 4000995519.0}, "geometry": {"type": "Point", "coordinates": [34.85160025122533, 31.986130343873924]}}]}