{"type": "FeatureCollection", "features": [{"type": "Feature", "properties": {"OBJECTID": 2583834, "LAYER_ID": 3110058, "GROUP_ID": 275612, "SCENARIO": "", "DEFQ": 0, "PLAN_NAME": "", "DATA_DATE": null, "MAVAT_CODE": 660, "MAVAT_NAME": "", "NAME": "", "LABEL": "", "NUM": "601", "LEGAL_AREA": 0.0, "TYPE_CODE": 0, "TYPE_NAME": "", "SOURCE_COD": 0, "HASAVA": 0, "STATUS": "", "PL_CHANGE": "", "ADDRESS": "", "PLACE_NO": 0, "CALC_AREA": 0.0, "OLD_MIG": "", "AGAM_ID": 4000995519.0, "FONT_SIZE": 0.0, "ROTATION": 0.0}, "geometry": {"type": "Point", "coordinates": [34.851682914503066, 31.985413388771544]}}, {"type": "Feature", "properties": {"OBJECTID": 2583835, "LAYER_ID": 3110058, "GROUP_ID": 275612, "SCENARIO": "", "DEFQ": 0, "PLAN_NAME": "", "DATA_DATE": null, "MAVAT_CODE": 10, "MAVAT_NAME": "", "NAME": "", "LABEL": "", "NUM": "101", "LEGAL_AREA": 0.0, "TYPE_CODE": 0, "TYPE_NAME": "", "SOURCE_COD": 0, "HASAVA": 0, "STATUS": "", "PL_CHANGE": "", "ADDRESS": "", "PLACE_NO": 0, "CALC_AREA": 0.0, "OLD_MIG": "", "AGAM_ID": 4000995519.0, "FONT_SIZE": 0.0, "ROTATION": 0.0}, "geometry": {"type": "Point", "coordinates": [34.85166724584833, 31.98581892075539]}}]}