<?xml version="1.0" encoding="UTF-8"?>
<kml xmlns="http://www.opengis.net/kml/2.2"
 xmlns:gx="http://www.google.com/kml/ext/2.2">
<Document>
  <Style id="Plan">
	<LabelStyle>		
<color>00000000</color>
			
<scale>0</scale>
		
</LabelStyle>
		
<LineStyle>
			
<color>ffff0000</color>
			
<width>3</width>
		
</LineStyle>
		
<PolyStyle>
			
<fill>0</fill>
		
</PolyStyle>

   <BalloonStyle>
    <text>


<![CDATA[<?xml version="1.0"?>
<table border="0"  width="560" cellpadding="2" cellspacing="2" dir="rtl" xmlns:fo="http://www.w3.org/1999/XSL/Format">
<tr>
<td align="center" colspan="2" height="20" style="border-bottom: Solid 1px #b4b5b4">
<font face="Arial" size="3" color="#b50027">
<b>פרטי גבול תכנית</b>
</font>
</td>
</tr>


<tr>
<td  align="right"><font face="Arial" size="3">מספר תכנית</font>
</td>
<td align="right" bgcolor="#efefef" height="20">
<font face="Arial" size="3" color="#202520">
<b>$[PL_NUMBER]</b>
</font>
</td>
</tr>

<tr>
<td  align="right"><font face="Arial" size="3">שם תכנית</font>
</td>
<td align="right" bgcolor="#efefef" height="20">
<font face="Arial" size="3" color="#202520">
<b>$[PL_NAME]</b>
</font>
</td>
</tr>

<tr>
<td  align="right"><font face="Arial" size="3">שטח התכנית</font>
</td>
<td align="right" bgcolor="#efefef" height="20">
<font face="Arial" size="3" color="#202520">
<b>$[PL_AREA]</b>
</font>
</td>
</tr>

<tr>
<td  align="right"><font face="Arial" size="3">קישור לתכנית</font>
</td>
<td align="right" bgcolor="#efefef" height="20">
<font face="Arial" size="3" color="#202520">
<b>$[PL_URL]</b>
</font>
</td>
</tr>


<tr>
<td  align="right"><font face="Arial" size="3">תאריך יצור הקובץ</font>
</td>
<td align="right" bgcolor="#efefef" height="20">
<font face="Arial" size="3" color="#202520">
<b>$[CREATE_DATE]</b>
</font>
</td>
</tr>

</table>]]> 

</text>
     </BalloonStyle>
  </Style>

  <Placemark>
   <name name="name"><value>גבול תכנית</value></name>
   <description/>   
   <styleUrl>#Plan</styleUrl>
<MultiGeometry>
<Polygon><outerBoundaryIs><LinearRing><coordinates>34.8491397161255,31.9952250810863,0 34.8494840120764,31.994965163637,0 34.8495631703174,31.9949578397202,0 34.8494984366929,31.9947983517806,0 34.8494923597128,31.9947831800037,0 34.8494625397943,31.9947087268003,0 34.8494192831452,31.9946034665197,0 34.8493428857857,31.994417558238,0 34.84933569006,31.994400813285,0 34.8492902032067,31.9942949578375,0 34.849261398019,31.9942236258531,0 34.8491613731396,31.9939759320004,0 34.849392184541,31.9939096221006,0 34.8494269118093,31.9939009167988,0 34.8494478317486,31.993898554001,0 34.8494689942605,31.9938991479843,0 34.8494889075929,31.9939034475792,0 34.8495082584172,31.9939101038084,0 34.8495274637893,31.9939188085212,0 34.8495437571077,31.9939302411509,0 34.8495570868772,31.9939401883375,0 34.8495669492477,31.993950337747,0 34.8496212589326,31.993929646312,0 34.8495466936181,31.99376292007,0 34.8495242252855,31.9937148137316,0 34.8494994686802,31.9936607941859,0 34.8494838855943,31.9936257029668,0 34.8494181257387,31.9936443963753,0 34.8494252612635,31.9936632973648,0 34.8494293918114,31.9936810311298,0 34.8494289383073,31.9936995880372,0 34.8494277396166,31.9937132596033,0 34.8494223282205,31.9937288717812,0 34.8494161580347,31.9937428540834,0 34.849407708386,31.9937535745023,0 34.8493973415935,31.9937655926587,0 34.8493862145632,31.9937766311336,0 34.8493693555959,31.9937873280147,0 34.8493494422642,31.9937970396933,0 34.8492979136218,31.9938116624583,0 34.849236689697,31.9938290725801,0 34.8491739588288,31.9938508900659,0 34.8491537056827,31.9938548653036,0 34.8491324828502,31.9938561964453,0 34.8491160933241,31.9938549105653,0 34.849097544352,31.9938494279626,0 34.8490823210757,31.9938437193025,0 34.8490693212003,31.9938366001384,0 34.8490593708399,31.9938292532433,0 34.8490505405239,31.9938193122965,0 34.8490439616646,31.9938094660327,0 34.8490379667891,31.9937952657026,0 34.8490116527207,31.9937272764003,0 34.8489734004394,31.9936222103363,0 34.8489291667024,31.9935016913588,0 34.8489101319667,31.9934254907856,0 34.8488996313974,31.9933350539358,0 34.8488987853507,31.9932414111818,0 34.8489062987659,31.9931724885952,0 34.8489334950463,31.9930120377876,0 34.8489455958486,31.9929553952599,0 34.8489642519197,31.9928680620429,0 34.8492059007562,31.9927569768026,0 34.8492645651153,31.9927300085411,0 34.8491356736167,31.9920081691888,0 34.8492408310833,31.9919930284036,0 34.8492326202511,31.9919292065379,0 34.8492195908641,31.9918622843118,0 34.8491992724317,31.9918056312342,0 34.8491656855997,31.9917437962181,0 34.8491176468571,31.9916706022021,0 34.849058784392,31.9915850285733,0 34.8489781870007,31.9914589707491,0 34.8488911192101,31.99132577862,0 34.8488073902097,31.9912002484802,0 34.8487415205855,31.9911025050801,0 34.8486630896042,31.9909847938906,0 34.8486017157854,31.990886107113,0 34.8485492534064,31.9908056175156,0 34.8484766756639,31.9907002033668,0 34.8483243393787,31.9904972239109,0 34.8481958076397,31.9903438299659,0 34.8481085866887,31.9902508085323,0 34.8480347651332,31.990176953706,0 34.8479743365513,31.9901241791168,0 34.8479329449315,31.9900848479506,0 34.8478666083936,31.9900103160631,0 34.847779794645,31.9899300849038,0 34.8476398349546,31.9898249650985,0 34.8475374666972,31.9897620064335,0 34.8474283180784,31.9896998537557,0 34.8473184284262,31.9896514784351,0 34.8471445012373,31.9895663158426,0 34.8468984074194,31.9894203196994,0 34.8466572554786,31.9892659746036,0 34.8465134399978,31.9891690608052,0 34.8462426191558,31.9889853695417,0 34.8461080934303,31.9888942828037,0 34.8459228840463,31.9887976464108,0 34.8457956305566,31.9887005278959,0 34.8457229858051,31.9887744903493,0 34.845735685282,31.9887941088887,0 34.8457430744186,31.9888057404824,0 34.8457500413023,31.9888198346054,0 34.8457528471734,31.9888416571329,0 34.8457515327988,31.9888610051904,0 34.8457481649942,31.988877532016,0 34.845741490256,31.988894402097,0 34.845728612017,31.9889133657578,0 34.8457146632691,31.9889265377222,0 34.8456521658792,31.9889659492172,0 34.8455794671065,31.9890053327292,0 34.8454954487395,31.9890408217566,0 34.8453671967833,31.9890829445564,0 34.8451731225291,31.9891451569765,0 34.8448379809637,31.9892531794934,0 34.8445962059545,31.9893290461765,0 34.844555190142,31.9893435110784,0 34.8445215143513,31.9893569552079,0 34.8444835299643,31.9893776781742,0 34.8444534971977,31.9893973812075,0 34.8444301857799,31.9894181457888,0 34.8444111493354,31.9894399640781,0 34.8443929004332,31.9894676643487,0 34.8443817753156,31.9894833403652,0 34.8443668981877,31.98951549879,0 34.844355248331,31.9895476663722,0 34.8443496335958,31.9895688554098,0 34.8443490817249,31.9895920220393,0 34.8443494356607,31.9896195108714,0 34.8443530173566,31.9896466165802,0 34.8443576042777,31.9896661418887,0 34.8446219248088,31.9902935810331,0 34.8449944575958,31.9912061567132,0 34.8450767914547,31.991406993961,0 34.8452003328311,31.9916984165921,0 34.8453047216874,31.9919457147298,0 34.845325317246,31.9919920147162,0 34.8453265382524,31.9919947596496,0 34.84534139868,31.9920548806449,0 34.84535891012,31.9921271473923,0 34.8453680171321,31.9922074145816,0 34.8453740853605,31.9922618176128,0 34.8453738803808,31.9923144200269,0 34.8453703412873,31.9924169412538,0 34.8453647125139,31.9925099028778,0 34.8453526208052,31.992581312988,0 34.8453405447623,31.9926486983998,0 34.8453379505132,31.9927080611671,0 34.8454761761638,31.9927054331104,0 34.8459982363828,31.9927280410877,0 34.846931205483,31.992634289928,0 34.8472135131353,31.9926059199763,0 34.847569001579,31.9925701954653,0 34.8479016233037,31.9925367684171,0 34.8483428884239,31.992494813239,0 34.8483989296434,31.9924894839627,0 34.8487031931528,31.9947138638038,0 34.8487100570838,31.9947628021741,0 34.8487099112846,31.9948005647021,0 34.8487067555018,31.9948348856316,0 34.8487006150451,31.9948597572319,0 34.8486914536016,31.9948837618454,0 34.8486802674235,31.9949103354233,0 34.8486681102961,31.9949274662196,0 34.8486539251176,31.9949480244852,0 34.8486367243789,31.9949668572616,0 34.8486205432251,31.994982260639,0 34.8485972993011,31.9950002179451,0 34.8485680043637,31.9950198753028,0 34.8485397290128,31.9950361023559,0 34.8485013885826,31.9950497265203,0 34.8484711315777,31.9950573655539,0 34.8484358409022,31.9950641328415,0 34.8462717990502,31.9952845831231,0 34.8462338565937,31.9952890905123,0 34.8462067571905,31.995291782522,0 34.8461867046945,31.9952935718835,0 34.8461574434957,31.9952948735128,0 34.846133067413,31.9952938821252,0 34.8461114028339,31.9952919749471,0 34.8460919082855,31.9952896121728,0 34.8460745880904,31.9952854104523,0 34.8460567304328,31.9952798220444,0 34.8460345484584,31.9952719146094,0 34.8460156208429,31.9952630929206,0 34.8459939824661,31.9952547252921,0 34.845973420502,31.9952482057869,0 34.845949948128,31.9952428657265,0 34.8459322717338,31.9952418246953,0 34.8459085405527,31.9952423519169,0 34.8458868993878,31.9952436777243,0 34.8458654781982,31.9952485716758,0 34.8458473169204,31.9952524828568,0 34.845833333929,31.9952589831942,0 34.8458207456348,31.9952654865709,0 34.8458074545922,31.99527337493,0 34.8457955534162,31.9952830509799,0 34.8457829458295,31.9952945087945,0 34.8457714631689,31.995308125995,0 34.8456463563576,31.9954985311495,0 34.8456015312659,31.9954755842858,0 34.8452589712424,31.9959829033859,0 34.8448360472561,31.9966087636297,0 34.8448079435962,31.9966517404532,0 34.8447931824382,31.9966845584324,0 34.8447716775448,31.9967411513104,0 34.8447595590031,31.9967785083275,0 34.8447527754525,31.9968124815817,0 34.8447496347596,31.9968468772873,0 34.8447472669694,31.9968817116558,0 34.8447508198142,31.9969241640919,0 34.8447559074974,31.9969545845414,0 34.8447624572369,31.996991344288,0 34.8447712684239,31.9970205091651,0 34.8447815812424,31.9970458772076,0 34.8447918891202,31.9970725122656,0 34.8448059229815,31.9970972568892,0 34.8448236630416,31.9971251800443,0 34.8448443728023,31.9971543786452,0 34.8448673242374,31.9971810495359,0 34.844885975641,31.997200521783,0 34.8450092879977,31.9973039813458,0 34.8452811206674,31.9975279686259,0 34.8453540472951,31.9975893613666,0 34.8454097502126,31.9976325755141,0 34.8454561904805,31.9976633005369,0 34.8455110213909,31.997693235859,0 34.8455396550233,31.9977046362768,0 34.8455731827204,31.9977166466235,0 34.8456171910686,31.9977316652555,0 34.8456647050668,31.9977443112288,0 34.845717819582,31.9977557817425,0 34.8457751506268,31.9977624972357,0 34.8458373909194,31.9977656518419,0 34.8458758650163,31.9977645693166,0 34.845929740396,31.9977605507559,0 34.8459843281018,31.9977529603479,0 34.8460321568726,31.9977434669584,0 34.8471637808942,31.9974587744363,0 34.8473249390432,31.9974173909572,0 34.847382985844,31.9974018657178,0 34.847418515644,31.9973874395047,0 34.8474485769606,31.9973759025939,0 34.8474882134286,31.9973580006529,0 34.8475278543811,31.9973389371923,0 34.8475668217745,31.9973175469812,0 34.8476003419974,31.9972938174943,0 34.8476256477905,31.9972770385215,0 34.8476530294202,31.9972527100925,0 34.8476824688691,31.9972254827433,0 34.8478073082041,31.9971056182649,0 34.847974653822,31.9969556880198,0 34.8481592701774,31.9967786501152,0 34.8483660467037,31.9965786962411,0 34.8485654172811,31.9963912553799,0 34.8487991806863,31.9961622537115,0 34.8492152272024,31.9957696442185,0 34.8491939293336,31.9956160501918,0 34.8491850173159,31.995551780003,0 34.8491621875274,31.9953871409216,0 34.8491397161255,31.9952250810863,0 </coordinates></LinearRing></outerBoundaryIs></Polygon>
</MultiGeometry>

   <ExtendedData>
  
    <Data name="PL_NUMBER"><value>גז/ 525/ 27/ א</value></Data>
	 <Data name="PL_NAME"><value>הוחלף מ-גז / 525 / 27.</value></Data>
	  <Data name="PL_AREA"><value>222</value></Data>
	   <Data name="PL_URL"><value>http://mavat.moin.gov.il/MavatPS/Forms/SV3.aspx?tid=3&amp;tnumb=%D7%92%D7%96/%20525/%2027/%20%D7%90</value></Data>
	    <Data name="CREATE_DATE"><value>06/10/2019 20:31:54</value></Data>
   </ExtendedData>
  </Placemark>

</Document>
</kml>