<?xml version="1.0" encoding="UTF-8"?>
<kml xmlns="http://www.opengis.net/kml/2.2"
 xmlns:gx="http://www.google.com/kml/ext/2.2">
<Document>
  <Style id="Plan">
	<LabelStyle>		
<color>00000000</color>
			
<scale>0</scale>
		
</LabelStyle>
		
<LineStyle>
			
<color>ffff0000</color>
			
<width>3</width>
		
</LineStyle>
		
<PolyStyle>
			
<fill>0</fill>
		
</PolyStyle>

   <BalloonStyle>
    <text>


<![CDATA[<?xml version="1.0"?>
<table border="0"  width="560" cellpadding="2" cellspacing="2" dir="rtl" xmlns:fo="http://www.w3.org/1999/XSL/Format">
<tr>
<td align="center" colspan="2" height="20" style="border-bottom: Solid 1px #b4b5b4">
<font face="Arial" size="3" color="#b50027">
<b>פרטי גבול תכנית</b>
</font>
</td>
</tr>


<tr>
<td  align="right"><font face="Arial" size="3">מספר תכנית</font>
</td>
<td align="right" bgcolor="#efefef" height="20">
<font face="Arial" size="3" color="#202520">
<b>$[PL_NUMBER]</b>
</font>
</td>
</tr>

<tr>
<td  align="right"><font face="Arial" size="3">שם תכנית</font>
</td>
<td align="right" bgcolor="#efefef" height="20">
<font face="Arial" size="3" color="#202520">
<b>$[PL_NAME]</b>
</font>
</td>
</tr>

<tr>
<td  align="right"><font face="Arial" size="3">שטח התכנית</font>
</td>
<td align="right" bgcolor="#efefef" height="20">
<font face="Arial" size="3" color="#202520">
<b>$[PL_AREA]</b>
</font>
</td>
</tr>

<tr>
<td  align="right"><font face="Arial" size="3">קישור לתכנית</font>
</td>
<td align="right" bgcolor="#efefef" height="20">
<font face="Arial" size="3" color="#202520">
<b>$[PL_URL]</b>
</font>
</td>
</tr>


<tr>
<td  align="right"><font face="Arial" size="3">תאריך יצור הקובץ</font>
</td>
<td align="right" bgcolor="#efefef" height="20">
<font face="Arial" size="3" color="#202520">
<b>$[CREATE_DATE]</b>
</font>
</td>
</tr>

</table>]]> 

</text>
     </BalloonStyle>
  </Style>

  <Placemark>
   <name name="name"><value>גבול תכנית</value></name>
   <description/>   
   <styleUrl>#Plan</styleUrl>
<MultiGeometry>
<Polygon><outerBoundaryIs><LinearRing><coordinates>34.6593681177732,31.6920664602729,0 34.6593167784654,31.692081449362,0 34.6588610219347,31.6924111732546,0 34.6581060583997,31.6928652322427,0 34.6570934816696,31.6930099742656,0 34.6567418874618,31.6930934896232,0 34.6563594399441,31.6931704142839,0 34.6551000079504,31.6934541051358,0 34.6550813864637,31.693510468864,0 34.6547831199324,31.6937050979192,0 34.6545647010315,31.6932473994127,0 34.6544317394151,31.6929634988711,0 34.6542106782297,31.6924429594051,0 34.6537329639108,31.6925947429709,0 34.6533462401494,31.6919561075085,0 34.6531170858162,31.6913594308368,0 34.6527881156799,31.6914380405866,0 34.6523871866601,31.6915566499663,0 34.652266374716,31.6916370033656,0 34.6522805944477,31.6917456673139,0 34.6518526145691,31.6918616579897,0 34.6519701358433,31.6924627809024,0 34.6511027302908,31.692561789599,0 34.6501566102028,31.6927586563047,0 34.6501465673487,31.6933862631951,0 34.6501459938671,31.6936494841027,0 34.65000652637,31.6945710019551,0 34.6531826528814,31.6944701435058,0 34.6535943846249,31.6951632452877,0 34.6537976277703,31.6959542053469,0 34.6539316868276,31.6967251135163,0 34.6545295288883,31.6972017423072,0 34.6554278162836,31.6976599102362,0 34.656142227279,31.6979592649445,0 34.6570896331175,31.6979238311601,0 34.6587523847094,31.6980297180259,0 34.6593009375004,31.6990394188203,0 34.6607131597134,31.6985318950727,0 34.6623862789271,31.7008302564554,0 34.6650506162937,31.6995379190156,0 34.6650748613358,31.6993405011719,0 34.6653289849207,31.6993415758155,0 34.6664410818307,31.6987932144336,0 34.6678970797418,31.6987005883918,0 34.6683371539632,31.6985049188353,0 34.6686394102589,31.6981704041218,0 34.6689169729983,31.6981123142001,0 34.6693331479838,31.6980548045081,0 34.6695637131429,31.6981347805713,0 34.6713797012045,31.6977654958997,0 34.6715652536514,31.6977226118442,0 34.6713066569066,31.6967462373007,0 34.6710825312965,31.6959077704701,0 34.6710017217845,31.6956092897281,0 34.6704721715258,31.6938580093932,0 34.6700915242156,31.6925886884225,0 34.6700480419573,31.6926095766849,0 34.6692454273948,31.6929951396331,0 34.6680162685204,31.693588371216,0 34.6652484346665,31.6949201787378,0 34.6651931640046,31.6950443223425,0 34.6651115586542,31.695349890072,0 34.6650802212667,31.6954705960383,0 34.665016777986,31.6957062401679,0 34.6648574990018,31.6960523610313,0 34.6640616796867,31.6960844332714,0 34.6640960006536,31.6965942300769,0 34.6633443204005,31.6968627110707,0 34.6627176186727,31.697079924489,0 34.661484435813,31.6975030541807,0 34.6605321019517,31.6978393583738,0 34.6604277612747,31.697876202277,0 34.6602727395106,31.6973565178598,0 34.6603060176713,31.6968792113544,0 34.6602281917135,31.695969932335,0 34.6600531100311,31.6949521045775,0 34.6599354405772,31.694227505671,0 34.6593681177732,31.6920664602729,0 </coordinates></LinearRing></outerBoundaryIs></Polygon><Polygon><outerBoundaryIs><LinearRing><coordinates>34.6727482861705,31.6894342295993,0 34.6719995411372,31.6892260178278,0 34.6738375128302,31.6942970761678,0 34.674048883246,31.6949021195842,0 34.6745782633843,31.6967651975809,0 34.6747494596911,31.6974475980025,0 34.6767772369283,31.6972672591157,0 34.679062404301,31.6965429195707,0 34.6790098610341,31.6981661185713,0 34.6790208513678,31.6985322760853,0 34.679029750986,31.6987955365085,0 34.679070663288,31.6997809696467,0 34.6815861617671,31.6996505939543,0 34.6830165087207,31.6995209701161,0 34.6831269371057,31.6994030540656,0 34.6833747173883,31.6992439912162,0 34.6838527533591,31.6989658123065,0 34.6838500949415,31.6988812526694,0 34.683829938831,31.6984764739554,0 34.6838067304284,31.6975266355561,0 34.683765295297,31.6970670934356,0 34.6838100587714,31.6966360873652,0 34.6833953857582,31.6967262654085,0 34.683329335399,31.6959819818137,0 34.683283154954,31.6953099261049,0 34.6833023590773,31.6947931413225,0 34.6833951990705,31.6935718371482,0 34.6828911529801,31.6934127816741,0 34.682202850957,31.6932441642881,0 34.6811047069212,31.6929581240895,0 34.6799645286277,31.6926599071986,0 34.679585389569,31.6925386955242,0 34.6793363258523,31.6924385369292,0 34.6788130677817,31.692134937563,0 34.6782453229497,31.6918002087481,0 34.6776129977355,31.6914231454582,0 34.6764225179525,31.6907047767717,0 34.6759424742176,31.6904350082864,0 34.6752609586201,31.6901992346771,0 34.6738340968786,31.6898132116216,0 34.6727482861705,31.6894342295993,0 </coordinates></LinearRing></outerBoundaryIs></Polygon>
</MultiGeometry>

   <ExtendedData>
  
    <Data name="PL_NUMBER"><value>6/ 03/ 230</value></Data>
	 <Data name="PL_NAME"><value>תכנית מפורטת למ. ק 419,867,880</value></Data>
	  <Data name="PL_AREA"><value>1536</value></Data>
	   <Data name="PL_URL"><value>http://mavat.moin.gov.il/MavatPS/Forms/SV3.aspx?tid=3&amp;tnumb=6/%2003/%20230</value></Data>
	    <Data name="CREATE_DATE"><value>08/10/2019 18:56:20</value></Data>
   </ExtendedData>
  </Placemark>

</Document>
</kml>