{"type": "FeatureCollection", "features": [{"type": "Feature", "properties": {"OBJECTID": 3819742, "LAYER_ID": 3316884, "GROUP_ID": 284529, "SCENARIO": "", "DEFQ": 0, "PLAN_NAME": "", "DATA_DATE": null, "MAVAT_CODE": 30001, "MAVAT_NAME": "׳¢׳‘׳¨׳™׳× ENTITY", "BLOCKNAME": "DIM", "ROTATION": 340.91061071, "TYPE_CODE": 0, "TYPE_NAME": "DIM", "SOURCE_COD": 0, "STATUS": "", "PL_CHANGE": "", "PLACE_NO": 0, "REMARKS": "", "VALUE1": "", "TAGNAME1": "186713.081931897", "TAGNAME2": "654710.139861518", "VALUE2": "", "TAGNAME3": "0", "VALUE3": "1", "DATE_DEC": "", "STAGE": "", "NAME": "DIM", "LABEL": "3", "FONT_SIZE": 1.64, "AGAM_ID": 4001019267.0}, "geometry": {"type": "Point", "coordinates": [34.85798781999928, 31.985023667791758]}}, {"type": "Feature", "properties": {"OBJECTID": 3819743, "LAYER_ID": 3316884, "GROUP_ID": 284529, "SCENARIO": "", "DEFQ": 0, "PLAN_NAME": "", "DATA_DATE": null, "MAVAT_CODE": 30001, "MAVAT_NAME": "׳¢׳‘׳¨׳™׳× ENTITY", "BLOCKNAME": "DIM", "ROTATION": 70.70995378, "TYPE_CODE": 0, "TYPE_NAME": "DIM", "SOURCE_COD": 0, "STATUS": "", "PL_CHANGE": "", "PLACE_NO": 0, "REMARKS": "", "VALUE1": "", "TAGNAME1": "186722.667113677", "TAGNAME2": "654710.791576471", "VALUE2": "", "TAGNAME3": "0", "VALUE3": "1", "DATE_DEC": "", "STAGE": "", "NAME": "DIM", "LABEL": "3", "FONT_SIZE": 1.64, "AGAM_ID": 4001019267.0}, "geometry": {"type": "Point", "coordinates": [34.8580892163907, 31.98502982247594]}}, {"type": "Feature", "properties": {"OBJECTID": 3819744, "LAYER_ID": 3316884, "GROUP_ID": 284529, "SCENARIO": "", "DEFQ": 0, "PLAN_NAME": "", "DATA_DATE": null, "MAVAT_CODE": 30001, "MAVAT_NAME": "׳¢׳‘׳¨׳™׳× ENTITY", "BLOCKNAME": "DIM", "ROTATION": 340.68859966, "TYPE_CODE": 0, "TYPE_NAME": "DIM", "SOURCE_COD": 0, "STATUS": "", "PL_CHANGE": "", "PLACE_NO": 0, "REMARKS": "", "VALUE1": "", "TAGNAME1": "186733.366472267", "TAGNAME2": "654701.554678537", "VALUE2": "", "TAGNAME3": "0", "VALUE3": "1", "DATE_DEC": "", "STAGE": "", "NAME": "DIM", "LABEL": "3", "FONT_SIZE": 1.64, "AGAM_ID": 4001019267.0}, "geometry": {"type": "Point", "coordinates": [34.858202736730604, 31.984946832520624]}}, {"type": "Feature", "properties": {"OBJECTID": 3819745, "LAYER_ID": 3316884, "GROUP_ID": 284529, "SCENARIO": "", "DEFQ": 0, "PLAN_NAME": "", "DATA_DATE": null, "MAVAT_CODE": 30001, "MAVAT_NAME": "׳¢׳‘׳¨׳™׳× ENTITY", "BLOCKNAME": "rozeta", "ROTATION": 0.0, "TYPE_CODE": 0, "TYPE_NAME": "ROADNO", "SOURCE_COD": 0, "STATUS": "", "PL_CHANGE": "", "PLACE_NO": 0, "REMARKS": "", "VALUE1": "", "TAGNAME1": "186735.896219222", "TAGNAME2": "654690.01565001", "VALUE2": "", "TAGNAME3": "0", "VALUE3": "1", "DATE_DEC": "", "STAGE": "", "NAME": "ROADNO", "LABEL": "8", "FONT_SIZE": 1.19, "AGAM_ID": 4001019267.0}, "geometry": {"type": "Point", "coordinates": [34.85822983654573, 31.984851540627023]}}, {"type": "Feature", "properties": {"OBJECTID": 3819746, "LAYER_ID": 3316884, "GROUP_ID": 284529, "SCENARIO": "", "DEFQ": 0, "PLAN_NAME": "", "DATA_DATE": null, "MAVAT_CODE": 30001, "MAVAT_NAME": "׳¢׳‘׳¨׳™׳× ENTITY", "BLOCKNAME": "rozeta", "ROTATION": 0.0, "TYPE_CODE": 0, "TYPE_NAME": "KBR", "SOURCE_COD": 0, "STATUS": "", "PL_CHANGE": "", "PLACE_NO": 0, "REMARKS": "", "VALUE1": "", "TAGNAME1": "186735.896219222", "TAGNAME2": "654690.01565001", "VALUE2": "", "TAGNAME3": "0", "VALUE3": "1", "DATE_DEC": "", "STAGE": "", "NAME": "KBR", "LABEL": "3", "FONT_SIZE": 1.19, "AGAM_ID": 4001019267.0}, "geometry": {"type": "Point", "coordinates": [34.85823684999879, 31.98484295834644]}}, {"type": "Feature", "properties": {"OBJECTID": 3819747, "LAYER_ID": 3316884, "GROUP_ID": 284529, "SCENARIO": "", "DEFQ": 0, "PLAN_NAME": "", "DATA_DATE": null, "MAVAT_CODE": 30001, "MAVAT_NAME": "׳¢׳‘׳¨׳™׳× ENTITY", "BLOCKNAME": "rozeta", "ROTATION": 0.0, "TYPE_CODE": 0, "TYPE_NAME": "KBL", "SOURCE_COD": 0, "STATUS": "", "PL_CHANGE": "", "PLACE_NO": 0, "REMARKS": "", "VALUE1": "", "TAGNAME1": "186735.896219222", "TAGNAME2": "654690.01565001", "VALUE2": "", "TAGNAME3": "0", "VALUE3": "1", "DATE_DEC": "", "STAGE": "", "NAME": "KBL", "LABEL": "3", "FONT_SIZE": 1.19, "AGAM_ID": 4001019267.0}, "geometry": {"type": "Point", "coordinates": [34.858222371347665, 31.984842918854334]}}, {"type": "Feature", "properties": {"OBJECTID": 3819748, "LAYER_ID": 3316884, "GROUP_ID": 284529, "SCENARIO": "", "DEFQ": 0, "PLAN_NAME": "", "DATA_DATE": null, "MAVAT_CODE": 30001, "MAVAT_NAME": "׳¢׳‘׳¨׳™׳× ENTITY", "BLOCKNAME": "rozeta", "ROTATION": 0.0, "TYPE_CODE": 0, "TYPE_NAME": "WIDTH", "SOURCE_COD": 0, "STATUS": "", "PL_CHANGE": "", "PLACE_NO": 0, "REMARKS": "", "VALUE1": "", "TAGNAME1": "186735.896219222", "TAGNAME2": "654690.01565001", "VALUE2": "", "TAGNAME3": "0", "VALUE3": "1", "DATE_DEC": "", "STAGE": "", "NAME": "WIDTH", "LABEL": "12", "FONT_SIZE": 1.19, "AGAM_ID": 4001019267.0}, "geometry": {"type": "Point", "coordinates": [34.858230202772845, 31.984834598524902]}}, {"type": "Feature", "properties": {"OBJECTID": 3819738, "LAYER_ID": 3316884, "GROUP_ID": 284529, "SCENARIO": "", "DEFQ": 0, "PLAN_NAME": "", "DATA_DATE": null, "MAVAT_CODE": 30001, "MAVAT_NAME": "׳¢׳‘׳¨׳™׳× ENTITY", "BLOCKNAME": "DIM", "ROTATION": 70.85881034, "TYPE_CODE": 0, "TYPE_NAME": "DIM", "SOURCE_COD": 0, "STATUS": "", "PL_CHANGE": "", "PLACE_NO": 0, "REMARKS": "", "VALUE1": "", "TAGNAME1": "186718.028656041", "TAGNAME2": "654683.367926316", "VALUE2": "", "TAGNAME3": "0", "VALUE3": "1", "DATE_DEC": "", "STAGE": "", "NAME": "DIM", "LABEL": "3", "FONT_SIZE": 1.64, "AGAM_ID": 4001019267.0}, "geometry": {"type": "Point", "coordinates": [34.85804106781765, 31.98478238205261]}}, {"type": "Feature", "properties": {"OBJECTID": 3819739, "LAYER_ID": 3316884, "GROUP_ID": 284529, "SCENARIO": "", "DEFQ": 0, "PLAN_NAME": "", "DATA_DATE": null, "MAVAT_CODE": 30001, "MAVAT_NAME": "׳¢׳‘׳¨׳™׳× ENTITY", "BLOCKNAME": "DIM", "ROTATION": 340.91061071, "TYPE_CODE": 0, "TYPE_NAME": "DIM", "SOURCE_COD": 0, "STATUS": "", "PL_CHANGE": "", "PLACE_NO": 0, "REMARKS": "", "VALUE1": "", "TAGNAME1": "186707.100139555", "TAGNAME2": "654697.93965134", "VALUE2": "", "TAGNAME3": "0", "VALUE3": "1", "DATE_DEC": "", "STAGE": "", "NAME": "DIM", "LABEL": "0.44", "FONT_SIZE": 1.64, "AGAM_ID": 4001019267.0}, "geometry": {"type": "Point", "coordinates": [34.85792494375033, 31.984913474217517]}}, {"type": "Feature", "properties": {"OBJECTID": 3819740, "LAYER_ID": 3316884, "GROUP_ID": 284529, "SCENARIO": "", "DEFQ": 0, "PLAN_NAME": "", "DATA_DATE": null, "MAVAT_CODE": 30001, "MAVAT_NAME": "׳¢׳‘׳¨׳™׳× ENTITY", "BLOCKNAME": "DIM", "ROTATION": 340.91061071, "TYPE_CODE": 0, "TYPE_NAME": "DIM", "SOURCE_COD": 0, "STATUS": "", "PL_CHANGE": "", "PLACE_NO": 0, "REMARKS": "", "VALUE1": "", "TAGNAME1": "186708.892216735", "TAGNAME2": "654701.967650496", "VALUE2": "", "TAGNAME3": "0", "VALUE3": "1", "DATE_DEC": "", "STAGE": "", "NAME": "DIM", "LABEL": "1.53", "FONT_SIZE": 1.64, "AGAM_ID": 4001019267.0}, "geometry": {"type": "Point", "coordinates": [34.85794376789985, 31.984949850286498]}}, {"type": "Feature", "properties": {"OBJECTID": 3819741, "LAYER_ID": 3316884, "GROUP_ID": 284529, "SCENARIO": "", "DEFQ": 0, "PLAN_NAME": "", "DATA_DATE": null, "MAVAT_CODE": 30001, "MAVAT_NAME": "׳¢׳‘׳¨׳™׳× ENTITY", "BLOCKNAME": "DIM", "ROTATION": 70.70995378, "TYPE_CODE": 0, "TYPE_NAME": "DIM", "SOURCE_COD": 0, "STATUS": "", "PL_CHANGE": "", "PLACE_NO": 0, "REMARKS": "", "VALUE1": "", "TAGNAME1": "186728.596237424", "TAGNAME2": "654708.716383159", "VALUE2": "", "TAGNAME3": "0", "VALUE3": "1", "DATE_DEC": "", "STAGE": "", "NAME": "DIM", "LABEL": "3", "FONT_SIZE": 1.64, "AGAM_ID": 4001019267.0}, "geometry": {"type": "Point", "coordinates": [34.85815202198103, 31.985011279595266]}}]}