{"type": "FeatureCollection", "features": [{"type": "Feature", "properties": {"OBJECTID": 1419150, "GROUP_ID": 284529, "LAYER_ID": 3316880, "DEFQ": "", "MAVAT_CODE": 0, "MAVAT_NAME": "", "LABEL": "8", "ROZETA_NUM": 1, "TAGNAME": "ROADNO", "ROTATION": 0.0, "STAGE": "", "AGAM_ID": 4001019267.0, "SHAPE_AREA": 1.75994394125, "SHAPE_LEN": 5.35399363302}, "geometry": {"type": "Polygon", "coordinates": [[[34.858241082685865, 31.98485244424825], [34.85822989458179, 31.984842847390922], [34.85821863675365, 31.984852383024553], [34.858220525308184, 31.984853766442775], [34.85822264452964, 31.984854881028898], [34.858224942235594, 31.984855699337984], [34.85822736184867, 31.9848562012205], [34.85822984378977, 31.984856374318333], [34.85823232739155, 31.9848562148767], [34.85823475115168, 31.984855726261895], [34.858237055389296, 31.984854920505224], [34.85823918336659, 31.984853817447053], [34.858241082685865, 31.98485244424825]]]}}, {"type": "Feature", "properties": {"OBJECTID": 1419151, "GROUP_ID": 284529, "LAYER_ID": 3316880, "DEFQ": "", "MAVAT_CODE": 0, "MAVAT_NAME": "", "LABEL": "3", "ROZETA_NUM": 1, "TAGNAME": "KBL", "ROTATION": 0.0, "STAGE": "", "AGAM_ID": 4001019267.0, "SHAPE_AREA": 1.7582039275, "SHAPE_LEN": 5.35325806932}, "geometry": {"type": "Polygon", "coordinates": [[[34.85822989458179, 31.984842847390922], [34.8582187085894, 31.984833252341993], [34.858216923461455, 31.984835053814308], [34.85821553248638, 31.984837092117992], [34.85821457792827, 31.98483930532022], [34.85821408879092, 31.984841626174003], [34.85821407993656, 31.984843984161362], [34.858214551634255, 31.984846307636037], [34.85821548955174, 31.98484852600042], [34.8582168651909, 31.984850571850636], [34.85821863675365, 31.984852383024553], [34.85822989458179, 31.984842847390922]]]}}, {"type": "Feature", "properties": {"OBJECTID": 1419152, "GROUP_ID": 284529, "LAYER_ID": 3316880, "DEFQ": "", "MAVAT_CODE": 0, "MAVAT_NAME": "", "LABEL": "12", "ROZETA_NUM": 1, "TAGNAME": "WIDTH", "ROTATION": 0.0, "STAGE": "", "AGAM_ID": 4001019267.0, "SHAPE_AREA": 1.7582039275, "SHAPE_LEN": 5.35325806932}, "geometry": {"type": "Polygon", "coordinates": [[[34.85824115451696, 31.984833313565648], [34.85823904085878, 31.984831792100003], [34.85823664932774, 31.984830606571233], [34.85823405258929, 31.984829793001037], [34.85823132954399, 31.9848293761093], [34.85822856293016, 31.984829368563076], [34.85822583680991, 31.98482977059162], [34.858223234015, 31.98483056997955], [34.85822083363001, 31.984831742437848], [34.8582187085894, 31.984833252341993], [34.85822989458179, 31.984842847390922], [34.85824115451696, 31.984833313565648]]]}}, {"type": "Feature", "properties": {"OBJECTID": 1419149, "GROUP_ID": 284529, "LAYER_ID": 3316880, "DEFQ": "", "MAVAT_CODE": 0, "MAVAT_NAME": "", "LABEL": "3", "ROZETA_NUM": 1, "TAGNAME": "KBR", "ROTATION": 0.0, "STAGE": "", "AGAM_ID": 4001019267.0, "SHAPE_AREA": 1.7584160675, "SHAPE_LEN": 5.35354091204}, "geometry": {"type": "Polygon", "coordinates": [[[34.85824115451696, 31.984833313565648], [34.85822989458179, 31.984842847390922], [34.858241082685865, 31.98485244424825], [34.858242867813686, 31.984850642775598], [34.85824425878837, 31.984848604471612], [34.858245213345874, 31.984846391269148], [34.85824570248246, 31.984844070415242], [34.85824571133601, 31.98484171242789], [34.85824523963756, 31.984839388953333], [34.85824430171945, 31.984837170589145], [34.85824292607988, 31.984835124739217], [34.85824115451696, 31.984833313565648]]]}}]}