{"type": "FeatureCollection", "features": [{"type": "Feature", "properties": {"OBJECTID": 24377266, "LAYER_ID": 7249870, "GROUP_ID": 437399, "SCENARIO": "", "DEFQ": 0, "PLAN_NAME": "", "DATA_DATE": null, "MAVAT_CODE": 20, "MAVAT_NAME": "", "NAME": "", "LABEL": "", "NUM": "8B", "LEGAL_AREA": 2483.0, "TYPE_CODE": 0, "TYPE_NAME": "", "SOURCE_COD": 0, "HASAVA": 0, "STATUS": "", "PL_CHANGE": "", "ADDRESS": "", "PLACE_NO": 0, "CALC_AREA": 0.0, "OLD_MIG": "", "AGAM_ID": 4005461916.0, "FONT_SIZE": 1.79, "ROTATION": 0.0}, "geometry": {"type": "Point", "coordinates": [34.84661711583394, 31.98624085672174]}}, {"type": "Feature", "properties": {"OBJECTID": 24377267, "LAYER_ID": 7249870, "GROUP_ID": 437399, "SCENARIO": "", "DEFQ": 0, "PLAN_NAME": "", "DATA_DATE": null, "MAVAT_CODE": 160, "MAVAT_NAME": "", "NAME": "", "LABEL": "", "NUM": "8A", "LEGAL_AREA": 0.0, "TYPE_CODE": 0, "TYPE_NAME": "", "SOURCE_COD": 0, "HASAVA": 0, "STATUS": "", "PL_CHANGE": "", "ADDRESS": "", "PLACE_NO": 0, "CALC_AREA": 0.0, "OLD_MIG": "", "AGAM_ID": 4005461916.0, "FONT_SIZE": 1.79, "ROTATION": 0.0}, "geometry": {"type": "Point", "coordinates": [34.846721214492796, 31.985901377560435]}}, {"type": "Feature", "properties": {"OBJECTID": 24377268, "LAYER_ID": 7249870, "GROUP_ID": 437399, "SCENARIO": "", "DEFQ": 0, "PLAN_NAME": "", "DATA_DATE": null, "MAVAT_CODE": 20, "MAVAT_NAME": "", "NAME": "", "LABEL": "", "NUM": "8C", "LEGAL_AREA": 0.0, "TYPE_CODE": 0, "TYPE_NAME": "", "SOURCE_COD": 0, "HASAVA": 0, "STATUS": "", "PL_CHANGE": "", "ADDRESS": "", "PLACE_NO": 0, "CALC_AREA": 0.0, "OLD_MIG": "", "AGAM_ID": 4005461916.0, "FONT_SIZE": 1.79, "ROTATION": 0.0}, "geometry": {"type": "Point", "coordinates": [34.84678923356753, 31.98615435745678]}}, {"type": "Feature", "properties": {"OBJECTID": 24377265, "LAYER_ID": 7249870, "GROUP_ID": 437399, "SCENARIO": "", "DEFQ": 0, "PLAN_NAME": "", "DATA_DATE": null, "MAVAT_CODE": 660, "MAVAT_NAME": "", "NAME": "", "LABEL": "", "NUM": "1008", "LEGAL_AREA": 11572.0, "TYPE_CODE": 0, "TYPE_NAME": "", "SOURCE_COD": 0, "HASAVA": 0, "STATUS": "", "PL_CHANGE": "", "ADDRESS": "", "PLACE_NO": 0, "CALC_AREA": 0.0, "OLD_MIG": "", "AGAM_ID": 4005461916.0, "FONT_SIZE": 1.79, "ROTATION": 0.0}, "geometry": {"type": "Point", "coordinates": [34.846774763738516, 31.98526990328308]}}]}