{"type": "FeatureCollection", "features": [{"type": "Feature", "properties": {"OBJECTID": 14539921, "GROUP_ID": 437399, "LAYER_ID": 7421216, "DEFQ": "", "MAVAT_CODE": 0, "MAVAT_NAME": "", "LABEL": "5", "ROZETA_NUM": 1, "TAGNAME": "KBR", "ROTATION": 120.78812657, "STAGE": "", "AGAM_ID": 4005461916.0, "SHAPE_AREA": 4.5047962425, "SHAPE_LEN": 8.56603617889}, "geometry": {"type": "Polygon", "coordinates": [[[34.84652861057269, 31.986345420214352], [34.8465224577723, 31.986324421499507], [34.846497819686604, 31.98632966544674], [34.84649916847841, 31.986333050117914], [34.846501152515685, 31.986336199420407], [34.84650371768092, 31.986339027452377], [34.84650679400552, 31.986341457075063], [34.846510297578234, 31.98634342201693], [34.84651413283398, 31.986344868681293], [34.84651819516047, 31.98634575760826], [34.84652237375173, 31.98634606455101], [34.8465255156321, 31.98634590740114], [34.84652861057269, 31.986345420214352]]]}}, {"type": "Feature", "properties": {"OBJECTID": 14539922, "GROUP_ID": 437399, "LAYER_ID": 7421216, "DEFQ": "", "MAVAT_CODE": 0, "MAVAT_NAME": "", "LABEL": "2", "ROZETA_NUM": 1, "TAGNAME": "ROADNO", "ROTATION": 120.78812657, "STAGE": "", "AGAM_ID": 4005461916.0, "SHAPE_AREA": 4.50112618375, "SHAPE_LEN": 8.56527864034}, "geometry": {"type": "Polygon", "coordinates": [[[34.8465224577723, 31.986324421499507], [34.8465163044456, 31.98630342278282], [34.84651211961263, 31.98630465243838], [34.8465082488912, 31.986306482759876], [34.84650480989118, 31.986308858133942], [34.84650190710482, 31.98631170638607], [34.84649962873183, 31.98631494097361], [34.84649804399944, 31.986318463615305], [34.846497201059044, 31.986322167277468], [34.84649712552303, 31.98632593942622], [34.846497819686604, 31.98632966544674], [34.8465224577723, 31.986324421499507]]]}}, {"type": "Feature", "properties": {"OBJECTID": 14539923, "GROUP_ID": 437399, "LAYER_ID": 7421216, "DEFQ": "", "MAVAT_CODE": 0, "MAVAT_NAME": "", "LABEL": "5", "ROZETA_NUM": 1, "TAGNAME": "KBL", "ROTATION": 120.78812657, "STAGE": "", "AGAM_ID": 4005461916.0, "SHAPE_AREA": 4.50554932875, "SHAPE_LEN": 8.56626554508}, "geometry": {"type": "Polygon", "coordinates": [[[34.84654709585522, 31.98631917754746], [34.84654582996503, 31.986315957153682], [34.84654398856732, 31.986312945185755], [34.84654161700345, 31.98631021580827], [34.846538773669266, 31.986307836227656], [34.84653552857713, 31.986305865037025], [34.84653196163197, 31.986304350773636], [34.84652816066384, 31.98630333072369], [34.846524219265184, 31.986302830004206], [34.84652023448628, 31.986302860944527], [34.8465163044456, 31.98630342278282], [34.8465224577723, 31.986324421499507], [34.84654709585522, 31.98631917754746]]]}}, {"type": "Feature", "properties": {"OBJECTID": 14539924, "GROUP_ID": 437399, "LAYER_ID": 7421216, "DEFQ": "", "MAVAT_CODE": 0, "MAVAT_NAME": "", "LABEL": "10", "ROZETA_NUM": 1, "TAGNAME": "WIDTH", "ROTATION": 120.78812657, "STAGE": "", "AGAM_ID": 4005461916.0, "SHAPE_AREA": 4.5055007275, "SHAPE_LEN": 8.56620864684}, "geometry": {"type": "Polygon", "coordinates": [[[34.84654709585522, 31.98631917754746], [34.8465224577723, 31.986324421499507], [34.84652861057269, 31.986345420214352], [34.84653238906782, 31.986344341350637], [34.84653592302134, 31.986342771993993], [34.846539125415525, 31.98634075078718], [34.84654191739681, 31.986338327499077], [34.846544230217354, 31.98633556179911], [34.84654600692783, 31.986332521787972], [34.84654720377979, 31.986329282320895], [34.846547791302825, 31.9863259231643], [34.84654775503023, 31.986322527031827], [34.84654709585522, 31.98631917754746]]]}}]}