{"type": "FeatureCollection", "features": [{"type": "Feature", "properties": {"OBJECTID": 15973326, "LAYER_ID": 5994697, "GROUP_ID": 387512, "SCENARIO": "", "DEFQ": 0, "PLAN_NAME": "", "DATA_DATE": null, "MAVAT_CODE": 670, "MAVAT_NAME": "", "NAME": "", "LABEL": "", "NUM": "601", "LEGAL_AREA": 0.0, "TYPE_CODE": 0, "TYPE_NAME": "", "SOURCE_COD": 0, "HASAVA": 0, "STATUS": "", "PL_CHANGE": "", "ADDRESS": "", "PLACE_NO": 0, "CALC_AREA": 0.0, "OLD_MIG": "", "AGAM_ID": 4005264672.0, "FONT_SIZE": 4.5, "ROTATION": 0.0}, "geometry": {"type": "Point", "coordinates": [34.847178429317275, 31.995849892257592]}}, {"type": "Feature", "properties": {"OBJECTID": 15973327, "LAYER_ID": 5994697, "GROUP_ID": 387512, "SCENARIO": "", "DEFQ": 0, "PLAN_NAME": "", "DATA_DATE": null, "MAVAT_CODE": 670, "MAVAT_NAME": "", "NAME": "", "LABEL": "", "NUM": "602", "LEGAL_AREA": 0.0, "TYPE_CODE": 0, "TYPE_NAME": "", "SOURCE_COD": 0, "HASAVA": 0, "STATUS": "", "PL_CHANGE": "", "ADDRESS": "", "PLACE_NO": 0, "CALC_AREA": 0.0, "OLD_MIG": "", "AGAM_ID": 4005264672.0, "FONT_SIZE": 3.21, "ROTATION": 0.0}, "geometry": {"type": "Point", "coordinates": [34.84735990372301, 31.99545381737607]}}]}