{"type": "FeatureCollection", "features": [{"type": "Feature", "properties": {"OBJECTID": 15990958, "LAYER_ID": 5994706, "GROUP_ID": 387512, "SCENARIO": "", "DEFQ": 0, "PLAN_NAME": "", "DATA_DATE": null, "MAVAT_CODE": 670, "MAVAT_NAME": "׳©׳˜׳— ׳¦׳™׳‘׳•׳¨׳™ ׳₪׳×׳•׳—", "NAME": "", "LABEL": "", "NUM": "601", "LEGAL_AREA": 0.0, "TYPE_CODE": 0, "TYPE_NAME": "", "SOURCE_COD": 0, "HASAVA": 0, "STATUS": "", "PL_CHANGE": "", "ADDRESS": "", "PLACE_NO": 0, "CALC_AREA": 0.0, "OLD_MIG": "", "AGAM_ID": 4005264672.0, "SHAPE_AREA": 10277.4220295, "SHAPE_LEN": 894.525235584}, "geometry": {"type": "Polygon", "coordinates": [[[34.845896391185676, 31.99721371907394], [34.84598436242382, 31.99712954638226], [34.846035725518476, 31.997168532119474], [34.846087088023815, 31.997207517293106], [34.84610820385572, 31.9971873139222], [34.846129320262634, 31.997167109963144], [34.84609770885948, 31.99714311942932], [34.846066098063424, 31.997119126679916], [34.84615407555438, 31.9970349428839], [34.84624205739196, 31.996950770039287], [34.8463300585108, 31.9968665773917], [34.84641800575938, 31.99678241311638], [34.84647332551089, 31.996824400262387], [34.84652864468634, 31.99686638521827], [34.846549548334146, 31.996846384800538], [34.84657045129363, 31.996826382167896], [34.84655464590118, 31.99681438858043], [34.84653884051267, 31.99680239503608], [34.84662681726762, 31.996718211443778], [34.84671478800303, 31.996634037691507], [34.84680276440187, 31.996549862810227], [34.8468907452202, 31.996465680123055], [34.84692930349752, 31.99642878979254], [34.84696786826709, 31.996391895545433], [34.846928439437015, 31.996361826961156], [34.846889010634804, 31.996331757823597], [34.846977105921674, 31.99624746753936], [34.84706520100287, 31.99616317498209], [34.84715404990834, 31.99607815632389], [34.8472429096087, 31.995993135918564], [34.84733087480486, 31.99590890611224], [34.847418854315194, 31.9958247776009], [34.8474583679951, 31.995854765336905], [34.84749788170056, 31.995884753105763], [34.847551222305746, 31.995833716597215], [34.847604434882015, 31.99578419166747], [34.847657648732174, 31.99573466455406], [34.84758580691769, 31.995680152407274], [34.847513964559674, 31.995625638594955], [34.84757801173985, 31.995565412156843], [34.84764206143527, 31.99550518402421], [34.84757022952416, 31.99545066310275], [34.84749839834159, 31.995396139933156], [34.847586368968244, 31.99531196609074], [34.84769324703381, 31.995209699223626], [34.84754782997907, 31.99522597013779], [34.847402414772716, 31.995242242603638], [34.84741231855067, 31.995305284905367], [34.84742175500221, 31.99536492212791], [34.84743115785316, 31.995424563087372], [34.847440633233646, 31.995484660516624], [34.84737849064353, 31.99549188055608], [34.84725435053647, 31.995507229653104], [34.84719228049335, 31.995514904403997], [34.84717339346985, 31.995394171853665], [34.847154516099394, 31.995269978884203], [34.84714763517288, 31.99527074935527], [34.84710765603739, 31.995330922283483], [34.84706767621468, 31.995391095151312], [34.84700345611662, 31.995489851119995], [34.846939237837994, 31.995588607014064], [34.846875417761325, 31.99568791391456], [34.84681159945126, 31.995787220740695], [34.84674037768479, 31.995891908505936], [34.846786567633416, 31.995913903971715], [34.846832757665695, 31.995935897211513], [34.84676823798612, 31.99603429883444], [34.84670371752033, 31.996132703711787], [34.84657467742164, 31.996329518864975], [34.84651083031403, 31.996428888751687], [34.84644698306777, 31.9965282586488], [34.84641101156075, 31.99651105570561], [34.846375041292546, 31.996493850591396], [34.84634140282632, 31.996545109522927], [34.846307764276055, 31.996596366776377], [34.846284667576136, 31.99658536814263], [34.846261573480845, 31.996574367843678], [34.846197014687895, 31.996672758004095], [34.84613245766741, 31.996771146511257], [34.84604935497741, 31.996731575276883], [34.84596625495196, 31.996692003950603], [34.84593116172648, 31.996745395932177], [34.845896071059265, 31.996798786242294], [34.84583153057489, 31.996897143797668], [34.845766953375495, 31.996995600322364], [34.84570238928129, 31.99709398470492], [34.84563782499539, 31.997192369097014], [34.84556192321172, 31.99730802701909], [34.845486021871416, 31.997423684894024], [34.8455124502549, 31.99744412283406], [34.84553887928714, 31.997464560229368], [34.84556603071735, 31.99748426708318], [34.84559457462297, 31.997502493908414], [34.84563315135535, 31.997523649245515], [34.84567359693856, 31.997542099082562], [34.84569796019114, 31.997552071413164], [34.84572325235929, 31.997560192396715], [34.845749602657115, 31.99756551987397], [34.84577469143427, 31.997574209356973], [34.84570356614809, 31.99752023042752], [34.845632441535756, 31.997466249295673], [34.84572043272412, 31.997382064178566], [34.84580840231984, 31.997297893276244], [34.845896391185676, 31.99721371907394]]]}}, {"type": "Feature", "properties": {"OBJECTID": 15990959, "LAYER_ID": 5994706, "GROUP_ID": 387512, "SCENARIO": "", "DEFQ": 0, "PLAN_NAME": "", "DATA_DATE": null, "MAVAT_CODE": 670, "MAVAT_NAME": "׳©׳˜׳— ׳¦׳™׳‘׳•׳¨׳™ ׳₪׳×׳•׳—", "NAME": "", "LABEL": "", "NUM": "602", "LEGAL_AREA": 0.0, "TYPE_CODE": 0, "TYPE_NAME": "", "SOURCE_COD": 0, "HASAVA": 0, "STATUS": "", "PL_CHANGE": "", "ADDRESS": "", "PLACE_NO": 0, "CALC_AREA": 0.0, "OLD_MIG": "", "AGAM_ID": 4005264672.0, "SHAPE_AREA": 644.994285083, "SHAPE_LEN": 101.851932764}, "geometry": {"type": "Polygon", "coordinates": [[[34.84716395379535, 31.995332076471506], [34.84717339346985, 31.995394171853665], [34.84718283795338, 31.995454538402715], [34.84719228049335, 31.995514904403997], [34.84722331551511, 31.995511067302882], [34.84725435053647, 31.995507229653104], [34.84731642062051, 31.995499555367864], [34.84737849064353, 31.99549188055608], [34.847440633233646, 31.995484660516624], [34.847435894535565, 31.995454612069857], [34.84743115785316, 31.995424563087372], [34.84742645642193, 31.995394743712477], [34.84742175500221, 31.99536492212791], [34.84741703675182, 31.995335102660007], [34.84741231855067, 31.995305284905367], [34.84740736732248, 31.99527376348602], [34.847402414772716, 31.995242242603638], [34.84733978168622, 31.995249249862677], [34.84727714922332, 31.995256257633574], [34.84721583430379, 31.99526311884199], [34.847154516099394, 31.995269978884203], [34.84716395379535, 31.995332076471506]]]}}]}