{"type": "FeatureCollection", "features": [{"type": "Feature", "properties": {"OBJECTID": 21316095, "LAYER_ID": 7124888, "GROUP_ID": 432220, "SCENARIO": "", "DEFQ": 0, "PLAN_NAME": "", "DATA_DATE": null, "MAVAT_CODE": 20, "MAVAT_NAME": "", "NAME": "", "LABEL": "", "NUM": "595", "LEGAL_AREA": 0.0, "TYPE_CODE": 0, "TYPE_NAME": "", "SOURCE_COD": 0, "HASAVA": 0, "STATUS": "", "PL_CHANGE": "", "ADDRESS": "", "PLACE_NO": 0, "CALC_AREA": 0.0, "OLD_MIG": "", "AGAM_ID": 4005366990.0, "FONT_SIZE": 0.93, "ROTATION": 0.0}, "geometry": {"type": "Point", "coordinates": [34.84644783573081, 31.99640463136116]}}]}