<?xml version="1.0" encoding="UTF-8"?>
<kml xmlns="http://www.opengis.net/kml/2.2"
 xmlns:gx="http://www.google.com/kml/ext/2.2">
<Document>
  <Style id="Plan">
	<LabelStyle>		
<color>00000000</color>
			
<scale>0</scale>
		
</LabelStyle>
		
<LineStyle>
			
<color>ffff0000</color>
			
<width>3</width>
		
</LineStyle>
		
<PolyStyle>
			
<fill>0</fill>
		
</PolyStyle>

   <BalloonStyle>
    <text>


<![CDATA[<?xml version="1.0"?>
<table border="0"  width="560" cellpadding="2" cellspacing="2" dir="rtl" xmlns:fo="http://www.w3.org/1999/XSL/Format">
<tr>
<td align="center" colspan="2" height="20" style="border-bottom: Solid 1px #b4b5b4">
<font face="Arial" size="3" color="#b50027">
<b>פרטי גבול תכנית</b>
</font>
</td>
</tr>


<tr>
<td  align="right"><font face="Arial" size="3">מספר תכנית</font>
</td>
<td align="right" bgcolor="#efefef" height="20">
<font face="Arial" size="3" color="#202520">
<b>$[PL_NUMBER]</b>
</font>
</td>
</tr>

<tr>
<td  align="right"><font face="Arial" size="3">שם תכנית</font>
</td>
<td align="right" bgcolor="#efefef" height="20">
<font face="Arial" size="3" color="#202520">
<b>$[PL_NAME]</b>
</font>
</td>
</tr>

<tr>
<td  align="right"><font face="Arial" size="3">שטח התכנית</font>
</td>
<td align="right" bgcolor="#efefef" height="20">
<font face="Arial" size="3" color="#202520">
<b>$[PL_AREA]</b>
</font>
</td>
</tr>

<tr>
<td  align="right"><font face="Arial" size="3">קישור לתכנית</font>
</td>
<td align="right" bgcolor="#efefef" height="20">
<font face="Arial" size="3" color="#202520">
<b>$[PL_URL]</b>
</font>
</td>
</tr>


<tr>
<td  align="right"><font face="Arial" size="3">תאריך יצור הקובץ</font>
</td>
<td align="right" bgcolor="#efefef" height="20">
<font face="Arial" size="3" color="#202520">
<b>$[CREATE_DATE]</b>
</font>
</td>
</tr>

</table>]]> 

</text>
     </BalloonStyle>
  </Style>

  <Placemark>
   <name name="name"><value>גבול תכנית</value></name>
   <description/>   
   <styleUrl>#Plan</styleUrl>
<MultiGeometry>
<Polygon><outerBoundaryIs><LinearRing><coordinates>34.862490807294,31.9832749325365,0 34.8625480805954,31.9832172560022,0 34.8627105640913,31.9830532588118,0 34.8629054482442,31.9828575041265,0 34.8629467043204,31.9828094804872,0 34.8636127020753,31.9821239919895,0 34.8637143031278,31.982021383453,0 34.8640418942495,31.9816863298848,0 34.8642942690025,31.9814292052395,0 34.8642635912864,31.9813818188699,0 34.8639706720299,31.9807108341114,0 34.863683274167,31.9798341655154,0 34.863628303838,31.9795695908455,0 34.8636205413664,31.9795446260908,0 34.8635616283245,31.9792877277719,0 34.8634767648068,31.9789231996834,0 34.8633161726993,31.9783004509031,0 34.8633024250391,31.9780116309081,0 34.8632491492365,31.9778409384118,0 34.8631976603133,31.9776860430953,0 34.8633004116943,31.9774726349718,0 34.8633695207481,31.977255132327,0 34.863378934763,31.9771573298662,0 34.8633323608457,31.9769837191195,0 34.8632313920125,31.9767213507821,0 34.8631607035195,31.9764120617324,0 34.8631550707555,31.9763754874213,0 34.8630780688015,31.9759198689207,0 34.8630499372573,31.9757946660291,0 34.8630243925374,31.975773181247,0 34.8625054538786,31.9751579940558,0 34.8620897626008,31.9748744929752,0 34.8618297558631,31.9746911758043,0 34.8617338113173,31.974619338686,0 34.8615198818619,31.9744919417744,0 34.8609938533256,31.9740988004681,0 34.8606080155314,31.9737911420129,0 34.8604412103641,31.9736616164344,0 34.8603240808028,31.9735542113488,0 34.8602958046611,31.9732909194359,0 34.8602784725507,31.9731510926542,0 34.8614794157215,31.9732398168718,0 34.8625014782994,31.973411065363,0 34.8642712694687,31.9734215822429,0 34.8643044799963,31.9734217794738,0 34.8643419804306,31.9734220017197,0 34.8643111814232,31.9733473976056,0 34.8643060285232,31.973335534075,0 34.864107273708,31.9728779122367,0 34.863856013959,31.9722504835172,0 34.8637628198028,31.9720174557823,0 34.8637513543685,31.9719881163303,0 34.863735261612,31.9719593271814,0 34.8635579858848,31.971532185376,0 34.8633976030011,31.9711558639518,0 34.8653992994218,31.9704026751877,0 34.8655382136616,31.9703494032012,0 34.8656762180504,31.9703030112139,0 34.8661645205143,31.9701190972013,0 34.8669242387491,31.9698254574262,0 34.867376023554,31.9696571654859,0 34.8676669221786,31.9695485594947,0 34.8676912186674,31.9695397141214,0 34.8677338788114,31.9695232016122,0 34.8680074824475,31.969419094052,0 34.8688330041257,31.9691043237447,0 34.8695424110109,31.9688380330046,0 34.8696321152544,31.9688058046582,0 34.8698304757829,31.9687276542167,0 34.8698714428525,31.968711053554,0 34.8699251051258,31.9686896670875,0 34.8712341324001,31.9681941772403,0 34.8715718311159,31.9680680926591,0 34.8715754824044,31.9681034205744,0 34.8715728864266,31.9681203965809,0 34.8715919175266,31.9682066844169,0 34.8716558487894,31.9684914837408,0 34.8716540733527,31.9689835261584,0 34.8716492077182,31.9695989960364,0 34.871647972008,31.9700786417549,0 34.8716471840301,31.9701598022235,0 34.8716431381874,31.9705937839031,0 34.8716339774252,31.9706134877864,0 34.8716321054921,31.9707194450666,0 34.8706103465463,31.9710960827277,0 34.8698663111143,31.9713736832131,0 34.8687690477124,31.9717794191693,0 34.8687011888733,31.9718034729891,0 34.8683363577444,31.9719417244524,0 34.8683858463719,31.9719700387326,0 34.8685113587921,31.9720470244933,0 34.8685283399749,31.9720600301901,0 34.8686637553529,31.9721415510388,0 34.8688014713566,31.9722270241285,0 34.8688954835177,31.9722853273595,0 34.8691230944195,31.9724245797438,0 34.8691900516758,31.9724670296736,0 34.8692730021877,31.9725219198292,0 34.8693478940821,31.9725643906308,0 34.8695178057362,31.9726617832437,0 34.8695889182293,31.972698605841,0 34.8697491435764,31.9727762482969,0 34.8698036213331,31.9727966825802,0 34.8700230055384,31.9728806778758,0 34.8701750711759,31.972929548734,0 34.8702657149715,31.9729602251873,0 34.870496254103,31.9730222666283,0 34.870643943605,31.9730480175467,0 34.8707485494214,31.9730561852409,0 34.8710222341306,31.9730732488927,0 34.8712649101537,31.9730710689873,0 34.8712925179799,31.9730700124033,0 34.8715235202164,31.9730497652475,0 34.8715668403731,31.9730476243675,0 34.8716215600312,31.973046920185,0 34.8717431625203,31.9730170862611,0 34.871991844684,31.9729534861092,0 34.8722204008247,31.9728791193338,0 34.8723702226352,31.9728169513901,0 34.8724553479229,31.9727726465477,0 34.8724955807353,31.972755841129,0 34.8726670268057,31.9726559653787,0 34.8727515585511,31.9725930599443,0 34.8728564905322,31.9725116089153,0 34.8729962423824,31.9723992482682,0 34.8730426647191,31.9723616054843,0 34.8732272909884,31.972181726322,0 34.8735771844789,31.9718281175157,0 34.8737160575902,31.9716853160158,0 34.8737883943304,31.9716111055218,0 34.8739858192491,31.9714109679357,0 34.8741721387421,31.9712192564652,0 34.8743958050759,31.970985368786,0 34.8745741360936,31.9708082884741,0 34.8748241695634,31.9705491061538,0 34.8748504000625,31.9705176110658,0 34.8750415144205,31.9703247816682,0 34.8752686440807,31.970090338662,0 34.8755496860623,31.9698030520428,0 34.8756820779718,31.9696675614064,0 34.8759254593511,31.9694185031296,0 34.8762132880376,31.9691267235296,0 34.8762313702804,31.9691087341666,0 34.8763773290887,31.9692009839511,0 34.876398108816,31.9692145647564,0 34.8770606381312,31.9685585195792,0 34.8771314704446,31.9684882495466,0 34.877220019633,31.9683847701391,0 34.8771786873619,31.9682793109363,0 34.8770252844228,31.9679597948481,0 34.8762361070945,31.9663910913144,0 34.8760963025908,31.9664874502879,0 34.8760727173577,31.9664859463807,0 34.8757011694812,31.9666359397963,0 34.8753160749228,31.9667789350416,0 34.8749971948931,31.9669062580604,0 34.8747282510345,31.9670013748306,0 34.8743575286272,31.9671311731777,0 34.8742585562313,31.9671669880007,0 34.8742388578076,31.9671742666371,0 34.8739803202363,31.9672722261285,0 34.873715510455,31.9673667923827,0 34.8736019613752,31.9674104577085,0 34.8734250581938,31.9674669220855,0 34.8727070885193,31.9676775383751,0 34.8725492145539,31.9677278504402,0 34.872542427559,31.967730087208,0 34.8725248888098,31.9677356794357,0 34.8723676828807,31.967783738505,0 34.8722558298082,31.9678155717508,0 34.8721845128742,31.96783624205,0 34.8720177120558,31.9678870928082,0 34.871874739766,31.9679306831192,0 34.8718121922553,31.9679496807905,0 34.8717089126776,31.9679871741136,0 34.8716933206538,31.9673332127513,0 34.871676463759,31.9672415973366,0 34.8699253918904,31.9666875687605,0 34.8630743335032,31.9646038907481,0 34.8630340069593,31.9638885343597,0 34.8630664208032,31.963883549781,0 34.8629721199463,31.9628800363443,0 34.8629212740945,31.9624165981884,0 34.8628941778179,31.962100892936,0 34.8627886548068,31.9610494377057,0 34.8627425963749,31.9605882667555,0 34.8627590827113,31.9605101749736,0 34.8620621311453,31.960698877691,0 34.8616534902263,31.9607608255526,0 34.8615236043014,31.9607676170423,0 34.8612965152026,31.9607946419337,0 34.861276627832,31.9607970735504,0 34.8612544677484,31.960799650523,0 34.8608905320599,31.9608755072118,0 34.8604967567178,31.9609389777522,0 34.8602876159906,31.9609773004081,0 34.8597613480514,31.9610891646528,0 34.8597127104674,31.9611025993536,0 34.8592895068478,31.9611893357945,0 34.8592981779427,31.9612127486305,0 34.8593352197852,31.9612745653868,0 34.8596757420477,31.9618385571677,0 34.8597069546185,31.961889933094,0 34.859738328037,31.9619424349039,0 34.8609575786074,31.9639545140941,0 34.8610296947836,31.9640736358449,0 34.8616673037153,31.964272064937,0 34.86126407124,31.9652291445257,0 34.8609173752423,31.9660511047732,0 34.8602173397726,31.9658361583042,0 34.8594479524371,31.9656024170412,0 34.8581136056976,31.9651935331784,0 34.8570449216663,31.9648648370697,0 34.8570140698026,31.9649368971117,0 34.8569177013777,31.9651575757771,0 34.8559477408829,31.9671360683707,0 34.8552859727922,31.9668992174082,0 34.8542345751541,31.9665210216762,0 34.8542311903383,31.9665198075244,0 34.8542320431336,31.9665180964466,0 34.8542345332407,31.9665131145279,0 34.85464042209,31.9657008554646,0 34.8546555545673,31.9656760975067,0 34.8546689123595,31.965640628417,0 34.8553415156632,31.9642784985684,0 34.8553821176179,31.9642064657437,0 34.8549964263621,31.963964171359,0 34.8545919036691,31.9637184403231,0 34.8542352233349,31.9634982060095,0 34.8537842169499,31.9632207809252,0 34.8537557856295,31.9632029404038,0 34.8530921935515,31.9634252591333,0 34.8530090302313,31.9634531201675,0 34.8530590287052,31.9640019390485,0 34.8530930555348,31.9643754359408,0 34.8531261942614,31.9647447053841,0 34.8531931177851,31.965443790163,0 34.8532012247945,31.965528358698,0 34.8532624317559,31.9661665556523,0 34.8532690906102,31.9662525269841,0 34.8532961062879,31.9665465759592,0 34.85339637534,31.9675828909014,0 34.8534643337139,31.9682901664984,0 34.8523771767007,31.9683628169642,0 34.8505754600465,31.9684896936172,0 34.8499830517759,31.9685291881121,0 34.8499602815028,31.9686040861781,0 34.8496615881626,31.9695078740042,0 34.8495724131935,31.9697854924882,0 34.8495103340521,31.9699814614943,0 34.8494668217109,31.9700348853773,0 34.849001635223,31.9705149236495,0 34.8481815611557,31.9705633490282,0 34.8481809010213,31.9705633471751,0 34.847834692195,31.9705815400308,0 34.8466397992738,31.9706520095733,0 34.8463459748673,31.970674292335,0 34.8460004079368,31.9706969874119,0 34.8457279450673,31.9704972578387,0 34.8452603529343,31.9701464860221,0 34.8446521654592,31.9696944236742,0 34.8440210188181,31.9692174935753,0 34.8437286607293,31.9695204594275,0 34.8432643693194,31.9699768049572,0 34.8425073649704,31.9710562513034,0 34.8421172260251,31.97161031062,0 34.8420723376286,31.9716755632855,0 34.8415827495671,31.9724150869435,0 34.8415424704412,31.972471316509,0 34.8414858770023,31.9725503294828,0 34.8413329652348,31.9727612533628,0 34.8412259035983,31.9729153791793,0 34.8411418127904,31.973028426743,0 34.841061378831,31.9731369793047,0 34.8409764491041,31.9732534043132,0 34.8408974910053,31.9733653409543,0 34.8408097176131,31.9734902166222,0 34.8407642791236,31.9735678652247,0 34.8406830796011,31.9737029031303,0 34.8405069810566,31.9740084489258,0 34.8404048163683,31.9741766814432,0 34.8403856469358,31.974217207636,0 34.8403121357418,31.9743725579306,0 34.8401802573585,31.974655681394,0 34.8401570757425,31.9747080349145,0 34.8397743693204,31.9754233035469,0 34.8397184628874,31.9755150150529,0 34.8392800417812,31.9760215816313,0 34.8387913549527,31.9765714038166,0 34.838289044761,31.9771369626938,0 34.8382628066513,31.9771667619332,0 34.8380329830307,31.9774270552456,0 34.8379021373075,31.9775720949933,0 34.8377722913318,31.9777582813687,0 34.8376019400575,31.9779849280637,0 34.8373677220361,31.9783094663145,0 34.8371663670986,31.9786014034472,0 34.8369500674409,31.9788668091988,0 34.8368642583791,31.9789771758534,0 34.8369445739775,31.9790601002184,0 34.8370332388754,31.9791538234507,0 34.8372105391059,31.9793424528079,0 34.8373465888808,31.9794813886676,0 34.8373614681636,31.9794953880158,0 34.8374837172091,31.979631217674,0 34.8376237513964,31.9797783675573,0 34.8379275441549,31.9801008896743,0 34.8380319762261,31.9802083182551,0 34.8381680767956,31.9803532088809,0 34.8384135102821,31.9806133116992,0 34.8386247748661,31.98083819933,0 34.8388063481866,31.981032011498,0 34.8389318770904,31.9811657029069,0 34.8389567873968,31.9811924391677,0 34.8390306753389,31.9812717977983,0 34.839505937861,31.9817606910083,0 34.8398861395642,31.9821847871598,0 34.8399115610109,31.9822129747989,0 34.8400852444159,31.9823859344147,0 34.8401424293739,31.9824428869332,0 34.840336872557,31.9826394608915,0 34.840771093532,31.9830646580582,0 34.8407857917275,31.983078706984,0 34.8416359917346,31.9838915512209,0 34.8416545359418,31.9839199352765,0 34.841979608242,31.9843593928968,0 34.8422777813272,31.9847701785363,0 34.8423364258892,31.9847848973962,0 34.8425477581022,31.9852162373116,0 34.8427743537904,31.9855926717312,0 34.8427994796774,31.985627614247,0 34.8430075917031,31.9860468708481,0 34.8430466426875,31.9861213970173,0 34.8431526381999,31.9860667195863,0 34.8431378197138,31.9860313195195,0 34.8444333248446,31.9855661114637,0 34.844770226365,31.9854487071184,0 34.844637550158,31.984835105143,0 34.8452759300457,31.9846503524199,0 34.8455778220575,31.9845632808314,0 34.845515270382,31.9840682414075,0 34.8455079990956,31.9840248188707,0 34.8456951179848,31.983989842265,0 34.8458469939295,31.9839615257022,0 34.8462496828459,31.9838877016329,0 34.8470284228788,31.9837427882454,0 34.8471334713405,31.9837244853146,0 34.8473045378195,31.9836934038079,0 34.8474415233999,31.9836684269849,0 34.8476928018198,31.9836236972677,0 34.8476937335666,31.9836235303483,0 34.8476958681044,31.9836231503779,0 34.8476971217241,31.9836229266481,0 34.8477421196978,31.9836151641789,0 34.8478337072069,31.9836159843363,0 34.8478757925038,31.9836347013922,0 34.8479699364005,31.9836158043992,0 34.8479728926426,31.9835780488003,0 34.8485425037994,31.9836016300936,0 34.8486154015432,31.9836046517715,0 34.8492380723154,31.9836306332337,0 34.8494139527772,31.9836361972041,0 34.8498996170508,31.9836510821947,0 34.8510644959282,31.9836920955948,0 34.8512159187302,31.9836953344448,0 34.8519741558962,31.9837211170768,0 34.8522072374155,31.9837285278403,0 34.8525304084043,31.9837378762392,0 34.8528073044324,31.9837425901761,0 34.8532094976773,31.983753851201,0 34.8532301573225,31.9837544711118,0 34.8533384829428,31.9837510518639,0 34.8537877802138,31.9837393191513,0 34.854255962086,31.9837330874661,0 34.8543031153585,31.9837316015604,0 34.8543416904459,31.9834680856429,0 34.8543441817237,31.9834528881126,0 34.8543656800098,31.9834466348036,0 34.8544168051243,31.9834490483889,0 34.8547939717751,31.9834681531822,0 34.8548695444961,31.9834666948729,0 34.8549510164067,31.9834631605833,0 34.8549840072047,31.9834619781002,0 34.855009591497,31.98346080407,0 34.8550378717713,31.9834596230295,0 34.8557149843217,31.9833824084158,0 34.8564102289268,31.9833012611611,0 34.8564639026064,31.9832933823167,0 34.856580236256,31.9832795429828,0 34.8570530408958,31.9832352972135,0 34.8571910614385,31.9832223283137,0 34.8574265818913,31.9832236038992,0 34.8574895354295,31.9832239564104,0 34.8576229454739,31.9832552529857,0 34.8577296041223,31.9832818771297,0 34.8578866849333,31.9833211739755,0 34.8579125859283,31.9833269260754,0 34.8579829910615,31.9833434409749,0 34.8580374297461,31.9833572068374,0 34.8581381791067,31.9833796662099,0 34.858185271181,31.9834901754732,0 34.8581971218776,31.9835182538998,0 34.858229423836,31.9835945444338,0 34.8583381909686,31.9838487890132,0 34.858441923655,31.9840913864997,0 34.8584481107182,31.9841061929467,0 34.8585590701922,31.9843686497103,0 34.8586006008434,31.9844670594812,0 34.8586648917561,31.9846188278419,0 34.8587505781428,31.9848211554462,0 34.8587763767539,31.9848825483564,0 34.8588741192442,31.9851148485835,0 34.8589838168341,31.9853758586225,0 34.8590937263176,31.9856369593156,0 34.8591646215951,31.9858056090975,0 34.859195565506,31.9858776571944,0 34.859398217757,31.9863509336677,0 34.8594178746787,31.986401372666,0 34.8595619564889,31.9862537351995,0 34.8606773502285,31.9851246851383,0 34.8608703104323,31.9849251192491,0 34.8609558142726,31.9848382329278,0 34.8610543467993,31.9847372487438,0 34.8613024741103,31.9844864070234,0 34.8613560409475,31.9844311270325,0 34.8614066803954,31.9843788727711,0 34.861942678864,31.9838340730495,0 34.8620594427203,31.9837169192335,0 34.8622032741718,31.9835694619621,0 34.862490807294,31.9832749325365,0 </coordinates></LinearRing></outerBoundaryIs></Polygon>
</MultiGeometry>

   <ExtendedData>
  
    <Data name="PL_NUMBER"><value>גז/ 624</value></Data>
	 <Data name="PL_NAME"><value>פרדסי מהדרין סרפנד- ספרייה</value></Data>
	  <Data name="PL_AREA"><value>4.68</value></Data>
	   <Data name="PL_URL"><value>http://mavat.moin.gov.il/MavatPS/Forms/SV3.aspx?tid=3&amp;tnumb=%D7%92%D7%96/%20624</value></Data>
	    <Data name="CREATE_DATE"><value>08/10/2019 18:01:11</value></Data>
   </ExtendedData>
  </Placemark>

</Document>
</kml>