{"type": "FeatureCollection", "features": [{"type": "Feature", "properties": {"OBJECTID": 16557240, "LAYER_ID": 5427456, "GROUP_ID": 365583, "SCENARIO": "", "DEFQ": 0, "PLAN_NAME": "", "DATA_DATE": null, "MAVAT_CODE": 30001, "MAVAT_NAME": "׳¢׳‘׳¨׳™׳× ENTITY", "BLOCKNAME": "dim", "ROTATION": 339.98756411, "TYPE_CODE": 0, "TYPE_NAME": "0", "SOURCE_COD": 0, "STATUS": "", "PL_CHANGE": "", "PLACE_NO": 0, "REMARKS": "", "VALUE1": "", "TAGNAME1": "0", "TAGNAME2": "0", "VALUE2": "", "TAGNAME3": "0", "VALUE3": "0.7", "DATE_DEC": "", "STAGE": "", "NAME": "NUMBER", "LABEL": "0.95", "FONT_SIZE": 1.0, "AGAM_ID": 4005189510.0}, "geometry": {"type": "Point", "coordinates": [34.85919005140709, 31.985835243485127]}}, {"type": "Feature", "properties": {"OBJECTID": 16557241, "LAYER_ID": 5427456, "GROUP_ID": 365583, "SCENARIO": "", "DEFQ": 0, "PLAN_NAME": "", "DATA_DATE": null, "MAVAT_CODE": 30001, "MAVAT_NAME": "׳¢׳‘׳¨׳™׳× ENTITY", "BLOCKNAME": "dim", "ROTATION": 339.98756411, "TYPE_CODE": 0, "TYPE_NAME": "0", "SOURCE_COD": 0, "STATUS": "", "PL_CHANGE": "", "PLACE_NO": 0, "REMARKS": "", "VALUE1": "", "TAGNAME1": "0", "TAGNAME2": "0", "VALUE2": "", "TAGNAME3": "0", "VALUE3": "0.7", "DATE_DEC": "", "STAGE": "", "NAME": "NUMBER", "LABEL": "0.89", "FONT_SIZE": 1.0, "AGAM_ID": 4005189510.0}, "geometry": {"type": "Point", "coordinates": [34.85916039347207, 31.98578087960141]}}, {"type": "Feature", "properties": {"OBJECTID": 16557242, "LAYER_ID": 5427456, "GROUP_ID": 365583, "SCENARIO": "", "DEFQ": 0, "PLAN_NAME": "", "DATA_DATE": null, "MAVAT_CODE": 30001, "MAVAT_NAME": "׳¢׳‘׳¨׳™׳× ENTITY", "BLOCKNAME": "dim", "ROTATION": 339.98756411, "TYPE_CODE": 0, "TYPE_NAME": "0", "SOURCE_COD": 0, "STATUS": "", "PL_CHANGE": "", "PLACE_NO": 0, "REMARKS": "", "VALUE1": "", "TAGNAME1": "0", "TAGNAME2": "0", "VALUE2": "", "TAGNAME3": "0", "VALUE3": "0.7", "DATE_DEC": "", "STAGE": "", "NAME": "NUMBER", "LABEL": "3", "FONT_SIZE": 1.0, "AGAM_ID": 4005189510.0}, "geometry": {"type": "Point", "coordinates": [34.859098316982454, 31.98567756234146]}}, {"type": "Feature", "properties": {"OBJECTID": 16557243, "LAYER_ID": 5427456, "GROUP_ID": 365583, "SCENARIO": "", "DEFQ": 0, "PLAN_NAME": "", "DATA_DATE": null, "MAVAT_CODE": 30001, "MAVAT_NAME": "׳¢׳‘׳¨׳™׳× ENTITY", "BLOCKNAME": "dim", "ROTATION": 71.21081736, "TYPE_CODE": 0, "TYPE_NAME": "0", "SOURCE_COD": 0, "STATUS": "", "PL_CHANGE": "", "PLACE_NO": 0, "REMARKS": "", "VALUE1": "", "TAGNAME1": "0", "TAGNAME2": "0", "VALUE2": "", "TAGNAME3": "0", "VALUE3": "0.7", "DATE_DEC": "", "STAGE": "", "NAME": "NUMBER", "LABEL": "3", "FONT_SIZE": 1.0, "AGAM_ID": 4005189510.0}, "geometry": {"type": "Point", "coordinates": [34.8587609215834, 31.98575023654804]}}, {"type": "Feature", "properties": {"OBJECTID": 16557244, "LAYER_ID": 5427456, "GROUP_ID": 365583, "SCENARIO": "", "DEFQ": 0, "PLAN_NAME": "", "DATA_DATE": null, "MAVAT_CODE": 30001, "MAVAT_NAME": "׳¢׳‘׳¨׳™׳× ENTITY", "BLOCKNAME": "dim", "ROTATION": 341.86738222, "TYPE_CODE": 0, "TYPE_NAME": "0", "SOURCE_COD": 0, "STATUS": "", "PL_CHANGE": "", "PLACE_NO": 0, "REMARKS": "", "VALUE1": "", "TAGNAME1": "0", "TAGNAME2": "0", "VALUE2": "", "TAGNAME3": "0", "VALUE3": "0.7", "DATE_DEC": "", "STAGE": "", "NAME": "NUMBER", "LABEL": "3", "FONT_SIZE": 1.0, "AGAM_ID": 4005189510.0}, "geometry": {"type": "Point", "coordinates": [34.858729059634975, 31.985792175652566]}}, {"type": "Feature", "properties": {"OBJECTID": 16557245, "LAYER_ID": 5427456, "GROUP_ID": 365583, "SCENARIO": "", "DEFQ": 0, "PLAN_NAME": "", "DATA_DATE": null, "MAVAT_CODE": 30001, "MAVAT_NAME": "׳¢׳‘׳¨׳™׳× ENTITY", "BLOCKNAME": "dim", "ROTATION": 341.61650768, "TYPE_CODE": 0, "TYPE_NAME": "0", "SOURCE_COD": 0, "STATUS": "", "PL_CHANGE": "", "PLACE_NO": 0, "REMARKS": "", "VALUE1": "", "TAGNAME1": "0", "TAGNAME2": "0", "VALUE2": "", "TAGNAME3": "0", "VALUE3": "0.7", "DATE_DEC": "", "STAGE": "", "NAME": "NUMBER", "LABEL": "1.64", "FONT_SIZE": 1.0, "AGAM_ID": 4005189510.0}, "geometry": {"type": "Point", "coordinates": [34.8587354760612, 31.985907835098587]}}, {"type": "Feature", "properties": {"OBJECTID": 16557246, "LAYER_ID": 5427456, "GROUP_ID": 365583, "SCENARIO": "", "DEFQ": 0, "PLAN_NAME": "", "DATA_DATE": null, "MAVAT_CODE": 30001, "MAVAT_NAME": "׳¢׳‘׳¨׳™׳× ENTITY", "BLOCKNAME": "dim", "ROTATION": 341.86738222, "TYPE_CODE": 0, "TYPE_NAME": "0", "SOURCE_COD": 0, "STATUS": "", "PL_CHANGE": "", "PLACE_NO": 0, "REMARKS": "", "VALUE1": "", "TAGNAME1": "0", "TAGNAME2": "0", "VALUE2": "", "TAGNAME3": "0", "VALUE3": "0.7", "DATE_DEC": "", "STAGE": "", "NAME": "NUMBER", "LABEL": "1.79", "FONT_SIZE": 1.0, "AGAM_ID": 4005189510.0}, "geometry": {"type": "Point", "coordinates": [34.858754654780505, 31.985961535669475]}}, {"type": "Feature", "properties": {"OBJECTID": 16557247, "LAYER_ID": 5427456, "GROUP_ID": 365583, "SCENARIO": "", "DEFQ": 0, "PLAN_NAME": "", "DATA_DATE": null, "MAVAT_CODE": 30001, "MAVAT_NAME": "׳¢׳‘׳¨׳™׳× ENTITY", "BLOCKNAME": "dim", "ROTATION": 70.54314325, "TYPE_CODE": 0, "TYPE_NAME": "0", "SOURCE_COD": 0, "STATUS": "", "PL_CHANGE": "", "PLACE_NO": 0, "REMARKS": "", "VALUE1": "", "TAGNAME1": "0", "TAGNAME2": "0", "VALUE2": "", "TAGNAME3": "0", "VALUE3": "0.7", "DATE_DEC": "", "STAGE": "", "NAME": "NUMBER", "LABEL": "3", "FONT_SIZE": 1.0, "AGAM_ID": 4005189510.0}, "geometry": {"type": "Point", "coordinates": [34.85884736840919, 31.985971940655844]}}, {"type": "Feature", "properties": {"OBJECTID": 16557248, "LAYER_ID": 5427456, "GROUP_ID": 365583, "SCENARIO": "", "DEFQ": 0, "PLAN_NAME": "", "DATA_DATE": null, "MAVAT_CODE": 30001, "MAVAT_NAME": "׳¢׳‘׳¨׳™׳× ENTITY", "BLOCKNAME": "dim", "ROTATION": 70.86187761, "TYPE_CODE": 0, "TYPE_NAME": "0", "SOURCE_COD": 0, "STATUS": "", "PL_CHANGE": "", "PLACE_NO": 0, "REMARKS": "", "VALUE1": "", "TAGNAME1": "0", "TAGNAME2": "0", "VALUE2": "", "TAGNAME3": "0", "VALUE3": "0.7", "DATE_DEC": "", "STAGE": "", "NAME": "NUMBER", "LABEL": "2.87", "FONT_SIZE": 1.0, "AGAM_ID": 4005189510.0}, "geometry": {"type": "Point", "coordinates": [34.8589141684848, 31.98597691651262]}}, {"type": "Feature", "properties": {"OBJECTID": 16557249, "LAYER_ID": 5427456, "GROUP_ID": 365583, "SCENARIO": "", "DEFQ": 0, "PLAN_NAME": "", "DATA_DATE": null, "MAVAT_CODE": 30001, "MAVAT_NAME": "׳¢׳‘׳¨׳™׳× ENTITY", "BLOCKNAME": "dim", "ROTATION": 70.54314325, "TYPE_CODE": 0, "TYPE_NAME": "0", "SOURCE_COD": 0, "STATUS": "", "PL_CHANGE": "", "PLACE_NO": 0, "REMARKS": "", "VALUE1": "", "TAGNAME1": "0", "TAGNAME2": "0", "VALUE2": "", "TAGNAME3": "0", "VALUE3": "0.7", "DATE_DEC": "", "STAGE": "", "NAME": "NUMBER", "LABEL": "2.75", "FONT_SIZE": 1.0, "AGAM_ID": 4005189510.0}, "geometry": {"type": "Point", "coordinates": [34.859095780733035, 31.9859044007054]}}, {"type": "Feature", "properties": {"OBJECTID": 16557250, "LAYER_ID": 5427456, "GROUP_ID": 365583, "SCENARIO": "", "DEFQ": 0, "PLAN_NAME": "", "DATA_DATE": null, "MAVAT_CODE": 30001, "MAVAT_NAME": "׳¢׳‘׳¨׳™׳× ENTITY", "BLOCKNAME": "dim", "ROTATION": 339.98756411, "TYPE_CODE": 0, "TYPE_NAME": "0", "SOURCE_COD": 0, "STATUS": "", "PL_CHANGE": "", "PLACE_NO": 0, "REMARKS": "", "VALUE1": "", "TAGNAME1": "0", "TAGNAME2": "0", "VALUE2": "", "TAGNAME3": "0", "VALUE3": "0.7", "DATE_DEC": "", "STAGE": "", "NAME": "NUMBER", "LABEL": "2.65", "FONT_SIZE": 1.0, "AGAM_ID": 4005189510.0}, "geometry": {"type": "Point", "coordinates": [34.85910913115483, 31.98570173126217]}}, {"type": "Feature", "properties": {"OBJECTID": 16557251, "LAYER_ID": 5427456, "GROUP_ID": 365583, "SCENARIO": "", "DEFQ": 0, "PLAN_NAME": "", "DATA_DATE": null, "MAVAT_CODE": 30001, "MAVAT_NAME": "׳¢׳‘׳¨׳™׳× ENTITY", "BLOCKNAME": "dim", "ROTATION": 71.21081736, "TYPE_CODE": 0, "TYPE_NAME": "0", "SOURCE_COD": 0, "STATUS": "", "PL_CHANGE": "", "PLACE_NO": 0, "REMARKS": "", "VALUE1": "", "TAGNAME1": "0", "TAGNAME2": "0", "VALUE2": "", "TAGNAME3": "0", "VALUE3": "0.7", "DATE_DEC": "", "STAGE": "", "NAME": "NUMBER", "LABEL": "3", "FONT_SIZE": 1.0, "AGAM_ID": 4005189510.0}, "geometry": {"type": "Point", "coordinates": [34.85906864581656, 31.985665173783286]}}]}