{"type": "FeatureCollection", "features": [{"type": "Feature", "properties": {"OBJECTID": 13536815, "LAYER_ID": 5427449, "GROUP_ID": 365583, "SCENARIO": "", "DEFQ": 0, "PLAN_NAME": "", "DATA_DATE": null, "MAVAT_CODE": 60, "MAVAT_NAME": "", "NAME": "", "LABEL": "", "NUM": "101", "LEGAL_AREA": 0.0, "TYPE_CODE": 0, "TYPE_NAME": "", "SOURCE_COD": 0, "HASAVA": 0, "STATUS": "", "PL_CHANGE": "", "ADDRESS": "", "PLACE_NO": 0, "CALC_AREA": 0.0, "OLD_MIG": "", "AGAM_ID": 4005189510.0, "FONT_SIZE": 4.5, "ROTATION": 0.0}, "geometry": {"type": "Point", "coordinates": [34.859000412411206, 31.985755325444103]}}]}