{"type": "FeatureCollection", "features": [{"type": "Feature", "properties": {"OBJECTID": 22562702, "LAYER_ID": 7342591, "GROUP_ID": 441276, "SCENARIO": "", "DEFQ": 0, "PLAN_NAME": "", "DATA_DATE": null, "MAVAT_CODE": 670, "MAVAT_NAME": "", "NAME": "", "LABEL": "", "NUM": "604", "LEGAL_AREA": 0.0, "TYPE_CODE": 0, "TYPE_NAME": "", "SOURCE_COD": 0, "HASAVA": 0, "STATUS": "", "PL_CHANGE": "", "ADDRESS": "", "PLACE_NO": 0, "CALC_AREA": 0.0, "OLD_MIG": "", "AGAM_ID": 4005348634.0, "FONT_SIZE": 1.1, "ROTATION": 0.0}, "geometry": {"type": "Point", "coordinates": [34.846840128786106, 31.996694204114235]}}, {"type": "Feature", "properties": {"OBJECTID": 22562703, "LAYER_ID": 7342591, "GROUP_ID": 441276, "SCENARIO": "", "DEFQ": 0, "PLAN_NAME": "", "DATA_DATE": null, "MAVAT_CODE": 670, "MAVAT_NAME": "", "NAME": "", "LABEL": "", "NUM": "603", "LEGAL_AREA": 0.0, "TYPE_CODE": 0, "TYPE_NAME": "", "SOURCE_COD": 0, "HASAVA": 0, "STATUS": "", "PL_CHANGE": "", "ADDRESS": "", "PLACE_NO": 0, "CALC_AREA": 0.0, "OLD_MIG": "", "AGAM_ID": 4005348634.0, "FONT_SIZE": 1.1, "ROTATION": 0.0}, "geometry": {"type": "Point", "coordinates": [34.84636393345315, 31.99704430266789]}}, {"type": "Feature", "properties": {"OBJECTID": 22562704, "LAYER_ID": 7342591, "GROUP_ID": 441276, "SCENARIO": "", "DEFQ": 0, "PLAN_NAME": "", "DATA_DATE": null, "MAVAT_CODE": 670, "MAVAT_NAME": "", "NAME": "", "LABEL": "", "NUM": "601A", "LEGAL_AREA": 0.0, "TYPE_CODE": 0, "TYPE_NAME": "", "SOURCE_COD": 0, "HASAVA": 0, "STATUS": "", "PL_CHANGE": "", "ADDRESS": "", "PLACE_NO": 0, "CALC_AREA": 0.0, "OLD_MIG": "", "AGAM_ID": 4005348634.0, "FONT_SIZE": 2.99, "ROTATION": 0.0}, "geometry": {"type": "Point", "coordinates": [34.84605882649684, 31.9968691645084]}}, {"type": "Feature", "properties": {"OBJECTID": 22562705, "LAYER_ID": 7342591, "GROUP_ID": 441276, "SCENARIO": "", "DEFQ": 0, "PLAN_NAME": "", "DATA_DATE": null, "MAVAT_CODE": 20, "MAVAT_NAME": "", "NAME": "", "LABEL": "", "NUM": "574", "LEGAL_AREA": 0.0, "TYPE_CODE": 0, "TYPE_NAME": "", "SOURCE_COD": 0, "HASAVA": 0, "STATUS": "", "PL_CHANGE": "", "ADDRESS": "", "PLACE_NO": 0, "CALC_AREA": 0.0, "OLD_MIG": "", "AGAM_ID": 4005348634.0, "FONT_SIZE": 2.99, "ROTATION": 0.0}, "geometry": {"type": "Point", "coordinates": [34.84592741268319, 31.997237987504512]}}, {"type": "Feature", "properties": {"OBJECTID": 22562706, "LAYER_ID": 7342591, "GROUP_ID": 441276, "SCENARIO": "", "DEFQ": 0, "PLAN_NAME": "", "DATA_DATE": null, "MAVAT_CODE": 670, "MAVAT_NAME": "", "NAME": "", "LABEL": "", "NUM": "602", "LEGAL_AREA": 0.0, "TYPE_CODE": 0, "TYPE_NAME": "", "SOURCE_COD": 0, "HASAVA": 0, "STATUS": "", "PL_CHANGE": "", "ADDRESS": "", "PLACE_NO": 0, "CALC_AREA": 0.0, "OLD_MIG": "", "AGAM_ID": 4005348634.0, "FONT_SIZE": 1.1, "ROTATION": 0.0}, "geometry": {"type": "Point", "coordinates": [34.84601828290422, 31.997306965121492]}}, {"type": "Feature", "properties": {"OBJECTID": 22562707, "LAYER_ID": 7342591, "GROUP_ID": 441276, "SCENARIO": "", "DEFQ": 0, "PLAN_NAME": "", "DATA_DATE": null, "MAVAT_CODE": 840, "MAVAT_NAME": "", "NAME": "", "LABEL": "", "NUM": "2001", "LEGAL_AREA": 0.0, "TYPE_CODE": 0, "TYPE_NAME": "", "SOURCE_COD": 0, "HASAVA": 0, "STATUS": "", "PL_CHANGE": "", "ADDRESS": "", "PLACE_NO": 0, "CALC_AREA": 0.0, "OLD_MIG": "", "AGAM_ID": 4005348634.0, "FONT_SIZE": 1.1, "ROTATION": 0.0}, "geometry": {"type": "Point", "coordinates": [34.84608934839518, 31.99717813777748]}}, {"type": "Feature", "properties": {"OBJECTID": 22562708, "LAYER_ID": 7342591, "GROUP_ID": 441276, "SCENARIO": "", "DEFQ": 0, "PLAN_NAME": "", "DATA_DATE": null, "MAVAT_CODE": 20, "MAVAT_NAME": "", "NAME": "", "LABEL": "", "NUM": "566", "LEGAL_AREA": 0.0, "TYPE_CODE": 0, "TYPE_NAME": "", "SOURCE_COD": 0, "HASAVA": 0, "STATUS": "", "PL_CHANGE": "", "ADDRESS": "", "PLACE_NO": 0, "CALC_AREA": 0.0, "OLD_MIG": "", "AGAM_ID": 4005348634.0, "FONT_SIZE": 2.99, "ROTATION": 0.0}, "geometry": {"type": "Point", "coordinates": [34.84662436000987, 31.99671171672465]}}, {"type": "Feature", "properties": {"OBJECTID": 22562709, "LAYER_ID": 7342591, "GROUP_ID": 441276, "SCENARIO": "", "DEFQ": 0, "PLAN_NAME": "", "DATA_DATE": null, "MAVAT_CODE": 20, "MAVAT_NAME": "", "NAME": "", "LABEL": "", "NUM": "565", "LEGAL_AREA": 0.0, "TYPE_CODE": 0, "TYPE_NAME": "", "SOURCE_COD": 0, "HASAVA": 0, "STATUS": "", "PL_CHANGE": "", "ADDRESS": "", "PLACE_NO": 0, "CALC_AREA": 0.0, "OLD_MIG": "", "AGAM_ID": 4005348634.0, "FONT_SIZE": 2.99, "ROTATION": 0.0}, "geometry": {"type": "Point", "coordinates": [34.84679428925593, 31.996544135882683]}}, {"type": "Feature", "properties": {"OBJECTID": 22562710, "LAYER_ID": 7342591, "GROUP_ID": 441276, "SCENARIO": "", "DEFQ": 0, "PLAN_NAME": "", "DATA_DATE": null, "MAVAT_CODE": 840, "MAVAT_NAME": "", "NAME": "", "LABEL": "", "NUM": "2002", "LEGAL_AREA": 0.0, "TYPE_CODE": 0, "TYPE_NAME": "", "SOURCE_COD": 0, "HASAVA": 0, "STATUS": "", "PL_CHANGE": "", "ADDRESS": "", "PLACE_NO": 0, "CALC_AREA": 0.0, "OLD_MIG": "", "AGAM_ID": 4005348634.0, "FONT_SIZE": 1.1, "ROTATION": 0.0}, "geometry": {"type": "Point", "coordinates": [34.84680134286371, 31.99699310356671]}}, {"type": "Feature", "properties": {"OBJECTID": 22562711, "LAYER_ID": 7342591, "GROUP_ID": 441276, "SCENARIO": "", "DEFQ": 0, "PLAN_NAME": "", "DATA_DATE": null, "MAVAT_CODE": 840, "MAVAT_NAME": "", "NAME": "", "LABEL": "", "NUM": "2003", "LEGAL_AREA": 0.0, "TYPE_CODE": 0, "TYPE_NAME": "", "SOURCE_COD": 0, "HASAVA": 0, "STATUS": "", "PL_CHANGE": "", "ADDRESS": "", "PLACE_NO": 0, "CALC_AREA": 0.0, "OLD_MIG": "", "AGAM_ID": 4005348634.0, "FONT_SIZE": 0.17, "ROTATION": 0.0}, "geometry": {"type": "Point", "coordinates": [34.84652169599499, 31.997402696443917]}}, {"type": "Feature", "properties": {"OBJECTID": 22562712, "LAYER_ID": 7342591, "GROUP_ID": 441276, "SCENARIO": "", "DEFQ": 0, "PLAN_NAME": "", "DATA_DATE": null, "MAVAT_CODE": 20, "MAVAT_NAME": "", "NAME": "", "LABEL": "", "NUM": "569", "LEGAL_AREA": 0.0, "TYPE_CODE": 0, "TYPE_NAME": "", "SOURCE_COD": 0, "HASAVA": 0, "STATUS": "", "PL_CHANGE": "", "ADDRESS": "", "PLACE_NO": 0, "CALC_AREA": 0.0, "OLD_MIG": "", "AGAM_ID": 4005348634.0, "FONT_SIZE": 2.99, "ROTATION": 0.0}, "geometry": {"type": "Point", "coordinates": [34.84662942971944, 31.99732311862532]}}, {"type": "Feature", "properties": {"OBJECTID": 22562713, "LAYER_ID": 7342591, "GROUP_ID": 441276, "SCENARIO": "", "DEFQ": 0, "PLAN_NAME": "", "DATA_DATE": null, "MAVAT_CODE": 20, "MAVAT_NAME": "", "NAME": "", "LABEL": "", "NUM": "568", "LEGAL_AREA": 0.0, "TYPE_CODE": 0, "TYPE_NAME": "", "SOURCE_COD": 0, "HASAVA": 0, "STATUS": "", "PL_CHANGE": "", "ADDRESS": "", "PLACE_NO": 0, "CALC_AREA": 0.0, "OLD_MIG": "", "AGAM_ID": 4005348634.0, "FONT_SIZE": 2.99, "ROTATION": 0.0}, "geometry": {"type": "Point", "coordinates": [34.84680728445944, 31.997155437488445]}}, {"type": "Feature", "properties": {"OBJECTID": 22562714, "LAYER_ID": 7342591, "GROUP_ID": 441276, "SCENARIO": "", "DEFQ": 0, "PLAN_NAME": "", "DATA_DATE": null, "MAVAT_CODE": 20, "MAVAT_NAME": "", "NAME": "", "LABEL": "", "NUM": "573", "LEGAL_AREA": 0.0, "TYPE_CODE": 0, "TYPE_NAME": "", "SOURCE_COD": 0, "HASAVA": 0, "STATUS": "", "PL_CHANGE": "", "ADDRESS": "", "PLACE_NO": 0, "CALC_AREA": 0.0, "OLD_MIG": "", "AGAM_ID": 4005348634.0, "FONT_SIZE": 2.99, "ROTATION": 0.0}, "geometry": {"type": "Point", "coordinates": [34.84617036199523, 31.997054491373714]}}, {"type": "Feature", "properties": {"OBJECTID": 22562715, "LAYER_ID": 7342591, "GROUP_ID": 441276, "SCENARIO": "", "DEFQ": 0, "PLAN_NAME": "", "DATA_DATE": null, "MAVAT_CODE": 20, "MAVAT_NAME": "", "NAME": "", "LABEL": "", "NUM": "572", "LEGAL_AREA": 0.0, "TYPE_CODE": 0, "TYPE_NAME": "", "SOURCE_COD": 0, "HASAVA": 0, "STATUS": "", "PL_CHANGE": "", "ADDRESS": "", "PLACE_NO": 0, "CALC_AREA": 0.0, "OLD_MIG": "", "AGAM_ID": 4005348634.0, "FONT_SIZE": 2.99, "ROTATION": 0.0}, "geometry": {"type": "Point", "coordinates": [34.84635440561257, 31.99689386600259]}}, {"type": "Feature", "properties": {"OBJECTID": 22562716, "LAYER_ID": 7342591, "GROUP_ID": 441276, "SCENARIO": "", "DEFQ": 0, "PLAN_NAME": "", "DATA_DATE": null, "MAVAT_CODE": 20, "MAVAT_NAME": "", "NAME": "", "LABEL": "", "NUM": "571", "LEGAL_AREA": 0.0, "TYPE_CODE": 0, "TYPE_NAME": "", "SOURCE_COD": 0, "HASAVA": 0, "STATUS": "", "PL_CHANGE": "", "ADDRESS": "", "PLACE_NO": 0, "CALC_AREA": 0.0, "OLD_MIG": "", "AGAM_ID": 4005348634.0, "FONT_SIZE": 2.99, "ROTATION": 0.0}, "geometry": {"type": "Point", "coordinates": [34.846551963299056, 31.997092069488506]}}]}