{
  "type": "FeatureCollection",
  "name": "gas_pipelines",
  "description": "גז טבעי – תוואי הולכה",
  "crs": {
    "type": "name",
    "properties": {
      "name": "urn:ogc:def:crs:EPSG::2039"
    }
  },
  "features": [
    {
      "type": "Feature",
      "properties": {
        "OBJECTID_1": 53,
        "Tochnit_Nu": "תמא/ 37/ ב",
        "Tochnit_na": "תמא/ 37/ ב - מרחב תכנון לודים - מחוז מרכז - אוגדן תשריטים V",
        "Tochnit_ty": "תמא",
        "Yehud_kark": "רצועת צינור",
        "Related": " ",
        "Relevance": "1",
        "YP_Resumot": "5606",
        "YP_Resum_1": 1166400000000,
        "Scale": "5000",
        "Status": "מאושרת",
        "Tochnit_Ho": "http://mavat.moin.gov.il/MavatPS/Forms/SV3.aspx?tid=4&tnumb=%d7%aa%d7%9e%d7%90%2f+37%2f+%d7%91",
        "agam_n": 99001688,
        "Notes": " ",
        "App_Date": 1425168000000,
        "digitation": "דיגיטציה לפי פענוח רוזטות התשריט",
        "horaot": "בתחום זה חלות בנוסף הוראות תמא/ 37/ 2 - צנרות דלק"
      },
      "geometry": null
    },
    {
      "type": "Feature",
      "properties": {
        "OBJECTID_1": 110,
        "Tochnit_Nu": "תמא/ 37/ ב",
        "Tochnit_na": "תמא/ 37/ ב - מרחב תכנון לודים - מחוז מרכז - אוגדן תשריטים V",
        "Tochnit_ty": "תמא",
        "Yehud_kark": "רצועת צינור",
        "Related": " ",
        "Relevance": "1",
        "YP_Resumot": "5606",
        "YP_Resum_1": 1166400000000,
        "Scale": "5000",
        "Status": "מאושרת",
        "Tochnit_Ho": "http://mavat.moin.gov.il/MavatPS/Forms/SV3.aspx?tid=4&tnumb=%d7%aa%d7%9e%d7%90%2f+37%2f+%d7%91",
        "agam_n": 99001688,
        "Notes": " ",
        "App_Date": 1425168000000,
        "digitation": "דיגיטציה לפי פענוח רוזטות התשריט",
        "horaot": "בתחום זה חלות בנוסף הוראות תמא/ 37/ 2 - צנרות דלק"
      },
      "geometry": null
    },
    {
      "type": "Feature",
      "properties": {
        "OBJECTID_1": 111,
        "Tochnit_Nu": "תמא/ 37/ ב",
        "Tochnit_na": "תמא/ 37/ ב - מרחב תכנון לודים - מחוז מרכז - אוגדן תשריטים V",
        "Tochnit_ty": "תמא",
        "Yehud_kark": "רצועת צינור",
        "Related": " תמא/ 37/ ב קנ\"מ 1:2500 - tma_37_b_ben_gurion_me.jpg",
        "Relevance": "1",
        "YP_Resumot": "5606",
        "YP_Resum_1": 1166400000000,
        "Scale": "5000",
        "Status": "מאושרת",
        "Tochnit_Ho": "http://mavat.moin.gov.il/MavatPS/Forms/SV3.aspx?tid=4&tnumb=%d7%aa%d7%9e%d7%90%2f+37%2f+%d7%91",
        "agam_n": 99001688,
        "Notes": " ",
        "App_Date": 1425168000000,
        "digitation": "דיגיטציה לפי פענוח רוזטות התשריט",
        "horaot": "בתחום זה חלות בנוסף הוראות תמא/ 37/ 2 - צנרות דלק"
      },
      "geometry": null
    },
    {
      "type": "Feature",
      "properties": {
        "OBJECTID_1": 112,
        "Tochnit_Nu": "תמא/ 37/ ב",
        "Tochnit_na": "תמא/ 37/ ב - מרחב תכנון לודים - מחוז מרכז - אוגדן תשריטים V",
        "Tochnit_ty": "תמא",
        "Yehud_kark": "רצועת צינור",
        "Related": " ",
        "Relevance": "1",
        "YP_Resumot": "5606",
        "YP_Resum_1": 1166400000000,
        "Scale": "5000",
        "Status": "מאושרת",
        "Tochnit_Ho": "http://mavat.moin.gov.il/MavatPS/Forms/SV3.aspx?tid=4&tnumb=%d7%aa%d7%9e%d7%90%2f+37%2f+%d7%91",
        "agam_n": 99001688,
        "Notes": " ",
        "App_Date": 1425168000000,
        "digitation": "דיגיטציה לפי פענוח רוזטות התשריט",
        "horaot": "בתחום זה חלות בנוסף הוראות תמא/ 37/ 2 - צנרות דלק"
      },
      "geometry": null
    },
    {
      "type": "Feature",
      "properties": {
        "OBJECTID_1": 113,
        "Tochnit_Nu": "תמא/ 37/ ב",
        "Tochnit_na": "תמא/ 37/ ב - מרחב תכנון לודים, גלילי - מחוז מרכז - אוגדן תשריטים V",
        "Tochnit_ty": "תמא",
        "Yehud_kark": "רצועת צינור",
        "Related": " תמא/ 37/ ב קנ\"מ 1:2500 - tma_37_b_ben_gurion_me.jpg",
        "Relevance": "2",
        "YP_Resumot": "5606",
        "YP_Resum_1": 1166400000000,
        "Scale": "5000",
        "Status": "מאושרת",
        "Tochnit_Ho": "http://mavat.moin.gov.il/MavatPS/Forms/SV3.aspx?tid=4&tnumb=%d7%aa%d7%9e%d7%90%2f+37%2f+%d7%91",
        "agam_n": 99001688,
        "Notes": " ",
        "App_Date": 1425168000000,
        "digitation": "דיגיטציה לפי פענוח רוזטות התשריט",
        "horaot": "בתחום זה חלות בנוסף הוראות תמא/ 37/ 2 - צנרות דלק"
      },
      "geometry": null
    },
    {
      "type": "Feature",
      "properties": {
        "OBJECTID_1": 127,
        "Tochnit_Nu": "תמא/ 37/ ב",
        "Tochnit_na": "תמא/ 37/ ב - תחנת גז נתב\"ג, תחנת הגפה וחלוקה - P02V04",
        "Tochnit_ty": "תמא",
        "Yehud_kark": "רצועת צינור",
        "Related": " ",
        "Relevance": "1",
        "YP_Resumot": "5606",
        "YP_Resum_1": 1166400000000,
        "Scale": "5000",
        "Status": "מאושרת",
        "Tochnit_Ho": "http://mavat.moin.gov.il/MavatPS/Forms/SV3.aspx?tid=4&tnumb=%d7%aa%d7%9e%d7%90%2f+37%2f+%d7%91",
        "agam_n": 99001688,
        "Notes": " ",
        "App_Date": 1425168000000,
        "digitation": "דיגיטציה לפי פענוח רוזטות התשריט",
        "horaot": "בתחום זה חלות בנוסף הוראות תמא/ 37/ 2 - צנרות דלק"
      },
      "geometry": null
    },
    {
      "type": "Feature",
      "properties": {
        "OBJECTID_1": 422,
        "Tochnit_Nu": "תמא/ 37/ ב",
        "Tochnit_na": "תמא/ 37/ ב - מרחב תכנון לודים - מחוז מרכז - אוגדן תשריטים V",
        "Tochnit_ty": "תמא",
        "Yehud_kark": "רצועת צינור",
        "Related": " ",
        "Relevance": "1",
        "YP_Resumot": "5606",
        "YP_Resum_1": 1166400000000,
        "Scale": "5000",
        "Status": "מאושרת",
        "Tochnit_Ho": "http://mavat.moin.gov.il/MavatPS/Forms/SV3.aspx?tid=4&tnumb=%d7%aa%d7%9e%d7%90%2f+37%2f+%d7%91",
        "agam_n": 99001688,
        "Notes": " ",
        "App_Date": 1425168000000,
        "digitation": "דיגיטציה לפי פענוח רוזטות התשריט",
        "horaot": "בתחום זה חלות בנוסף הוראות תמא/ 37/ 2 - צנרות דלק"
      },
      "geometry": null
    },
    {
      "type": "Feature",
      "properties": {
        "OBJECTID_1": 423,
        "Tochnit_Nu": "תמא/ 37/ ב",
        "Tochnit_na": "תמא/ 37/ ב - מרחב תכנון לודים - מחוז מרכז - אוגדן תשריטים V",
        "Tochnit_ty": "תמא",
        "Yehud_kark": "רצועת צינור",
        "Related": " ",
        "Relevance": "1",
        "YP_Resumot": "5606",
        "YP_Resum_1": 1166400000000,
        "Scale": "5000",
        "Status": "מאושרת",
        "Tochnit_Ho": "http://mavat.moin.gov.il/MavatPS/Forms/SV3.aspx?tid=4&tnumb=%d7%aa%d7%9e%d7%90%2f+37%2f+%d7%91",
        "agam_n": 99001688,
        "Notes": " ",
        "App_Date": 1425168000000,
        "digitation": "דיגיטציה לפי פענוח רוזטות התשריט",
        "horaot": "בתחום זה חלות בנוסף הוראות תמא/ 37/ 2 - צנרות דלק"
      },
      "geometry": null
    },
    {
      "type": "Feature",
      "properties": {
        "OBJECTID_1": 645,
        "Tochnit_Nu": "תמא/ 37/ ב",
        "Tochnit_na": "תמא/ 37/ ב - תחנת גז נתב\"ג, תחנת הגפה וחלוקה - P02V04",
        "Tochnit_ty": "תמא",
        "Yehud_kark": "קו בנין",
        "Related": " ",
        "Relevance": "1",
        "YP_Resumot": "5606",
        "YP_Resum_1": 1166400000000,
        "Scale": "5000",
        "Status": "מאושרת",
        "Tochnit_Ho": "http://mavat.moin.gov.il/MavatPS/Forms/SV3.aspx?tid=4&tnumb=%d7%aa%d7%9e%d7%90%2f+37%2f+%d7%91",
        "agam_n": 99001688,
        "Notes": " ",
        "App_Date": 1425168000000,
        "digitation": "דיגיטציה לפי פענוח רוזטות התשריט",
        "horaot": "בתחום זה חלות בנוסף הוראות תמא/ 37/ 2 - צנרות דלק"
      },
      "geometry": null
    },
    {
      "type": "Feature",
      "properties": {
        "OBJECTID_1": 653,
        "Tochnit_Nu": "תמא/ 37/ ב",
        "Tochnit_na": "תמא/ 37/ ב - מרחב תכנון לודים - מחוז מרכז - אוגדן תשריטים V",
        "Tochnit_ty": "תמא",
        "Yehud_kark": "קו בנין",
        "Related": " ",
        "Relevance": "1",
        "YP_Resumot": "5606",
        "YP_Resum_1": 1166400000000,
        "Scale": "5000",
        "Status": "מאושרת",
        "Tochnit_Ho": "http://mavat.moin.gov.il/MavatPS/Forms/SV3.aspx?tid=4&tnumb=%d7%aa%d7%9e%d7%90%2f+37%2f+%d7%91",
        "agam_n": 99001688,
        "Notes": " ",
        "App_Date": 1425168000000,
        "digitation": "דיגיטציה לפי פענוח רוזטות התשריט",
        "horaot": "בתחום זה חלות בנוסף הוראות תמא/ 37/ 2 - צנרות דלק"
      },
      "geometry": null
    },
    {
      "type": "Feature",
      "properties": {
        "OBJECTID_1": 654,
        "Tochnit_Nu": "תמא/ 37/ ב",
        "Tochnit_na": "תמא/ 37/ ב - מרחב תכנון לודים - מחוז מרכז - אוגדן תשריטים V",
        "Tochnit_ty": "תמא",
        "Yehud_kark": "קו בנין",
        "Related": " ",
        "Relevance": "1",
        "YP_Resumot": "5606",
        "YP_Resum_1": 1166400000000,
        "Scale": "5000",
        "Status": "מאושרת",
        "Tochnit_Ho": "http://mavat.moin.gov.il/MavatPS/Forms/SV3.aspx?tid=4&tnumb=%d7%aa%d7%9e%d7%90%2f+37%2f+%d7%91",
        "agam_n": 99001688,
        "Notes": " ",
        "App_Date": 1425168000000,
        "digitation": "דיגיטציה לפי פענוח רוזטות התשריט",
        "horaot": "בתחום זה חלות בנוסף הוראות תמא/ 37/ 2 - צנרות דלק"
      },
      "geometry": null
    },
    {
      "type": "Feature",
      "properties": {
        "OBJECTID_1": 655,
        "Tochnit_Nu": "תמא/ 37/ ב",
        "Tochnit_na": "תמא/ 37/ ב - מרחב תכנון לודים - מחוז מרכז - אוגדן תשריטים V",
        "Tochnit_ty": "תמא",
        "Yehud_kark": "קו בנין",
        "Related": " תמא/ 37/ ב קנ\"מ 1:2500 - tma_37_b_ben_gurion_me.jpg",
        "Relevance": "1",
        "YP_Resumot": "5606",
        "YP_Resum_1": 1166400000000,
        "Scale": "5000",
        "Status": "מאושרת",
        "Tochnit_Ho": "http://mavat.moin.gov.il/MavatPS/Forms/SV3.aspx?tid=4&tnumb=%d7%aa%d7%9e%d7%90%2f+37%2f+%d7%91",
        "agam_n": 99001688,
        "Notes": " ",
        "App_Date": 1425168000000,
        "digitation": "דיגיטציה לפי פענוח רוזטות התשריט",
        "horaot": "בתחום זה חלות בנוסף הוראות תמא/ 37/ 2 - צנרות דלק"
      },
      "geometry": null
    },
    {
      "type": "Feature",
      "properties": {
        "OBJECTID_1": 656,
        "Tochnit_Nu": "תמא/ 37/ ב",
        "Tochnit_na": "תמא/ 37/ ב - מרחב תכנון לודים - מחוז מרכז - אוגדן תשריטים V",
        "Tochnit_ty": "תמא",
        "Yehud_kark": "קו בנין",
        "Related": " ",
        "Relevance": "1",
        "YP_Resumot": "5606",
        "YP_Resum_1": 1166400000000,
        "Scale": "5000",
        "Status": "מאושרת",
        "Tochnit_Ho": "http://mavat.moin.gov.il/MavatPS/Forms/SV3.aspx?tid=4&tnumb=%d7%aa%d7%9e%d7%90%2f+37%2f+%d7%91",
        "agam_n": 99001688,
        "Notes": " ",
        "App_Date": 1425168000000,
        "digitation": "דיגיטציה לפי פענוח רוזטות התשריט",
        "horaot": "בתחום זה חלות בנוסף הוראות תמא/ 37/ 2 - צנרות דלק"
      },
      "geometry": null
    },
    {
      "type": "Feature",
      "properties": {
        "OBJECTID_1": 860,
        "Tochnit_Nu": "תמא/ 37/ ב",
        "Tochnit_na": "תמא/ 37/ ב - מרחב תכנון לודים - מחוז מרכז - אוגדן תשריטים V",
        "Tochnit_ty": "תמא",
        "Yehud_kark": "קו בנין",
        "Related": " ",
        "Relevance": "1",
        "YP_Resumot": "5606",
        "YP_Resum_1": 1166400000000,
        "Scale": "5000",
        "Status": "מאושרת",
        "Tochnit_Ho": "http://mavat.moin.gov.il/MavatPS/Forms/SV3.aspx?tid=4&tnumb=%d7%aa%d7%9e%d7%90%2f+37%2f+%d7%91",
        "agam_n": 99001688,
        "Notes": " ",
        "App_Date": 1425168000000,
        "digitation": "דיגיטציה לפי פענוח רוזטות התשריט",
        "horaot": "בתחום זה חלות בנוסף הוראות תמא/ 37/ 2 - צנרות דלק"
      },
      "geometry": null
    },
    {
      "type": "Feature",
      "properties": {
        "OBJECTID_1": 861,
        "Tochnit_Nu": "תמא/ 37/ ב",
        "Tochnit_na": "תמא/ 37/ ב - מרחב תכנון לודים - מחוז מרכז - אוגדן תשריטים V",
        "Tochnit_ty": "תמא",
        "Yehud_kark": "קו בנין",
        "Related": " ",
        "Relevance": "1",
        "YP_Resumot": "5606",
        "YP_Resum_1": 1166400000000,
        "Scale": "5000",
        "Status": "מאושרת",
        "Tochnit_Ho": "http://mavat.moin.gov.il/MavatPS/Forms/SV3.aspx?tid=4&tnumb=%d7%aa%d7%9e%d7%90%2f+37%2f+%d7%91",
        "agam_n": 99001688,
        "Notes": " ",
        "App_Date": 1425168000000,
        "digitation": "דיגיטציה לפי פענוח רוזטות התשריט",
        "horaot": "בתחום זה חלות בנוסף הוראות תמא/ 37/ 2 - צנרות דלק"
      },
      "geometry": null
    },
    {
      "type": "Feature",
      "properties": {
        "OBJECTID_1": 1022,
        "Tochnit_Nu": "תמא/ 37/ ב/ 8",
        "Tochnit_na": "הקו המזרחי- עדכון תוואי מערכות הולכת הגז הטבעיבקטע חגי",
        "Tochnit_ty": "תמא",
        "Yehud_kark": "קו בנין",
        "Related": " ",
        "Relevance": "1",
        "YP_Resumot": "6754",
        "YP_Resum_1": 1392076800000,
        "Scale": "2500",
        "Status": "מאושרת",
        "Tochnit_Ho": "http://mavat.moin.gov.il/MavatPS/Forms/SV3.aspx?tid=4&tnumb=%D7%AA%D7%9E%D7%90%2F%2037%2F%20%D7%91%2F%208",
        "agam_n": 99000214819,
        "Notes": " ",
        "App_Date": 1425168000000,
        "digitation": "נקלט על פי בסיס נתונים קיים במאגר",
        "horaot": "בתחום זה חלות בנוסף הוראות תמא/ 37/ 2 - צנרות דלק"
      },
      "geometry": null
    },
    {
      "type": "Feature",
      "properties": {
        "OBJECTID_1": 1136,
        "Tochnit_Nu": "תמא/ 37/ ב/ 8",
        "Tochnit_na": "הקו המזרחי- עדכון תוואי מערכות הולכת הגז הטבעיבקטע חגי",
        "Tochnit_ty": "תמא",
        "Yehud_kark": "קו בנין",
        "Related": "תמא/ 37/ ב - tma_37_b_v_7_me.jpg -",
        "Relevance": "1",
        "YP_Resumot": "6754",
        "YP_Resum_1": 1392076800000,
        "Scale": "2500",
        "Status": "מאושרת",
        "Tochnit_Ho": "http://mavat.moin.gov.il/MavatPS/Forms/SV3.aspx?tid=4&tnumb=%D7%AA%D7%9E%D7%90%2F%2037%2F%20%D7%91%2F%208",
        "agam_n": 99000214819,
        "Notes": " ",
        "App_Date": 1425168000000,
        "digitation": "נקלט על פי בסיס נתונים קיים במאגר",
        "horaot": "בתחום זה חלות בנוסף הוראות תמא/ 37/ 2 - צנרות דלק"
      },
      "geometry": null
    },
    {
      "type": "Feature",
      "properties": {
        "OBJECTID_1": 1139,
        "Tochnit_Nu": "תמא/ 37/ ב/ 8",
        "Tochnit_na": "הקו המזרחי- עדכון תוואי מערכות הולכת הגז הטבעיבקטע חגי",
        "Tochnit_ty": "תמא",
        "Yehud_kark": "קו בנין",
        "Related": "תמא/ 37/ ב - tma_37_b_v_6_me.jpg -  תמא/ 37/ ב קנ\"מ 1:2500 - tma_37_b_ben_gurion_me.jpg",
        "Relevance": "1",
        "YP_Resumot": "6754",
        "YP_Resum_1": 1392076800000,
        "Scale": "2500",
        "Status": "מאושרת",
        "Tochnit_Ho": "http://mavat.moin.gov.il/MavatPS/Forms/SV3.aspx?tid=4&tnumb=%D7%AA%D7%9E%D7%90%2F%2037%2F%20%D7%91%2F%208",
        "agam_n": 99000214819,
        "Notes": " ",
        "App_Date": 1425168000000,
        "digitation": "נקלט על פי בסיס נתונים קיים במאגר",
        "horaot": "בתחום זה חלות בנוסף הוראות תמא/ 37/ 2 - צנרות דלק"
      },
      "geometry": null
    },
    {
      "type": "Feature",
      "properties": {
        "OBJECTID_1": 1140,
        "Tochnit_Nu": "תמא/ 37/ ב/ 8",
        "Tochnit_na": "הקו המזרחי- עדכון תוואי מערכות הולכת הגז הטבעיבקטע חגי",
        "Tochnit_ty": "תמא",
        "Yehud_kark": "קו בנין",
        "Related": "תמא/ 37/ ב - tma_37_b_v_6_me.jpg -",
        "Relevance": "1",
        "YP_Resumot": "6754",
        "YP_Resum_1": 1392076800000,
        "Scale": "2500",
        "Status": "מאושרת",
        "Tochnit_Ho": "http://mavat.moin.gov.il/MavatPS/Forms/SV3.aspx?tid=4&tnumb=%D7%AA%D7%9E%D7%90%2F%2037%2F%20%D7%91%2F%208",
        "agam_n": 99000214819,
        "Notes": " ",
        "App_Date": 1425168000000,
        "digitation": "נקלט על פי בסיס נתונים קיים במאגר",
        "horaot": "בתחום זה חלות בנוסף הוראות תמא/ 37/ 2 - צנרות דלק"
      },
      "geometry": null
    },
    {
      "type": "Feature",
      "properties": {
        "OBJECTID_1": 1141,
        "Tochnit_Nu": "תמא/ 37/ ב/ 8",
        "Tochnit_na": "הקו המזרחי- עדכון תוואי מערכות הולכת הגז הטבעיבקטע חגי",
        "Tochnit_ty": "תמא",
        "Yehud_kark": "קו בנין",
        "Related": "תמא/ 37/ ב - tma_37_b_v_6_me.jpg - תמא/ 37/ ב גליון מס' 7 - tma_37_b_v_7_me.jpg",
        "Relevance": "1",
        "YP_Resumot": "6754",
        "YP_Resum_1": 1392076800000,
        "Scale": "2500",
        "Status": "מאושרת",
        "Tochnit_Ho": "http://mavat.moin.gov.il/MavatPS/Forms/SV3.aspx?tid=4&tnumb=%D7%AA%D7%9E%D7%90%2F%2037%2F%20%D7%91%2F%208",
        "agam_n": 99000214819,
        "Notes": " ",
        "App_Date": 1425168000000,
        "digitation": "נקלט על פי בסיס נתונים קיים במאגר",
        "horaot": "בתחום זה חלות בנוסף הוראות תמא/ 37/ 2 - צנרות דלק"
      },
      "geometry": null
    },
    {
      "type": "Feature",
      "properties": {
        "OBJECTID_1": 1142,
        "Tochnit_Nu": "תמא/ 37/ ב/ 8",
        "Tochnit_na": "הקו המזרחי- עדכון תוואי מערכות הולכת הגז הטבעיבקטע חגי",
        "Tochnit_ty": "תמא",
        "Yehud_kark": "קו בנין",
        "Related": "תמא/ 37/ ב - tma_37_b_v_7_me.jpg -",
        "Relevance": "1",
        "YP_Resumot": "6754",
        "YP_Resum_1": 1392076800000,
        "Scale": "2500",
        "Status": "מאושרת",
        "Tochnit_Ho": "http://mavat.moin.gov.il/MavatPS/Forms/SV3.aspx?tid=4&tnumb=%D7%AA%D7%9E%D7%90%2F%2037%2F%20%D7%91%2F%208",
        "agam_n": 99000214819,
        "Notes": " ",
        "App_Date": 1425168000000,
        "digitation": "נקלט על פי בסיס נתונים קיים במאגר",
        "horaot": "בתחום זה חלות בנוסף הוראות תמא/ 37/ 2 - צנרות דלק"
      },
      "geometry": null
    },
    {
      "type": "Feature",
      "properties": {
        "OBJECTID_1": 1227,
        "Tochnit_Nu": "תמא/ 37/ ב/ 8",
        "Tochnit_na": "הקו המזרחי- עדכון תוואי מערכות הולכת הגז הטבעיבקטע חגי",
        "Tochnit_ty": "תמא",
        "Yehud_kark": "רצועת צינור",
        "Related": " ",
        "Relevance": "1",
        "YP_Resumot": "6754",
        "YP_Resum_1": 1392076800000,
        "Scale": "2500",
        "Status": "מאושרת",
        "Tochnit_Ho": "http://mavat.moin.gov.il/MavatPS/Forms/SV3.aspx?tid=4&tnumb=%D7%AA%D7%9E%D7%90%2F%2037%2F%20%D7%91%2F%208",
        "agam_n": 99000214819,
        "Notes": " ",
        "App_Date": 1425168000000,
        "digitation": "נקלט על פי בסיס נתונים קיים במאגר",
        "horaot": "בתחום זה חלות בנוסף הוראות תמא/ 37/ 2 - צנרות דלק"
      },
      "geometry": null
    },
    {
      "type": "Feature",
      "properties": {
        "OBJECTID_1": 1230,
        "Tochnit_Nu": "תמא/ 37/ ב/ 8",
        "Tochnit_na": "הקו המזרחי- עדכון תוואי מערכות הולכת הגז הטבעיבקטע חגי",
        "Tochnit_ty": "תמא",
        "Yehud_kark": "רצועת צינור",
        "Related": " תמא/ 37/ ב קנ\"מ 1:2500 - tma_37_b_ben_gurion_me.jpg",
        "Relevance": "1",
        "YP_Resumot": "6754",
        "YP_Resum_1": 1392076800000,
        "Scale": "2500",
        "Status": "מאושרת",
        "Tochnit_Ho": "http://mavat.moin.gov.il/MavatPS/Forms/SV3.aspx?tid=4&tnumb=%D7%AA%D7%9E%D7%90%2F%2037%2F%20%D7%91%2F%208",
        "agam_n": 99000214819,
        "Notes": " ",
        "App_Date": 1425168000000,
        "digitation": "נקלט על פי בסיס נתונים קיים במאגר",
        "horaot": "בתחום זה חלות בנוסף הוראות תמא/ 37/ 2 - צנרות דלק"
      },
      "geometry": null
    },
    {
      "type": "Feature",
      "properties": {
        "OBJECTID_1": 1231,
        "Tochnit_Nu": "תמא/ 37/ ב/ 8",
        "Tochnit_na": "הקו המזרחי- עדכון תוואי מערכות הולכת הגז הטבעיבקטע חגי",
        "Tochnit_ty": "תמא",
        "Yehud_kark": "רצועת צינור",
        "Related": " ",
        "Relevance": "1",
        "YP_Resumot": "6754",
        "YP_Resum_1": 1392076800000,
        "Scale": "2500",
        "Status": "מאושרת",
        "Tochnit_Ho": "http://mavat.moin.gov.il/MavatPS/Forms/SV3.aspx?tid=4&tnumb=%D7%AA%D7%9E%D7%90%2F%2037%2F%20%D7%91%2F%208",
        "agam_n": 99000214819,
        "Notes": " ",
        "App_Date": 1425168000000,
        "digitation": "נקלט על פי בסיס נתונים קיים במאגר",
        "horaot": "בתחום זה חלות בנוסף הוראות תמא/ 37/ 2 - צנרות דלק"
      },
      "geometry": null
    },
    {
      "type": "Feature",
      "properties": {
        "OBJECTID_1": 1232,
        "Tochnit_Nu": "תמא/ 37/ ב/ 8",
        "Tochnit_na": "הקו המזרחי- עדכון תוואי מערכות הולכת הגז הטבעיבקטע חגי",
        "Tochnit_ty": "תמא",
        "Yehud_kark": "רצועת צינור",
        "Related": "תמא/ 37/ ב גליון מס' 7 - tma_37_b_v_7_me.jpg",
        "Relevance": "1",
        "YP_Resumot": "6754",
        "YP_Resum_1": 1392076800000,
        "Scale": "2500",
        "Status": "מאושרת",
        "Tochnit_Ho": "http://mavat.moin.gov.il/MavatPS/Forms/SV3.aspx?tid=4&tnumb=%D7%AA%D7%9E%D7%90%2F%2037%2F%20%D7%91%2F%208",
        "agam_n": 99000214819,
        "Notes": " ",
        "App_Date": 1425168000000,
        "digitation": "נקלט על פי בסיס נתונים קיים במאגר",
        "horaot": "בתחום זה חלות בנוסף הוראות תמא/ 37/ 2 - צנרות דלק"
      },
      "geometry": null
    },
    {
      "type": "Feature",
      "properties": {
        "OBJECTID_1": 1233,
        "Tochnit_Nu": "תמא/ 37/ ב/ 8",
        "Tochnit_na": "הקו המזרחי- עדכון תוואי מערכות הולכת הגז הטבעיבקטע חגי",
        "Tochnit_ty": "תמא",
        "Yehud_kark": "רצועת צינור",
        "Related": " ",
        "Relevance": "1",
        "YP_Resumot": "6754",
        "YP_Resum_1": 1392076800000,
        "Scale": "2500",
        "Status": "מאושרת",
        "Tochnit_Ho": "http://mavat.moin.gov.il/MavatPS/Forms/SV3.aspx?tid=4&tnumb=%D7%AA%D7%9E%D7%90%2F%2037%2F%20%D7%91%2F%208",
        "agam_n": 99000214819,
        "Notes": " ",
        "App_Date": 1425168000000,
        "digitation": "נקלט על פי בסיס נתונים קיים במאגר",
        "horaot": "בתחום זה חלות בנוסף הוראות תמא/ 37/ 2 - צנרות דלק"
      },
      "geometry": null
    }
  ]
}