{
  "type": "FeatureCollection",
  "name": "tama35_env_noise",
  "description": "תמ\"א 35 – רעש מטוסים",
  "crs": {
    "type": "name",
    "properties": {
      "name": "urn:ogc:def:crs:EPSG::2039"
    }
  },
  "features": [
    {
      "type": "Feature",
      "properties": {
        "FID": 9,
        "MAPKEY": "34B",
        "LAYER2": "460_Tahar_Low",
        "AREA": 59406285.92725,
        "PERIMETER": 79348.617,
        "TYPECODE": "460",
        "TYPENAME": "460",
        "SOURCE": "TAMA35",
        "UPDATE": "05122004",
        "T_ID": 10
      },
      "geometry": {
        "type": "Polygon",
        "coordinates": [
          [
            [
              183512.03125,
              659991.875
            ],
            [
              183492.09375,
              659991.75
            ],
            [
              183426.515625,
              660037.5
            ],
            [
              183266.3125,
              660160.75
            ],
            [
              183068.359375,
              660315.75
            ],
            [
              182856.140625,
              660467
            ],
            [
              182645.4375,
              660631.5
            ],
            [
              182413.3125,
              660801.375
            ],
            [
              182202.609375,
              660961.25
            ],
            [
              182081.15625,
              661059
            ],
            [
              181830.765625,
              661217
            ],
            [
              181566.03125,
              661400.25
            ],
            [
              181339.5,
              661577.375
            ],
            [
              181068.6484375,
              661757.125
            ],
            [
              180841.09375,
              661935.25
            ],
            [
              180644.1171875,
              662103.5
            ],
            [
              180447.5859375,
              662289.5
            ],
            [
              180302.609375,
              662430.75
            ],
            [
              180250.9453125,
              662516.25
            ],
            [
              180352.28125,
              662510.125
            ],
            [
              180462.8125,
              662488.75
            ],
            [
              180621.3671875,
              662408.875
            ],
            [
              180792.1328125,
              662331
            ],
            [
              181003.171875,
              662232.75
            ],
            [
              181257.578125,
              662103.25
            ],
            [
              181570.609375,
              661947.375
            ],
            [
              181902.015625,
              661766.75
            ],
            [
              182160,
              661632.25
            ],
            [
              182476.171875,
              661444.25
            ],
            [
              182760.203125,
              661276.875
            ],
            [
              183133.90625,
              661082.375
            ],
            [
              183444.421875,
              660915.75
            ],
            [
              183756.453125,
              660748.625
            ],
            [
              183978.21875,
              660635.75
            ],
            [
              184206.171875,
              660501.875
            ],
            [
              184504.90625,
              660355
            ],
            [
              184736.8125,
              660262
            ],
            [
              185021.046875,
              660209.25
            ],
            [
              185304.28125,
              660145.875
            ],
            [
              185607.859375,
              660087.125
            ],
            [
              185873.640625,
              660074.375
            ],
            [
              186103.359375,
              660036.875
            ],
            [
              186291.21875,
              660011.25
            ],
            [
              186464.90625,
              659961.375
            ],
            [
              186589.671875,
              659932.5
            ],
            [
              186701.234375,
              659903.125
            ],
            [
              186819.375,
              659870.625
            ],
            [
              186954.21875,
              659825.5
            ],
            [
              187100.75,
              659785.875
            ],
            [
              187256.875,
              659731.375
            ],
            [
              187427.703125,
              659675.875
            ],
            [
              187565.046875,
              659624
            ],
            [
              187698.25,
              659557.5
            ],
            [
              187817.203125,
              659485.875
            ],
            [
              187966.640625,
              659418.625
            ],
            [
              188120.046875,
              659331.125
            ],
            [
              188259.828125,
              659262.5
            ],
            [
              188357.046875,
              659210.75
            ],
            [
              188457.34375,
              659163.625
            ],
            [
              188575.859375,
              659108.75
            ],
            [
              188710.578125,
              659038.625
            ],
            [
              188837.203125,
              658980.25
            ],
            [
              188985.140625,
              658913.625
            ],
            [
              189121.421875,
              658856.625
            ],
            [
              189218.25,
              658822.75
            ],
            [
              189364.890625,
              658801
            ],
            [
              189487.8125,
              658808.75
            ],
            [
              189612.859375,
              658831.25
            ],
            [
              189762.734375,
              658848.125
            ],
            [
              189888.828125,
              658875.25
            ],
            [
              189962.65625,
              658912.25
            ],
            [
              190010.453125,
              658922.25
            ],
            [
              190010.5,
              658907.25
            ],
            [
              190034.203125,
              658912.25
            ],
            [
              190162.0625,
              658949.75
            ],
            [
              190377.03125,
              659019.875
            ],
            [
              190573.765625,
              659106.75
            ],
            [
              190726.25,
              659197.5
            ],
            [
              190849.390625,
              659322.25
            ],
            [
              190979.5,
              659526.75
            ],
            [
              191076.546875,
              659740.125
            ],
            [
              191168.921875,
              659925.375
            ],
            [
              191206.5625,
              659990.375
            ],
            [
              191237.8125,
              660063.625
            ],
            [
              191325.953125,
              660260.75
            ],
            [
              191467.484375,
              660507.625
            ],
            [
              191597.34375,
              660772.75
            ],
            [
              191749.125,
              661078.25
            ],
            [
              191902.375,
              661352.125
            ],
            [
              192040.359375,
              661614.75
            ],
            [
              192161.546875,
              661843.625
            ],
            [
              192302.53125,
              662069.5
            ],
            [
              192421.171875,
              662287.125
            ],
            [
              192541.328125,
              662506.875
            ],
            [
              192717.4375,
              662794.625
            ],
            [
              192845.765625,
              663041.375
            ],
            [
              192984.765625,
              663307
            ],
            [
              193134.90625,
              663541.625
            ],
            [
              193303.859375,
              663803.875
            ],
            [
              193471.34375,
              664090
            ],
            [
              193606.203125,
              664294
            ],
            [
              193753.796875,
              664535.25
            ],
            [
              193912.578125,
              664775.5
            ],
            [
              194068.828125,
              665027
            ],
            [
              194205.21875,
              665237.5
            ],
            [
              194349.734375,
              665448.125
            ],
            [
              194391.734375,
              665495.5
            ],
            [
              194396.015625,
              665500.375
            ],
            [
              194424.109375,
              665555.375
            ],
            [
              194506.296875,
              665679.375
            ],
            [
              194582.984375,
              665807.5
            ],
            [
              194668.65625,
              665923.75
            ],
            [
              194769.15625,
              666048.125
            ],
            [
              194875.390625,
              666187.625
            ],
            [
              194979.859375,
              666303.75
            ],
            [
              195088.328125,
              666373.375
            ],
            [
              195083.203125,
              666282.625
            ],
            [
              195065.65625,
              666174.25
            ],
            [
              195018.5625,
              666055.5
            ],
            [
              194957.6875,
              665889.375
            ],
            [
              194885.71875,
              665686.75
            ],
            [
              194815.90625,
              665537.625
            ],
            [
              194806.046875,
              665489.625
            ],
            [
              194803.59375,
              665472.25
            ],
            [
              194708.859375,
              665283.25
            ],
            [
              194627.34375,
              665100.375
            ],
            [
              194521.40625,
              664888.875
            ],
            [
              194410.40625,
              664670.75
            ],
            [
              194315.0625,
              664425.125
            ],
            [
              194240.1875,
              664268.875
            ],
            [
              194120.96875,
              664004.75
            ],
            [
              194003.84375,
              663767.75
            ],
            [
              193922.84375,
              663596.625
            ],
            [
              193825.078125,
              663405
            ],
            [
              193721.6875,
              663200.125
            ],
            [
              193607.09375,
              662975.875
            ],
            [
              193492.015625,
              662753.125
            ],
            [
              193393.71875,
              662553.875
            ],
            [
              193310.203125,
              662383.25
            ],
            [
              193228.171875,
              662201.5
            ],
            [
              193094.8125,
              661983.75
            ],
            [
              192964.5,
              661762.5
            ],
            [
              192863.671875,
              661570.375
            ],
            [
              192739.9375,
              661339.875
            ],
            [
              192622.3125,
              661113.625
            ],
            [
              192507.765625,
              660914.25
            ],
            [
              192418.609375,
              660713
            ],
            [
              192282.203125,
              660484.625
            ],
            [
              192166.59375,
              660258.75
            ],
            [
              192050.515625,
              660057
            ],
            [
              192012.375,
              659990.375
            ],
            [
              191997.609375,
              659964.25
            ],
            [
              191953.015625,
              659863.375
            ],
            [
              191875.34375,
              659750.875
            ],
            [
              191776.6875,
              659597.375
            ],
            [
              191658.140625,
              659426.125
            ],
            [
              191574.765625,
              659285.25
            ],
            [
              191520.0625,
              659197.625
            ],
            [
              191442.40625,
              659089.75
            ],
            [
              191368.703125,
              658947.875
            ],
            [
              191348,
              658852.875
            ],
            [
              191348.71875,
              658775.125
            ],
            [
              191418.796875,
              658762.75
            ],
            [
              191572.796875,
              658774.75
            ],
            [
              191784.765625,
              658796.75
            ],
            [
              191986.625,
              658833.5
            ],
            [
              192185.375,
              658857.5
            ],
            [
              192390.296875,
              658895.875
            ],
            [
              192597.703125,
              658922.375
            ],
            [
              192773.109375,
              658950.125
            ],
            [
              193006.34375,
              658954.25
            ],
            [
              193188.765625,
              658958.5
            ],
            [
              193309.125,
              658941.75
            ],
            [
              193283.125,
              658917.5
            ],
            [
              193236.71875,
              658877
            ],
            [
              193102.4375,
              658836
            ],
            [
              192913.1875,
              658780.875
            ],
            [
              192702.609375,
              658720.75
            ],
            [
              192535.265625,
              658672.25
            ],
            [
              192372,
              658630.25
            ],
            [
              192149.25,
              658577.75
            ],
            [
              191968.734375,
              658544
            ],
            [
              191795.359375,
              658517.75
            ],
            [
              191614.859375,
              658483.5
            ],
            [
              191467.421875,
              658461.25
            ],
            [
              191353.453125,
              658422.625
            ],
            [
              191237.4375,
              658379.875
            ],
            [
              191138.21875,
              658340.75
            ],
            [
              191111.203125,
              658321.5
            ],
            [
              191115.71875,
              658305.75
            ],
            [
              191151.546875,
              658259.125
            ],
            [
              191180.78125,
              658197.25
            ],
            [
              191187.125,
              658137.75
            ],
            [
              191154.6875,
              658048
            ],
            [
              191101.34375,
              657964.125
            ],
            [
              191050.484375,
              657885.75
            ],
            [
              190999,
              657817.625
            ],
            [
              190936.453125,
              657739.25
            ],
            [
              190855.390625,
              657636.75
            ],
            [
              190797.890625,
              657561
            ],
            [
              190769.4375,
              657478.875
            ],
            [
              190756.953125,
              657379.5
            ],
            [
              190769.96875,
              657313
            ],
            [
              190781.625,
              657234.25
            ],
            [
              190812.75,
              657185.125
            ],
            [
              190895.03125,
              657146.75
            ],
            [
              191001.21875,
              657109
            ],
            [
              191130.5,
              657093.875
            ],
            [
              191295.625,
              657055.625
            ],
            [
              191377.28125,
              657027.875
            ],
            [
              191466.125,
              656953.875
            ],
            [
              191547.46875,
              656869.25
            ],
            [
              191614.578125,
              656785.375
            ],
            [
              191680.640625,
              656664.375
            ],
            [
              191740.5625,
              656544.875
            ],
            [
              191788.671875,
              656436.875
            ],
            [
              191814.734375,
              656343
            ],
            [
              191803.671875,
              656252.375
            ],
            [
              191760.703125,
              656152.25
            ],
            [
              191679.140625,
              656090
            ],
            [
              191610.84375,
              656024.75
            ],
            [
              191519.296875,
              655988.375
            ],
            [
              191452.546875,
              655962.25
            ],
            [
              191420.96875,
              655926.375
            ],
            [
              191413.328125,
              655888.125
            ],
            [
              191435.390625,
              655870.625
            ],
            [
              191501.625,
              655815.75
            ],
            [
              191609.296875,
              655740.875
            ],
            [
              191733.328125,
              655656.5
            ],
            [
              191870.4375,
              655583
            ],
            [
              192001.203125,
              655489
            ],
            [
              192161.109375,
              655381.5
            ],
            [
              192317.359375,
              655282.25
            ],
            [
              192500.234375,
              655165.375
            ],
            [
              192708.046875,
              655046.125
            ],
            [
              192887.828125,
              654932.75
            ],
            [
              193082.5,
              654808.875
            ],
            [
              193231.203125,
              654702.875
            ],
            [
              193434.0625,
              654572.875
            ],
            [
              193674.859375,
              654417.375
            ],
            [
              193874.40625,
              654268.5
            ],
            [
              194084.515625,
              654128
            ],
            [
              194328.828125,
              653976.5
            ],
            [
              194483.671875,
              653866
            ],
            [
              194726.953125,
              653715
            ],
            [
              194925.15625,
              653592.625
            ],
            [
              195125.640625,
              653450
            ],
            [
              195247.3125,
              653351.875
            ],
            [
              195361.734375,
              653263.875
            ],
            [
              195394.640625,
              653192.5
            ],
            [
              195313.828125,
              653192.75
            ],
            [
              195168.03125,
              653229.125
            ],
            [
              195026.984375,
              653252.25
            ],
            [
              194894.28125,
              653295.75
            ],
            [
              194747.3125,
              653345.375
            ],
            [
              194573.9375,
              653392.125
            ],
            [
              194363.234375,
              653457.875
            ],
            [
              194204.96875,
              653515.5
            ],
            [
              194039.4375,
              653584.75
            ],
            [
              193904.84375,
              653660.375
            ],
            [
              193771.78125,
              653736.5
            ],
            [
              193638.84375,
              653800.375
            ],
            [
              193529.265625,
              653866.125
            ],
            [
              193388.96875,
              653950.25
            ],
            [
              193243.5,
              654042.125
            ],
            [
              193066.890625,
              654143.25
            ],
            [
              192908.609375,
              654243.625
            ],
            [
              192767.1875,
              654338
            ],
            [
              192628.265625,
              654433.375
            ],
            [
              192474.15625,
              654524.625
            ],
            [
              192328.15625,
              654618.5
            ],
            [
              192180.171875,
              654707.625
            ],
            [
              192033.796875,
              654790.25
            ],
            [
              191906.171875,
              654876.125
            ],
            [
              191785.640625,
              654965.125
            ],
            [
              191646.4375,
              655042.75
            ],
            [
              191535.265625,
              655115
            ],
            [
              191431.71875,
              655186.25
            ],
            [
              191319.953125,
              655264.625
            ],
            [
              191215.609375,
              655318.625
            ],
            [
              191122.0625,
              655362.625
            ],
            [
              191052.390625,
              655366.5
            ],
            [
              191045.734375,
              655329.875
            ],
            [
              191057.453125,
              655246
            ],
            [
              191072.453125,
              655143.375
            ],
            [
              191059.015625,
              655038
            ],
            [
              191031.46875,
              654965
            ],
            [
              190997.71875,
              654899
            ],
            [
              190922.046875,
              654855.625
            ],
            [
              190805.546875,
              654823.5
            ],
            [
              190728,
              654807.125
            ],
            [
              190637.796875,
              654785.875
            ],
            [
              190520.25,
              654798.625
            ],
            [
              190406.890625,
              654800.125
            ],
            [
              190279.328125,
              654841.75
            ],
            [
              190182,
              654902.375
            ],
            [
              190079.125,
              654961
            ],
            [
              189985.84375,
              655016.875
            ],
            [
              189985.84375,
              655040
            ],
            [
              189906.375,
              655137.625
            ],
            [
              189829.28125,
              655253
            ],
            [
              189735.546875,
              655387.125
            ],
            [
              189611.203125,
              655492.375
            ],
            [
              189473.65625,
              655602.75
            ],
            [
              189327.984375,
              655709.125
            ],
            [
              189165.015625,
              655810
            ],
            [
              189004.0625,
              655908.25
            ],
            [
              188869.71875,
              655952.375
            ],
            [
              188685.125,
              655996.75
            ],
            [
              188414.6875,
              656040.25
            ],
            [
              188157.453125,
              656081.25
            ],
            [
              187944.34375,
              656112.5
            ],
            [
              187625.625,
              656148
            ],
            [
              187352.015625,
              656168.75
            ],
            [
              187111.859375,
              656175
            ],
            [
              186996.65625,
              656194.375
            ],
            [
              186900.84375,
              656195.375
            ],
            [
              186792.421875,
              656192.125
            ],
            [
              186640.0625,
              656179.75
            ],
            [
              186480.421875,
              656178
            ],
            [
              186318.296875,
              656173.625
            ],
            [
              186139.734375,
              656151.125
            ],
            [
              185968.703125,
              656133.75
            ],
            [
              185793.9375,
              656096.625
            ],
            [
              185554.859375,
              656056
            ],
            [
              185292.453125,
              656016.5
            ],
            [
              185050.65625,
              655955.5
            ],
            [
              184777.265625,
              655905.625
            ],
            [
              184518.359375,
              655838.25
            ],
            [
              184277.71875,
              655768.625
            ],
            [
              184012.359375,
              655692.875
            ],
            [
              183808.21875,
              655624.125
            ],
            [
              183556.09375,
              655575.625
            ],
            [
              183229.390625,
              655500.625
            ],
            [
              182994.796875,
              655433.25
            ],
            [
              182752.28125,
              655386
            ],
            [
              182617.890625,
              655366
            ],
            [
              182436.1875,
              655326.125
            ],
            [
              182212.75,
              655283.25
            ],
            [
              182030.640625,
              655220.875
            ],
            [
              181931.0625,
              655248.75
            ],
            [
              181817.796875,
              655212
            ],
            [
              181523.5625,
              655172
            ],
            [
              181246.59375,
              655164.625
            ],
            [
              180791.765625,
              655136.25
            ],
            [
              180414.828125,
              655152.625
            ],
            [
              179801.7421875,
              655142.125
            ],
            [
              179406.296875,
              655180.75
            ],
            [
              179126.234375,
              655190.125
            ],
            [
              178791.3515625,
              655211.875
            ],
            [
              178439.1953125,
              655233.125
            ],
            [
              178042.296875,
              655300.75
            ],
            [
              177638.4375,
              655379.375
            ],
            [
              177275.6953125,
              655460.375
            ],
            [
              176946.7109375,
              655567.375
            ],
            [
              176611.6328125,
              655705.125
            ],
            [
              176245.859375,
              655896
            ],
            [
              175897.359375,
              656087.375
            ],
            [
              175639.859375,
              656232.75
            ],
            [
              175356.6484375,
              656387.125
            ],
            [
              175142.1015625,
              656494.125
            ],
            [
              174861.8125,
              656652.625
            ],
            [
              174673.5703125,
              656779.875
            ],
            [
              174499.2578125,
              656901
            ],
            [
              174423.5078125,
              656945.5
            ],
            [
              174974.515625,
              658092.125
            ],
            [
              175163.7265625,
              657982.125
            ],
            [
              175540.40625,
              657784.5
            ],
            [
              176051.265625,
              657574.5
            ],
            [
              176621.7265625,
              657377
            ],
            [
              177109.359375,
              657271.625
            ],
            [
              177387.8203125,
              657217.5
            ],
            [
              177647.96875,
              657194.25
            ],
            [
              177879.1171875,
              657187.5
            ],
            [
              178088.9140625,
              657196.25
            ],
            [
              178338.1484375,
              657196.125
            ],
            [
              178582.3984375,
              657209
            ],
            [
              178776.0625,
              657244.25
            ],
            [
              179010.921875,
              657279.875
            ],
            [
              179227.6640625,
              657325.5
            ],
            [
              179471.4375,
              657384.25
            ],
            [
              179698.2578125,
              657432.75
            ],
            [
              179942.21875,
              657470.125
            ],
            [
              180253.5390625,
              657547.875
            ],
            [
              180517.046875,
              657610.25
            ],
            [
              180794.0703125,
              657694.5
            ],
            [
              181081.796875,
              657778.625
            ],
            [
              181343.109375,
              657845.625
            ],
            [
              181560.625,
              657930.375
            ],
            [
              181734.125,
              658007.25
            ],
            [
              181913.21875,
              658084.25
            ],
            [
              182155.40625,
              658223.875
            ],
            [
              182370.265625,
              658359.125
            ],
            [
              182510.75,
              658436.375
            ],
            [
              182616.453125,
              658511.75
            ],
            [
              182795.796875,
              658639.625
            ],
            [
              182966.953125,
              658772.875
            ],
            [
              183155.09375,
              658920.125
            ],
            [
              183308.640625,
              659044.875
            ],
            [
              183498.71875,
              659198.375
            ],
            [
              183668.34375,
              659362
            ],
            [
              183744.71875,
              659463.875
            ],
            [
              183785.328125,
              659553.125
            ],
            [
              183785.984375,
              659636.125
            ],
            [
              183732.359375,
              659751.375
            ],
            [
              183637.265625,
              659861.875
            ],
            [
              183534.28125,
              659959.375
            ],
            [
              183512.03125,
              659991.875
            ]
          ]
        ]
      }
    }
  ]
}