{
  "type": "FeatureCollection",
  "name": "tama35_eco_corridor",
  "description": "תמ\"א 35 – מסדרון אקולוגי",
  "crs": {
    "type": "name",
    "properties": {
      "name": "urn:ogc:def:crs:EPSG::2039"
    }
  },
  "features": [
    {
      "type": "Feature",
      "properties": {
        "OBJECTID": 73,
        "Shape_Length": 37983.7812163403
      },
      "geometry": {
        "type": "MultiLineString",
        "coordinates": [
          [
            [
              209211.93090000004,
              638026.4318000004
            ],
            [
              206804.51800000016,
              638587.8099000007
            ],
            [
              203913.5887000002,
              638915.9993999992
            ]
          ],
          [
            [
              201664.04200000037,
              640444.3494000006
            ],
            [
              201368.6606999999,
              640703.9268999994
            ],
            [
              199074.69259999972,
              640649.0966999996
            ],
            [
              196738.7134999996,
              641475.5846999995
            ],
            [
              195861.51020000037,
              642073.8095999993
            ],
            [
              194982.43200000003,
              643741.0267999992
            ],
            [
              193982.10170000046,
              645044.4876000006
            ],
            [
              193025.84449999966,
              645622.6896000002
            ],
            [
              192438.84480000008,
              645773.3111000005
            ],
            [
              192269.5111999996,
              646433.7124000005
            ],
            [
              192494.16899999976,
              646771.6052000001
            ],
            [
              192286.84109999985,
              647826.9225999992
            ],
            [
              192597.64829999954,
              648710.2342000008
            ],
            [
              192607.23950000014,
              649640.5840000007
            ],
            [
              192357.86739999987,
              650302.3793000001
            ],
            [
              191494.65620000008,
              651434.1450999994
            ],
            [
              190789.26559999958,
              653068.5878999997
            ],
            [
              190239.5736999996,
              654420.8300999999
            ],
            [
              189568.9495000001,
              654904.5590000004
            ],
            [
              189076.7955,
              655469.8493000008
            ],
            [
              188513.5410000002,
              655784.0660999995
            ],
            [
              187952.8552000001,
              655828.0414000005
            ],
            [
              187601.0524000004,
              655926.9859999996
            ],
            [
              187337.20029999968,
              656366.7394999992
            ],
            [
              187040.3666000003,
              657114.3205999993
            ],
            [
              186787.50829999987,
              657422.1480999999
            ],
            [
              186490.67470000032,
              657664.0124999993
            ],
            [
              186193.84100000001,
              658180.7228999995
            ],
            [
              186002.56460000016,
              658452.3465
            ],
            [
              185611.16760000028,
              658785.3840999994
            ],
            [
              185204.39549999963,
              658917.3101000004
            ],
            [
              184687.68510000035,
              659214.1437999997
            ],
            [
              184017.06089999992,
              659368.0574999992
            ],
            [
              183566.31350000016,
              659862.7803000007
            ],
            [
              180963.2982999999,
              660373.2412
            ]
          ]
        ]
      }
    }
  ]
}