{
  "type": "FeatureCollection",
  "name": "tama35_env_electricity",
  "description": "תמ\"א 35 – חשמל ראשי",
  "crs": {
    "type": "name",
    "properties": {
      "name": "urn:ogc:def:crs:EPSG::2039"
    }
  },
  "features": [
    {
      "type": "Feature",
      "properties": {
        "FID": 12,
        "MAPKEY": 0,
        "LENGTH": 15765.919,
        "TYPECODE": "250",
        "TYPENAME": "25 ",
        "VOLTAGE": 400,
        "SOURCE": "TAMA10",
        "UPDATE": "05122004",
        "T_ID": 13
      },
      "geometry": {
        "type": "LineString",
        "coordinates": [
          [
            189802.3549214746,
            645780.3384142369
          ],
          [
            189594.83427110082,
            645670.362067767
          ],
          [
            189300.10486082127,
            645262.7641577793
          ],
          [
            188869.34939244762,
            644809.8756252339
          ],
          [
            187168.99852863653,
            645308.0512417306
          ],
          [
            186738.24306026287,
            645308.0512417306
          ],
          [
            186035.43233349686,
            645081.6087447612
          ],
          [
            185264.60543547943,
            645240.1188465005
          ],
          [
            182680.0726252389,
            647844.2199467716
          ],
          [
            182702.74363492103,
            648772.6387845348
          ],
          [
            182612.0595961921,
            650063.3666790309
          ],
          [
            182262.3981566308,
            650435.8846150576
          ],
          [
            180788.7605318469,
            650911.4149202753
          ],
          [
            180176.6338438103,
            651092.5703332934
          ],
          [
            179065.73865835322,
            651341.6581415418
          ],
          [
            178848.61999497662,
            651212.0799735315
          ],
          [
            178807.15000119893,
            651212.5195662644
          ],
          [
            178714.96001963888,
            651242.5299046559
          ],
          [
            178438.21003057936,
            651556.3899156705
          ],
          [
            178365.43013621288,
            651673.189126207
          ]
        ]
      }
    },
    {
      "type": "Feature",
      "properties": {
        "FID": 13,
        "MAPKEY": 0,
        "LENGTH": 9370.937,
        "TYPECODE": "250",
        "TYPENAME": "25 ",
        "VOLTAGE": 400,
        "SOURCE": "TAMA10",
        "UPDATE": "05122004",
        "T_ID": 14
      },
      "geometry": {
        "type": "LineString",
        "coordinates": [
          [
            178365.43013621288,
            651673.189126207
          ],
          [
            178564.8460302963,
            651726.4904276349
          ],
          [
            178927.5853274176,
            651726.4904276349
          ],
          [
            179403.685957361,
            651817.068134144
          ],
          [
            179811.77041605208,
            652337.8872926163
          ],
          [
            180151.83870349126,
            653039.861864107
          ],
          [
            180673.28135279892,
            654375.8803811606
          ],
          [
            181222.09889279958,
            655912.1061677723
          ],
          [
            182174.29386827582,
            656727.3019877474
          ],
          [
            182378.33609762136,
            657293.4117687775
          ],
          [
            182945.12076629326,
            658153.8964420073
          ],
          [
            183489.2344252835,
            658901.1598667523
          ]
        ]
      }
    }
  ]
}