{
  "type": "FeatureCollection",
  "name": "tama35_env_water_protect",
  "description": "תמ\"א 35 – שימור מים",
  "crs": {
    "type": "name",
    "properties": {
      "name": "urn:ogc:def:crs:EPSG::2039"
    }
  },
  "features": [
    {
      "type": "Feature",
      "properties": {
        "FID": 17,
        "SOURCE": "TAMA35",
        "UPDATE": "051204",
        "TYPECODE": "400",
        "TYPENAME": "שטח לשימור משאבי מים",
        "T_ID": 30,
        "AREA": 594682130.517,
        "PERIMETER": 242366.851
      },
      "geometry": {
        "type": "MultiPolygon",
        "coordinates": [
          [
            [
              [
                176060.12516179736,
                654111.7402836331
              ],
              [
                175433.81390520005,
                653950.7123392811
              ],
              [
                175124.8881927263,
                653210.8510257858
              ],
              [
                174996.72957875984,
                652321.3199938764
              ],
              [
                175047.7832830362,
                652151.9256601084
              ],
              [
                175300.69914822892,
                651312.7600189289
              ],
              [
                175835.63027603552,
                650616.0185480677
              ],
              [
                175996.8115480345,
                650406.081846518
              ],
              [
                176163.65582427633,
                650282.5753937147
              ],
              [
                176565.3587842202,
                650148.7214661425
              ],
              [
                176764.947047337,
                650042.648542406
              ],
              [
                177396.5554749217,
                650042.648542406
              ],
              [
                177730.04472468642,
                650070.4295462419
              ],
              [
                177949.8444574859,
                650214.3856570269
              ],
              [
                178285.86014096098,
                650482.0935121712
              ],
              [
                178505.65987376048,
                650787.6845543643
              ],
              [
                178687.56310090484,
                651075.5967759346
              ],
              [
                178801.2526178701,
                651312.9980814396
              ],
              [
                178796.37525116454,
                651373.9437385714
              ],
              [
                178791.14688302873,
                651439.2753716023
              ],
              [
                178715.35387171857,
                651724.6620473692
              ],
              [
                178447.55189842265,
                652441.9170554916
              ],
              [
                178141.85341947165,
                652977.3327657802
              ],
              [
                177778.04696518288,
                653368.7923652835
              ],
              [
                177300.5509939288,
                653702.1644113122
              ],
              [
                176850.8457934885,
                653979.9744496695
              ],
              [
                176336.43364681874,
                654182.7806599336
              ],
              [
                176060.12516179736,
                654111.7402836331
              ]
            ],
            [
              [
                166876.65831722177,
                636901.9729395539
              ],
              [
                167894.95125698549,
                639345.6168848991
              ],
              [
                169067.03315081837,
                642066.2969149658
              ],
              [
                169457.30819336203,
                642901.6136100863
              ],
              [
                169649.87711243157,
                643442.7373419707
              ],
              [
                170631.84545174503,
                646202.094225361
              ],
              [
                170956.7244454009,
                646823.2341664627
              ],
              [
                171241.39370776675,
                647385.9842305083
              ],
              [
                171281.70293458423,
                647465.6697567385
              ],
              [
                172385.17886429687,
                649285.1348272772
              ],
              [
                172732.50959333108,
                650099.3560487488
              ],
              [
                173143.679933998,
                650848.8836123778
              ],
              [
                173425.6122452033,
                651448.4210405643
              ],
              [
                173662.0169772106,
                652151.9256601084
              ],
              [
                174383.5659053783,
                654299.1458104118
              ],
              [
                174985.36345170357,
                656184.7588402827
              ],
              [
                175799.69936564236,
                658736.3186121546
              ],
              [
                175996.79244781777,
                659572.537873846
              ],
              [
                176214.68014811847,
                660301.4188352386
              ],
              [
                176497.91656141626,
                661180.0813793901
              ],
              [
                176585.3639946313,
                661501.6497778154
              ],
              [
                176800.38820809827,
                662233.1006617162
              ],
              [
                176869.00312792143,
                662466.508997197
              ],
              [
                177040.33506395854,
                662401.3131238348
              ],
              [
                177147.87472425352,
                662465.206079575
              ],
              [
                177298.91425768513,
                662614.8408309161
              ],
              [
                177492.4965691045,
                662699.6279003089
              ],
              [
                177730.28114470583,
                663020.4939076889
              ],
              [
                177926.17198925727,
                663599.3907418558
              ],
              [
                178254.0583536788,
                664864.2170312183
              ],
              [
                178493.79607831058,
                665657.3912994021
              ],
              [
                179059.86973832574,
                667329.2802713746
              ],
              [
                179062.1136024548,
                667338.0807767487
              ],
              [
                180675.60595996343,
                666584.3412503735
              ],
              [
                180752.05229737423,
                666548.6295062893
              ],
              [
                181522.27261465997,
                666008.318176883
              ],
              [
                182921.25494113608,
                666774.5266923637
              ],
              [
                183803.78127120427,
                667264.016936068
              ],
              [
                185027.76923572275,
                667365.7930055233
              ],
              [
                186273.20568905066,
                667445.9192261733
              ],
              [
                186680.91741859846,
                667400.9150754185
              ],
              [
                187002.88735254545,
                667399.4107978004
              ],
              [
                187066.57894828953,
                667248.7727998903
              ],
              [
                186784.74613261176,
                666670.5310208783
              ],
              [
                186718.4463326825,
                666262.918786858
              ],
              [
                186738.39172834434,
                665919.5525237385
              ],
              [
                186829.9912041885,
                665651.6055146619
              ],
              [
                186950.99371760333,
                665297.6486687143
              ],
              [
                187203.2378330579,
                664857.4450602152
              ],
              [
                187664.9728240595,
                664365.9555944153
              ],
              [
                188188.7293896251,
                663894.7160633104
              ],
              [
                189279.21518771417,
                662988.0857043569
              ],
              [
                189523.80544839206,
                662613.4314764198
              ],
              [
                189558.96763949256,
                662156.4836414356
              ],
              [
                189401.78469082425,
                661656.5059199065
              ],
              [
                188736.09547859718,
                661616.770337159
              ],
              [
                188416.19642872544,
                661594.0863060707
              ],
              [
                188187.64218657202,
                661312.8876383882
              ],
              [
                188303.67682464636,
                660931.7374403174
              ],
              [
                188592.00738422808,
                660504.4414688009
              ],
              [
                188642.38223902282,
                659899.8286940707
              ],
              [
                188398.6153331752,
                659731.1451326739
              ],
              [
                187994.25013551913,
                659643.2705490231
              ],
              [
                187524.98162046465,
                659658.1157954
              ],
              [
                186644.76145458742,
                659662.2282772034
              ],
              [
                186042.74852943988,
                659731.1451326739
              ],
              [
                185551.41752902383,
                659957.1157616575
              ],
              [
                185128.5315608262,
                660486.8665520707
              ],
              [
                184847.23403202198,
                661154.7133878167
              ],
              [
                184743.81631354263,
                661721.3677196915
              ],
              [
                184741.7474587204,
                662297.0829752767
              ],
              [
                184513.19321656696,
                662701.3060600704
              ],
              [
                184332.62978291212,
                662905.9348672098
              ],
              [
                184277.32617215635,
                662968.6093061613
              ],
              [
                183739.6250123554,
                662841.9053939118
              ],
              [
                183351.85315963757,
                662457.5165495418
              ],
              [
                182942.33629694802,
                662116.1567795603
              ],
              [
                182406.28910450943,
                662204.3527552406
              ],
              [
                182212.70679309007,
                662119.5656858475
              ],
              [
                181844.02707077397,
                661348.289962356
              ],
              [
                181693.5904328602,
                661327.696704227
              ],
              [
                181287.5358205655,
                661673.1204356507
              ],
              [
                180475.0190522376,
                662385.2659166139
              ],
              [
                179924.52727794822,
                662349.8077254673
              ],
              [
                179421.46045718534,
                662025.112013428
              ],
              [
                179142.2358456927,
                662005.1204663462
              ],
              [
                178626.88259138132,
                661964.4289729202
              ],
              [
                178346.75541331785,
                661751.25546547
              ],
              [
                178340.0804556032,
                661730.3940434398
              ],
              [
                178183.99881847214,
                661242.5879714675
              ],
              [
                178277.34637815424,
                660678.1541947483
              ],
              [
                178853.18131297728,
                659881.1694847553
              ],
              [
                179344.3511247895,
                659274.19729769
              ],
              [
                180072.00621323287,
                658823.5990878977
              ],
              [
                181359.98662901908,
                658839.1311462326
              ],
              [
                181939.83336564738,
                658900.8174333093
              ],
              [
                182347.44559966764,
                658834.5176333801
              ],
              [
                183329.78884194396,
                657734.9528254746
              ],
              [
                183606.72035892197,
                657480.3506150395
              ],
              [
                184014.02299185217,
                657105.8892615912
              ],
              [
                184291.84086608537,
                656850.4721619054
              ],
              [
                184569.5078558523,
                656591.3397774929
              ],
              [
                184791.4269450835,
                656146.892748856
              ],
              [
                185223.44710955143,
                654949.7840381167
              ],
              [
                185609.72694339624,
                654096.3555735042
              ],
              [
                185801.30394614823,
                653751.9339041789
              ],
              [
                186483.62914327724,
                652739.9693691232
              ],
              [
                187291.43171875458,
                651018.8157487041
              ],
              [
                187396.96488591164,
                650653.2464460931
              ],
              [
                187437.56193586407,
                650020.004430376
              ],
              [
                187496.7829825903,
                649064.4449141161
              ],
              [
                187231.28292734968,
                647369.6019912455
              ],
              [
                187117.56514605822,
                647126.9188649736
              ],
              [
                186641.81961593943,
                646571.8176000945
              ],
              [
                186193.25639063228,
                645721.4676722735
              ],
              [
                185954.42241704196,
                645121.7288840909
              ],
              [
                185772.8068646234,
                643040.1216894328
              ],
              [
                185620.80223623358,
                642507.7267371204
              ],
              [
                185317.23526871947,
                642011.9238894677
              ],
              [
                184607.89816746706,
                641800.5021710519
              ],
              [
                182695.86993534115,
                641487.4584072861
              ],
              [
                182328.79517064127,
                641059.7017865491
              ],
              [
                181788.12340627614,
                640961.1340648667
              ],
              [
                181235.00114626283,
                641258.251810452
              ],
              [
                180807.6448765768,
                641711.0162111158
              ],
              [
                179375.445108875,
                643005.6154484218
              ],
              [
                178430.13415617583,
                643491.9220740092
              ],
              [
                177878.95203438183,
                644322.064710059
              ],
              [
                177265.0871544255,
                646149.8069038412
              ],
              [
                177244.5400477164,
                646364.3851933819
              ],
              [
                177182.6535851141,
                646901.3871120282
              ],
              [
                177105.83957010612,
                647357.9186287257
              ],
              [
                176994.68684864568,
                648018.5366228265
              ],
              [
                176909.54676409217,
                648190.8244695419
              ],
              [
                176458.7888565663,
                648192.9304582074
              ],
              [
                176221.90684753592,
                648065.2464111955
              ],
              [
                176026.71839402977,
                647636.686719415
              ],
              [
                175958.21192543703,
                646756.7674090615
              ],
              [
                175892.214165502,
                646413.8026814635
              ],
              [
                175896.08744695783,
                646308.2510723914
              ],
              [
                175180.36954006244,
                645665.6798999251
              ],
              [
                173911.27792926168,
                645134.8964517475
              ],
              [
                172892.08905784285,
                644616.7167447391
              ],
              [
                171994.33532875965,
                643769.9997305439
              ],
              [
                171867.63453318126,
                643442.7373419707
              ],
              [
                171538.0613418104,
                642591.4647881924
              ],
              [
                170946.48005528998,
                640018.1594966957
              ],
              [
                171046.07402506517,
                639291.5169755018
              ],
              [
                171413.07087667432,
                638792.4670790336
              ],
              [
                171690.59103502322,
                638447.6438741866
              ],
              [
                171496.9080436058,
                638341.3076359862
              ],
              [
                170850.4073074172,
                637850.4611305522
              ],
              [
                169904.65360484936,
                636796.4469009154
              ],
              [
                169814.68811936132,
                636696.183056721
              ],
              [
                169485.39578837855,
                635130.4289629529
              ],
              [
                169231.13587985956,
                634031.396055104
              ],
              [
                169222.50512179366,
                633994.0897916455
              ],
              [
                169078.24656755856,
                633724.0997619526
              ],
              [
                168939.56837954884,
                633179.5677146502
              ],
              [
                168891.60901766524,
                632085.070114756
              ],
              [
                169084.49012250983,
                632019.7735613957
              ],
              [
                169514.0992122793,
                632103.4578886922
              ],
              [
                170073.05183525485,
                632251.1868268931
              ],
              [
                170996.41767463766,
                632311.2681563538
              ],
              [
                171423.11888916892,
                631772.5617845638
              ],
              [
                171658.8981561029,
                631664.2190532254
              ],
              [
                172155.81029237062,
                632370.2467437179
              ],
              [
                172565.82937057992,
                632819.0988381039
              ],
              [
                172866.35081571754,
                632839.2444092913
              ],
              [
                173079.67834727315,
                632537.8203975828
              ],
              [
                173010.57016763318,
                631529.1131136504
              ],
              [
                173244.44362142732,
                631012.8572927681
              ],
              [
                173481.37296634834,
                631204.9365110397
              ],
              [
                173676.0592043347,
                631526.003878416
              ],
              [
                173826.6972022446,
                631589.6954741599
              ],
              [
                174083.06972730774,
                631330.9161049079
              ],
              [
                174233.60704521957,
                631373.0585318445
              ],
              [
                174428.79549872573,
                631801.618223625
              ],
              [
                174536.53533454626,
                631908.355997347
              ],
              [
                174793.70974618217,
                631821.2094196556
              ],
              [
                175456.79193869466,
                631302.9482901061
              ],
              [
                176446.1567224831,
                631706.2478667975
              ],
              [
                176854.2699875526,
                631747.1868716397
              ],
              [
                177582.85009342153,
                631464.9051845495
              ],
              [
                178749.1401726111,
                630351.6080413419
              ],
              [
                178499.09489576472,
                630000.8264802387
              ],
              [
                177100.0118892906,
                629213.0687959509
              ],
              [
                176004.45888319038,
                629089.3965507443
              ],
              [
                174866.51475426686,
                629008.7681145745
              ],
              [
                174716.17761188056,
                629009.4705056199
              ],
              [
                173620.62375063653,
                628475.7927645422
              ],
              [
                173229.8640235251,
                627981.3340356203
              ],
              [
                172948.97044271755,
                627515.0834197921
              ],
              [
                172631.35861870885,
                626705.6305150017
              ],
              [
                172468.43958724814,
                625757.1032763342
              ],
              [
                172381.79404060595,
                625607.1676694695
              ],
              [
                172097.55319626856,
                624513.5204765094
              ],
              [
                171348.17901403573,
                623471.8704278523
              ],
              [
                170973.98503947599,
                622951.7308486558
              ],
              [
                167694.83929964612,
                619467.897009765
              ],
              [
                167327.76571941676,
                619040.3939086609
              ],
              [
                167306.36939024425,
                619018.944235381
              ],
              [
                165875.67734311835,
                617226.8566815683
              ],
              [
                165837.97802860456,
                617179.6344491786
              ],
              [
                164909.1967897964,
                615960.4613575088
              ],
              [
                164326.24081793378,
                615233.2860337305
              ],
              [
                163787.73462166925,
                614849.4296371811
              ],
              [
                163206.88463847205,
                614573.0122209287
              ],
              [
                160467.49585289173,
                611795.0058970049
              ],
              [
                160464.4130850085,
                611520.802949809
              ],
              [
                160431.05674753775,
                608553.8568842544
              ],
              [
                160426.2418746891,
                607523.299575991
              ],
              [
                160505.51286465864,
                606149.0763335547
              ],
              [
                160301.5281234677,
                604930.0371339358
              ],
              [
                160218.36414508306,
                604433.0384415078
              ],
              [
                158257.77359018795,
                602052.2812228855
              ],
              [
                157849.56089495873,
                602834.2209306194
              ],
              [
                157170.4989571696,
                604490.3776687314
              ],
              [
                156857.90445352282,
                604930.0371339358
              ],
              [
                156573.31502906466,
                605330.3078767045
              ],
              [
                156058.9650213222,
                605504.3475124543
              ],
              [
                155887.07871012844,
                605505.1505834977
              ],
              [
                154122.4797451506,
                604569.0137296
              ],
              [
                153030.92626313993,
                604214.0431613289
              ],
              [
                151779.1356011704,
                603806.9638473429
              ],
              [
                147418.8802893156,
                603290.8761684031
              ],
              [
                145937.26303353204,
                603233.1495234948
              ],
              [
                145748.36048697587,
                603328.8467679466
              ],
              [
                145960.5178399538,
                603598.1171150587
              ],
              [
                148098.00850457855,
                606207.0455074995
              ],
              [
                148725.11339651572,
                607213.1457717174
              ],
              [
                148817.28882446972,
                607304.2485136527
              ],
              [
                148833.10675196932,
                607319.882360969
              ],
              [
                149265.02319040033,
                607897.4229334062
              ],
              [
                150604.4264029356,
                609694.4896126739
              ],
              [
                150852.13318275643,
                610027.3922498294
              ],
              [
                153931.283993233,
                614165.5810622172
              ],
              [
                154492.89097181376,
                614935.7018839754
              ],
              [
                155351.4709323873,
                616310.6571804313
              ],
              [
                155682.45807301195,
                616840.7097590598
              ],
              [
                156547.8485715996,
                618274.914835429
              ],
              [
                157282.1449324175,
                619216.1188973377
              ],
              [
                157714.5162504777,
                619836.7566229193
              ],
              [
                158016.74214875902,
                620221.7169460356
              ],
              [
                158384.1639204026,
                620778.0092051891
              ],
              [
                158882.2321428742,
                621677.2176715792
              ],
              [
                159596.78446802642,
                623004.8863342225
              ],
              [
                159899.86559698803,
                623518.6334464471
              ],
              [
                160354.63530631913,
                624375.1984548515
              ],
              [
                160463.47906870669,
                624718.2165265568
              ],
              [
                161674.7966987085,
                626666.222059258
              ],
              [
                161772.9994275408,
                626860.3424463575
              ],
              [
                163689.91803574876,
                630649.575054131
              ],
              [
                164016.27647190663,
                631259.7760950092
              ],
              [
                164880.98941456506,
                632876.5528631625
              ],
              [
                165444.3020307601,
                634011.7419564826
              ],
              [
                165550.5638156374,
                634223.4749428073
              ],
              [
                166787.81654062815,
                636688.7752819946
              ],
              [
                166876.65831722177,
                636901.9729395539
              ]
            ]
          ]
        ]
      }
    }
  ]
}