{
  "type": "FeatureCollection",
  "name": "tama1_electricity",
  "description": "תמ\"א 1 – קו חשמל ארצי",
  "crs": {
    "type": "name",
    "properties": {
      "name": "urn:ogc:def:crs:EPSG::2039"
    }
  },
  "features": [
    {
      "type": "Feature",
      "properties": {
        "OBJECTID": 23,
        "PL_NAME": "תוכנית מיתאר ארצית אחודה",
        "PL_NUMBER": "תמא/ 1",
        "stage": "תשתיות",
        "type_name": "חשמל",
        "Layer_Name": "קו חשמל ארצי מתוכנית מאושרת - לידיעה בלבד",
        "MAVAT_NAME": "קו חשמל ארצי מתוכנית מאושרת",
        "MAVAT_CODE": 10001,
        "NAME": "מעבר קווי חשמל ראשיים זמורות-גן שורק-גנות ולתחנת *",
        "SCENARIO": "ראשי",
        "DATA_DATE": 1563062400000,
        "STATUS": "מאושרת",
        "LABEL": "מעבר קווי חשמל ראשיים זמורות-גן שורק-גנות ולתחנת *",
        "PL_change": "תמא/ 10/ ג/ 4",
        "PL_URL": "https://mavat.iplan.gov.il/SV4/1/99001443",
        "REMARKS": null,
        "scale": "1:100000",
        "TYPE_CODE": null,
        "NUM": null,
        "LAST_UPDATE": "14/07/2019",
        "LEGAL_AREA": null,
        "LEN": 11606.932371725114
      },
      "geometry": {
        "type": "MultiLineString",
        "coordinates": [
          [
            [
              170743.74039999954,
              621514.7173999995
            ],
            [
              170427.28639999963,
              621959.5267999992
            ],
            [
              170123.01489999983,
              622462.2360999994
            ],
            [
              170119.37770000007,
              622480.9595999997
            ],
            [
              170047.37430000026,
              622851.6213000007
            ],
            [
              170076.3069000002,
              622885.6461999994
            ],
            [
              170161.8222000003,
              622986.2126000002
            ],
            [
              170206.35879999958,
              623038.5879999995
            ],
            [
              170093.9106999999,
              623210.5675000008
            ],
            [
              170027.72530000005,
              623342.1110999994
            ],
            [
              169649.61930000037,
              624093.5965
            ],
            [
              169647.1841000002,
              624098.4366999995
            ],
            [
              169564.74299999978,
              624262.2883000001
            ],
            [
              169181.25700000022,
              625002.6293000001
            ],
            [
              169088.49199999962,
              625181.7172999997
            ],
            [
              169028.96059999987,
              625552.1347000003
            ],
            [
              168980.45349999983,
              625802.7548999991
            ],
            [
              168909.89790000021,
              626167.2921999991
            ],
            [
              168663.93900000025,
              627487.0717999991
            ],
            [
              168638.69940000027,
              627622.5033999998
            ],
            [
              168592.58189999964,
              627968.3850999996
            ],
            [
              168435.55150000006,
              628903.9184000008
            ],
            [
              168427.61400000006,
              628983.2935000006
            ],
            [
              168912.9115000004,
              629484.5651999991
            ],
            [
              168931.64630000014,
              630646.2030999996
            ],
            [
              168963.39630000014,
              631364.5482999999
            ],
            [
              168973.5711000003,
              631471.6407999992
            ],
            [
              168973.6908999998,
              631475.8330000006
            ],
            [
              168976.04389999993,
              631558.1884000003
            ],
            [
              169061.8214999996,
              631680.9905999992
            ],
            [
              169315.82210000046,
              632030.2412999999
            ],
            [
              169417.04449999984,
              632189.3050999995
            ]
          ],
          [
            [
              168687.1076999996,
              631950.9176000003
            ],
            [
              169387.57749999966,
              632565.1854999997
            ],
            [
              169761.5125000002,
              633003.9482000005
            ],
            [
              169893.17960000038,
              633193.4938999992
            ],
            [
              170156.51439999975,
              633958.6963999998
            ],
            [
              170549.7605999997,
              634237.7492999993
            ],
            [
              171060.6297000004,
              635060.8684999999
            ],
            [
              171545.1649000002,
              635831.3357999995
            ],
            [
              171773.38800000027,
              635901.5379000008
            ],
            [
              172071.83389999997,
              636343.8109000009
            ],
            [
              172486.14630000014,
              636963.3441000003
            ],
            [
              172489.65770000033,
              637796.9936999995
            ],
            [
              172507.21320000011,
              638630.6429999992
            ],
            [
              172496.68039999995,
              638783.3325999994
            ],
            [
              172494.92470000032,
              639199.2796999998
            ],
            [
              172510.7246000003,
              640385.6942999996
            ],
            [
              172510.0365000004,
              640528.6410000008
            ],
            [
              172412.89800000004,
              640531.1309999991
            ],
            [
              172402.9353,
              640777.6415999997
            ],
            [
              173107.81159999967,
              642186.9836999997
            ],
            [
              174126.51999999955,
              644056.9765000008
            ],
            [
              174654.55460000038,
              645015.6281000003
            ],
            [
              175127.7932000002,
              646066.4100000001
            ],
            [
              175177.60780000035,
              646295.4905999992
            ],
            [
              175399.28280000016,
              648347.2540000007
            ],
            [
              175558.6891999999,
              649674.4264000002
            ],
            [
              176517.62040000036,
              650874.6085000001
            ],
            [
              179020.80339999963,
              651768.5200999994
            ],
            [
              179048.20129999984,
              651828.2799999993
            ],
            [
              179461.6621000003,
              651980.1701999996
            ],
            [
              179523.9305999996,
              652044.9105999991
            ],
            [
              179576.23589999974,
              652139.5306000002
            ],
            [
              180081.8537999997,
              653145.4921000004
            ],
            [
              180781.74870000035,
              654998.0552999992
            ],
            [
              181122.97890000045,
              655879.5165999997
            ],
            [
              181593.7268000003,
              656285.3875999991
            ],
            [
              182044.5488,
              656661.3782000002
            ],
            [
              182316.03780000005,
              657002.5088
            ],
            [
              182562.62009999994,
              657306.2891000006
            ],
            [
              182786.7856999999,
              657607.5795000009
            ],
            [
              183255.0429999996,
              658364.5408999994
            ],
            [
              183282.8150000004,
              658406.7902000006
            ]
          ]
        ]
      }
    },
    {
      "type": "Feature",
      "properties": {
        "OBJECTID": 25,
        "PL_NAME": "תוכנית מיתאר ארצית אחודה",
        "PL_NUMBER": "תמא/ 1",
        "stage": "תשתיות",
        "type_name": "חשמל",
        "Layer_Name": "קו חשמל ארצי מתוכנית מאושרת - לידיעה בלבד",
        "MAVAT_NAME": "קו חשמל ארצי מתוכנית מאושרת",
        "MAVAT_CODE": 10001,
        "NAME": null,
        "SCENARIO": "ראשי",
        "DATA_DATE": 1563062400000,
        "STATUS": "מאושרת",
        "LABEL": null,
        "PL_change": "תממ/ 3/ 21",
        "PL_URL": "https://mavat.iplan.gov.il/SV4/1/99001378",
        "REMARKS": null,
        "scale": "1:100000",
        "TYPE_CODE": null,
        "NUM": null,
        "LAST_UPDATE": "14/07/2019",
        "LEGAL_AREA": null,
        "LEN": 14363.862758296735
      },
      "geometry": {
        "type": "MultiLineString",
        "coordinates": [
          [
            [
              189439.45390000008,
              635370.4757000003
            ],
            [
              189938.13609999977,
              636056.0297999997
            ],
            [
              190163.27909999993,
              636365.5409999993
            ],
            [
              190186.49390000012,
              636397.4550999999
            ],
            [
              190203.6799999997,
              636467.9922000002
            ],
            [
              190902.21659999993,
              639335.0099999998
            ],
            [
              190954.85890000034,
              639551.0710000005
            ],
            [
              190482.38850000035,
              640690.0527999997
            ],
            [
              190176.20999999996,
              641428.1557999998
            ],
            [
              190087.92069999967,
              641640.9943000004
            ],
            [
              190187.56340000033,
              642370.0272000004
            ],
            [
              190202.69189999998,
              642480.7142999992
            ],
            [
              190425.2949000001,
              644109.3824000005
            ],
            [
              189855.5691999998,
              645628.1554000005
            ],
            [
              189809.24399999995,
              645751.6488000005
            ],
            [
              189771.72420000006,
              645851.6689999998
            ]
          ],
          [
            [
              189771.72420000006,
              645851.6689999998
            ],
            [
              189688.0917999996,
              645768.8434999995
            ],
            [
              189349.62789999973,
              645433.6455000006
            ],
            [
              189159.11710000038,
              645244.9729999993
            ],
            [
              188819.42119999975,
              644908.5548999999
            ],
            [
              186789.52990000043,
              645297.5184000004
            ],
            [
              185726.38540000003,
              645289.3399999999
            ],
            [
              185554.7324000001,
              645288.0196000002
            ],
            [
              185272.90899999999,
              645285.8516000006
            ],
            [
              185210.1314000003,
              645285.3686999995
            ],
            [
              182781.14979999978,
              647702.2652000003
            ],
            [
              182768.1409,
              647715.2093000002
            ],
            [
              182720.31099999975,
              648126.5543000009
            ],
            [
              182726.55269999988,
              648218.3501999993
            ],
            [
              182748.8063000003,
              648545.6338999998
            ],
            [
              182751.29899999965,
              648582.2938000001
            ],
            [
              182766.06649999972,
              648799.4787000008
            ],
            [
              182795.1671000002,
              649227.4609999992
            ],
            [
              182795.1853,
              649227.7293999996
            ],
            [
              182794.52890000027,
              649228.5362999998
            ],
            [
              182642.83970000036,
              649414.9916999992
            ],
            [
              182542.12770000007,
              649538.7862999998
            ],
            [
              182479.94579999987,
              649609.6782000009
            ],
            [
              182421.8049999997,
              649665.5859999992
            ],
            [
              181935.3217000002,
              650101.8413999993
            ],
            [
              181731.29050000012,
              650242.4791000001
            ],
            [
              181289.21630000044,
              650417.7262999993
            ],
            [
              181245.8024000004,
              650434.9364999998
            ],
            [
              180798.62650000025,
              650595.4204999991
            ],
            [
              180226.21910000034,
              650813.6273999996
            ],
            [
              179800.07249999978,
              650979.4086000007
            ],
            [
              179763.05570000038,
              650993.8090000004
            ],
            [
              179051.8326000003,
              651340.5331999995
            ],
            [
              179016.57510000002,
              651357.7213000003
            ]
          ],
          [
            [
              189771.72420000006,
              645851.6689999998
            ],
            [
              190183.5206000004,
              646133.2553000003
            ],
            [
              190248.9785000002,
              646178.0153999999
            ],
            [
              190407.3964999998,
              646286.3416000009
            ],
            [
              190408.9243999999,
              646287.3863999993
            ],
            [
              191008.81659999955,
              646697.5924999993
            ],
            [
              191441.9269000003,
              646985.9120000005
            ],
            [
              191504.58990000002,
              647027.6264999993
            ],
            [
              191516.7106999997,
              647035.6952999998
            ],
            [
              191633.63069999963,
              647113.5283000004
            ],
            [
              192233.57789999992,
              647512.9103999995
            ],
            [
              192423.78330000024,
              647640.9572999999
            ],
            [
              192430.25129999965,
              647645.3115999997
            ],
            [
              192959.7039999999,
              648001.7408000007
            ],
            [
              192987.17700000014,
              648194.0523000006
            ],
            [
              192990.07870000042,
              648214.3642999995
            ],
            [
              193059.36799999978,
              648699.3907999992
            ],
            [
              193093.57519999985,
              648861.3237999994
            ],
            [
              193304.76329999976,
              649861.0664000008
            ],
            [
              193449.41779999994,
              650671.1575000007
            ],
            [
              193552.66720000003,
              651241.7522999998
            ],
            [
              193568.51850000024,
              651329.3529000003
            ],
            [
              193794.81439999957,
              651398.9295000006
            ],
            [
              193894.09360000025,
              651429.4538000003
            ],
            [
              193943.86220000032,
              651444.7555999998
            ],
            [
              194023.48869999964,
              651469.2375000007
            ]
          ]
        ]
      }
    }
  ]
}