{
  "type": "FeatureCollection",
  "name": "tama1_water_pipe",
  "description": "תמ\"א 1 – רצועת קו מים",
  "crs": {
    "type": "name",
    "properties": {
      "name": "urn:ogc:def:crs:EPSG::2039"
    }
  },
  "features": [
    {
      "type": "Feature",
      "properties": {
        "OBJECTID": 33,
        "PL_NAME": "תוכנית מיתאר ארצית אחודה",
        "PL_NUMBER": "תמא/1/ 8",
        "stage": "תשתיות",
        "type_name": "מים",
        "Layer_Name": "רצועה לתכנון וקו מים",
        "MAVAT_CODE": 10117,
        "MAVAT_NAME": "רצועה לתכנון קו מי מערכת",
        "name": "בת ים ראשי",
        "SCENARIO": "ראשי",
        "DATA_DATE": 1563062400000,
        "STATUS": "מאושרת",
        "LABEL": "בת ים ראשי",
        "PL_change": null,
        "PL_URL": null,
        "REMARKS": null,
        "scale": "1:100000",
        "TYPE_CODE": null,
        "NUM": null,
        "LAST_UPDATE": "14/07/2019",
        "LEGAL_AREA": null,
        "LEN": 6559.928119143462,
        "DEFQ": null
      },
      "geometry": {
        "type": "LineString",
        "coordinates": [
          [
            176328.13769999985,
            655890.9730999991
          ],
          [
            176501.6816999996,
            656750.4291999992
          ],
          [
            176553.81319999974,
            656773.8195999991
          ],
          [
            176851.25960000046,
            656703.7125000004
          ],
          [
            176888.45289999992,
            656695.2778999992
          ],
          [
            177078.94710000046,
            656650.8933000006
          ],
          [
            177391.99089999963,
            656578.2730999999
          ],
          [
            177482.76939999964,
            656590.1590999998
          ],
          [
            177698.1043999996,
            656564.6296999995
          ],
          [
            178086.5954,
            656541.3202
          ],
          [
            178502.8356999997,
            656513.5708000008
          ],
          [
            178866.38669999968,
            656464.0824999996
          ],
          [
            179079.36930000037,
            656450.3194999993
          ],
          [
            179334.01130000036,
            656433.0022999998
          ],
          [
            179381.93539999984,
            656400.3534999993
          ],
          [
            179704.93790000025,
            656373.7140999995
          ],
          [
            179732.61120000016,
            656405.8951999992
          ],
          [
            179877.21279999986,
            656396.0614
          ],
          [
            180417.46829999983,
            656359.3209000006
          ],
          [
            180437.5208999999,
            656593.4890000001
          ],
          [
            180750.53359999973,
            656579.0592999998
          ],
          [
            180937.52859999985,
            656589.0673999991
          ],
          [
            181049.2522,
            656588.1699000001
          ],
          [
            181266.99010000005,
            656640.659
          ],
          [
            181460.75,
            656476.7973999996
          ],
          [
            181524.4804999996,
            656525.4438000005
          ],
          [
            181709.16440000013,
            656290.6182000004
          ]
        ]
      }
    },
    {
      "type": "Feature",
      "properties": {
        "OBJECTID": 34,
        "PL_NAME": "תוכנית מיתאר ארצית אחודה",
        "PL_NUMBER": "תמא/1/ 8",
        "stage": "תשתיות",
        "type_name": "מים",
        "Layer_Name": "רצועה לתכנון וקו מים",
        "MAVAT_CODE": 10117,
        "MAVAT_NAME": "רצועה לתכנון קו מי מערכת",
        "name": "ירקון מערבי-צ.השבעה חולון מזרח",
        "SCENARIO": "ראשי",
        "DATA_DATE": 1563062400000,
        "STATUS": "מאושרת",
        "LABEL": "ירקון מערבי-צ.השבעה חולון מזרח",
        "PL_change": null,
        "PL_URL": null,
        "REMARKS": null,
        "scale": "1:100000",
        "TYPE_CODE": null,
        "NUM": null,
        "LAST_UPDATE": "14/07/2019",
        "LEGAL_AREA": null,
        "LEN": 7671.781032305203,
        "DEFQ": null
      },
      "geometry": {
        "type": "LineString",
        "coordinates": [
          [
            180600.625,
            654051.3790000007
          ],
          [
            180634.70550000016,
            654123.5940000005
          ],
          [
            180638.22449999955,
            654133.9657000005
          ],
          [
            180647.73450000025,
            654165.7232000008
          ],
          [
            180670.5499999998,
            654240.9001000002
          ],
          [
            180695.4249999998,
            654313.5973000005
          ],
          [
            180721.38329999987,
            654387.3047000002
          ],
          [
            180748.90000000037,
            654465.2907999996
          ],
          [
            180778.7182,
            654548.3699999992
          ],
          [
            180808.53720000014,
            654627.7850000001
          ],
          [
            180836.62939999998,
            654705.9628999997
          ],
          [
            180864.72159999982,
            654784.1409000009
          ],
          [
            180892.81369999982,
            654862.3188000005
          ],
          [
            180920.90589999966,
            654940.4966000002
          ],
          [
            180941.3317999998,
            654991.4289999995
          ],
          [
            180941.88910000026,
            654992.7843999993
          ],
          [
            180960.24959999975,
            655037.4401999991
          ],
          [
            181017.4274000004,
            655177.2695000004
          ],
          [
            181034.62079999968,
            655222.5645000003
          ],
          [
            181034.90000000037,
            655223.3000000007
          ],
          [
            181034.97809999995,
            655223.4609999992
          ],
          [
            181064.59999999963,
            655284.5
          ],
          [
            181093.90340000018,
            655379.8073999994
          ],
          [
            181123.2067999998,
            655475.1148000006
          ],
          [
            181138.2999999998,
            655523.5
          ],
          [
            181159.16970000044,
            655582.6513
          ],
          [
            181180.03940000013,
            655641.8026
          ],
          [
            181210.99569999985,
            655734.6715999991
          ],
          [
            181218.13939999975,
            655755.0445000008
          ],
          [
            181242.10780000035,
            655812.6162
          ],
          [
            181242.48460000008,
            655813.5211999994
          ],
          [
            181242.76559999958,
            655814.1973000001
          ],
          [
            181262.64250000007,
            655862.1745999996
          ],
          [
            181286.11239999998,
            655909.1345000006
          ],
          [
            181299.89350000024,
            655900.8894999996
          ],
          [
            181309.4972000001,
            655917.6345000006
          ],
          [
            181357.40639999975,
            655898.0637999997
          ],
          [
            181384.25600000005,
            655938.0111999996
          ],
          [
            181388.10670000035,
            655944.2872000001
          ],
          [
            181417.88370000012,
            655992.8192999996
          ],
          [
            181490.02950000018,
            656110.4056000002
          ],
          [
            181568.71040000021,
            656167.7423999999
          ],
          [
            181673.28679999989,
            656259.2915000003
          ],
          [
            181688.82749999966,
            656272.8609999996
          ],
          [
            181781.35749999993,
            656353.4006999992
          ],
          [
            181880.70019999985,
            656433.0995000005
          ],
          [
            181954.22800000012,
            656504.4048999995
          ],
          [
            182057.64859999996,
            656604.6028000005
          ],
          [
            182068.06180000026,
            656615.8499999996
          ],
          [
            182121.58710000012,
            656676.5058999993
          ],
          [
            182175.21600000001,
            656735.6984000001
          ],
          [
            182194.48550000042,
            656742.7403999995
          ],
          [
            182204.55260000005,
            656753.8672000002
          ],
          [
            182206.04069999978,
            656755.5120000001
          ],
          [
            182207.89140000008,
            656758.3819999993
          ],
          [
            182213.73890000023,
            656767.4504000004
          ],
          [
            182220.3032999998,
            656778.6114000008
          ],
          [
            182245.82799999975,
            656818.2178000007
          ],
          [
            182265.00140000042,
            656847.5059999991
          ],
          [
            182277.1649000002,
            656864.0866999999
          ],
          [
            182377.8333999999,
            656999.8051999994
          ],
          [
            182399.18350000028,
            657029.8936999999
          ],
          [
            182427.10319999978,
            657074.4444999993
          ],
          [
            182428.7918999996,
            657077.1391000003
          ],
          [
            182456.79970000032,
            657122.2399000004
          ],
          [
            182499.22339999955,
            657189.5262000002
          ],
          [
            182501.80449999962,
            657193.6201000009
          ],
          [
            182527.44379999954,
            657206.0076000001
          ],
          [
            182543.22429999989,
            657229.5983000007
          ],
          [
            182558.23649999965,
            657253.7331000008
          ],
          [
            182590.27759999968,
            657307.0922999997
          ],
          [
            182623.4709999999,
            657362.0517999995
          ],
          [
            182631.3772,
            657375.1435000002
          ],
          [
            182655.89800000004,
            657441.9000000004
          ],
          [
            182683.02419999987,
            657515.7493999992
          ],
          [
            182871.6813000003,
            657769.9582000002
          ],
          [
            183046.76279999968,
            657972.1645
          ],
          [
            183347.4450000003,
            658319.4304000009
          ],
          [
            183648.98330000043,
            658714.7825000007
          ],
          [
            183883.51410000026,
            659002.9207000006
          ],
          [
            184171.65340000018,
            659411.6749000009
          ],
          [
            184218.55869999994,
            659606.0003999993
          ],
          [
            184184.1654000003,
            660472.3567999993
          ]
        ]
      }
    },
    {
      "type": "Feature",
      "properties": {
        "OBJECTID": 104,
        "PL_NAME": "תוכנית מיתאר ארצית אחודה",
        "PL_NUMBER": "תמא/1/ 8",
        "stage": "תשתיות",
        "type_name": "מים",
        "Layer_Name": "רצועה לתכנון וקו מים",
        "MAVAT_CODE": 10117,
        "MAVAT_NAME": "רצועה לתכנון קו מי מערכת",
        "name": "ירקון מערבי-צ.השבעה חולון מזרח",
        "SCENARIO": "ראשי",
        "DATA_DATE": 1563062400000,
        "STATUS": "מאושרת",
        "LABEL": "ירקון מערבי-צ.השבעה חולון מזרח",
        "PL_change": "תמא/ 34/ ב/ 6",
        "PL_URL": "https://mavat.iplan.gov.il/SV4/1/99000311373",
        "REMARKS": null,
        "scale": "1:100000",
        "TYPE_CODE": null,
        "NUM": null,
        "LAST_UPDATE": "14/07/2019",
        "LEGAL_AREA": null,
        "LEN": 2340.88544660918,
        "DEFQ": null
      },
      "geometry": {
        "type": "LineString",
        "coordinates": [
          [
            183562.94880000036,
            659061.4901999999
          ],
          [
            184035.98309999984,
            658695.0013999995
          ],
          [
            184313.79609999992,
            658663.2512999997
          ],
          [
            184456.67140000034,
            658607.6886999998
          ],
          [
            184742.42200000025,
            658425.1258000005
          ],
          [
            184766.23450000025,
            658274.3129999992
          ],
          [
            184734.48450000025,
            657980.6249000002
          ],
          [
            184959.5100999996,
            657509.1751000006
          ]
        ]
      }
    },
    {
      "type": "Feature",
      "properties": {
        "OBJECTID": 112,
        "PL_NAME": "תוכנית מיתאר ארצית אחודה",
        "PL_NUMBER": "תמא/1/ 8",
        "stage": "תשתיות",
        "type_name": "מים",
        "Layer_Name": "רצועה לתכנון וקו מים",
        "MAVAT_CODE": 10117,
        "MAVAT_NAME": "רצועה לתכנון קו מי מערכת",
        "name": "בת ים ראשי",
        "SCENARIO": "ראשי",
        "DATA_DATE": 1563062400000,
        "STATUS": "מאושרת",
        "LABEL": "בת ים ראשי",
        "PL_change": "תמא/ 34/ ב/ 6",
        "PL_URL": "https://mavat.iplan.gov.il/SV4/1/99000311373",
        "REMARKS": null,
        "scale": "1:100000",
        "TYPE_CODE": null,
        "NUM": null,
        "LAST_UPDATE": "14/07/2019",
        "LEGAL_AREA": null,
        "LEN": 1910.2057365543808,
        "DEFQ": null
      },
      "geometry": {
        "type": "LineString",
        "coordinates": [
          [
            181050.00009999983,
            655149.9996000007
          ],
          [
            181149.53949999996,
            655043.2101000007
          ],
          [
            181296.38350000046,
            655007.4912999999
          ],
          [
            181427.35250000004,
            655082.8977000006
          ],
          [
            181502.75889999978,
            655225.7729000002
          ],
          [
            181617.8529000003,
            655543.2736000009
          ],
          [
            181522.6026999997,
            655654.3988000005
          ],
          [
            181463.07139999978,
            655856.8055000007
          ],
          [
            181494.82139999978,
            655944.1181000005
          ],
          [
            181601.9779000003,
            656027.4620999992
          ],
          [
            181705.16559999995,
            656158.4310999997
          ],
          [
            181788.5094999997,
            656233.8375000004
          ],
          [
            181709.16440000013,
            656290.6182000004
          ]
        ]
      }
    },
    {
      "type": "Feature",
      "properties": {
        "OBJECTID": 113,
        "PL_NAME": "תוכנית מיתאר ארצית אחודה",
        "PL_NUMBER": "תמא/1/ 8",
        "stage": "תשתיות",
        "type_name": "מים",
        "Layer_Name": "רצועה לתכנון וקו מים",
        "MAVAT_CODE": 10117,
        "MAVAT_NAME": "רצועה לתכנון קו מי מערכת",
        "name": "ירקון מערבי חדש",
        "SCENARIO": "ראשי",
        "DATA_DATE": 1563062400000,
        "STATUS": "מאושרת",
        "LABEL": "ירקון מערבי חדש",
        "PL_change": "תמא/ 34/ ב/ 6",
        "PL_URL": "https://mavat.iplan.gov.il/SV4/1/99000311373",
        "REMARKS": null,
        "scale": "1:100000",
        "TYPE_CODE": null,
        "NUM": null,
        "LAST_UPDATE": "14/07/2019",
        "LEGAL_AREA": null,
        "LEN": 2205.9085730962265,
        "DEFQ": null
      },
      "geometry": {
        "type": "LineString",
        "coordinates": [
          [
            184493.87640000042,
            662683.8812000006
          ],
          [
            184234.00820000004,
            661959.5603999998
          ],
          [
            184085,
            661530.5
          ],
          [
            184036.26999999955,
            660606.3149999995
          ],
          [
            184033.28380000032,
            660549.6796000004
          ]
        ]
      }
    },
    {
      "type": "Feature",
      "properties": {
        "OBJECTID": 120,
        "PL_NAME": "תוכנית מיתאר ארצית אחודה",
        "PL_NUMBER": "תמא/1/ 8",
        "stage": "תשתיות",
        "type_name": "מים",
        "Layer_Name": "רצועה לתכנון וקו מים",
        "MAVAT_CODE": 10117,
        "MAVAT_NAME": "רצועה לתכנון קו מי מערכת",
        "name": "מולדת - אסף הרופא",
        "SCENARIO": "ראשי",
        "DATA_DATE": 1563062400000,
        "STATUS": "מאושרת",
        "LABEL": "מולדת - אסף הרופא",
        "PL_change": "תמא/ 34/ ב/ 6",
        "PL_URL": "https://mavat.iplan.gov.il/SV4/1/99000311373",
        "REMARKS": null,
        "scale": "1:100000",
        "TYPE_CODE": null,
        "NUM": null,
        "LAST_UPDATE": "14/07/2019",
        "LEGAL_AREA": null,
        "LEN": 5914.563316454078,
        "DEFQ": null
      },
      "geometry": {
        "type": "LineString",
        "coordinates": [
          [
            182684.73570000008,
            657397.0658999998
          ],
          [
            183246.23830000032,
            656563.5676000006
          ],
          [
            183160.68420000002,
            656398.8593000006
          ],
          [
            183488.51570000034,
            655755.9762999993
          ],
          [
            183650.03399999999,
            655715.5966999996
          ],
          [
            183993.2603000002,
            655220.9470000006
          ],
          [
            184306.20199999958,
            654595.0636999998
          ],
          [
            184609.04870000016,
            654160.9833000004
          ],
          [
            184705.91160000023,
            654033.2997999992
          ],
          [
            184407.15089999977,
            653827.8519000001
          ],
          [
            183983.1654000003,
            653605.7642999999
          ],
          [
            184311.2257000003,
            653138.0744000003
          ],
          [
            183972.58000000007,
            652869.9000000004
          ]
        ]
      }
    },
    {
      "type": "Feature",
      "properties": {
        "OBJECTID": 121,
        "PL_NAME": "תוכנית מיתאר ארצית אחודה",
        "PL_NUMBER": "תמא/1/ 8",
        "stage": "תשתיות",
        "type_name": "מים",
        "Layer_Name": "רצועה לתכנון וקו מים",
        "MAVAT_CODE": 10117,
        "MAVAT_NAME": "רצועה לתכנון קו מי מערכת",
        "name": "קו מזרח רמת גן",
        "SCENARIO": "ראשי",
        "DATA_DATE": 1563062400000,
        "STATUS": "מאושרת",
        "LABEL": "קו מזרח רמת גן",
        "PL_change": "תמא/ 34/ ב/ 6",
        "PL_URL": "https://mavat.iplan.gov.il/SV4/1/99000311373",
        "REMARKS": null,
        "scale": "1:100000",
        "TYPE_CODE": null,
        "NUM": null,
        "LAST_UPDATE": "14/07/2019",
        "LEGAL_AREA": null,
        "LEN": 212.4964766605991,
        "DEFQ": null
      },
      "geometry": {
        "type": "LineString",
        "coordinates": [
          [
            185509.30059999973,
            660543.9463999998
          ],
          [
            185511.53340000007,
            660543.2412999999
          ],
          [
            185489.80640000012,
            660356.3891000003
          ],
          [
            185487.2603000002,
            660334.4927999992
          ]
        ]
      }
    },
    {
      "type": "Feature",
      "properties": {
        "OBJECTID": 122,
        "PL_NAME": "תוכנית מיתאר ארצית אחודה",
        "PL_NUMBER": "תמא/1/ 8",
        "stage": "תשתיות",
        "type_name": "מים",
        "Layer_Name": "רצועה לתכנון וקו מים",
        "MAVAT_CODE": 10117,
        "MAVAT_NAME": "רצועה לתכנון קו מי מערכת",
        "name": "קו מזרח רמת גן",
        "SCENARIO": "ראשי",
        "DATA_DATE": 1563062400000,
        "STATUS": "מאושרת",
        "LABEL": "קו מזרח רמת גן",
        "PL_change": "תמא/ 34/ ב/ 6",
        "PL_URL": "https://mavat.iplan.gov.il/SV4/1/99000311373",
        "REMARKS": null,
        "scale": "1:100000",
        "TYPE_CODE": null,
        "NUM": null,
        "LAST_UPDATE": "14/07/2019",
        "LEGAL_AREA": null,
        "LEN": 2590.4832420316984,
        "DEFQ": null
      },
      "geometry": {
        "type": "LineString",
        "coordinates": [
          [
            185509.30059999973,
            660543.9463999998
          ],
          [
            185528.52460000012,
            660610.3259999994
          ],
          [
            185608.06319999974,
            660737.5877999999
          ],
          [
            185473.27070000023,
            660780.0784000009
          ],
          [
            185583.4698999999,
            661025.3476999998
          ],
          [
            185696.7117999997,
            660993.5976
          ],
          [
            185711.52850000001,
            661042.2809999995
          ],
          [
            185810.08600000013,
            661021.5111999996
          ],
          [
            185865.2516999999,
            661165.9739999995
          ],
          [
            185904.1456000004,
            661304.7481999993
          ],
          [
            185935.8956000004,
            661441.8026999999
          ],
          [
            185867.1037999997,
            661462.9693999998
          ],
          [
            185933.24980000034,
            661619.0738999993
          ],
          [
            185962.35400000028,
            661732.8449000008
          ],
          [
            185959.70820000023,
            661793.6992000006
          ],
          [
            186025.8541000001,
            661825.4493000004
          ],
          [
            185999.92489999998,
            661887.8911000006
          ],
          [
            185904.5423999997,
            662053.1237000003
          ],
          [
            185851.62569999974,
            662192.6917000003
          ],
          [
            185814.9469999997,
            662351.5861000009
          ],
          [
            185810.09240000043,
            662380.7138
          ],
          [
            185914.46659999993,
            662421.9781
          ],
          [
            185892.62079999968,
            662463.2423
          ]
        ]
      }
    },
    {
      "type": "Feature",
      "properties": {
        "OBJECTID": 156,
        "PL_NAME": "תוכנית מיתאר ארצית אחודה",
        "PL_NUMBER": "תמא/1/ 8",
        "stage": "תשתיות",
        "type_name": "מים",
        "Layer_Name": "רצועה לתכנון וקו מים",
        "MAVAT_CODE": 10117,
        "MAVAT_NAME": "רצועה לתכנון קו מי מערכת",
        "name": "ירקון מערבי-צ.השבעה חולון מזרח",
        "SCENARIO": "ראשי",
        "DATA_DATE": 1563062400000,
        "STATUS": "מאושרת",
        "LABEL": "ירקון מערבי-צ.השבעה חולון מזרח",
        "PL_change": "תמא/ 34/ ב/ 6",
        "PL_URL": "https://mavat.iplan.gov.il/SV4/1/99000311373",
        "REMARKS": null,
        "scale": "1:100000",
        "TYPE_CODE": null,
        "NUM": null,
        "LAST_UPDATE": "14/07/2019",
        "LEGAL_AREA": null,
        "LEN": 1020.7840793101606,
        "DEFQ": null
      },
      "geometry": {
        "type": "LineString",
        "coordinates": [
          [
            182204.55260000005,
            656753.8672000002
          ],
          [
            183161.16839999985,
            656397.6560999993
          ]
        ]
      }
    },
    {
      "type": "Feature",
      "properties": {
        "OBJECTID": 176,
        "PL_NAME": "תוכנית מיתאר ארצית אחודה",
        "PL_NUMBER": "תמא/1/ 8",
        "stage": "תשתיות",
        "type_name": "מים",
        "Layer_Name": "רצועה לתכנון וקו מים",
        "MAVAT_CODE": 10117,
        "MAVAT_NAME": "רצועה לתכנון קו מי מערכת",
        "name": "רנתיה-רמלה ראשי",
        "SCENARIO": "ראשי",
        "DATA_DATE": 1563062400000,
        "STATUS": "מאושרת",
        "LABEL": "רנתיה-רמלה ראשי",
        "PL_change": "תמא/ 34/ ב/ 6",
        "PL_URL": "https://mavat.iplan.gov.il/SV4/1/99000311373",
        "REMARKS": null,
        "scale": "1:100000",
        "TYPE_CODE": null,
        "NUM": null,
        "LAST_UPDATE": "14/07/2019",
        "LEGAL_AREA": null,
        "LEN": 7843.853037884397,
        "DEFQ": null
      },
      "geometry": {
        "type": "LineString",
        "coordinates": [
          [
            184734.32540000044,
            654028.7903000005
          ],
          [
            187413.9497999996,
            649749.5866
          ],
          [
            186266.7466000002,
            649590.0351999998
          ],
          [
            186106.69450000022,
            647961.2294999994
          ]
        ]
      }
    },
    {
      "type": "Feature",
      "properties": {
        "OBJECTID": 177,
        "PL_NAME": "תוכנית מיתאר ארצית אחודה",
        "PL_NUMBER": "תמא/1/ 8",
        "stage": "תשתיות",
        "type_name": "מים",
        "Layer_Name": "רצועה לתכנון וקו מים",
        "MAVAT_CODE": 10117,
        "MAVAT_NAME": "רצועה לתכנון קו מי מערכת",
        "name": "רנתיה-רמלה ראשי",
        "SCENARIO": "ראשי",
        "DATA_DATE": 1563062400000,
        "STATUS": "מאושרת",
        "LABEL": "רנתיה-רמלה ראשי",
        "PL_change": "תמא/ 34/ ב/ 6",
        "PL_URL": "https://mavat.iplan.gov.il/SV4/1/99000311373",
        "REMARKS": null,
        "scale": "1:100000",
        "TYPE_CODE": null,
        "NUM": null,
        "LAST_UPDATE": "14/07/2019",
        "LEGAL_AREA": null,
        "LEN": 5617.2556835688165,
        "DEFQ": null
      },
      "geometry": {
        "type": "LineString",
        "coordinates": [
          [
            187413.9497999996,
            649749.5866
          ],
          [
            189245.3086000001,
            651150.0617999993
          ],
          [
            190171.35209999979,
            652023.1885000002
          ],
          [
            190868.60219999962,
            653939.2974999994
          ]
        ]
      }
    },
    {
      "type": "Feature",
      "properties": {
        "OBJECTID": 178,
        "PL_NAME": "תוכנית מיתאר ארצית אחודה",
        "PL_NUMBER": "תמא/1/ 8",
        "stage": "תשתיות",
        "type_name": "מים",
        "Layer_Name": "רצועה לתכנון וקו מים",
        "MAVAT_CODE": 10117,
        "MAVAT_NAME": "רצועה לתכנון קו מי מערכת",
        "name": "ירקון מערבי - בני ברק-כביש ירושלים",
        "SCENARIO": "ראשי",
        "DATA_DATE": 1563062400000,
        "STATUS": "מאושרת",
        "LABEL": "ירקון מערבי - בני ברק-כביש ירושלים",
        "PL_change": "תמא/ 34/ ב/ 6",
        "PL_URL": "https://mavat.iplan.gov.il/SV4/1/99000311373",
        "REMARKS": null,
        "scale": "1:100000",
        "TYPE_CODE": null,
        "NUM": null,
        "LAST_UPDATE": "14/07/2019",
        "LEGAL_AREA": null,
        "LEN": 10883.974114486007,
        "DEFQ": null
      },
      "geometry": {
        "type": "LineString",
        "coordinates": [
          [
            194094.52029999997,
            660679.3805
          ],
          [
            193358.34860000014,
            660287.4023000002
          ],
          [
            192776.26410000026,
            659956.6724999994
          ],
          [
            192114.80449999962,
            659718.5470000003
          ],
          [
            191530.20880000014,
            659148.1456000004
          ],
          [
            191446.24320000038,
            659107.9898000006
          ],
          [
            191069.69820000045,
            659070.3165000007
          ],
          [
            189905.52919999976,
            659308.4419999998
          ],
          [
            188845.95909999963,
            659439.7577
          ],
          [
            188132.81730000023,
            660088.9644000009
          ],
          [
            187974.0669999998,
            660115.4228000008
          ],
          [
            187510.83499999996,
            660029.3778000008
          ],
          [
            185489.80640000012,
            660356.3891000003
          ],
          [
            185262.08239999972,
            660393.2357999999
          ],
          [
            184476.5504999999,
            660457.5341999996
          ],
          [
            184036.26999999955,
            660606.3149999995
          ],
          [
            184030.7209999999,
            660608.1900999993
          ]
        ]
      }
    },
    {
      "type": "Feature",
      "properties": {
        "OBJECTID": 238,
        "PL_NAME": "תוכנית מיתאר ארצית אחודה",
        "PL_NUMBER": "תמא/1/ 8",
        "stage": "תשתיות",
        "type_name": "מים",
        "Layer_Name": "רצועה לתכנון וקו מים",
        "MAVAT_CODE": 10118,
        "MAVAT_NAME": "קו / מובל מים",
        "name": "ירקון מזרחי קולה-אחיסמך",
        "SCENARIO": "ראשי",
        "DATA_DATE": 1563062400000,
        "STATUS": "מאושרת",
        "LABEL": "ירקון מזרחי קולה-אחיסמך",
        "PL_change": null,
        "PL_URL": null,
        "REMARKS": null,
        "scale": "1:100000",
        "TYPE_CODE": null,
        "NUM": null,
        "LAST_UPDATE": "14/07/2019",
        "LEGAL_AREA": null,
        "LEN": 8023.17640038906,
        "DEFQ": null
      },
      "geometry": {
        "type": "LineString",
        "coordinates": [
          [
            191790.00119999982,
            650946.8746000007
          ],
          [
            191789.20689999964,
            650947.7837000005
          ],
          [
            191733.73309999984,
            651011.2854999993
          ],
          [
            191678.25930000003,
            651074.7872000001
          ],
          [
            191622.7854000004,
            651138.2890000008
          ],
          [
            191588.9583999999,
            651177.0571999997
          ],
          [
            191555.1314000003,
            651215.8253000006
          ],
          [
            191500.30960000027,
            651285.0140000004
          ],
          [
            191453.61050000042,
            651344.4792
          ],
          [
            191445.13989999983,
            651376.2083999999
          ],
          [
            191429.31689999998,
            651421.1016000006
          ],
          [
            191417.4495000001,
            651440.2356000002
          ],
          [
            191386.99959999975,
            651492.6729000006
          ],
          [
            191404.8509999998,
            651516.1007000003
          ],
          [
            191416.8069000002,
            651531.7914000005
          ],
          [
            191455.78019999992,
            651554.7440000009
          ],
          [
            191439.64049999975,
            651610.7035000008
          ],
          [
            191445.87200000044,
            651634.6896000002
          ],
          [
            191449.3772,
            651648.1818000004
          ],
          [
            191413.39379999973,
            651732.2533
          ],
          [
            191389.9791000001,
            651786.7777999993
          ],
          [
            191366.56439999957,
            651841.3022000007
          ],
          [
            191360.55640000012,
            651859.3197000008
          ],
          [
            191344.89300000016,
            651908.0560999997
          ],
          [
            191329.22970000003,
            651956.7924000006
          ],
          [
            191351.5870000003,
            652038.8662999999
          ],
          [
            191365.68929999974,
            652090.6254999992
          ],
          [
            191379.7916000001,
            652142.3848000001
          ],
          [
            191401.03770000022,
            652220.8007999994
          ],
          [
            191422.28380000032,
            652299.2169000003
          ],
          [
            191447.15469999984,
            652391.5831000004
          ],
          [
            191464.1490000002,
            652453.7353000008
          ],
          [
            191479.96310000028,
            652511.5719000008
          ],
          [
            191495.3875000002,
            652568.9136999995
          ],
          [
            191510.81180000026,
            652626.2555999998
          ],
          [
            191532.483,
            652702.5484999996
          ],
          [
            191547.03509999998,
            652755.3330000006
          ],
          [
            191571.0064000003,
            652843.7303999998
          ],
          [
            191597.22670000046,
            652940.1051000003
          ],
          [
            191623.4899000004,
            653035.9310999997
          ],
          [
            191629.61450000014,
            653057.7296999991
          ],
          [
            191650.53959999979,
            653134.7479999997
          ],
          [
            191671.4645999996,
            653211.7662000004
          ],
          [
            191692.38970000017,
            653288.7844999991
          ],
          [
            191707.48869999964,
            653346.3951999992
          ],
          [
            191721.57629999984,
            653397.0457000006
          ],
          [
            191735.6638000002,
            653447.6961000003
          ],
          [
            191760.35879999958,
            653538.3636000007
          ],
          [
            191785.05370000005,
            653629.0310999993
          ],
          [
            191809.74870000035,
            653719.6984999999
          ],
          [
            191834.44359999988,
            653810.3660000004
          ],
          [
            191859.13860000018,
            653901.0335000008
          ],
          [
            191883.52500000037,
            653990.568
          ],
          [
            191883.67119999975,
            653991.1050000004
          ],
          [
            191884.46470000036,
            653994.0183000006
          ],
          [
            191904.50549999997,
            654067.5980999991
          ],
          [
            191904.9110000003,
            654069.0870999992
          ],
          [
            191905.0025000004,
            654069.4228000008
          ],
          [
            191905.2586000003,
            654070.3631999996
          ],
          [
            191928.34020000044,
            654155.1071000006
          ],
          [
            191951.42179999966,
            654239.8509999998
          ],
          [
            191974.50329999998,
            654324.5949000008
          ],
          [
            191997.58490000013,
            654409.3388
          ],
          [
            192001.9299999997,
            654425.2918999996
          ],
          [
            192020.66650000028,
            654494.0826999992
          ],
          [
            192033.26070000045,
            654538.6651000008
          ],
          [
            192088.55869999994,
            654609.3750999998
          ],
          [
            192143.85680000018,
            654680.0851000007
          ],
          [
            192201.00679999962,
            654670.9570000004
          ],
          [
            192293.0555999996,
            654656.1667999998
          ],
          [
            192304.03579999972,
            654724.4955000002
          ],
          [
            192305.7555999998,
            654742.3549000006
          ],
          [
            192313.23010000028,
            654825.9304000009
          ],
          [
            192320.70459999982,
            654909.5057999995
          ],
          [
            192327.78230000008,
            654989.9723000005
          ],
          [
            192334.85979999974,
            655070.4388999995
          ],
          [
            192339.14180000033,
            655116.9078000002
          ],
          [
            192339.1941999998,
            655117.4761999995
          ],
          [
            192340.39439999964,
            655130.5011999998
          ],
          [
            192344.2525000004,
            655172.3698999994
          ],
          [
            192351.72699999996,
            655257.7313000001
          ],
          [
            192359.20150000043,
            655343.0925999992
          ],
          [
            192382.08800000045,
            655409.1724999994
          ],
          [
            192411.22090000007,
            655492.3253000006
          ],
          [
            192440.3537999997,
            655575.4781999998
          ],
          [
            192469.48670000024,
            655658.6309999991
          ],
          [
            192484.5047000004,
            655698.3326999992
          ],
          [
            192490.33050000016,
            655713.7338999994
          ],
          [
            192518.27280000038,
            655792.3546999991
          ],
          [
            192546.21499999985,
            655870.9756000005
          ],
          [
            192574.15720000025,
            655949.5965
          ],
          [
            192581.52759999968,
            655967.5274999999
          ],
          [
            192588.95299999975,
            655982.9283000007
          ],
          [
            192605.50889999978,
            656011.8872999996
          ],
          [
            192614.1442999998,
            656025.6380000003
          ],
          [
            192632.7070000004,
            656062.2681000009
          ],
          [
            192641.92080000043,
            656086.2787999995
          ],
          [
            192650.44629999995,
            656112.9551999997
          ],
          [
            192654.84649999999,
            656131.6560999993
          ],
          [
            192658.42169999983,
            656150.2196999993
          ],
          [
            192663.92200000025,
            656191.1967999991
          ],
          [
            192667.4972000001,
            656208.5227000006
          ],
          [
            192673.32529999968,
            656234.5090999994
          ],
          [
            192699.67389999982,
            656309.1780999992
          ],
          [
            192721.62930000015,
            656372.7159000002
          ],
          [
            192743.58469999954,
            656436.2536999993
          ],
          [
            192775.02190000005,
            656527.2313999999
          ],
          [
            192806.4589999998,
            656618.2091000006
          ],
          [
            192837.8962000003,
            656709.1867999993
          ],
          [
            192858.79739999957,
            656769.9649999999
          ],
          [
            192864.57270000037,
            656797.9890000001
          ],
          [
            192862.34370000008,
            656807.5907000005
          ],
          [
            192861.15450000018,
            656812.2920999993
          ],
          [
            192875.0231999997,
            656883.9310999997
          ],
          [
            192884.09869999997,
            656895.7566999998
          ],
          [
            192890.9740000004,
            656928.0709000006
          ],
          [
            192908.16249999963,
            657012.1017000005
          ],
          [
            192925.35080000013,
            657096.1323000006
          ],
          [
            192943.32160000037,
            657183.4620999992
          ],
          [
            192961.29229999986,
            657270.7917999998
          ],
          [
            192967.64809999987,
            657301.6783000007
          ],
          [
            192984.0558000002,
            657381.6442000009
          ],
          [
            193000.46360000037,
            657461.6102000009
          ],
          [
            193016.87129999977,
            657541.5760999992
          ],
          [
            193033.2790000001,
            657621.5420999993
          ],
          [
            193051.31579999998,
            657709.4477999993
          ],
          [
            193069.35259999987,
            657797.3534999993
          ],
          [
            193087.38939999975,
            657885.2591999993
          ],
          [
            193095.18780000042,
            657923.7156000007
          ],
          [
            193109.29629999958,
            657993.2908999994
          ],
          [
            193122.7204,
            658059.4907000009
          ],
          [
            193128.26960000023,
            658087.8770000003
          ],
          [
            193139.30960000027,
            658144.352
          ],
          [
            193148.26439999975,
            658190.1599000003
          ],
          [
            193159.37909999955,
            658247.0164999999
          ],
          [
            193168.94579999987,
            658295.9546000008
          ],
          [
            193170.49370000046,
            658303.8731999993
          ],
          [
            193182.92949999962,
            658312.2193999998
          ],
          [
            193182.92949999962,
            658332.9900000002
          ]
        ]
      }
    },
    {
      "type": "Feature",
      "properties": {
        "OBJECTID": 245,
        "PL_NAME": "תוכנית מיתאר ארצית אחודה",
        "PL_NUMBER": "תמא/1/ 8",
        "stage": "תשתיות",
        "type_name": "מים",
        "Layer_Name": "רצועה לתכנון וקו מים",
        "MAVAT_CODE": 10118,
        "MAVAT_NAME": "קו / מובל מים",
        "name": "ירקון מערבי-צ.השבעה חולון מזרח",
        "SCENARIO": "ראשי",
        "DATA_DATE": 1563062400000,
        "STATUS": "מאושרת",
        "LABEL": "ירקון מערבי-צ.השבעה חולון מזרח",
        "PL_change": null,
        "PL_URL": null,
        "REMARKS": null,
        "scale": "1:100000",
        "TYPE_CODE": null,
        "NUM": null,
        "LAST_UPDATE": "14/07/2019",
        "LEGAL_AREA": null,
        "LEN": 2340.099907300221,
        "DEFQ": null
      },
      "geometry": {
        "type": "LineString",
        "coordinates": [
          [
            180600.625,
            654051.3790000007
          ],
          [
            180567.3161000004,
            653966.1666000001
          ],
          [
            180543.51680000033,
            653893.8028999995
          ],
          [
            180519.71740000043,
            653821.4392000008
          ],
          [
            180489.4754999997,
            653744.0483999997
          ],
          [
            180432.4841,
            653716.9550000001
          ],
          [
            180397.55900000036,
            653643.9298999999
          ],
          [
            180361.04650000017,
            653578.4453999996
          ],
          [
            180324.53390000015,
            653512.9608999994
          ],
          [
            180302.7999999998,
            653472.6999999993
          ],
          [
            180276.36060000025,
            653414.0505999997
          ],
          [
            180249.92119999975,
            653355.4012000002
          ],
          [
            180215.7659,
            653280.1259000003
          ],
          [
            180181.61060000025,
            653204.8506000005
          ],
          [
            180147.45529999956,
            653129.5753000006
          ],
          [
            180114.04279999994,
            653055.4236999992
          ],
          [
            180090.18780000042,
            653002.3648000006
          ],
          [
            180047.26020000037,
            652922.7561000008
          ],
          [
            180006.10680000018,
            652843.6041000001
          ],
          [
            179964.9534,
            652764.4520999994
          ],
          [
            179923.7999999998,
            652685.3000000007
          ],
          [
            179808.51329999976,
            652640.6416999996
          ],
          [
            179788.5440999996,
            652629.8635000009
          ],
          [
            179765.4961000001,
            652608.3232000005
          ],
          [
            179737.4938000003,
            652566.966
          ],
          [
            179726.72360000014,
            652525.9318000004
          ],
          [
            179702.9238,
            652471.0361000001
          ],
          [
            179685.15089999977,
            652430.0417999998
          ],
          [
            179668.78039999958,
            652395.7210000008
          ],
          [
            179650.3992999997,
            652346.3221000005
          ],
          [
            179637.76240000036,
            652301.2885999996
          ],
          [
            179613.06300000008,
            652241.2631000001
          ],
          [
            179587.07100000046,
            652186.8380999994
          ],
          [
            179561.76719999965,
            652114.2381999996
          ],
          [
            179559.57760000043,
            652107.9559000004
          ],
          [
            179545.92949999962,
            652072.6366000008
          ],
          [
            179527.97530000005,
            652036.5705999993
          ]
        ]
      }
    },
    {
      "type": "Feature",
      "properties": {
        "OBJECTID": 248,
        "PL_NAME": "תוכנית מיתאר ארצית אחודה",
        "PL_NUMBER": "תמא/1/ 8",
        "stage": "תשתיות",
        "type_name": "מים",
        "Layer_Name": "רצועה לתכנון וקו מים",
        "MAVAT_CODE": 10118,
        "MAVAT_NAME": "קו / מובל מים",
        "name": "ירקון מערבי-צ.השבעה חולון מזרח",
        "SCENARIO": "ראשי",
        "DATA_DATE": 1563062400000,
        "STATUS": "מאושרת",
        "LABEL": "ירקון מערבי-צ.השבעה חולון מזרח",
        "PL_change": null,
        "PL_URL": null,
        "REMARKS": null,
        "scale": "1:100000",
        "TYPE_CODE": null,
        "NUM": null,
        "LAST_UPDATE": "14/07/2019",
        "LEGAL_AREA": null,
        "LEN": 2317.485101023778,
        "DEFQ": null
      },
      "geometry": {
        "type": "LineString",
        "coordinates": [
          [
            184184.1654000003,
            660472.3567999993
          ],
          [
            184184.40220000036,
            660492.1246000007
          ],
          [
            184190.34339999966,
            660988.2447999995
          ],
          [
            184197.87700000033,
            661180.3595000003
          ],
          [
            184199.1939000003,
            661429.6491999999
          ],
          [
            184303.35309999995,
            661651.2294999994
          ],
          [
            184390.75870000012,
            661896.5880999994
          ],
          [
            184574.34140000027,
            662167.9715999998
          ],
          [
            184566.35929999966,
            662451.3278000001
          ],
          [
            184493.87640000042,
            662683.8812000006
          ]
        ]
      }
    },
    {
      "type": "Feature",
      "properties": {
        "OBJECTID": 317,
        "PL_NAME": "תוכנית מיתאר ארצית אחודה",
        "PL_NUMBER": "תמא/1/ 8",
        "stage": "תשתיות",
        "type_name": "מים",
        "Layer_Name": "רצועה לתכנון וקו מים",
        "MAVAT_CODE": 10118,
        "MAVAT_NAME": "קו / מובל מים",
        "name": "ירקון מזרחי קולה-אחיסמך",
        "SCENARIO": "ראשי",
        "DATA_DATE": 1563062400000,
        "STATUS": "מאושרת",
        "LABEL": "ירקון מזרחי קולה-אחיסמך",
        "PL_change": null,
        "PL_URL": null,
        "REMARKS": null,
        "scale": "1:100000",
        "TYPE_CODE": null,
        "NUM": null,
        "LAST_UPDATE": "14/07/2019",
        "LEGAL_AREA": null,
        "LEN": 2967.9698652590723,
        "DEFQ": null
      },
      "geometry": {
        "type": "LineString",
        "coordinates": [
          [
            191839.26460000034,
            648284.5392000005
          ],
          [
            191844.18070000038,
            648306.3351000007
          ],
          [
            191857.62849999964,
            648366.0291000009
          ],
          [
            191874.23139999993,
            648439.7278000005
          ],
          [
            191890.83430000022,
            648513.4265000001
          ],
          [
            191907.43709999975,
            648587.1251999997
          ],
          [
            191923.57019999996,
            648669.2080000006
          ],
          [
            191939.70320000034,
            648751.2906999998
          ],
          [
            192007.8141999999,
            649069.5256999992
          ],
          [
            192016.6032999996,
            649127.5170000009
          ],
          [
            192030.84829999972,
            649187.2892000005
          ],
          [
            192052.74899999984,
            649270.7709999997
          ],
          [
            192074.64969999995,
            649354.2529000007
          ],
          [
            192096.55030000024,
            649437.7346999999
          ],
          [
            192118.45100000035,
            649521.2166000009
          ],
          [
            192140.35170000046,
            649604.6984000001
          ],
          [
            192160.51080000028,
            649681.5416000001
          ],
          [
            192162.25239999965,
            649688.1802999992
          ],
          [
            192139.8526999997,
            649700.9993999992
          ],
          [
            192145.38520000037,
            649723.6688999999
          ],
          [
            192142.6864,
            649728.6615999993
          ],
          [
            192133.37569999974,
            649743.5722000003
          ],
          [
            192133.3211000003,
            649744.9301999994
          ],
          [
            192133.6604000004,
            649746.3252000008
          ],
          [
            192142.82139999978,
            649783.9860999994
          ],
          [
            192130.73089999985,
            649809.3543999996
          ],
          [
            192102.7988,
            649867.5125999991
          ],
          [
            192077.43049999978,
            649920.0168999992
          ],
          [
            192073.1124999998,
            649924.7396000009
          ],
          [
            192071.11209999956,
            649929.2148000002
          ],
          [
            192089.35900000017,
            649937.7852999996
          ],
          [
            192068.84839999955,
            649980.1557999998
          ],
          [
            192069.25329999998,
            649982.0449000001
          ],
          [
            192070.1978000002,
            649983.6641000006
          ],
          [
            192114.61930000037,
            650005.0112999994
          ],
          [
            192115.96870000008,
            650006.3607000001
          ],
          [
            192116.50850000046,
            650007.9799000006
          ],
          [
            192090.46549999993,
            650069.3497000001
          ],
          [
            192089.38599999994,
            650070.1863000002
          ],
          [
            192060.2123999996,
            650073.8565999996
          ],
          [
            192058.72809999995,
            650074.8011000007
          ],
          [
            192057.78359999973,
            650076.1504999995
          ],
          [
            192060.2123999996,
            650096.0537999999
          ],
          [
            192055.72009999957,
            650106.6416999996
          ],
          [
            192020.43400000036,
            650189.8072999995
          ],
          [
            192031.72130000032,
            650254.9262000006
          ],
          [
            192043.0086000003,
            650320.0449999999
          ],
          [
            192083.54420000035,
            650358.4682999998
          ],
          [
            192095.9095999999,
            650428.8920000009
          ],
          [
            192108.2748999996,
            650499.3157000002
          ],
          [
            192120.64020000026,
            650569.7392999995
          ],
          [
            192120.04609999992,
            650571.6009
          ],
          [
            192118.78500000015,
            650573.0314000007
          ],
          [
            192068.91889999993,
            650629.5931000002
          ],
          [
            192019.05269999988,
            650686.1548999995
          ],
          [
            191969.09929999989,
            650742.9477999993
          ],
          [
            191919.14580000006,
            650799.7407000009
          ],
          [
            191874.56350000016,
            650850.3555999994
          ],
          [
            191827.83629999962,
            650903.5796000008
          ],
          [
            191827.08939999994,
            650904.4304000009
          ],
          [
            191790.00119999982,
            650946.8746000007
          ]
        ]
      }
    }
  ]
}