{
  "type": "FeatureCollection",
  "name": "tama35_roads",
  "description": "תמ\"א 35 – דרכים",
  "crs": {
    "type": "name",
    "properties": {
      "name": "urn:ogc:def:crs:EPSG::2039"
    }
  },
  "features": [
    {
      "type": "Feature",
      "properties": {
        "OBJECTID_12": 56,
        "TypeRoadtx": "דרך פרברית מהירה",
        "Shape_Leng": 19424.6828198,
        "ROAD_NUM": 431,
        "Keta": 911,
        "Road_No": "431",
        "Shape_Length": 6672.84736023914
      },
      "geometry": {
        "type": "MultiLineString",
        "coordinates": [
          [
            [
              178818.21690000035,
              651791.7986999992
            ],
            [
              178817.37100000028,
              651792.4796999991
            ],
            [
              178780.51800000016,
              651822.6405999996
            ],
            [
              178774.92509999964,
              651827.2179000005
            ],
            [
              178740.05620000046,
              651855.8206999991
            ],
            [
              178654.36120000016,
              651924.5686000008
            ],
            [
              178573.84999999963,
              651989.5777000003
            ],
            [
              178479.8507000003,
              652065.8870999999
            ],
            [
              178391.84499999974,
              652136.8916999996
            ],
            [
              178379.43429999985,
              652147.0271000005
            ],
            [
              178327.64279999956,
              652189.3234999999
            ],
            [
              178223.67210000008,
              652273.6050000004
            ],
            [
              178200.77500000037,
              652292.1659999993
            ],
            [
              178189.59020000044,
              652301.2736000009
            ],
            [
              178185.61259999964,
              652304.4393000007
            ],
            [
              178121.60230000038,
              652355.3839999996
            ],
            [
              178066.15079999994,
              652399.7251999993
            ],
            [
              177997.44880000036,
              652450.5327000003
            ],
            [
              177928.92599999998,
              652497.9024
            ],
            [
              177841.32270000037,
              652554.8266000003
            ],
            [
              177689.97420000006,
              652652.1896000002
            ],
            [
              177520.90060000028,
              652761.648
            ],
            [
              177509.08999999985,
              652768.6199999992
            ],
            [
              177477.45710000023,
              652789.1457000002
            ]
          ],
          [
            [
              179805.8526999997,
              651199.1732000001
            ],
            [
              179525.8479000004,
              651279.4812000003
            ],
            [
              179499.58999999985,
              651291.3100000005
            ],
            [
              179444.7000000002,
              651315.8800000008
            ],
            [
              179388.73330000043,
              651348.9605
            ],
            [
              179359.0251000002,
              651365.2301000003
            ],
            [
              179338.43510000035,
              651379.3500999995
            ],
            [
              179335.43510000035,
              651381.4701000005
            ],
            [
              179312.7251000004,
              651397.7301000003
            ],
            [
              179277.87880000006,
              651420.7382999994
            ],
            [
              179261.1897,
              651433.8889000006
            ],
            [
              179194.7999999998,
              651485.1199999992
            ],
            [
              179168.30449999962,
              651506.6325000003
            ],
            [
              179115.69130000006,
              651550.1090999991
            ],
            [
              179087.17760000005,
              651573.6712999996
            ],
            [
              178980.61620000005,
              651661.1478000004
            ],
            [
              178906.02080000006,
              651720.9461000003
            ],
            [
              178880.28490000032,
              651741.7506000008
            ],
            [
              178855.91289999988,
              651761.4525000006
            ],
            [
              178818.21690000035,
              651791.7986999992
            ]
          ],
          [
            [
              182682.08999999985,
              649606.1899999995
            ],
            [
              182679.5,
              649622.3800000008
            ],
            [
              182678,
              649632.1899999995
            ],
            [
              182672.94550000038,
              649664.4265000001
            ],
            [
              182666.2999999998,
              649706.8100000005
            ],
            [
              182651.2000000002,
              649811.1199999992
            ],
            [
              182640.58999999985,
              649877.3800000008
            ],
            [
              182625.2999999998,
              649944.6899999995
            ],
            [
              182604.79229999986,
              650021.7515999991
            ],
            [
              182586.58999999985,
              650056.3800000008
            ],
            [
              182539.7000000002,
              650145.8100000005
            ],
            [
              182472.58999999985,
              650236.8100000005
            ],
            [
              182404.5,
              650305.3100000005
            ],
            [
              182336.41000000015,
              650359.1899999995
            ],
            [
              182295.08999999985,
              650385.8800000008
            ],
            [
              182261.2999999998,
              650405.1899999995
            ],
            [
              182216.7000000002,
              650427.1899999995
            ],
            [
              182118.58999999985,
              650466.6199999992
            ],
            [
              181933.5,
              650535.1199999992
            ],
            [
              181794.2999999998,
              650586.8100000005
            ],
            [
              181777.08999999985,
              650593.1899999995
            ],
            [
              181626.7999999998,
              650646.6199999992
            ],
            [
              181622.8744000001,
              650647.9260000009
            ],
            [
              181462.2000000002,
              650701.3800000008
            ],
            [
              181447,
              650706.1899999995
            ],
            [
              181392,
              650723.6199999992
            ],
            [
              181382.41000000015,
              650726.6199999992
            ],
            [
              181338.7999999998,
              650740.3800000008
            ],
            [
              181328.2999999998,
              650743.8100000005
            ],
            [
              181215.2999999998,
              650778.1199999992
            ],
            [
              181143,
              650800.3100000005
            ],
            [
              181125.6531999996,
              650805.6972000003
            ],
            [
              180868.2999999998,
              650885.6199999992
            ],
            [
              180732.2000000002,
              650926.6199999992
            ],
            [
              180569.08999999985,
              650975.1899999995
            ],
            [
              180456.38580000028,
              651007.0601000004
            ],
            [
              180242.59130000044,
              651071.6417999994
            ],
            [
              180211.1827999996,
              651081.1294999998
            ],
            [
              180177.60250000004,
              651091.2731999997
            ],
            [
              180071.9581000004,
              651123.1856999993
            ],
            [
              179925.5714999996,
              651164.9419
            ],
            [
              179858.34140000027,
              651184.1190000009
            ],
            [
              179805.8526999997,
              651199.1732000001
            ]
          ],
          [
            [
              182729.26819999982,
              649308.4160999991
            ],
            [
              182709.2999999998,
              649428.6199999992
            ],
            [
              182685.58999999985,
              649583.8800000008
            ],
            [
              182682.08999999985,
              649606.1899999995
            ]
          ]
        ]
      }
    },
    {
      "type": "Feature",
      "properties": {
        "OBJECTID_12": 72,
        "TypeRoadtx": "דרך ראשית",
        "Shape_Leng": 1397.28173979,
        "ROAD_NUM": 40,
        "Keta": 2954,
        "Road_No": "40",
        "Shape_Length": 1069.828074130308
      },
      "geometry": {
        "type": "MultiLineString",
        "coordinates": [
          [
            [
              191339.42140000034,
              658866.5097000003
            ],
            [
              191384.41000000015,
              658908
            ],
            [
              191396.41000000015,
              658920.6199999992
            ],
            [
              191420.08999999985,
              658944.6899999995
            ],
            [
              191430.58999999985,
              658956.6199999992
            ],
            [
              191441.91000000015,
              658979.6199999992
            ],
            [
              191447.2000000002,
              659008.6199999992
            ],
            [
              191447.2000000002,
              659034.1199999992
            ],
            [
              191447.2000000002,
              659055.1899999995
            ],
            [
              191444.2999999998,
              659106.1899999995
            ],
            [
              191442.2999999998,
              659152.1899999995
            ],
            [
              191440.5,
              659165.8800000008
            ],
            [
              191438.91000000015,
              659180.6199999992
            ],
            [
              191431.7999999998,
              659237.6199999992
            ],
            [
              191426.58999999985,
              659278.3800000008
            ],
            [
              191419.91000000015,
              659340.3800000008
            ],
            [
              191412.2000000002,
              659435
            ],
            [
              191395.76539999992,
              659598.2331000008
            ]
          ],
          [
            [
              191242.32249999978,
              658607.2463000007
            ],
            [
              191241.91000000015,
              658616.6899999995
            ],
            [
              191237.7999999998,
              658656.1899999995
            ],
            [
              191235.5,
              658684.6199999992
            ],
            [
              191237.91000000015,
              658712.8800000008
            ],
            [
              191243.41000000015,
              658737.6899999995
            ],
            [
              191256,
              658770.6199999992
            ],
            [
              191266.5,
              658786.8100000005
            ],
            [
              191267.34229999967,
              658787.8861999996
            ]
          ],
          [
            [
              191267.34229999967,
              658787.8861999996
            ],
            [
              191290.91000000015,
              658818
            ],
            [
              191336.7000000002,
              658864
            ],
            [
              191339.42140000034,
              658866.5097000003
            ]
          ]
        ]
      }
    },
    {
      "type": "Feature",
      "properties": {
        "OBJECTID_12": 98,
        "TypeRoadtx": "דרך פרברית מהירה",
        "Shape_Leng": 813.250741117,
        "ROAD_NUM": 461,
        "Keta": 2954,
        "Road_No": "40",
        "Shape_Length": 744.0889636019431
      },
      "geometry": {
        "type": "LineString",
        "coordinates": [
          [
            191444.2999999998,
            659106.1899999995
          ],
          [
            191401.2999999998,
            659102.1199999992
          ],
          [
            191349.2000000002,
            659098.3100000005
          ],
          [
            191336.41000000015,
            659097.3800000008
          ],
          [
            191252.58999999985,
            659092.1199999992
          ],
          [
            191185.7999999998,
            659089.1899999995
          ],
          [
            191178.2000000002,
            659088.8800000008
          ],
          [
            191151.5,
            659087.3100000005
          ],
          [
            191109.2000000002,
            659086.1899999995
          ],
          [
            191070.2000000002,
            659085.6899999995
          ],
          [
            191047.41000000015,
            659084.8100000005
          ],
          [
            191012.7999999998,
            659088.1199999992
          ],
          [
            190701.3219999997,
            659101.1254999992
          ]
        ]
      }
    },
    {
      "type": "Feature",
      "properties": {
        "OBJECTID_12": 119,
        "TypeRoadtx": "דרך אזורית",
        "Shape_Leng": 929.37140459,
        "ROAD_NUM": 4313,
        "Keta": 943,
        "Road_No": "לא נמצא",
        "Shape_Length": 867.1037973022397
      },
      "geometry": {
        "type": "MultiLineString",
        "coordinates": [
          [
            [
              183150.59889999963,
              650120.9548000004
            ],
            [
              183132.85610000044,
              650109.8906999994
            ],
            [
              183109.2999999998,
              650091.3100000005
            ],
            [
              183074.91000000015,
              650058.6199999992
            ],
            [
              183023.7999999998,
              650000
            ],
            [
              182962.84279999975,
              649931.2339999992
            ],
            [
              182946.83320000023,
              649913.1734999996
            ],
            [
              182892.5,
              649851.8800000008
            ],
            [
              182865.74280000012,
              649821.8609999996
            ],
            [
              182807.07710000034,
              649756.0438000001
            ],
            [
              182802.2999999998,
              649750.6899999995
            ],
            [
              182791.58999999985,
              649737.8100000005
            ],
            [
              182712.78720000014,
              649648.1813999992
            ],
            [
              182682.08999999985,
              649606.1899999995
            ]
          ],
          [
            [
              182682.08999999985,
              649606.1899999995
            ],
            [
              182679,
              649602.3800000008
            ],
            [
              182668.62629999965,
              649592.6468000002
            ],
            [
              182646.1275000004,
              649444.1046999991
            ]
          ]
        ]
      }
    },
    {
      "type": "Feature",
      "properties": {
        "OBJECTID_12": 165,
        "TypeRoadtx": "דרך פרברית מהירה",
        "Shape_Leng": 5067.85527055,
        "ROAD_NUM": 0,
        "Keta": 86,
        "Road_No": "מחלף",
        "Shape_Length": 4221.542315722603
      },
      "geometry": {
        "type": "MultiLineString",
        "coordinates": [
          [
            [
              191467.40919999965,
              659176.193
            ],
            [
              191533.9330000002,
              659377.7086999994
            ],
            [
              191871.27740000002,
              659705.1312000006
            ],
            [
              192407.0597000001,
              660002.7880000006
            ],
            [
              192807.24280000012,
              660221.0697000008
            ],
            [
              193172.36849999987,
              660387.7576000001
            ],
            [
              193545.43180000037,
              660530.6327999998
            ],
            [
              193815.30730000045,
              660554.4453999996
            ],
            [
              194108.99540000036,
              660578.2578999996
            ],
            [
              194489.99619999994,
              660546.5078999996
            ],
            [
              194680.49650000036,
              660459.1952
            ],
            [
              194926.55950000044,
              660340.1325000003
            ],
            [
              194998.73379999958,
              660263.4473000001
            ]
          ],
          [
            [
              191444.2999999998,
              659106.1899999995
            ],
            [
              191466.52909999993,
              659173.5267999992
            ]
          ],
          [
            [
              191466.52909999993,
              659173.5267999992
            ],
            [
              191467.40919999965,
              659176.193
            ]
          ],
          [
            [
              194998.73379999958,
              660263.4473000001
            ],
            [
              195039.69359999988,
              660219.9275000002
            ]
          ]
        ]
      }
    },
    {
      "type": "Feature",
      "properties": {
        "OBJECTID_12": 220,
        "TypeRoadtx": "דרך ראשית",
        "Shape_Leng": 13909.1502957,
        "ROAD_NUM": 0,
        "Keta": 3412,
        "Road_No": "40",
        "Shape_Length": 11.875776713049103
      },
      "geometry": {
        "type": "LineString",
        "coordinates": [
          [
            191244.18699999992,
            658595.5177999996
          ],
          [
            191242.71079999954,
            658604.8039999995
          ],
          [
            191242.32249999978,
            658607.2463000007
          ]
        ]
      }
    },
    {
      "type": "Feature",
      "properties": {
        "OBJECTID_12": 221,
        "TypeRoadtx": "דרך פרברית מהירה",
        "Shape_Leng": 3442.53822759,
        "ROAD_NUM": 0,
        "Keta": 3435,
        "Road_No": "461",
        "Shape_Length": 20.73263466541057
      },
      "geometry": {
        "type": "LineString",
        "coordinates": [
          [
            190680.60529999994,
            659100.3127999995
          ],
          [
            190701.3219999997,
            659101.1254999992
          ]
        ]
      }
    },
    {
      "type": "Feature",
      "properties": {
        "OBJECTID_12": 222,
        "TypeRoadtx": "דרך ראשית",
        "Shape_Leng": 5799.09012532,
        "ROAD_NUM": 0,
        "Keta": 3449,
        "Road_No": "40",
        "Shape_Length": 215.0342033868034
      },
      "geometry": {
        "type": "LineString",
        "coordinates": [
          [
            191388.2405000003,
            659813.1356000006
          ],
          [
            191394.7251000004,
            659627.9437000006
          ],
          [
            191395.76539999992,
            659598.2331000008
          ]
        ]
      }
    },
    {
      "type": "Feature",
      "properties": {
        "OBJECTID_12": 331,
        "TypeRoadtx": "דרך אזורית",
        "Shape_Leng": 3637.95946232,
        "ROAD_NUM": 0,
        "Keta": 438,
        "Road_No": "לא נמצא",
        "Shape_Length": 3637.9594623196726
      },
      "geometry": {
        "type": "LineString",
        "coordinates": [
          [
            186031.13819999993,
            663854.9412999991
          ],
          [
            186112.6004999997,
            663321.2862
          ],
          [
            186162.25989999995,
            662849.5219999999
          ],
          [
            186156.05250000022,
            662272.2315999996
          ],
          [
            186093.97819999978,
            661837.7119999994
          ],
          [
            185988.45199999958,
            661477.6813999992
          ],
          [
            185827.05900000036,
            661161.1028000005
          ],
          [
            185665.6660000002,
            660838.3168000001
          ],
          [
            185474.93960000016,
            660561.0668000001
          ],
          [
            185350.8677000003,
            660431.2502999995
          ]
        ]
      }
    },
    {
      "type": "Feature",
      "properties": {
        "OBJECTID_12": 365,
        "TypeRoadtx": "דרך פרברית מהירה",
        "Shape_Leng": 3426.85674071,
        "ROAD_NUM": 0,
        "Keta": 1447,
        "Road_No": "461",
        "Shape_Length": 3426.8567407093506
      },
      "geometry": {
        "type": "LineString",
        "coordinates": [
          [
            184091.32809999958,
            660598.1875
          ],
          [
            184373.5861999998,
            660515.3390999995
          ],
          [
            184800,
            660500
          ],
          [
            185216.60699999984,
            660448.6251999997
          ],
          [
            185350.8677000003,
            660431.2502999995
          ],
          [
            185423.7566999998,
            660421.8176000006
          ],
          [
            186030.88970000017,
            660343.2474000007
          ],
          [
            186873.91189999972,
            660189.9706999995
          ],
          [
            187481.85929999966,
            660168.6103000008
          ]
        ]
      }
    },
    {
      "type": "Feature",
      "properties": {
        "OBJECTID_12": 519,
        "TypeRoadtx": "דרך ראשית",
        "Shape_Leng": 12355.0234958,
        "ROAD_NUM": 0,
        "Keta": 3338,
        "Road_No": "44",
        "Shape_Length": 12355.023495753063
      },
      "geometry": {
        "type": "LineString",
        "coordinates": [
          [
            182672.17229999974,
            657458.7972999997
          ],
          [
            182701.7424999997,
            657412.9839999992
          ],
          [
            182830.32809999958,
            657213.7656999994
          ],
          [
            182987.2893000003,
            656956.1044999994
          ],
          [
            183060.50989999995,
            656837.5567000005
          ],
          [
            183126.75710000005,
            656725.9824999999
          ],
          [
            183223.9057,
            656562.7918999996
          ],
          [
            183279.18070000038,
            656469.9407000002
          ],
          [
            183303.30769999977,
            656429.4121000003
          ],
          [
            183542.81549999956,
            656027.9390999991
          ],
          [
            183638.80379999988,
            655864.4160999991
          ],
          [
            183712.57359999977,
            655738.7437999994
          ],
          [
            183970.40110000037,
            655299.5156999994
          ],
          [
            184497.75650000013,
            654401.3632999994
          ],
          [
            184690.14130000025,
            654118.6051000003
          ],
          [
            184839.80489999987,
            653849.8278999999
          ],
          [
            185035.31070000026,
            653540.0711000003
          ],
          [
            185108.5491000004,
            653424.0332999993
          ],
          [
            185117.32660000026,
            653410.1263999995
          ],
          [
            185222.70770000014,
            653243.1616999991
          ],
          [
            185281.60929999966,
            653149.8388999999
          ],
          [
            185374.24450000003,
            653004.8969
          ],
          [
            185498.73589999974,
            652797.3278000001
          ],
          [
            185657.0625,
            652533.3439000007
          ],
          [
            185880.20529999956,
            652166.9229000006
          ],
          [
            185898.57809999958,
            652134.8906999994
          ],
          [
            185963.25009999983,
            652022.1875
          ],
          [
            186258.45309999958,
            651507.7186999992
          ],
          [
            186464.58710000012,
            651148.4811000004
          ],
          [
            186506.36369999964,
            651060.9488999993
          ],
          [
            186517.67679999955,
            651037.2452000007
          ],
          [
            186538.5625,
            650993.4845000003
          ],
          [
            186657.04930000007,
            650745.1638999991
          ],
          [
            186710.00420000032,
            650673.7303999998
          ],
          [
            186835.16930000018,
            650504.8886999991
          ],
          [
            186899.2912999997,
            650420.0914999992
          ],
          [
            187019.71889999975,
            650309.0936999992
          ],
          [
            187033.0066999998,
            650296.8443999998
          ],
          [
            187151.87509999983,
            650187.2656999994
          ],
          [
            187381.2736999998,
            650033.0533000007
          ],
          [
            187426.16530000046,
            650002.875
          ],
          [
            187476.71870000008,
            649968.8906999994
          ],
          [
            187801.59370000008,
            649741.3750999998
          ],
          [
            187879.26570000034,
            649679.0625
          ],
          [
            187903.06149999984,
            649659.9682999998
          ],
          [
            188108.04690000042,
            649495.4845000003
          ],
          [
            188266.01570000034,
            649340.5625
          ],
          [
            188386.9285000004,
            649217.4633000009
          ],
          [
            188554.1875,
            649039.7345000003
          ],
          [
            188686.75519999955,
            648814.7589999996
          ],
          [
            188694.01570000034,
            648802.4375
          ],
          [
            188737.88829999976,
            648718.9660999998
          ],
          [
            188861.95309999958,
            648482.9219000004
          ],
          [
            188983.85360000003,
            648231.2323000003
          ],
          [
            189030.00009999983,
            648135.9530999996
          ],
          [
            189042.7695000004,
            648093.1082000006
          ],
          [
            189068.59929999989,
            648006.4417000003
          ],
          [
            189072.8479000004,
            647992.1863000002
          ],
          [
            189072.90390000027,
            647992.0369000006
          ],
          [
            189164.9620000003,
            647747.1160000004
          ],
          [
            189245.40629999992,
            647533.0936999992
          ],
          [
            189349.40670000017,
            647236.5099999998
          ]
        ]
      }
    },
    {
      "type": "Feature",
      "properties": {
        "OBJECTID_12": 523,
        "TypeRoadtx": "דרך מהירה",
        "Shape_Leng": 3342.89940919,
        "ROAD_NUM": 0,
        "Keta": 3371,
        "Road_No": "1",
        "Shape_Length": 3342.8994091944473
      },
      "geometry": {
        "type": "LineString",
        "coordinates": [
          [
            191822.33770000003,
            651544.8026999999
          ],
          [
            191915.59449999966,
            651306.6954999994
          ],
          [
            192037.88709999993,
            650914.4115999993
          ],
          [
            192117.30759999994,
            650592.1059000008
          ],
          [
            192275.46669999976,
            650108.7818
          ],
          [
            192368.9606999997,
            649814.5749999993
          ],
          [
            192498.08320000023,
            649485.4276999999
          ],
          [
            192612.92459999956,
            649177.2694000006
          ],
          [
            192742.10610000044,
            648834.0969999991
          ],
          [
            192914.21939999983,
            648406.9219000004
          ],
          [
            192924.0066999998,
            648392.5044999998
          ]
        ]
      }
    },
    {
      "type": "Feature",
      "properties": {
        "OBJECTID_12": 524,
        "TypeRoadtx": "דרך אזורית",
        "Shape_Leng": 532.408614486,
        "ROAD_NUM": 0,
        "Keta": 3373,
        "Road_No": "443",
        "Shape_Length": 532.4086144863488
      },
      "geometry": {
        "type": "LineString",
        "coordinates": [
          [
            191290.07440000027,
            651556.9937999994
          ],
          [
            191290.3476999998,
            651556.9887000006
          ],
          [
            191313.01449999958,
            651556.5578000005
          ],
          [
            191363.35960000008,
            651555.6007000003
          ],
          [
            191400.87600000016,
            651554.8873999994
          ],
          [
            191602.33050000016,
            651551.0572999995
          ],
          [
            191822.33770000003,
            651544.8026999999
          ]
        ]
      }
    },
    {
      "type": "Feature",
      "properties": {
        "OBJECTID_12": 525,
        "TypeRoadtx": "דרך אזורית",
        "Shape_Leng": 1944.05341825,
        "ROAD_NUM": 0,
        "Keta": 3376,
        "Road_No": "443",
        "Shape_Length": 1947.4337141639091
      },
      "geometry": {
        "type": "LineString",
        "coordinates": [
          [
            193710.44130000006,
            651481.8386000004
          ],
          [
            193707.06149999984,
            651481.8965000007
          ],
          [
            193694.34410000034,
            651483.0305000003
          ],
          [
            193639.1939000003,
            651487.9481000006
          ],
          [
            193475.89529999997,
            651508.4236999992
          ],
          [
            193340.9517000001,
            651536.0090999994
          ],
          [
            193205.91970000044,
            651584.6316999998
          ],
          [
            193035.28770000022,
            651661.1827000007
          ],
          [
            192878.99729999993,
            651702.7194999997
          ],
          [
            192772.46729999967,
            651723.3904999997
          ],
          [
            192673.09329999983,
            651730.0604999997
          ],
          [
            192524.13489999995,
            651715.5220999997
          ],
          [
            192361.10369999986,
            651672.8852999993
          ],
          [
            192141.39329999965,
            651609.0146999992
          ],
          [
            192006.71609999985,
            651573.4879000001
          ],
          [
            191954.04989999998,
            651562.1436000001
          ],
          [
            191907.4606999997,
            651552.1083000004
          ],
          [
            191822.33770000003,
            651544.8026999999
          ]
        ]
      }
    },
    {
      "type": "Feature",
      "properties": {
        "OBJECTID_12": 526,
        "TypeRoadtx": "דרך מהירה",
        "Shape_Leng": 40015.7451455,
        "ROAD_NUM": 0,
        "Keta": 3379,
        "Road_No": "4",
        "Shape_Length": 39415.51564178767
      },
      "geometry": {
        "type": "MultiLineString",
        "coordinates": [
          [
            [
              185852.03129999992,
              667873.0625
            ],
            [
              185838.77589999977,
              667813.9240000006
            ],
            [
              185838.28509999998,
              667811.7345000003
            ],
            [
              185801.20079999976,
              667646.2831999995
            ],
            [
              185775.01350000035,
              667529.4492000006
            ],
            [
              185774.96879999992,
              667529.25
            ],
            [
              185732.89749999996,
              667379.8234999999
            ],
            [
              185725.75,
              667354.4375
            ],
            [
              185664.89059999958,
              667177.1875
            ],
            [
              185633.14059999958,
              667063.375
            ],
            [
              185613.79690000042,
              666955.8125
            ],
            [
              185607.54690000042,
              666830.6875
            ],
            [
              185603.9782999996,
              666681.6699999999
            ],
            [
              185602.92509999964,
              666637.6894000005
            ],
            [
              185602.04690000042,
              666627.125
            ],
            [
              185599.65629999992,
              666423.9375
            ],
            [
              185601.25,
              666200.875
            ],
            [
              185593.3125,
              665841.3125
            ],
            [
              185543.3125,
              665539.6875
            ],
            [
              185541.2048000004,
              665527.0091999993
            ],
            [
              185494.09379999992,
              665243.625
            ],
            [
              185438.53129999992,
              664922.9375
            ],
            [
              185397.59379999992,
              664631.3125
            ],
            [
              185384.5625,
              664556.25
            ],
            [
              185352.01559999958,
              664433.1875
            ],
            [
              185293.28129999992,
              664284.75
            ],
            [
              185185.6763000004,
              664098.3584000003
            ],
            [
              185185.45689999964,
              664097.9782999996
            ],
            [
              185184.53129999992,
              664096.375
            ],
            [
              184931.84379999992,
              663714.0625
            ],
            [
              184863.90629999992,
              663629.375
            ],
            [
              184744,
              663322.4375
            ],
            [
              184607.73440000042,
              662969.25
            ],
            [
              184575.28129999992,
              662784.6875
            ],
            [
              184576.6875,
              662682.1875
            ],
            [
              184572.54690000042,
              662631.1875
            ],
            [
              184564.46879999992,
              662587.4375
            ],
            [
              184544.375,
              662511.625
            ],
            [
              184503.85940000042,
              662428.125
            ],
            [
              184456.98440000042,
              662363.3125
            ],
            [
              184399.65629999992,
              662298.6875
            ],
            [
              184333.625,
              662197.5
            ],
            [
              184290.40629999992,
              662102
            ],
            [
              184278.70969999954,
              662073.0165999997
            ],
            [
              184237.3125,
              661970.4375
            ],
            [
              184206.89059999958,
              661893.6875
            ],
            [
              184168.53129999992,
              661797.125
            ],
            [
              184138.09379999992,
              661713.8125
            ],
            [
              184115.60940000042,
              661650.3125
            ],
            [
              184101.0625,
              661597.375
            ],
            [
              184090.46879999992,
              661553.6875
            ],
            [
              184077.25,
              661494.1875
            ],
            [
              184069.3125,
              661443.9375
            ],
            [
              184065.34379999992,
              661379.0625
            ],
            [
              184062.6875,
              661309
            ],
            [
              184054.75,
              661195.1875
            ],
            [
              184048.14059999958,
              661065.5625
            ],
            [
              184052.21879999992,
              660991.875
            ],
            [
              184056.76559999958,
              660937.3125
            ],
            [
              184070.40629999992,
              660861.875
            ],
            [
              184081.3125,
              660798.25
            ],
            [
              184086.07699999958,
              660767.3052999992
            ],
            [
              184090.40629999992,
              660739.1875
            ],
            [
              184092.21879999992,
              660669.1875
            ],
            [
              184091.32809999958,
              660598.1875
            ],
            [
              184091.2276999997,
              660597.2913000006
            ],
            [
              184082.59379999992,
              660520.1875
            ],
            [
              184067.04690000042,
              660437.3125
            ],
            [
              184046.76559999958,
              660368.3125
            ],
            [
              184016.90629999992,
              660234.8125
            ],
            [
              184008.45309999958,
              660013.8125
            ],
            [
              184000.67190000042,
              659888.625
            ],
            [
              184000.67190000042,
              659829.9375
            ],
            [
              183997.5,
              659788.625
            ],
            [
              183996.71879999992,
              659751.625
            ],
            [
              183996.71879999992,
              659707.8125
            ],
            [
              183994.625,
              659672.375
            ],
            [
              183985.90629999992,
              659638.9375
            ],
            [
              183970.45309999958,
              659599.75
            ],
            [
              183952.89059999958,
              659561.8125
            ],
            [
              183689.75,
              659120.5
            ],
            [
              183603.12600000016,
              658978.2978000008
            ],
            [
              183455.98440000042,
              658736.75
            ],
            [
              183261.91139999963,
              658410.1231999993
            ],
            [
              183250.4375,
              658390.8125
            ],
            [
              183244.67190000042,
              658381.125
            ],
            [
              183240.12679999974,
              658373.1308999993
            ],
            [
              183240.05929999985,
              658373.0121999998
            ],
            [
              183236.86500000022,
              658367.3938999996
            ],
            [
              183088.14059999958,
              658105.8125
            ],
            [
              182997.78129999992,
              657976.8125
            ],
            [
              182895.51559999958,
              657889.1875
            ],
            [
              182775.54690000042,
              657801.4375
            ],
            [
              182724.46879999992,
              657748
            ],
            [
              182687.64059999958,
              657699.3125
            ],
            [
              182662.70309999958,
              657656.5625
            ],
            [
              182635.39059999958,
              657612.5625
            ],
            [
              182611.625,
              657569.8125
            ],
            [
              182603,
              657556.1116000004
            ],
            [
              182601.44039999973,
              657553.6341999993
            ],
            [
              182599.34580000024,
              657550.3068000004
            ],
            [
              182598.5625,
              657549.0625
            ],
            [
              182587.12229999993,
              657529.7502999995
            ],
            [
              182438.6621000003,
              657242.2155000009
            ],
            [
              182358.84379999992,
              657087.625
            ],
            [
              182343.48230000027,
              657067.8773999996
            ],
            [
              182248.58949999977,
              656969.1002999991
            ],
            [
              182183.2050999999,
              656901.0332999993
            ],
            [
              182111.32050000038,
              656826.2061000001
            ],
            [
              182009.77749999985,
              656720.5021000002
            ],
            [
              182006.4609000003,
              656717.0494999997
            ],
            [
              181901.14850000013,
              656607.4214999992
            ],
            [
              181834.02749999985,
              656537.5504999999
            ],
            [
              181770.18039999995,
              656466.3635000009
            ],
            [
              181746.67059999984,
              656440.1510000005
            ],
            [
              181635.90629999992,
              656345.375
            ],
            [
              181517.20309999958,
              656248.375
            ],
            [
              181420.9375,
              656155.625
            ],
            [
              181408.82809999958,
              656145.125
            ],
            [
              181362.5,
              656088.875
            ],
            [
              181342.57809999958,
              656059.1875
            ],
            [
              181329.34379999992,
              656039.375
            ],
            [
              181312.40629999992,
              656013.75
            ],
            [
              181293.625,
              655986.6875
            ],
            [
              181272.42190000042,
              655952.1875
            ],
            [
              181255.73440000042,
              655920.875
            ],
            [
              181243.53129999992,
              655897
            ],
            [
              181221.75,
              655846.0625
            ],
            [
              181197.625,
              655780.1875
            ],
            [
              181171.13989999983,
              655702.0206000004
            ],
            [
              181155.54690000042,
              655656
            ],
            [
              181088.21879999992,
              655476.1875
            ],
            [
              181058.83069999982,
              655399.2015000004
            ],
            [
              180831.45189999975,
              654752.7783000004
            ],
            [
              180794.2198999999,
              654653.7853999995
            ],
            [
              180497.45069999993,
              653864.7321000006
            ],
            [
              180488.21609999985,
              653838.1903000008
            ],
            [
              180437.34190000035,
              653691.9682999998
            ],
            [
              180326.92040000018,
              653374.5962000005
            ],
            [
              180028.40220000036,
              652656.9191999994
            ],
            [
              179957.3208999997,
              652493.4732000008
            ],
            [
              179899.79619999975,
              652410.7448999994
            ],
            [
              179869.42140000034,
              652367.0617999993
            ],
            [
              179843.52880000044,
              652329.8246999998
            ],
            [
              179708.38150000013,
              652166.0758999996
            ],
            [
              179366.81759999972,
              651965.8909000009
            ],
            [
              179132.01470000017,
              651891.3789000008
            ]
          ],
          [
            [
              178602.5689000003,
              651725.7977000009
            ],
            [
              178099.94409999996,
              651598.2162999995
            ],
            [
              177779.6679999996,
              651504.5077
            ],
            [
              177359.78639999963,
              651325.2270999998
            ],
            [
              177266.2834999999,
              651271.9802999999
            ],
            [
              177146.31879999954,
              651203.6643000003
            ],
            [
              177146.3069000002,
              651203.6575000007
            ],
            [
              176790.59310000017,
              650868.6631000005
            ],
            [
              176399.0828999998,
              650449.7756999992
            ],
            [
              176271.29370000027,
              650313.0505999997
            ],
            [
              176029.4587000003,
              650006.9616
            ],
            [
              175844.58609999996,
              649679.8672000002
            ],
            [
              175745.0998999998,
              649409.9107000008
            ],
            [
              175652.7547000004,
              649104.5296999998
            ],
            [
              175634.17709999997,
              648945.5446000006
            ],
            [
              175560.72059999965,
              648316.9134
            ],
            [
              175540.2923999997,
              648160.0195000004
            ],
            [
              175509.3557000002,
              647922.4167999998
            ],
            [
              175491.7516999999,
              647787.2131999992
            ],
            [
              175411.96659999993,
              647174.4419
            ],
            [
              175312.7731999997,
              646450.6166999992
            ],
            [
              175227.63430000003,
              646010.5272000004
            ],
            [
              175114.0069000004,
              645591.5775000006
            ],
            [
              174943.4171000002,
              645193.6338
            ],
            [
              174786.31099999975,
              644777.4225999992
            ],
            [
              174659.15859999973,
              644440.5656000003
            ],
            [
              174541.45770000014,
              644199.9677000009
            ],
            [
              174494.1858000001,
              644103.3370999992
            ],
            [
              174461.20889999997,
              644035.9274000004
            ],
            [
              174339.2435999997,
              643786.6127000004
            ],
            [
              173969.46590000018,
              643182.0664000008
            ],
            [
              173756.14630000014,
              642812.2872000001
            ],
            [
              173474.85759999976,
              642415.2310000006
            ],
            [
              173315.1551000001,
              642146.9886000007
            ],
            [
              173206.10149999987,
              641912.3826000001
            ],
            [
              173004.7472000001,
              641485.0543000009
            ],
            [
              172820.39250000007,
              641041.0543000009
            ],
            [
              172783.20010000002,
              640956.8184999991
            ],
            [
              172694.62090000045,
              640756.1982000005
            ],
            [
              172652.93329999968,
              640605.4774999991
            ],
            [
              172620.09869999997,
              640362.7683000006
            ],
            [
              172595.6239,
              640145.1842999998
            ],
            [
              172563.92150000017,
              639634.7874999996
            ],
            [
              172564.8289999999,
              639420.1026000008
            ],
            [
              172565.5833999999,
              639241.6205000002
            ],
            [
              172567.28110000025,
              638840.0879999995
            ],
            [
              172560.01919999998,
              638555.6400000006
            ],
            [
              172543.65529999975,
              638421.7375000007
            ],
            [
              172518.75490000006,
              638304.5363999996
            ],
            [
              172443.1721999999,
              638162.0647999998
            ],
            [
              172317.08239999972,
              637952.4956999999
            ],
            [
              172228.90730000008,
              637820.6605999991
            ],
            [
              172014.25459999964,
              637499.7223000005
            ],
            [
              172011.53270000033,
              637495.8342000004
            ],
            [
              171833.70739999972,
              637241.8186000008
            ],
            [
              171806.68200000003,
              637203.2139999997
            ],
            [
              171764.41110000014,
              637142.8319000006
            ],
            [
              171761.82739999983,
              637139.1411000006
            ],
            [
              171732.5184000004,
              637063.7519000005
            ],
            [
              171646.55829999968,
              636906.3892000001
            ],
            [
              171570.94550000038,
              636746.0168999992
            ],
            [
              171500.6196999997,
              636532.3044000007
            ],
            [
              171476.12849999964,
              636293.3583000004
            ],
            [
              171477.02049999963,
              636246.4013999999
            ],
            [
              171479.31410000008,
              636125.6659999993
            ],
            [
              171491.67640000023,
              636038.2504999992
            ],
            [
              171508.0460000001,
              635922.4981999993
            ],
            [
              171525.5549999997,
              635798.8638000004
            ],
            [
              171503.83349999972,
              635696.3348999992
            ],
            [
              171450.45490000024,
              635592.7125000004
            ],
            [
              171438.25739999954,
              635569.0339000002
            ],
            [
              171355.0706000002,
              635395.9276
            ],
            [
              171210.92080000043,
              635217.5050000008
            ],
            [
              171112.3515999997,
              635079.9132000003
            ],
            [
              170993.60140000004,
              634904.1292000003
            ],
            [
              170930.49789999984,
              634794.6245000008
            ],
            [
              170847.2818,
              634629.1410000008
            ],
            [
              170784.3345999997,
              634478.9813000001
            ],
            [
              170680.7324000001,
              634328.6653000005
            ],
            [
              170554.39850000013,
              634142.6882000007
            ],
            [
              170448.2553000003,
              633992.3625000007
            ],
            [
              170362.13260000013,
              633840.2936000004
            ],
            [
              170357.39680000022,
              633831.9315000009
            ],
            [
              170350.2357999999,
              633825.0335000008
            ],
            [
              170225.5981999999,
              633704.9743000008
            ],
            [
              170185.2478,
              633666.1061000004
            ],
            [
              170072.44070000015,
              633548.7006000001
            ],
            [
              170030.8657999998,
              633505.4309999999
            ],
            [
              169891.24349999987,
              633364.8771000002
            ],
            [
              169854.6512000002,
              633329.2511
            ]
          ]
        ]
      }
    },
    {
      "type": "Feature",
      "properties": {
        "OBJECTID_12": 530,
        "TypeRoadtx": "דרך מהירה",
        "Shape_Leng": 2410.49186296,
        "ROAD_NUM": 0,
        "Keta": 3404,
        "Road_No": "1",
        "Shape_Length": 2410.4918629611925
      },
      "geometry": {
        "type": "LineString",
        "coordinates": [
          [
            191151.82749999966,
            653859.1076999996
          ],
          [
            191151.9763000002,
            653858.6942999996
          ],
          [
            191182.64169999957,
            653773.4781999998
          ],
          [
            191245.96590000018,
            653597.5066999998
          ],
          [
            191332.54169999994,
            653261.2003000006
          ],
          [
            191356.17069999967,
            653173.1805000007
          ],
          [
            191394.87880000006,
            653028.9897000007
          ],
          [
            191422.96839999966,
            652924.3537000008
          ],
          [
            191462.31670000032,
            652777.7783000004
          ],
          [
            191599.12829999998,
            652308.4063000008
          ],
          [
            191772.04289999977,
            651691.8933000006
          ],
          [
            191805.71590000018,
            651593.4142000005
          ],
          [
            191822.33770000003,
            651544.8026999999
          ]
        ]
      }
    },
    {
      "type": "Feature",
      "properties": {
        "OBJECTID_12": 531,
        "TypeRoadtx": "דרך מהירה",
        "Shape_Leng": 12478.3693579,
        "ROAD_NUM": 0,
        "Keta": 3405,
        "Road_No": "1",
        "Shape_Length": 12429.456967146964
      },
      "geometry": {
        "type": "LineString",
        "coordinates": [
          [
            193366.1651999997,
            652530.7116999999
          ],
          [
            193174.74320000038,
            652604.7800999992
          ],
          [
            193171.55989999976,
            652605.8162999991
          ],
          [
            192675.40270000044,
            652764.6480999999
          ],
          [
            192463.8421,
            652852.2169000003
          ],
          [
            192260.26750000007,
            652971.9214999992
          ],
          [
            191983.28509999998,
            653163.6173
          ],
          [
            191771.2489,
            653363.5631000008
          ],
          [
            191484.05829999968,
            653593.3190000001
          ],
          [
            191190.84520000033,
            653827.8929999992
          ],
          [
            191152.04669999983,
            653858.9322999995
          ],
          [
            191151.82749999966,
            653859.1076999996
          ],
          [
            191100.53039999958,
            653906.0613000002
          ],
          [
            190784.8850999996,
            654194.9802999999
          ],
          [
            190782.2790000001,
            654196.9273000006
          ],
          [
            190271.53189999983,
            654578.5109000001
          ],
          [
            190260.25050000008,
            654587.6502
          ],
          [
            189896.6026999997,
            654882.2478999998
          ],
          [
            189578.76989999972,
            655129.9921000004
          ],
          [
            189342.23010000028,
            655361.9618999995
          ],
          [
            189207.4938000003,
            655494.0955999997
          ],
          [
            189073.06429999974,
            655625.9283000007
          ],
          [
            188820.41509999987,
            655825.7343000006
          ],
          [
            188625.03149999958,
            655929.4133000001
          ],
          [
            188430.05530000012,
            655936.7683000006
          ],
          [
            188311.8975999998,
            655928.8259999994
          ],
          [
            188213.27969999984,
            655922.1972000003
          ],
          [
            188178.32270000037,
            655919.8475000001
          ],
          [
            187967.61010000017,
            655806.7423
          ],
          [
            187873.61710000038,
            655742.6817000005
          ],
          [
            187659.83389999997,
            655596.9784999993
          ],
          [
            187545.3331000004,
            655532.7847000007
          ],
          [
            187400.52190000005,
            655451.5976999998
          ],
          [
            187205.68090000004,
            655426.8454999998
          ],
          [
            187076.54459999967,
            655454.7337999996
          ],
          [
            187059.33829999994,
            655458.4496999998
          ],
          [
            186896.01049999986,
            655508.3864999991
          ],
          [
            186724.50710000005,
            655573.6959000006
          ],
          [
            186675.2792999996,
            655592.4420999996
          ],
          [
            186632.4110000003,
            655620.6980000008
          ],
          [
            186354.80590000004,
            655803.6766999997
          ],
          [
            186077.04470000044,
            656015.1137000006
          ],
          [
            185685.3356999997,
            656304.0203000009
          ],
          [
            185386.17229999974,
            656586.2730999999
          ],
          [
            185165.3640999999,
            656790.8874999993
          ],
          [
            184944.55570000038,
            656995.5022999998
          ],
          [
            184745.13949999958,
            657143.4846999999
          ],
          [
            184731.48230000027,
            657154.8581000008
          ],
          [
            184691.79609999992,
            657187.9082999993
          ],
          [
            184617.16530000046,
            657247.4802000001
          ],
          [
            184367.65830000024,
            657446.6418999992
          ],
          [
            183900.56089999992,
            657851.1078999992
          ],
          [
            183490.3680999996,
            658200.0534000006
          ],
          [
            183291.84219999984,
            658357.7477000002
          ],
          [
            183267.90649999958,
            658376.0515000001
          ],
          [
            183251.01070000045,
            658390.1314000003
          ],
          [
            183250.4375,
            658390.8125
          ]
        ]
      }
    },
    {
      "type": "Feature",
      "properties": {
        "OBJECTID_12": 533,
        "TypeRoadtx": "דרך אזורית",
        "Shape_Leng": 5795.17510715,
        "ROAD_NUM": 0,
        "Keta": 3409,
        "Road_No": "453",
        "Shape_Length": 5742.201229545023
      },
      "geometry": {
        "type": "LineString",
        "coordinates": [
          [
            191318.77909999993,
            655184.9397
          ],
          [
            191361.43929999974,
            655129.9432999995
          ],
          [
            191391.07430000044,
            655091.7386000007
          ],
          [
            191451.37200000044,
            655014.0044
          ],
          [
            191609.2193,
            654794.1850000005
          ],
          [
            191617.98979999963,
            654787.3044000007
          ],
          [
            191652.95309999958,
            654759.8752999995
          ],
          [
            191680.63719999976,
            654738.1568999998
          ],
          [
            191733.51429999992,
            654696.6742000002
          ],
          [
            191915.44730000012,
            654640.1699999999
          ],
          [
            192138.60479999986,
            654600.1312000006
          ],
          [
            192336.95270000026,
            654568.1680999994
          ],
          [
            192469.0921,
            654568.6230999995
          ],
          [
            192609.45519999973,
            654577.2682000007
          ],
          [
            192832.16480000038,
            654643.3280999996
          ],
          [
            192947.6490000002,
            654676.3726000004
          ],
          [
            193079.71910000034,
            654693.1505999994
          ],
          [
            193294.51449999958,
            654677.5671999995
          ],
          [
            193616.77720000036,
            654637.8695999999
          ],
          [
            193930.78029999975,
            654598.1434000004
          ],
          [
            194186.97360000014,
            654558.2182999998
          ],
          [
            194401.90660000034,
            654509.9893999994
          ],
          [
            194616.80620000046,
            654469.9213999994
          ],
          [
            194748.97979999986,
            654462.2153999992
          ],
          [
            194947.05080000032,
            654495.5439999998
          ],
          [
            195055.86980000045,
            654522.1747999992
          ],
          [
            195285.31300000008,
            654578.3253000006
          ],
          [
            195470.34279999975,
            654637.0521000009
          ],
          [
            195539.0580000002,
            654658.8617000002
          ],
          [
            195553.7955,
            654663.5392000005
          ],
          [
            195604.76620000042,
            654679.7169000003
          ],
          [
            195612.31730000023,
            654682.1136000007
          ],
          [
            195675.21719999984,
            654702.0775000006
          ],
          [
            195684.27020000014,
            654704.9507999998
          ],
          [
            195691.0566999996,
            654704.7514999993
          ],
          [
            195807.6403000001,
            654701.3275000006
          ],
          [
            195941.29590000026,
            654657.9309999999
          ],
          [
            196063.1919999998,
            654558.2550000008
          ],
          [
            196174.0061999997,
            654425.3537000008
          ],
          [
            196233.0773,
            654356.6622000001
          ],
          [
            196271.0253999997,
            654312.5338000003
          ],
          [
            196373.47219999973,
            654203.8513999991
          ],
          [
            196457.7753999997,
            654052.3096999992
          ]
        ]
      }
    },
    {
      "type": "Feature",
      "properties": {
        "OBJECTID_12": 535,
        "TypeRoadtx": "דרך ראשית",
        "Shape_Leng": 13909.1502957,
        "ROAD_NUM": 0,
        "Keta": 3412,
        "Road_No": "40",
        "Shape_Length": 13910.131573572773
      },
      "geometry": {
        "type": "LineString",
        "coordinates": [
          [
            191244.18699999992,
            658595.5177999996
          ],
          [
            191282.84810000006,
            658352.3181999996
          ],
          [
            191290.39010000043,
            658304.8751999997
          ],
          [
            191314.42260000017,
            658153.6977999993
          ],
          [
            191404.20849999972,
            658011.2259999998
          ],
          [
            191644.65950000007,
            657693.7344000004
          ],
          [
            191825.54640000034,
            657408.0661999993
          ],
          [
            191828.06170000043,
            657404.0938000008
          ],
          [
            191930.23330000043,
            657242.7379000001
          ],
          [
            192058.65770000033,
            656998.3807999995
          ],
          [
            192062.4254999999,
            656991.2116999999
          ],
          [
            192028.77529999986,
            656921.2457999997
          ],
          [
            191972.90589999966,
            656805.0815999992
          ],
          [
            191958.49480000045,
            656775.1179000009
          ],
          [
            191956.2653000001,
            656770.4823000003
          ],
          [
            191849.78100000042,
            656507.0872000009
          ],
          [
            191800.97109999973,
            656386.3532999996
          ],
          [
            191645.74590000045,
            655985.9011000004
          ],
          [
            191581.86099999957,
            655817.8189000003
          ],
          [
            191425.2106999997,
            655405.6690999996
          ],
          [
            191323.46140000038,
            655194.6502999999
          ],
          [
            191318.77909999993,
            655184.9397
          ],
          [
            191204.53770000022,
            654858.0824999996
          ],
          [
            191155.81329999957,
            654662.0366999991
          ],
          [
            191131.79669999983,
            654482.3997000009
          ],
          [
            191129.37519999966,
            654427.3048
          ],
          [
            191124.26269999985,
            654310.9801000003
          ],
          [
            191150.0390999997,
            654074.3833000008
          ],
          [
            191151.79370000027,
            653863.1757999994
          ],
          [
            191151.82749999966,
            653859.1076999996
          ],
          [
            191064.1462000003,
            653562.7357000001
          ],
          [
            190975.91289999988,
            653264.4977000002
          ],
          [
            190911.98369999975,
            653015.4383000005
          ],
          [
            190904.60809999984,
            652838.8177000005
          ],
          [
            190954.7692999998,
            652501.8531
          ],
          [
            190993.08490000013,
            652385.9098000005
          ],
          [
            191111.1001000004,
            652028.7950999998
          ],
          [
            191290.07440000027,
            651556.9937999994
          ],
          [
            191316.78839999996,
            651491.3480999991
          ],
          [
            191337.30200000014,
            651440.9388999995
          ],
          [
            191349.26910000015,
            651411.5315000005
          ],
          [
            191400.87600000016,
            651256.7775999997
          ],
          [
            191456.22009999957,
            651090.8169
          ],
          [
            191465.05570000038,
            650922.2793000005
          ],
          [
            191424.95210000034,
            650801.7346999999
          ],
          [
            191388.50600000005,
            650728.9678000007
          ],
          [
            191368.5686999997,
            650689.1616999991
          ],
          [
            191206.8973000003,
            650503.9823000003
          ],
          [
            191085.4313000003,
            650415.2663000003
          ],
          [
            190850.3513000002,
            650302.0772999991
          ],
          [
            190607.11450000014,
            650196.8872999996
          ],
          [
            190526.16029999964,
            650132.3918999992
          ],
          [
            190429.0957000004,
            650035.7324999999
          ],
          [
            190235.30730000045,
            649762.1448999997
          ],
          [
            190033.73570000008,
            649408.2592999991
          ],
          [
            189665.95820000023,
            648704.7522
          ],
          [
            189646.9735000003,
            648668.4371000007
          ],
          [
            189501.78450000007,
            648427.1245000008
          ],
          [
            189404.8903000001,
            648290.3309000004
          ],
          [
            189283.37509999983,
            648157.2080000006
          ],
          [
            189259.25829999987,
            648130.7873999998
          ],
          [
            189243.18450000044,
            648113.1780999992
          ],
          [
            189075.9478000002,
            647994.1986999996
          ],
          [
            189073.11909999978,
            647992.1863000002
          ],
          [
            189072.90390000027,
            647992.0369000006
          ],
          [
            189027.43429999985,
            647960.4704999998
          ],
          [
            188805.85450000037,
            647806.6431000009
          ],
          [
            188415.84009999968,
            647643.5537999999
          ],
          [
            188215.87770000007,
            647585.2238999996
          ],
          [
            188044.67810000014,
            647529.0929000005
          ],
          [
            187738.7642000001,
            647430.8637000006
          ],
          [
            187559.14499999955,
            647360.6998999994
          ],
          [
            187457.70550000016,
            647313.9485999998
          ],
          [
            187409.13960000034,
            647288.7714000009
          ]
        ]
      }
    },
    {
      "type": "Feature",
      "properties": {
        "OBJECTID_12": 536,
        "TypeRoadtx": "דרך אזורית",
        "Shape_Leng": 1649.86290462,
        "ROAD_NUM": 0,
        "Keta": 3424,
        "Road_No": "412",
        "Shape_Length": 1649.8629046169854
      },
      "geometry": {
        "type": "LineString",
        "coordinates": [
          [
            183279.18070000038,
            656469.9407000002
          ],
          [
            183407.2402999997,
            656527.2634999994
          ],
          [
            183556.68489999976,
            656598.8882999998
          ],
          [
            183656.28089999966,
            656698.6435000002
          ],
          [
            183762.99069999997,
            656805.5249000005
          ],
          [
            183891.09329999983,
            656855.7732999995
          ],
          [
            184097.5131000001,
            656885.1173
          ],
          [
            184318.1621000003,
            656928.7118999995
          ],
          [
            184496.0943,
            656979.1963
          ],
          [
            184597.74039999954,
            657038.3250999991
          ],
          [
            184631.29650000017,
            657057.8451000005
          ],
          [
            184731.48230000027,
            657154.8581000008
          ]
        ]
      }
    },
    {
      "type": "Feature",
      "properties": {
        "OBJECTID_12": 537,
        "TypeRoadtx": "דרך ראשית",
        "Shape_Leng": 118.67175107,
        "ROAD_NUM": 0,
        "Keta": 3428,
        "Road_No": "44",
        "Shape_Length": 116.49357681459037
      },
      "geometry": {
        "type": "LineString",
        "coordinates": [
          [
            182598.5625,
            657549.0625
          ],
          [
            182621.5510999998,
            657522.4210999999
          ],
          [
            182672.17229999974,
            657458.7972999997
          ]
        ]
      }
    },
    {
      "type": "Feature",
      "properties": {
        "OBJECTID_12": 538,
        "TypeRoadtx": "דרך פרברית מהירה",
        "Shape_Leng": 5014.49975674,
        "ROAD_NUM": 0,
        "Keta": 3434,
        "Road_No": "412",
        "Shape_Length": 5014.49975674391
      },
      "geometry": {
        "type": "LineString",
        "coordinates": [
          [
            189014.8864000002,
            659536.2486000005
          ],
          [
            188882.7268000003,
            659424.7350999992
          ],
          [
            188841.67839999963,
            659390.0993000008
          ],
          [
            188820.6200000001,
            659372.3307000007
          ],
          [
            188820.57870000042,
            659372.3126999997
          ],
          [
            188541.36180000007,
            659250.9322999995
          ],
          [
            188359.2368999999,
            659141.6409000009
          ],
          [
            188195.3245000001,
            659032.3686999995
          ],
          [
            188122.4746000003,
            658995.9510999992
          ],
          [
            188106.06680000015,
            658986.2993999999
          ],
          [
            188019.2706000004,
            658935.2423
          ],
          [
            188013.8853000002,
            658931.6521000005
          ],
          [
            187928.2081000004,
            658874.5332999993
          ],
          [
            187779.82320000045,
            658800.4715
          ],
          [
            187646.26520000026,
            658751.9081999995
          ],
          [
            187589.23639999982,
            658732.8983999994
          ],
          [
            187464.14010000043,
            658691.1993000004
          ],
          [
            187221.30659999978,
            658630.4904999994
          ],
          [
            187140.53120000008,
            658616.5635000002
          ],
          [
            187045.25299999956,
            658600.1359999999
          ],
          [
            186942.0488,
            658563.6992000006
          ],
          [
            186848.14400000032,
            658554.6503999997
          ],
          [
            186737.8842000002,
            658544.0256999992
          ],
          [
            186708.48950000014,
            658534.2557999995
          ],
          [
            186562.38690000027,
            658485.6959000006
          ],
          [
            186368.70569999982,
            658413.0947999991
          ],
          [
            186362.1679999996,
            658409.0515999999
          ],
          [
            186270.08829999994,
            658352.1048000008
          ],
          [
            186168.80640000012,
            658296.3975000009
          ],
          [
            186166.94620000012,
            658294.9586999994
          ],
          [
            186013.50789999962,
            658176.2782000005
          ],
          [
            185940.39379999973,
            658118.5956999995
          ],
          [
            185923.6520999996,
            658105.3874999993
          ],
          [
            185853.43030000012,
            658049.9868000001
          ],
          [
            185755.85020000022,
            657996.5256999992
          ],
          [
            185599.66119999997,
            657910.9546000008
          ],
          [
            185448.74129999988,
            657846.9951000009
          ],
          [
            185432.64879999962,
            657838.9488999993
          ],
          [
            185379.2725999998,
            657812.2607000005
          ],
          [
            185336.39070000034,
            657790.8198000006
          ],
          [
            185218.93329999968,
            657724.4308000002
          ],
          [
            185142.3306,
            657647.8281999994
          ],
          [
            185141.18599999975,
            657646.7875999995
          ],
          [
            185086.15529999975,
            657596.7597000003
          ],
          [
            185004.44579999987,
            657520.1569999997
          ],
          [
            184932.94990000036,
            657443.5543000009
          ],
          [
            184851.24039999954,
            657356.7379999999
          ],
          [
            184756.61330000032,
            657197.2222000007
          ],
          [
            184731.48230000027,
            657154.8581000008
          ]
        ]
      }
    },
    {
      "type": "Feature",
      "properties": {
        "OBJECTID_12": 539,
        "TypeRoadtx": "דרך פרברית מהירה",
        "Shape_Leng": 3442.53822759,
        "ROAD_NUM": 0,
        "Keta": 3435,
        "Road_No": "461",
        "Shape_Length": 3421.805592927792
      },
      "geometry": {
        "type": "LineString",
        "coordinates": [
          [
            187481.85929999966,
            660168.6103000008
          ],
          [
            187661.09119999968,
            660149.4004999995
          ],
          [
            187685.0111999996,
            660144.6170000006
          ],
          [
            187994.98730000015,
            660082.6284999996
          ],
          [
            188147.8652999997,
            660009.6566000003
          ],
          [
            188254.62370000035,
            659958.6985999998
          ],
          [
            188262.10369999986,
            659955.1283
          ],
          [
            188268.48550000042,
            659951.8346999995
          ],
          [
            188281.44189999998,
            659945.148
          ],
          [
            188352.52410000004,
            659908.4628999997
          ],
          [
            188450.2993999999,
            659858.0018000007
          ],
          [
            188492.5859000003,
            659835.6620000005
          ],
          [
            188492.94159999955,
            659835.4740999993
          ],
          [
            188772.0532999998,
            659688.0207000002
          ],
          [
            189014.8864000002,
            659536.2486000005
          ],
          [
            189120.5477,
            659483.4174000006
          ],
          [
            189167.80250000022,
            659459.7897999994
          ],
          [
            189424.36789999995,
            659331.5056999996
          ],
          [
            189439.84420000017,
            659323.7675000001
          ],
          [
            189609.82770000026,
            659275.2042999994
          ],
          [
            189895.15629999992,
            659190.2234000005
          ],
          [
            190222.9807000002,
            659135.5777000003
          ],
          [
            190384.91110000014,
            659110.3859999999
          ],
          [
            190496.16839999985,
            659093.0776000004
          ],
          [
            190532.86780000012,
            659094.5173000004
          ],
          [
            190680.60529999994,
            659100.3127999995
          ]
        ]
      }
    },
    {
      "type": "Feature",
      "properties": {
        "OBJECTID_12": 541,
        "TypeRoadtx": "דרך אזורית",
        "Shape_Leng": 4054.64529036,
        "ROAD_NUM": 0,
        "Keta": 3443,
        "Road_No": "לא נמצא",
        "Shape_Length": 4054.645290357954
      },
      "geometry": {
        "type": "LineString",
        "coordinates": [
          [
            186961.8951000003,
            664099.0215000007
          ],
          [
            187010.5351999998,
            663523.0666000005
          ],
          [
            187206.44830000028,
            663160.1701999996
          ],
          [
            187348.53029999975,
            662723.9662999995
          ],
          [
            187363.06579999998,
            662627.2872000001
          ],
          [
            187323.33750000037,
            661882.6060000006
          ],
          [
            187443.80620000046,
            661657.1353999991
          ],
          [
            187462.4972000001,
            661598.7639000006
          ],
          [
            187485.20409999974,
            661431.4813000001
          ],
          [
            187554.9134999998,
            661122.9480000008
          ],
          [
            187554.9134999998,
            660733.5486999992
          ],
          [
            187505.15409999993,
            660471.7054999992
          ],
          [
            187481.85929999966,
            660168.6103000008
          ]
        ]
      }
    },
    {
      "type": "Feature",
      "properties": {
        "OBJECTID_12": 542,
        "TypeRoadtx": "דרך ראשית",
        "Shape_Leng": 5799.09012532,
        "ROAD_NUM": 0,
        "Keta": 3449,
        "Road_No": "40",
        "Shape_Length": 5357.6498922299315
      },
      "geometry": {
        "type": "MultiLineString",
        "coordinates": [
          [
            [
              191338.5292999996,
              665350.3155000005
            ],
            [
              191334.31549999956,
              665334.0988999996
            ],
            [
              191321.8786000004,
              665299.9100000001
            ],
            [
              191201.26169999968,
              664968.3346999995
            ],
            [
              191169.1797000002,
              664635.9554999992
            ],
            [
              191087.42650000006,
              664120.7194999997
            ],
            [
              191083.80250000022,
              663975.3596999999
            ]
          ],
          [
            [
              191083.4718000004,
              663962.0940000005
            ],
            [
              191082.03500000015,
              663904.4652999993
            ]
          ],
          [
            [
              191077.80979999993,
              663734.9905999992
            ],
            [
              191077.33970000036,
              663716.1358000003
            ]
          ],
          [
            [
              191076.2527999999,
              663672.5405000001
            ],
            [
              191073.3406999996,
              663555.7357000001
            ],
            [
              191127.73730000015,
              662774.8400999997
            ],
            [
              191131.23950000014,
              662724.5625
            ],
            [
              191146.5421000002,
              662460.8554999996
            ],
            [
              191154.07430000044,
              662362.0440999996
            ],
            [
              191162.86670000013,
              662246.7015000004
            ],
            [
              191182.13389999978,
              661993.9442999996
            ],
            [
              191232.8724999996,
              661620.3735000007
            ],
            [
              191252.08270000014,
              661478.9366999995
            ],
            [
              191270.49710000027,
              661256.9254999999
            ],
            [
              191282.6076999996,
              661110.9160999991
            ],
            [
              191287.91249999963,
              661046.9603000004
            ],
            [
              191302.53830000013,
              660867.4980999995
            ],
            [
              191339.56290000025,
              660505.3039999995
            ],
            [
              191358.92030000035,
              660315.9393000007
            ],
            [
              191375.3030000003,
              660182.6151999999
            ],
            [
              191388.2405000003,
              659813.1356000006
            ]
          ]
        ]
      }
    },
    {
      "type": "Feature",
      "properties": {
        "OBJECTID_12": 705,
        "TypeRoadtx": "דרך ראשית",
        "Shape_Leng": 4659.93596069,
        "ROAD_NUM": 0,
        "Keta": 4340,
        "Road_No": "44",
        "Shape_Length": 4659.935960691443
      },
      "geometry": {
        "type": "LineString",
        "coordinates": [
          [
            179236.09379999992,
            660640.5
          ],
          [
            179303.16970000044,
            660598.0143999998
          ],
          [
            179384.5,
            660546.5
          ],
          [
            179547.21879999992,
            660464.5
          ],
          [
            179937.48440000042,
            660277.9375
          ],
          [
            180170.32809999958,
            660143
          ],
          [
            180310.54690000042,
            660074.25
          ],
          [
            180368.76559999958,
            660037.1875
          ],
          [
            180419.03129999992,
            660005.4375
          ],
          [
            180542.5,
            659921.625
          ],
          [
            180685.03129999992,
            659814.75
          ],
          [
            180713.2335000001,
            659791.4578000009
          ],
          [
            180821.625,
            659701.9375
          ],
          [
            181084.125,
            659457.25
          ],
          [
            181227.84379999992,
            659332.5
          ],
          [
            181353.1785000004,
            659217.3094999995
          ],
          [
            181375.14059999958,
            659197.125
          ],
          [
            181517.79690000042,
            659020.1875
          ],
          [
            181613.04690000042,
            658931.3125
          ],
          [
            181668.60940000042,
            658877.3125
          ],
          [
            181755.125,
            658801.125
          ],
          [
            181793.23440000042,
            658741
          ],
          [
            181896.57809999958,
            658603.1875
          ],
          [
            182062.875,
            658394.125
          ],
          [
            182128.20309999958,
            658301.5
          ],
          [
            182222.03129999992,
            658155.375
          ],
          [
            182355.36899999995,
            657947.2290000003
          ],
          [
            182357.4375,
            657944
          ],
          [
            182413.26559999958,
            657844.1875
          ],
          [
            182469.09379999992,
            657744.4375
          ],
          [
            182570.77909999993,
            657590.9891999997
          ],
          [
            182598.5625,
            657549.0625
          ]
        ]
      }
    },
    {
      "type": "Feature",
      "properties": {
        "OBJECTID_12": 706,
        "TypeRoadtx": "דרך פרברית מהירה",
        "Shape_Leng": 70.2338362158,
        "ROAD_NUM": 0,
        "Keta": 4345,
        "Road_No": "461",
        "Shape_Length": 70.23383621576231
      },
      "geometry": {
        "type": "LineString",
        "coordinates": [
          [
            184023,
            660614.4375
          ],
          [
            184062.0566999996,
            660605.1490000002
          ],
          [
            184079.8967000004,
            660600.9061999992
          ],
          [
            184091.32809999958,
            660598.1875
          ]
        ]
      }
    },
    {
      "type": "Feature",
      "properties": {
        "OBJECTID_12": 707,
        "TypeRoadtx": "דרך אזורית",
        "Shape_Leng": 4200.32005838,
        "ROAD_NUM": 0,
        "Keta": 4353,
        "Road_No": "461",
        "Shape_Length": 4200.320058378572
      },
      "geometry": {
        "type": "LineString",
        "coordinates": [
          [
            180055.9375,
            661602.25
          ],
          [
            180106,
            661602
          ],
          [
            180147.54690000042,
            661615.125
          ],
          [
            180194.625,
            661640.375
          ],
          [
            180255.48440000042,
            661653.5625
          ],
          [
            180300.46879999992,
            661650.9375
          ],
          [
            180371.90629999992,
            661648.3125
          ],
          [
            180468.46879999992,
            661652.25
          ],
          [
            180637.03980000038,
            661667.2599999998
          ],
          [
            180721.15629999992,
            661674.75
          ],
          [
            180916.9375,
            661652.25
          ],
          [
            181151.5,
            661598
          ],
          [
            181165.29690000042,
            661594.8125
          ],
          [
            181956.2229000004,
            661413.6204000004
          ],
          [
            182014.85940000042,
            661400.1875
          ],
          [
            182153.14059999958,
            661383.5
          ],
          [
            182221.22499999963,
            661378.6727000009
          ],
          [
            182295.0625,
            661373.4375
          ],
          [
            182435.05769999977,
            661345.1862000003
          ],
          [
            182511.85940000042,
            661329.6875
          ],
          [
            182694.0133999996,
            661288.8616000004
          ],
          [
            182706.78129999992,
            661286
          ],
          [
            182708.91970000044,
            661285.2670000009
          ],
          [
            182793.9428000003,
            661256.1217999998
          ],
          [
            182815.8125,
            661248.625
          ],
          [
            182820.90639999975,
            661246.4290999994
          ],
          [
            182964.2561999997,
            661184.6322000008
          ],
          [
            182985.875,
            661175.3125
          ],
          [
            183032.78110000025,
            661147.1019000001
          ],
          [
            183085.14570000023,
            661115.6085000001
          ],
          [
            183202.85940000042,
            661044.8125
          ],
          [
            183277.625,
            660986.1875
          ],
          [
            183362.65629999992,
            660918.75
          ],
          [
            183437.42190000042,
            660864.5
          ],
          [
            183451.9654000001,
            660852.3177000005
          ],
          [
            183500.84379999992,
            660811.375
          ],
          [
            183535.65629999992,
            660783.875
          ],
          [
            183600.15629999992,
            660736.9375
          ],
          [
            183674.9375,
            660701.75
          ],
          [
            183684.61710000038,
            660698.7115000002
          ],
          [
            183741.4375,
            660680.875
          ],
          [
            184011.67119999975,
            660617.1106000002
          ],
          [
            184023,
            660614.4375
          ]
        ]
      }
    },
    {
      "type": "Feature",
      "properties": {
        "OBJECTID_12": 708,
        "TypeRoadtx": "דרך מהירה",
        "Shape_Leng": 5065.3626407,
        "ROAD_NUM": 0,
        "Keta": 4355,
        "Road_No": "1",
        "Shape_Length": 5065.362640695657
      },
      "geometry": {
        "type": "LineString",
        "coordinates": [
          [
            179824.375,
            662000.125
          ],
          [
            179849.78129999992,
            661937.6875
          ],
          [
            179879.48440000042,
            661887.1875
          ],
          [
            180007.3214999996,
            661680.7554000001
          ],
          [
            180055.9375,
            661602.25
          ],
          [
            180135.07809999958,
            661387.125
          ],
          [
            180257.59379999992,
            661019.25
          ],
          [
            180293.03129999992,
            660961.6875
          ],
          [
            180423.20309999958,
            660837.0625
          ],
          [
            180602.59379999992,
            660660.875
          ],
          [
            180754.20309999958,
            660529.875
          ],
          [
            181052.65629999992,
            660278.25
          ],
          [
            181383.71879999992,
            659993.3125
          ],
          [
            182031.34379999992,
            659450.375
          ],
          [
            182402.03129999992,
            659138.4375
          ],
          [
            182586.17190000042,
            658983.6875
          ],
          [
            182956.85940000042,
            658651.875
          ],
          [
            183245.8931,
            658394.8534999993
          ],
          [
            183249.9534,
            658391.2430000007
          ],
          [
            183250.4375,
            658390.8125
          ]
        ]
      }
    },
    {
      "type": "Feature",
      "properties": {
        "OBJECTID_12": 811,
        "TypeRoadtx": "דרך אזורית",
        "Shape_Leng": 3566.35130142,
        "ROAD_NUM": 0,
        "Keta": 3326,
        "Road_No": "423",
        "Shape_Length": 3566.351301415296
      },
      "geometry": {
        "type": "LineString",
        "coordinates": [
          [
            186538.5625,
            650993.4845000003
          ],
          [
            186300.9508999996,
            651005.8720999993
          ],
          [
            186101.64529999997,
            650983.6533000004
          ],
          [
            185802.6967000002,
            650932.5965
          ],
          [
            185525.12729999982,
            650846.1820999999
          ],
          [
            185372.08160000015,
            650792.1736999992
          ],
          [
            185322.36290000007,
            650774.6283999998
          ],
          [
            184934.41789999977,
            650637.7260999996
          ],
          [
            184336.63129999954,
            650365.4109000005
          ],
          [
            184172.95409999974,
            650286.6269000005
          ],
          [
            184002.15909999982,
            650207.8096999992
          ],
          [
            183852.70490000024,
            650150.3686999995
          ],
          [
            183697.61890000012,
            650124.7577
          ],
          [
            183574.8724999996,
            650146.6151999999
          ],
          [
            183466.9018000001,
            650166.0328000002
          ],
          [
            183370.59329999983,
            650182.9660999998
          ],
          [
            183298.62650000025,
            650175.5578000005
          ],
          [
            183233.0097000003,
            650161.7993999999
          ],
          [
            183168.39109999966,
            650129.773
          ],
          [
            183159.5103000002,
            650125.3715000004
          ],
          [
            183150.59889999963,
            650120.9548000004
          ]
        ]
      }
    }
  ]
}