{
  "type": "FeatureCollection",
  "name": "tama35_train",
  "description": "תמ\"א 35 – מסילות ברזל",
  "crs": {
    "type": "name",
    "properties": {
      "name": "urn:ogc:def:crs:EPSG::2039"
    }
  },
  "features": [
    {
      "type": "Feature",
      "properties": {
        "OBJECTID_1": 12,
        "Shape_Leng": 3021.7079394,
        "Shape_Length": 3021.7079394015536
      },
      "geometry": {
        "type": "LineString",
        "coordinates": [
          [
            180047.59449999966,
            661544.5033999998
          ],
          [
            180081.2586000003,
            661463.8540000003
          ],
          [
            180121.4740000004,
            661367.4284000006
          ],
          [
            180186.0625,
            661216.2397000007
          ],
          [
            180216.02109999955,
            661147.8177000005
          ],
          [
            180244.43510000035,
            661082.9232000001
          ],
          [
            180282.23419999983,
            661019.4531999994
          ],
          [
            180308.73979999963,
            660983.3508000001
          ],
          [
            180381.5137,
            660903.0090999994
          ],
          [
            180481.03039999958,
            660784.9461000003
          ],
          [
            180587.4534,
            660685.0764000006
          ],
          [
            180675.00989999995,
            660606.2084999997
          ],
          [
            180719.52639999986,
            660566.5677000005
          ],
          [
            180976.4497999996,
            660349.9210000001
          ],
          [
            181208.57120000012,
            660153.6247000005
          ],
          [
            181280.22149999999,
            660090.8778000008
          ],
          [
            181377.77720000036,
            660007.2585000005
          ],
          [
            181444.22520000022,
            659952.2890000008
          ],
          [
            181504.07550000027,
            659904.5447000004
          ],
          [
            181534.36319999956,
            659880.1344000008
          ],
          [
            181585.05310000014,
            659838.8299000002
          ],
          [
            181648.85989999957,
            659787.5300999992
          ],
          [
            181679.14240000024,
            659762.3278999999
          ],
          [
            181694.64829999954,
            659750.4330000002
          ],
          [
            182111.0898000002,
            659401.4495000001
          ]
        ]
      }
    },
    {
      "type": "Feature",
      "properties": {
        "OBJECTID_1": 97,
        "Shape_Leng": 4724.55260438,
        "Shape_Length": 4724.552604382499
      },
      "geometry": {
        "type": "LineString",
        "coordinates": [
          [
            177217.78270000033,
            652757.5033999998
          ],
          [
            177671.7843000004,
            652620.6043999996
          ],
          [
            177794.81579999998,
            652568.2168000005
          ],
          [
            177866.25349999964,
            652532.4979999997
          ],
          [
            177976.58490000013,
            652465.0291000009
          ],
          [
            178198.0416000001,
            652293.5788000003
          ],
          [
            178365.5231999997,
            652157.0535000004
          ],
          [
            178904.4804999996,
            651721.2839000002
          ],
          [
            178995.7620000001,
            651646.6711999997
          ],
          [
            179288.65629999992,
            651414.8958
          ],
          [
            179380.73149999976,
            651356.9518999998
          ],
          [
            179498.20669999998,
            651301.3892999999
          ],
          [
            179539.21719999984,
            651285.2497000005
          ],
          [
            179790.0427000001,
            651209.0494999997
          ],
          [
            180244.06859999988,
            651088.3992999997
          ],
          [
            180337.20220000017,
            651062.9991999995
          ],
          [
            180769.00299999956,
            650938.1157000009
          ],
          [
            181056.8702999996,
            650850.2738000005
          ],
          [
            181158.47049999982,
            650817.4653999992
          ],
          [
            181406.08669999987,
            650743.9561999999
          ]
        ]
      }
    },
    {
      "type": "Feature",
      "properties": {
        "OBJECTID_1": 98,
        "Shape_Leng": 2981.04705329,
        "Shape_Length": 2981.047053289443
      },
      "geometry": {
        "type": "LineString",
        "coordinates": [
          [
            181406.08669999987,
            650743.9561999999
          ],
          [
            181558.19919999968,
            650691.5453999992
          ],
          [
            181734.17760000005,
            650632.409
          ],
          [
            181754.2076000003,
            650625.2554000001
          ],
          [
            182037.4899000004,
            650519.8592000008
          ],
          [
            182189.14609999955,
            650463.5842000004
          ],
          [
            182282.14279999956,
            650420.6626999993
          ],
          [
            182350.3404000001,
            650378.2180000003
          ],
          [
            182399.93869999982,
            650339.5886000004
          ],
          [
            182417.43840000033,
            650325.4836999997
          ],
          [
            182434.4578999998,
            650310.8028999995
          ],
          [
            182450.97809999995,
            650295.5625999998
          ],
          [
            182466.98080000002,
            650279.7795000002
          ],
          [
            182482.44799999986,
            650263.4715
          ],
          [
            182497.36259999964,
            650246.6565000005
          ],
          [
            182511.70799999963,
            650229.3533999994
          ],
          [
            182525.46810000017,
            650211.5812999997
          ],
          [
            182538.62770000007,
            650193.3600999992
          ],
          [
            182551.1721999999,
            650174.7100000009
          ],
          [
            182563.08750000037,
            650155.6517999992
          ],
          [
            182574.36039999966,
            650136.2068000007
          ],
          [
            182584.9782999996,
            650116.3965000007
          ],
          [
            182610.25430000015,
            650062.9829999991
          ],
          [
            182637.9149000002,
            649992.4009000007
          ],
          [
            182647.45299999975,
            649956.6328999996
          ],
          [
            182673.68290000036,
            649820.2377000004
          ],
          [
            182707.06630000006,
            649611.3528000005
          ],
          [
            182713.74299999978,
            649567.9542999994
          ],
          [
            182760.60840000026,
            649350.0956999995
          ],
          [
            182781.64879999962,
            649287.9795999993
          ],
          [
            182805.41839999985,
            649232.6246000007
          ],
          [
            182828.62119999994,
            649187.2599999998
          ],
          [
            182868.3883999996,
            649128.7650000006
          ],
          [
            182896.19450000022,
            649092.1116000004
          ],
          [
            182906.43090000004,
            649079.2090000007
          ],
          [
            182917.21700000018,
            649066.7622999996
          ],
          [
            182928.53249999974,
            649054.7949000001
          ],
          [
            182940.35620000027,
            649043.3292999994
          ],
          [
            182952.66590000037,
            649032.3870000001
          ],
          [
            182965.43829999957,
            649021.9887000006
          ],
          [
            182978.64960000012,
            649012.1537999995
          ],
          [
            182992.27469999995,
            649002.9010000005
          ],
          [
            183006.2882000003,
            648994.2475000005
          ],
          [
            183020.66359999962,
            648986.2095999997
          ],
          [
            183035.37399999984,
            648978.8025000002
          ],
          [
            183050.39169999957,
            648972.0399999991
          ],
          [
            183067.38769999985,
            648965.2300000004
          ],
          [
            183084.6464999998,
            648959.1163999997
          ],
          [
            183102.13939999975,
            648953.7092000004
          ],
          [
            183119.83770000003,
            648949.0174000002
          ],
          [
            183137.7120000003,
            648945.0488000009
          ],
          [
            183155.73290000018,
            648941.8098000009
          ],
          [
            183173.87040000036,
            648939.3059999999
          ],
          [
            183192.09480000008,
            648937.5413000006
          ],
          [
            183210.37579999957,
            648936.5186999999
          ],
          [
            183228.68329999968,
            648936.2399000004
          ],
          [
            183246.98699999973,
            648936.7053999994
          ],
          [
            183265.25659999996,
            648937.9144000001
          ],
          [
            183376.48080000002,
            648944.8659000006
          ]
        ]
      }
    },
    {
      "type": "Feature",
      "properties": {
        "OBJECTID_1": 99,
        "Shape_Leng": 9224.86734077,
        "Shape_Length": 9224.867340769753
      },
      "geometry": {
        "type": "MultiLineString",
        "coordinates": [
          [
            [
              183298.9288999997,
              648940.0188999996
            ],
            [
              183134.26070000045,
              648905.6440999992
            ],
            [
              182982.49679999985,
              648844.6085999999
            ],
            [
              182896.71719999984,
              648788.5219
            ],
            [
              182799.39039999992,
              648696.1438999996
            ],
            [
              182720.2092000004,
              648587.2697999999
            ],
            [
              182687.2171,
              648496.5414000005
            ],
            [
              182659.17370000016,
              648395.9153000005
            ],
            [
              182647.62650000025,
              648310.1357000005
            ],
            [
              182637.7287999997,
              648067.6434000004
            ],
            [
              182629.48080000002,
              647958.7693000007
            ],
            [
              182625.27280000038,
              647908.3392999992
            ],
            [
              182620.2951999996,
              647857.9794999994
            ],
            [
              182614.5491000004,
              647807.7015000004
            ],
            [
              182608.03589999955,
              647757.5172000006
            ],
            [
              182578.34300000034,
              647678.3359999992
            ],
            [
              182535.45320000034,
              647592.5563999992
            ],
            [
              182439.77589999977,
              647478.7335000001
            ],
            [
              182353.99629999977,
              647371.5089999996
            ],
            [
              182311.10649999976,
              647275.8317000009
            ],
            [
              182283.06319999974,
              647183.4537000004
            ],
            [
              182273.16550000012,
              647105.9221000001
            ],
            [
              182258.31909999996,
              646888.1739000008
            ],
            [
              182250.07100000046,
              646771.0517999995
            ],
            [
              182235.2246000003,
              646701.7683000006
            ],
            [
              182193.98440000042,
              646604.4414000008
            ],
            [
              182142.84649999999,
              646526.9098000005
            ],
            [
              182083.25679999962,
              646460.4968999997
            ],
            [
              182017.47640000004,
              646414.7365000006
            ],
            [
              181933.34640000015,
              646358.6499000005
            ],
            [
              181334.5388000002,
              646008.9330000002
            ]
          ],
          [
            [
              188227.34929999989,
              650261.6524999999
            ],
            [
              188050.0730999997,
              650123.8684999999
            ],
            [
              188032.5515999999,
              650110.7278000005
            ],
            [
              188014.58820000011,
              650098.1980000008
            ],
            [
              187996.2039999999,
              650086.2939999998
            ],
            [
              187977.4210000001,
              650075.0298999995
            ],
            [
              187958.2614000002,
              650064.4190999996
            ],
            [
              187938.74789999984,
              650054.4740999993
            ],
            [
              187918.90359999985,
              650045.2065999992
            ],
            [
              187898.75210000016,
              650036.6278000008
            ],
            [
              187878.31709999964,
              650028.7478
            ],
            [
              187857.62310000043,
              650021.5757999998
            ],
            [
              187836.6944000004,
              650015.1204000004
            ],
            [
              187815.55590000004,
              650009.3892999999
            ],
            [
              187794.2326999996,
              650004.3892999999
            ],
            [
              187772.75,
              650000.1261999998
            ],
            [
              187730.2276999997,
              649992.1721000001
            ],
            [
              187687.80790000036,
              649983.6881000008
            ],
            [
              187645.49729999993,
              649974.6755999997
            ],
            [
              187236.53340000007,
              649884.2822999991
            ],
            [
              186638.6183000002,
              649760.6001999993
            ],
            [
              186534.9014999997,
              649738.3750999998
            ],
            [
              186511.8892000001,
              649733.8333999999
            ],
            [
              186488.7416000003,
              649730.0413000006
            ],
            [
              186465.483,
              649727.0029000007
            ],
            [
              186442.1381000001,
              649724.7212000005
            ],
            [
              186418.73139999993,
              649723.1987999994
            ],
            [
              186395.2876000004,
              649722.4371000007
            ],
            [
              186371.83139999956,
              649722.4371000007
            ],
            [
              186348.38760000002,
              649723.1987999994
            ],
            [
              186324.98089999985,
              649724.7212000005
            ],
            [
              186301.63599999994,
              649727.0029000007
            ],
            [
              186278.37739999965,
              649730.0413000006
            ],
            [
              186255.22979999986,
              649733.8333999999
            ],
            [
              186232.21750000026,
              649738.3750999998
            ],
            [
              186015.25879999995,
              649775.4168999996
            ],
            [
              185767.60830000043,
              649820.9253000002
            ],
            [
              185724.2165000001,
              649825.1586000007
            ],
            [
              185674.47470000014,
              649825.1586000007
            ],
            [
              185651.0898000002,
              649824.7628000006
            ],
            [
              185627.73170000035,
              649823.5756999999
            ],
            [
              185604.42709999997,
              649821.5986000001
            ],
            [
              185581.2028000001,
              649818.8340000007
            ],
            [
              185558.08540000021,
              649815.2849000003
            ],
            [
              185535.10140000004,
              649810.9553999994
            ],
            [
              185512.27699999977,
              649805.8504000008
            ],
            [
              185489.63860000018,
              649799.9759
            ],
            [
              185467.21190000046,
              649793.3385000005
            ],
            [
              185445.02269999962,
              649785.9458000008
            ],
            [
              185423.09640000015,
              649777.8063999992
            ],
            [
              185401.45820000023,
              649768.9295000006
            ],
            [
              185380.13289999962,
              649759.3253000006
            ],
            [
              185359.1447999999,
              649749.0048999991
            ],
            [
              185338.5181,
              649737.9800000004
            ],
            [
              185318.27630000003,
              649726.2632999998
            ],
            [
              185298.44269999955,
              649713.8682000004
            ],
            [
              185279.0399000002,
              649700.8089000005
            ],
            [
              185260.09030000027,
              649687.1004000008
            ],
            [
              185241.6155000003,
              649672.7583000008
            ],
            [
              185173.88210000005,
              649605.0249000005
            ],
            [
              185044.76510000043,
              649446.2744999994
            ],
            [
              184905.06489999965,
              649251.5407999996
            ],
            [
              184787.5895999996,
              649087.4988000002
            ],
            [
              184776.15600000042,
              649072.1699999999
            ],
            [
              184764.1364000002,
              649057.2960999999
            ],
            [
              184751.5491000004,
              649042.8995999992
            ],
            [
              184738.41280000005,
              649029.0020000003
            ],
            [
              184724.74739999976,
              649015.6245000008
            ],
            [
              184710.57349999994,
              649002.7869000006
            ],
            [
              184695.9123999998,
              648990.5088
            ],
            [
              184680.78610000014,
              648978.8084999993
            ],
            [
              184665.21740000043,
              648967.7036000006
            ],
            [
              184649.22970000003,
              648957.2109999992
            ],
            [
              184632.8470999999,
              648947.3462000005
            ],
            [
              184616.0943,
              648938.1242999993
            ],
            [
              184598.99629999977,
              648929.5591000002
            ],
            [
              184581.57909999974,
              648921.6634
            ],
            [
              184563.86870000046,
              648914.4491000008
            ],
            [
              184545.89190000016,
              648907.9272000007
            ],
            [
              184527.67569999956,
              648902.1074000001
            ],
            [
              184509.24739999976,
              648896.9984000009
            ],
            [
              184436.22229999956,
              648874.7733999994
            ],
            [
              184375.8970999997,
              648865.2484000009
            ],
            [
              184319.80539999995,
              648865.2484000009
            ],
            [
              184242.54690000042,
              648869.4816999994
            ],
            [
              183966.32129999995,
              648912.8735000007
            ],
            [
              183729.25420000032,
              648954.1486000009
            ],
            [
              183654.11239999998,
              648959.4401999991
            ],
            [
              183427.6286000004,
              648947.7984999996
            ],
            [
              183376.48080000002,
              648944.8659000006
            ]
          ]
        ]
      }
    },
    {
      "type": "Feature",
      "properties": {
        "OBJECTID_1": 101,
        "Shape_Leng": 12650.3703354,
        "Shape_Length": 12650.370335432208
      },
      "geometry": {
        "type": "MultiLineString",
        "coordinates": [
          [
            [
              188067.24729999993,
              642494.7968000006
            ],
            [
              187897.24349999987,
              642177.1580999997
            ],
            [
              187862.84759999998,
              642093.8142000008
            ],
            [
              187860.20179999992,
              642088.5225000009
            ]
          ],
          [
            [
              189204.2583999997,
              645485.4927999992
            ],
            [
              189111.17069999967,
              645407.8740999997
            ],
            [
              188999.42769999988,
              645360.6938000005
            ],
            [
              188850.43709999975,
              645314.7550000008
            ],
            [
              188676.61459999997,
              645258.8835000005
            ],
            [
              188583.4955000002,
              645220.3942000009
            ],
            [
              188499.0674999999,
              645169.4890999999
            ],
            [
              188418.36419999972,
              645090.0274
            ],
            [
              188376.15020000003,
              645021.7400000002
            ],
            [
              188331.45299999975,
              644924.8960999995
            ],
            [
              188182.46229999978,
              644563.5938000008
            ],
            [
              188124.10759999976,
              644412.1199999992
            ],
            [
              188006.15670000017,
              644125.3128999993
            ],
            [
              187960.21789999958,
              644009.8452000003
            ],
            [
              187926.6950000003,
              643905.5516999997
            ],
            [
              187914.27909999993,
              643826.0900999997
            ],
            [
              187911.7960000001,
              643765.2522
            ],
            [
              187911.7960000001,
              643668.4082999993
            ],
            [
              187905.58800000045,
              643513.2096999995
            ],
            [
              187910.5543999998,
              643441.1974999998
            ],
            [
              187919.2455000002,
              643367.9438000005
            ],
            [
              187967.66750000045,
              643207.7788999993
            ],
            [
              188017.33100000024,
              643050.0971000008
            ],
            [
              188028.53550000023,
              643013.6372999996
            ],
            [
              188039.23029999994,
              642977.0247000009
            ],
            [
              188049.41330000013,
              642940.2664999999
            ],
            [
              188059.08249999955,
              642903.3698999994
            ],
            [
              188068.23620000016,
              642866.3419000003
            ],
            [
              188076.92729999963,
              642721.0760999992
            ],
            [
              188067.24729999993,
              642494.7968000006
            ]
          ],
          [
            [
              189204.2583999997,
              645485.4927999992
            ],
            [
              189184.44400000013,
              645446.0918000005
            ],
            [
              189042.89169999957,
              645178.8620999996
            ],
            [
              188964.83939999994,
              645004.2367000002
            ],
            [
              188882.81840000022,
              644766.1111999992
            ],
            [
              188848.42250000034,
              644543.8607999999
            ],
            [
              188804.76620000042,
              644218.4225999992
            ],
            [
              188800.79739999957,
              644178.7350999992
            ],
            [
              188753.17229999974,
              643932.6721000001
            ],
            [
              188656.59920000006,
              643632.3694000002
            ],
            [
              188569.2865000004,
              643437.9002
            ],
            [
              188382.75490000006,
              643080.7119999994
            ],
            [
              188249.14010000043,
              642834.6490000002
            ],
            [
              188067.24729999993,
              642494.7968000006
            ]
          ],
          [
            [
              188093.4578999998,
              650157.5883000009
            ],
            [
              187998.05080000032,
              650048.5050000008
            ],
            [
              187952.27859999985,
              649997.3478999995
            ],
            [
              187880.9277999997,
              649919.2659000009
            ],
            [
              187869.23550000042,
              649905.8939999994
            ],
            [
              187858.1398,
              649892.0231999997
            ],
            [
              187847.66199999955,
              649877.6798999999
            ],
            [
              187837.8219999997,
              649862.8915999997
            ],
            [
              187828.63889999967,
              649847.6867999993
            ],
            [
              187820.13019999955,
              649832.0944999997
            ],
            [
              187812.31230000034,
              649816.1447999999
            ],
            [
              187805.2000000002,
              649799.8680000007
            ],
            [
              187798.80709999986,
              649783.2956000008
            ],
            [
              187790.47919999994,
              649759.1928000003
            ],
            [
              187782.80960000027,
              649734.8726000004
            ],
            [
              187775.80399999954,
              649710.3529000003
            ],
            [
              187769.46750000026,
              649685.6517999992
            ],
            [
              187763.80489999987,
              649660.7875999995
            ],
            [
              187760.04370000027,
              649641.2904000003
            ],
            [
              187757.0558000002,
              649621.6597000007
            ],
            [
              187754.8459999999,
              649601.9264000002
            ],
            [
              187753.4177000001,
              649582.1210999992
            ],
            [
              187752.77300000004,
              649562.2748000007
            ],
            [
              187752.9129999997,
              649542.4186000004
            ],
            [
              187753.83750000037,
              649522.5833999999
            ],
            [
              187755.54509999976,
              649502.8003000002
            ],
            [
              187758.03299999982,
              649483.0999999996
            ],
            [
              187761.29750000034,
              649463.5134999994
            ],
            [
              187765.33330000006,
              649444.0712000001
            ],
            [
              187770.1342000002,
              649424.8036000002
            ],
            [
              187775.69269999955,
              649405.7408000007
            ],
            [
              187782.00009999983,
              649386.9123999998
            ],
            [
              187789.04650000017,
              649368.3479999993
            ],
            [
              187796.82100000046,
              649350.0766000003
            ],
            [
              187805.3114,
              649332.1265999991
            ],
            [
              187814.50439999998,
              649314.5261000004
            ],
            [
              187824.38570000045,
              649297.3026
            ],
            [
              187884.96659999993,
              649209.7969000004
            ],
            [
              188121.90500000026,
              648927.0863000005
            ],
            [
              188397.88430000003,
              648608.0273000002
            ],
            [
              188529.8158999998,
              648453.2095999997
            ],
            [
              188820.1913999999,
              648108.4536000006
            ],
            [
              188952.93310000002,
              647937.1488000005
            ],
            [
              189073.31879999954,
              647747.9714000002
            ],
            [
              189113.0064000003,
              647661.9815999996
            ],
            [
              189176.50650000013,
              647509.8458999991
            ],
            [
              189258.52749999985,
              647237.3245000001
            ],
            [
              189430.50700000022,
              646709.4796999991
            ],
            [
              189455.64250000007,
              646549.4065000005
            ],
            [
              189468.87170000002,
              646298.0517999995
            ],
            [
              189429.1841000002,
              646034.7908999994
            ],
            [
              189398.7569000004,
              645910.4364
            ],
            [
              189299.5379999997,
              645674.9568000007
            ],
            [
              189204.2583999997,
              645485.4927999992
            ]
          ]
        ]
      }
    },
    {
      "type": "Feature",
      "properties": {
        "OBJECTID_1": 103,
        "Shape_Leng": 1431.70215204,
        "Shape_Length": 1431.7021520390426
      },
      "geometry": {
        "type": "LineString",
        "coordinates": [
          [
            182111.0898000002,
            659401.4495000001
          ],
          [
            183194.82529999968,
            658465.8809999991
          ]
        ]
      }
    },
    {
      "type": "Feature",
      "properties": {
        "OBJECTID_1": 104,
        "Shape_Leng": 3937.60942705,
        "Shape_Length": 3937.6094270480894
      },
      "geometry": {
        "type": "MultiLineString",
        "coordinates": [
          [
            [
              184260.40359999985,
              657560.6987999994
            ],
            [
              184304.21490000002,
              657522.8618000001
            ],
            [
              184625.9489000002,
              657251.9278999995
            ]
          ],
          [
            [
              184260.40359999985,
              657560.6987999994
            ],
            [
              184662.99060000014,
              657376.8114999998
            ],
            [
              184991.07459999993,
              657297.4363000002
            ],
            [
              185218.61670000013,
              657286.8530000001
            ],
            [
              185525.53399999999,
              657334.4781
            ],
            [
              185753.07610000018,
              657366.2281
            ],
            [
              185911.82639999967,
              657397.9781999998
            ],
            [
              186255.78550000023,
              657466.7699999996
            ]
          ],
          [
            [
              183194.82529999968,
              658465.8809999991
            ],
            [
              183711.54700000025,
              658028.7460999992
            ],
            [
              183931.6808000002,
              657844.5957999993
            ],
            [
              184260.40359999985,
              657560.6987999994
            ]
          ]
        ]
      }
    },
    {
      "type": "Feature",
      "properties": {
        "OBJECTID_1": 105,
        "Shape_Leng": 8846.36244965,
        "Shape_Length": 8846.362449652283
      },
      "geometry": {
        "type": "MultiLineString",
        "coordinates": [
          [
            [
              185713.59520000033,
              656207.7173999995
            ],
            [
              185774.08810000028,
              656143.2635999992
            ],
            [
              186003.75409999955,
              655895.9310999997
            ],
            [
              186563.64979999978,
              655240.9075000007
            ],
            [
              186785.16189999972,
              654974.5493000001
            ],
            [
              187505.4160000002,
              654106.1675000004
            ],
            [
              187718.7742999997,
              653849.3221000005
            ],
            [
              188444.46439999994,
              652980.9401999991
            ],
            [
              189024.74459999986,
              652276.9936999995
            ],
            [
              189096.76999999955,
              652202.2503999993
            ],
            [
              189304.69240000006,
              652026.9431999996
            ]
          ],
          [
            [
              185713.59520000033,
              656207.7173999995
            ],
            [
              185963.7768000001,
              656129.3992999997
            ],
            [
              186069.61029999983,
              656065.8991999999
            ],
            [
              186254.81900000013,
              655930.9614000004
            ],
            [
              186387.11099999957,
              655814.5445000008
            ],
            [
              186519.4029000001,
              655650.5024999995
            ],
            [
              186535.79980000015,
              655630.7650000006
            ],
            [
              186552.76389999967,
              655611.5127000008
            ],
            [
              186570.28079999983,
              655592.7620000001
            ],
            [
              186588.3356999997,
              655574.5288999993
            ],
            [
              186606.91339999996,
              655556.8286000006
            ],
            [
              186625.99810000043,
              655539.6762000006
            ],
            [
              186645.57359999977,
              655523.0862000007
            ],
            [
              186665.62349999975,
              655507.0725999996
            ],
            [
              186686.1305999998,
              655491.6491
            ],
            [
              186707.0778000001,
              655476.8285000008
            ],
            [
              186728.44710000046,
              655462.6236000005
            ],
            [
              186750.22059999965,
              655449.0462999996
            ],
            [
              186772.37990000006,
              655436.1081000008
            ],
            [
              186794.90610000025,
              655423.8199000005
            ],
            [
              186817.78029999975,
              655412.1921999995
            ],
            [
              186840.983,
              655401.2347999997
            ],
            [
              186864.49459999986,
              655390.9569000006
            ],
            [
              186888.2951999996,
              655381.3673
            ],
            [
              186912.3646999998,
              655372.4740999993
            ],
            [
              186936.68269999977,
              655364.2848000005
            ],
            [
              186961.22860000003,
              655356.8062999994
            ],
            [
              186985.98170000035,
              655350.0449999999
            ],
            [
              187010.9210000001,
              655344.0066
            ],
            [
              187036.02529999986,
              655338.6962000001
            ],
            [
              187061.27350000013,
              655334.1183000002
            ],
            [
              187086.64419999998,
              655330.2766999993
            ],
            [
              187166.81410000008,
              655325.1397999991
            ],
            [
              187237.23869999964,
              655328.7875999995
            ]
          ],
          [
            [
              184625.9489000002,
              657251.9278999995
            ],
            [
              184916.57799999975,
              657008.9276
            ],
            [
              185161.19259999972,
              656803.7230999991
            ],
            [
              185356.88430000003,
              656593.0826999992
            ],
            [
              185545.78120000008,
              656386.5193000007
            ],
            [
              185713.59520000033,
              656207.7173999995
            ]
          ]
        ]
      }
    },
    {
      "type": "Feature",
      "properties": {
        "OBJECTID_1": 106,
        "Shape_Leng": 4400.02740138,
        "Shape_Length": 4400.027401380067
      },
      "geometry": {
        "type": "LineString",
        "coordinates": [
          [
            187237.23869999964,
            655328.7875999995
          ],
          [
            187315.13580000028,
            655340.4960999992
          ],
          [
            187397.57299999986,
            655362.4792999998
          ],
          [
            187459.69959999993,
            655385.8962999992
          ],
          [
            187507.48919999972,
            655409.3132000007
          ],
          [
            187565.07579999976,
            655439.8986000009
          ],
          [
            187583.47479999997,
            655452.5628999993
          ],
          [
            187659.46040000021,
            655508.9547000006
          ],
          [
            187735.92389999982,
            655574.9044000003
          ],
          [
            187847.03479999956,
            655667.1384999994
          ],
          [
            187905.57720000017,
            655715.8838999998
          ],
          [
            187966.9868999999,
            655760.3282999992
          ],
          [
            187999.24490000028,
            655781.1168000009
          ],
          [
            188073.3189000003,
            655819.8265000004
          ],
          [
            188116.32959999982,
            655837.7476000004
          ],
          [
            188162.20770000014,
            655853.0403000005
          ],
          [
            188184.19099999964,
            655859.9697999991
          ],
          [
            188233.65330000035,
            655872.1561999992
          ],
          [
            188291.23979999963,
            655881.7140999995
          ],
          [
            188344.7642000001,
            655885.7762000002
          ],
          [
            188374.15490000043,
            655886.9710000008
          ],
          [
            188442.01620000042,
            655884.3424999993
          ],
          [
            188479.7701000003,
            655880.5193000007
          ],
          [
            188502.97240000032,
            655877.7920999993
          ],
          [
            188526.07510000002,
            655874.3202
          ],
          [
            188549.0541000003,
            655870.1072000004
          ],
          [
            188571.88580000028,
            655865.1574000008
          ],
          [
            188594.5466,
            655859.4759999998
          ],
          [
            188617.01290000044,
            655853.0688000005
          ],
          [
            188639.26150000002,
            655845.9425000008
          ],
          [
            188661.2695000004,
            655838.1044999994
          ],
          [
            188683.01410000026,
            655829.5626999997
          ],
          [
            188704.4726999998,
            655820.3261999991
          ],
          [
            188725.62320000026,
            655810.4044000003
          ],
          [
            188746.44379999954,
            655799.8074999992
          ],
          [
            188766.91280000005,
            655788.5467000008
          ],
          [
            188787.00910000037,
            655776.6334000006
          ],
          [
            188806.71190000046,
            655764.0800999999
          ],
          [
            188826.00079999957,
            655750.8995999992
          ],
          [
            188844.85599999968,
            655737.1057999991
          ],
          [
            188863.2577999998,
            655722.7127
          ],
          [
            188881.18719999958,
            655707.7353000008
          ],
          [
            188898.62579999957,
            655692.1890999991
          ],
          [
            189070.07610000018,
            655485.8136999998
          ],
          [
            189205.54310000036,
            655299.5467000008
          ],
          [
            189394.1933000004,
            655051.1195999999
          ],
          [
            189473.26389999967,
            654957.8870999999
          ],
          [
            189532.27180000022,
            654901.8295000009
          ],
          [
            189546.43369999994,
            654888.2577
          ],
          [
            189623.73400000017,
            654832.2002000008
          ],
          [
            189681.56180000026,
            654802.6962000001
          ],
          [
            189759.45220000017,
            654769.0616999995
          ],
          [
            189912.8728,
            654707.1033999994
          ],
          [
            189956.53870000038,
            654689.4011000004
          ],
          [
            190023.80769999977,
            654664.6176999994
          ],
          [
            190118.22030000016,
            654624.4923999999
          ],
          [
            190186.66949999984,
            654587.9075000007
          ],
          [
            190248.03770000022,
            654550.1424000002
          ],
          [
            190318.84719999973,
            654504.7062999997
          ],
          [
            190711.9413999999,
            654199.7698999997
          ],
          [
            190817.35020000022,
            654116.8615000006
          ]
        ]
      }
    },
    {
      "type": "Feature",
      "properties": {
        "OBJECTID_1": 107,
        "Shape_Leng": 4075.61158904,
        "Shape_Length": 4075.611589041163
      },
      "geometry": {
        "type": "LineString",
        "coordinates": [
          [
            188142.5184000004,
            653341.6390000004
          ],
          [
            188132.7829,
            653351.4349000007
          ],
          [
            188122.50100000016,
            653360.6556000002
          ],
          [
            188111.70650000032,
            653369.2707000002
          ],
          [
            188100.43510000035,
            653377.2517000008
          ],
          [
            188088.72410000023,
            653384.5723000001
          ],
          [
            188076.61199999973,
            653391.2083
          ],
          [
            188064.13879999984,
            653397.1379000004
          ],
          [
            188051.3457000004,
            653402.3413999993
          ],
          [
            188038.2748999996,
            653406.8017999995
          ],
          [
            188024.96960000042,
            653410.5042000003
          ],
          [
            188011.47360000014,
            653413.4364
          ],
          [
            187997.83150000032,
            653415.5888
          ],
          [
            187984.08829999994,
            653416.9542999994
          ],
          [
            187970.28940000013,
            653417.5284000002
          ],
          [
            187956.48029999994,
            653417.3092
          ],
          [
            187942.70650000032,
            653416.2972999997
          ],
          [
            187929.01360000018,
            653414.4962000009
          ],
          [
            187915.4467000002,
            653411.9118000008
          ],
          [
            187902.05059999973,
            653408.5525000002
          ],
          [
            187888.86950000003,
            653404.4296000004
          ],
          [
            187875.94689999986,
            653399.5566000007
          ],
          [
            187863.32550000027,
            653393.9495000001
          ],
          [
            187851.04679999966,
            653387.6270000003
          ],
          [
            187839.1514999997,
            653380.6097999997
          ],
          [
            187827.67879999988,
            653372.9210999999
          ],
          [
            187816.66650000028,
            653364.5863000005
          ],
          [
            187806.15089999977,
            653355.6327999998
          ],
          [
            187796.1668999996,
            653346.0903999992
          ],
          [
            185433.14219999965,
            651714.0399999991
          ],
          [
            185422.29349999968,
            651707.1071000006
          ],
          [
            185411.05119999964,
            651700.8323999997
          ],
          [
            185399.45540000033,
            651695.2380999997
          ],
          [
            185387.54710000008,
            651690.3440000005
          ],
          [
            185375.3685999997,
            651686.1675000004
          ],
          [
            185362.96300000045,
            651682.7234000005
          ],
          [
            185350.3744000001,
            651680.0239000004
          ],
          [
            185337.64740000013,
            651678.0786000006
          ],
          [
            185324.82720000017,
            651676.8944000006
          ],
          [
            185311.9592000004,
            651676.4755000006
          ],
          [
            185299.08920000028,
            651676.8234000001
          ],
          [
            185286.26260000002,
            651677.9367999993
          ],
          [
            185273.5251000002,
            651679.8118999992
          ],
          [
            185260.92179999966,
            651682.4419
          ],
          [
            185248.49739999976,
            651685.8175000008
          ],
          [
            185236.2960000001,
            651689.9266999997
          ],
          [
            185224.36089999974,
            651694.7551000006
          ],
          [
            185212.73440000042,
            651700.2853999995
          ],
          [
            185201.45770000014,
            651706.4979999997
          ],
          [
            185190.57079999987,
            651713.3707999997
          ],
          [
            185180.1124999998,
            651720.8796999995
          ],
          [
            185170.11959999986,
            651728.9977000002
          ],
          [
            185160.6277999999,
            651737.6963
          ],
          [
            185151.67059999984,
            651746.9444999993
          ],
          [
            185143.27990000043,
            651756.7094999999
          ],
          [
            185135.48539999966,
            651766.9568000007
          ],
          [
            184811.37019999977,
            652124.1449999996
          ]
        ]
      }
    },
    {
      "type": "Feature",
      "properties": {
        "OBJECTID_1": 138,
        "Shape_Leng": 3277.25693128,
        "Shape_Length": 3277.256931275401
      },
      "geometry": {
        "type": "LineString",
        "coordinates": [
          [
            186255.78550000023,
            657466.7699999996
          ],
          [
            186361.63790000044,
            657481.7270999998
          ],
          [
            186361.0192999998,
            657481.557
          ],
          [
            186368.91000000015,
            657482.8100000005
          ],
          [
            186374.2999999998,
            657483.6199999992
          ],
          [
            186431,
            657492.5
          ],
          [
            186498,
            657501.1899999995
          ],
          [
            186548.53029999975,
            657503.2112000007
          ],
          [
            186553.1582000004,
            657503.3962999992
          ],
          [
            186563.5,
            657503.8100000005
          ],
          [
            186621.7999999998,
            657499.8800000008
          ],
          [
            186678.91000000015,
            657490.6899999995
          ],
          [
            186703.41000000015,
            657485.1899999995
          ],
          [
            186733.08999999985,
            657477.6199999992
          ],
          [
            186756.58999999985,
            657470.1899999995
          ],
          [
            186784.7999999998,
            657460.6899999995
          ],
          [
            186809,
            657451.1899999995
          ],
          [
            186829.2999999998,
            657442.8100000005
          ],
          [
            186861.2000000002,
            657428.1199999992
          ],
          [
            186886,
            657413.8100000005
          ],
          [
            186901.7000000002,
            657404.6199999992
          ],
          [
            186920.7999999998,
            657392.6199999992
          ],
          [
            186942.7000000002,
            657377.8800000008
          ],
          [
            186965.5,
            657359.8800000008
          ],
          [
            186984.2000000002,
            657346
          ],
          [
            186991.5519000003,
            657339.7619000003
          ],
          [
            187012.2999999998,
            657322.1899999995
          ],
          [
            187031.58999999985,
            657304.1899999995
          ],
          [
            187043.58999999985,
            657291.5
          ],
          [
            187082,
            657249.8100000005
          ],
          [
            187126.2000000002,
            657188.8100000005
          ],
          [
            187180.7000000002,
            657111.1199999992
          ],
          [
            187245.2999999998,
            657010
          ],
          [
            187281.41000000015,
            656955.6199999992
          ],
          [
            187291.09460000042,
            656940.2608000003
          ],
          [
            187302.7999999998,
            656922.3800000008
          ],
          [
            187306.2999999998,
            656916.6899999995
          ],
          [
            187348.5,
            656855.1199999992
          ],
          [
            187401.08999999985,
            656780.8800000008
          ],
          [
            187410.66229999997,
            656768.9449000005
          ],
          [
            187411.02199999988,
            656768.4963000007
          ],
          [
            187420.08999999985,
            656757.1899999995
          ],
          [
            187435.7999999998,
            656733.1199999992
          ],
          [
            187437.7999999998,
            656731.1199999992
          ],
          [
            187462.7999999998,
            656704.8800000008
          ],
          [
            187522.2000000002,
            656653.1199999992
          ],
          [
            187571,
            656618.6899999995
          ],
          [
            187643.2000000002,
            656574.6899999995
          ],
          [
            187810.58999999985,
            656471.1199999992
          ],
          [
            187837.58999999985,
            656454.3100000005
          ],
          [
            187972.83770000003,
            656367.6612999998
          ],
          [
            187973.4444000004,
            656367.2726000007
          ],
          [
            187980.41000000015,
            656362.8100000005
          ],
          [
            188089,
            656297.6199999992
          ],
          [
            188222.2000000002,
            656214.1899999995
          ],
          [
            188415.5,
            656097.3800000008
          ],
          [
            188418.7000000002,
            656095.5
          ],
          [
            188444.2999999998,
            656081.8800000008
          ],
          [
            188471.91000000015,
            656068.5
          ],
          [
            188482.08999999985,
            656063.1899999995
          ],
          [
            188497.41000000015,
            656055.3800000008
          ],
          [
            188518.0904000001,
            656046.8036000002
          ],
          [
            188516.70320000034,
            656045.6447999999
          ],
          [
            188532.58999999985,
            656037.6199999992
          ],
          [
            188540.2000000002,
            656033.8100000005
          ],
          [
            188573.58999999985,
            656017.3800000008
          ],
          [
            188610.2999999998,
            655999.6199999992
          ],
          [
            188619.7000000002,
            655994.6899999995
          ],
          [
            188622.5,
            655993.1899999995
          ],
          [
            188638.7999999998,
            655985.6199999992
          ],
          [
            188677.2000000002,
            655967.6199999992
          ],
          [
            188766.5,
            655924.1199999992
          ],
          [
            188823,
            655890.8800000008
          ],
          [
            188900.08999999985,
            655839.8800000008
          ],
          [
            188917.3663999997,
            655825.9405000005
          ]
        ]
      }
    },
    {
      "type": "Feature",
      "properties": {
        "OBJECTID_1": 139,
        "Shape_Leng": 13304.9290074,
        "Shape_Length": 13304.929007350916
      },
      "geometry": {
        "type": "LineString",
        "coordinates": [
          [
            188917.3663999997,
            655825.9405000005
          ],
          [
            188960.2000000002,
            655791.3800000008
          ],
          [
            189013.2999999998,
            655740.8100000005
          ],
          [
            189033.58999999985,
            655718.1899999995
          ],
          [
            189051.7999999998,
            655697.8800000008
          ],
          [
            189100.58999999985,
            655638.1199999992
          ],
          [
            189158.08999999985,
            655565.1199999992
          ],
          [
            189216.91000000015,
            655489.1199999992
          ],
          [
            189314.08999999985,
            655367.6199999992
          ],
          [
            189399,
            655259.8800000008
          ],
          [
            189463.58999999985,
            655182.6199999992
          ],
          [
            189509.7000000002,
            655131.6199999992
          ],
          [
            189559.2999999998,
            655085.3800000008
          ],
          [
            189621,
            655035.6199999992
          ],
          [
            189655.58999999985,
            655013.8100000005
          ],
          [
            189681.2999999998,
            655000
          ],
          [
            189706.2000000002,
            654986.6199999992
          ],
          [
            189718.58999999985,
            654979.5
          ],
          [
            189747.08999999985,
            654961.1899999995
          ],
          [
            189947.2000000002,
            654852
          ],
          [
            190000,
            654819.3800000008
          ],
          [
            190041,
            654796.3100000005
          ],
          [
            190077.08999999985,
            654776.1899999995
          ],
          [
            190083,
            654772.8800000008
          ],
          [
            190100.2000000002,
            654763.1899999995
          ],
          [
            190122.91000000015,
            654750.3800000008
          ],
          [
            190125.2000000002,
            654749.1199999992
          ],
          [
            190150.08999999985,
            654735.5
          ],
          [
            190176.7000000002,
            654719.5
          ],
          [
            190207.41000000015,
            654699.5
          ],
          [
            190239.7999999998,
            654676.3800000008
          ],
          [
            190279.7000000002,
            654644.3800000008
          ],
          [
            190302.08999999985,
            654624.1199999992
          ],
          [
            190336.41000000015,
            654590.3800000008
          ],
          [
            190343.5,
            654583.3800000008
          ],
          [
            190383.7000000002,
            654536.5
          ],
          [
            190418.7999999998,
            654490.3100000005
          ],
          [
            190431.7999999998,
            654470.6899999995
          ],
          [
            190437.7999999998,
            654461.6199999992
          ],
          [
            190461.2000000002,
            654421
          ],
          [
            190484.58999999985,
            654374.8800000008
          ],
          [
            190486.49870000035,
            654371.1575000007
          ],
          [
            190487.41000000015,
            654369.3800000008
          ],
          [
            190514.91000000015,
            654304.5
          ],
          [
            190528.41000000015,
            654269.1899999995
          ],
          [
            190529.5,
            654266.1899999995
          ],
          [
            190546.7000000002,
            654223.6199999992
          ],
          [
            190569.2999999998,
            654164.8800000008
          ],
          [
            190621.7000000002,
            654037.8100000005
          ],
          [
            190675.91000000015,
            653904.3800000008
          ],
          [
            190707.58999999985,
            653815.3800000008
          ],
          [
            190724.91000000015,
            653761.8800000008
          ],
          [
            190736.5,
            653725.1899999995
          ],
          [
            190751.7999999998,
            653681.1199999992
          ],
          [
            190770,
            653626.6199999992
          ],
          [
            190773.7999999998,
            653614.6199999992
          ],
          [
            190782.58999999985,
            653587.8100000005
          ],
          [
            190794,
            653552.3100000005
          ],
          [
            190802.2999999998,
            653525.6199999992
          ],
          [
            190805.91000000015,
            653514
          ],
          [
            190816.58999999985,
            653477.1899999995
          ],
          [
            190849.7000000002,
            653375
          ],
          [
            190874.65699999966,
            653297.8526000008
          ],
          [
            190874.74509999994,
            653297.5802999996
          ],
          [
            190879.2999999998,
            653283.5
          ],
          [
            190882.5,
            653273.8800000008
          ],
          [
            190899.08999999985,
            653221.5
          ],
          [
            190906.2000000002,
            653199.1899999995
          ],
          [
            190918.08999999985,
            653161.6899999995
          ],
          [
            190931.7000000002,
            653119
          ],
          [
            190935.91000000015,
            653105.6899999995
          ],
          [
            190940,
            653092.8100000005
          ],
          [
            190960,
            653033.3100000005
          ],
          [
            190978,
            652975.5
          ],
          [
            190997.2999999998,
            652912.1199999992
          ],
          [
            191010.2000000002,
            652872.1899999995
          ],
          [
            191026.08999999985,
            652827.1199999992
          ],
          [
            191049.5,
            652748.8800000008
          ],
          [
            191103.58999999985,
            652563
          ],
          [
            191146.41000000015,
            652418.1899999995
          ],
          [
            191212.41000000015,
            652201.3800000008
          ],
          [
            191216.58999999985,
            652186.5
          ],
          [
            191250.4018000001,
            652069.0288999993
          ],
          [
            191250.5833999999,
            652068.3981999997
          ],
          [
            191304.2000000002,
            651882.1199999992
          ],
          [
            191360.08999999985,
            651727.8100000005
          ],
          [
            191394.91000000015,
            651640.6899999995
          ],
          [
            191402,
            651626.1899999995
          ],
          [
            191430.08999999985,
            651575.6199999992
          ],
          [
            191457.2000000002,
            651526.6899999995
          ],
          [
            191486.2000000002,
            651478.8800000008
          ],
          [
            191535.2000000002,
            651402.3800000008
          ],
          [
            191590.2000000002,
            651321.1199999992
          ],
          [
            191624.3038999997,
            651269.1711999997
          ],
          [
            191630.2000000002,
            651260.1899999995
          ],
          [
            191638.72030000016,
            651247.6633000001
          ],
          [
            191666.7999999998,
            651206.3800000008
          ],
          [
            191700.2000000002,
            651158.6199999992
          ],
          [
            191744,
            651098.1899999995
          ],
          [
            191779.2000000002,
            651055.1899999995
          ],
          [
            191850.5,
            650973.1199999992
          ],
          [
            191900.41000000015,
            650918
          ],
          [
            191961,
            650850.6199999992
          ],
          [
            192019.91000000015,
            650783.8100000005
          ],
          [
            192087.91000000015,
            650706.3800000008
          ],
          [
            192130,
            650659.1199999992
          ],
          [
            192144.2000000002,
            650642.8800000008
          ],
          [
            192148.7999999998,
            650638.6199999992
          ],
          [
            192156.41000000015,
            650631.1199999992
          ],
          [
            192184.2999999998,
            650598.8100000005
          ],
          [
            192230.08999999985,
            650547.6899999995
          ],
          [
            192231.97159999982,
            650545.5702
          ],
          [
            192234.20490000024,
            650543.0541999992
          ],
          [
            192237.91000000015,
            650538.8800000008
          ],
          [
            192252.08999999985,
            650523.1199999992
          ],
          [
            192262,
            650511.8800000008
          ],
          [
            192378.2999999998,
            650380.8800000008
          ],
          [
            192412.5,
            650339.6199999992
          ],
          [
            192453.41000000015,
            650289.6199999992
          ],
          [
            192492.41000000015,
            650237.8800000008
          ],
          [
            192513.5,
            650206.8800000008
          ],
          [
            192547.7000000002,
            650156.1899999995
          ],
          [
            192584.7000000002,
            650097.1899999995
          ],
          [
            192641.2000000002,
            650000
          ],
          [
            192664.08999999985,
            649949.1899999995
          ],
          [
            192683.2999999998,
            649910.8800000008
          ],
          [
            192708.2000000002,
            649851.6899999995
          ],
          [
            192730,
            649802.8800000008
          ],
          [
            192747.58999999985,
            649757.1199999992
          ],
          [
            192766.2000000002,
            649705.3800000008
          ],
          [
            192789.91000000015,
            649628.1899999995
          ],
          [
            192813.2000000002,
            649544.8800000008
          ],
          [
            192838.52109999955,
            649437.2460999992
          ],
          [
            192839.7999999998,
            649431.8100000005
          ],
          [
            192840.33359999955,
            649429.5614
          ],
          [
            192850.7000000002,
            649385.8800000008
          ],
          [
            192881.5,
            649251.8800000008
          ],
          [
            192916.7000000002,
            649100.6899999995
          ],
          [
            192930.51669999957,
            649031.3704000004
          ],
          [
            192931.91000000015,
            649024.3800000008
          ],
          [
            192932.7569000004,
            649020.1362999994
          ],
          [
            192949.41000000015,
            648936.6899999995
          ],
          [
            192978.41000000015,
            648774.1899999995
          ],
          [
            192999.08999999985,
            648668.6899999995
          ],
          [
            193002,
            648652.8100000005
          ],
          [
            193002.41000000015,
            648650.8100000005
          ],
          [
            193034.58999999985,
            648477.3800000008
          ],
          [
            193046.2999999998,
            648419.3100000005
          ],
          [
            193054.2000000002,
            648376.6199999992
          ],
          [
            193062.2999999998,
            648331.3800000008
          ],
          [
            193065.91000000015,
            648308.8100000005
          ],
          [
            193068.2000000002,
            648294.6199999992
          ],
          [
            193072.58999999985,
            648268.6199999992
          ],
          [
            193078.08999999985,
            648236.8100000005
          ],
          [
            193084.5,
            648201.3100000005
          ],
          [
            193085.2000000002,
            648197.1199999992
          ],
          [
            193100.5,
            648120.3800000008
          ],
          [
            193100.7999999998,
            648119.1899999995
          ],
          [
            193107.5,
            648089.6199999992
          ],
          [
            193112.2000000002,
            648069.1899999995
          ],
          [
            193116.5,
            648051.1199999992
          ],
          [
            193119.41000000015,
            648040.1199999992
          ],
          [
            193123.2000000002,
            648025.3800000008
          ],
          [
            193131.2999999998,
            647995.6199999992
          ],
          [
            193139.5,
            647970.6899999995
          ],
          [
            193141.79679999966,
            647963.7040999997
          ],
          [
            193142.2614000002,
            647960.9146999996
          ],
          [
            193142.8624999998,
            647960.4628999997
          ],
          [
            193158.44739999995,
            647913.0610000007
          ],
          [
            193177.65369999968,
            647857.6601
          ],
          [
            193206.22730000038,
            647789.7979000006
          ],
          [
            193214.6694,
            647769.3418000005
          ],
          [
            193213.81400000025,
            647771.0699000005
          ],
          [
            193245.01989999972,
            647697.5659999996
          ],
          [
            193247.08999999985,
            647692.6899999995
          ],
          [
            193249.77280000038,
            647686.3102000002
          ],
          [
            193255,
            647673.8800000008
          ],
          [
            193312.7999999998,
            647538.8800000008
          ],
          [
            193317.7999999998,
            647527.6199999992
          ],
          [
            193318.41000000015,
            647526.1899999995
          ],
          [
            193320.5,
            647521.3800000008
          ],
          [
            193356.2000000002,
            647440.1199999992
          ],
          [
            193411.58999999985,
            647312.1899999995
          ],
          [
            193427.47049999982,
            647275.3701000009
          ],
          [
            193451.2999999998,
            647220.1199999992
          ],
          [
            193468.91000000015,
            647177.3800000008
          ],
          [
            193495.2000000002,
            647113.5
          ],
          [
            193517.5,
            647059.6899999995
          ],
          [
            193530.5,
            647029.1899999995
          ],
          [
            193540.08999999985,
            647006.3800000008
          ],
          [
            193556.6431,
            646967.7610999998
          ],
          [
            193556.98539999966,
            646966.9626000002
          ],
          [
            193572.91000000015,
            646929.8100000005
          ],
          [
            193617.2999999998,
            646831.8800000008
          ],
          [
            193650.2999999998,
            646767.8800000008
          ],
          [
            193692.44620000012,
            646694.7568999995
          ],
          [
            193709.08999999985,
            646665.8800000008
          ],
          [
            193799.5,
            646514.8100000005
          ],
          [
            193844.58999999985,
            646435.6899999995
          ],
          [
            193868.2999999998,
            646394.6199999992
          ],
          [
            193912.08999999985,
            646318.8100000005
          ],
          [
            193970.08999999985,
            646220.6899999995
          ],
          [
            193971.2999999998,
            646218.6899999995
          ],
          [
            193972.2999999998,
            646217.1899999995
          ],
          [
            194054.2000000002,
            646076.6199999992
          ],
          [
            194060.5,
            646065.6199999992
          ],
          [
            194081.7999999998,
            646023.8100000005
          ],
          [
            194125.58999999985,
            645948.3800000008
          ],
          [
            194153.2999999998,
            645906.8800000008
          ],
          [
            194170.7000000002,
            645881.6899999995
          ],
          [
            194176.2999999998,
            645873.6899999995
          ],
          [
            194181.5,
            645865
          ],
          [
            194272.5,
            645714.8800000008
          ],
          [
            194377.08999999985,
            645535.8800000008
          ],
          [
            194435.08999999985,
            645435.8800000008
          ],
          [
            194445.5,
            645416.1199999992
          ],
          [
            194541,
            645234.1199999992
          ],
          [
            194553,
            645209.1899999995
          ],
          [
            194564.58999999985,
            645187.3100000005
          ],
          [
            194591,
            645135.8800000008
          ],
          [
            194610.6492999997,
            645088.8257999998
          ],
          [
            194686.36980000045,
            644998.5437000003
          ],
          [
            194805.7751000002,
            644919.9109000005
          ],
          [
            194864.02159999963,
            644887.8752999995
          ],
          [
            195035.84889999963,
            644803.4177999999
          ],
          [
            195198.93910000008,
            644736.4342999998
          ],
          [
            195341.10589999985,
            644700.4173000008
          ]
        ]
      }
    },
    {
      "type": "Feature",
      "properties": {
        "OBJECTID_1": 160,
        "Shape_Leng": 26702.4531137,
        "Shape_Length": 26702.45311368127
      },
      "geometry": {
        "type": "MultiLineString",
        "coordinates": [
          [
            [
              194971.85120000038,
              643908.4682999998
            ],
            [
              194985.62019999977,
              644103.1202000007
            ],
            [
              194981.23340000026,
              644109.9013999999
            ],
            [
              195005.21810000017,
              644353.9418000001
            ],
            [
              195147.5011,
              644548.477
            ],
            [
              195306.50600000005,
              644690.3670000006
            ],
            [
              195309.77529999986,
              644691.3166000005
            ],
            [
              195341.10589999985,
              644700.4173000008
            ],
            [
              195468.22119999956,
              644592.0712000001
            ],
            [
              195476.56280000042,
              644595.5394000001
            ],
            [
              195966.1233000001,
              644314.4107000008
            ],
            [
              196463.38219999988,
              644148.4790000003
            ],
            [
              196968.75609999988,
              644042.2453000005
            ],
            [
              197540.34800000023,
              643944.0518999994
            ],
            [
              197921.2363,
              643941.1952999998
            ],
            [
              198293.75030000042,
              643972.5494999997
            ],
            [
              198297.00659999996,
              643973.6910999995
            ],
            [
              199104.40639999975,
              644256.7268000003
            ],
            [
              199666.91650000028,
              644448.8585000001
            ],
            [
              199972.76439999975,
              644634.3780000005
            ],
            [
              200204.13800000027,
              644803.3822000008
            ],
            [
              200311.30879999977,
              644973.3178000003
            ],
            [
              200393.40330000035,
              645228.8112000003
            ],
            [
              200558.06379999965,
              645569.0549999997
            ],
            [
              200747.84779999964,
              645806.6667999998
            ],
            [
              200904.74670000002,
              645959.1556000002
            ],
            [
              201137.71109999996,
              646116.4550999999
            ],
            [
              201484.65350000001,
              646412.6470999997
            ],
            [
              201567.00719999988,
              646574.2317999993
            ],
            [
              201591.47059999965,
              646710.6399000008
            ],
            [
              201582.78959999979,
              646855.8334999997
            ],
            [
              201499.61050000042,
              646993.0488000009
            ],
            [
              201358.3995000003,
              647156.3102000002
            ],
            [
              201084.61120000016,
              647354.7138
            ],
            [
              200669.9654000001,
              647588.3216999993
            ],
            [
              200197.2171,
              647873.5869999994
            ],
            [
              199921.83050000016,
              648069.7290000003
            ],
            [
              199822.45859999955,
              648158.5800999999
            ],
            [
              199715.8348000003,
              648286.9716999996
            ],
            [
              199615.8596999999,
              648509.6827000007
            ],
            [
              199557.26190000027,
              648740.6204000004
            ],
            [
              199488.96810000017,
              649158.3789000008
            ]
          ],
          [
            [
              199937.34279999975,
              648058.6805000007
            ],
            [
              199936.22649999987,
              648076.2804000005
            ],
            [
              199961.98809999973,
              648221.0690000001
            ],
            [
              200019.79619999975,
              648329.8866000008
            ],
            [
              200091.37430000026,
              648403.3585999999
            ],
            [
              200183.83050000016,
              648483.5786000006
            ],
            [
              200353.51329999976,
              648591.4359000009
            ]
          ],
          [
            [
              190907.5491000004,
              654410.2139999997
            ],
            [
              191952.3819000004,
              653897.4653999992
            ],
            [
              192720.68149999995,
              653303.1523000002
            ],
            [
              193673.9386,
              652938.6717000008
            ],
            [
              194024.19290000014,
              652427.8414999992
            ],
            [
              194502.63819999993,
              651835.8414999992
            ],
            [
              194775.97709999979,
              651514.5581999999
            ],
            [
              195253.19969999976,
              651279.6093000006
            ],
            [
              196002.88790000044,
              650978.4137999993
            ],
            [
              196888.75090000033,
              650661.0972000007
            ],
            [
              197638.6138000004,
              650308.8943000007
            ],
            [
              198780.33550000004,
              649806.2038000003
            ],
            [
              198930.00270000007,
              649691.0228000004
            ],
            [
              199001.98340000026,
              649635.6279000007
            ],
            [
              199094.1361999996,
              649564.7089000009
            ],
            [
              199521.01360000018,
              649125.4002
            ],
            [
              200066.81850000005,
              648737.8702000007
            ],
            [
              200527.02639999986,
              648502.8111000005
            ],
            [
              201310.45270000026,
              648286.8480999991
            ],
            [
              202093.64599999972,
              648138.8948999997
            ],
            [
              202928.05769999977,
              647940.2647999991
            ]
          ]
        ]
      }
    },
    {
      "type": "Feature",
      "properties": {
        "OBJECTID_1": 188,
        "Shape_Leng": 2865.29531552,
        "Shape_Length": 2865.2953155190085
      },
      "geometry": {
        "type": "LineString",
        "coordinates": [
          [
            188898.0906999996,
            650807.3851999994
          ],
          [
            189168.80310000014,
            651028.1108999997
          ],
          [
            189559.06180000026,
            651343.1783000007
          ],
          [
            189859.2609000001,
            651588.1520000007
          ],
          [
            190141.05150000006,
            651816.8413999993
          ],
          [
            190278.4068,
            651928
          ],
          [
            190330.7999999998,
            651978.9771999996
          ],
          [
            190363.3688000003,
            652015.7940999996
          ],
          [
            190397.35360000003,
            652065.3552999999
          ],
          [
            190438.41849999968,
            652137.5730000008
          ],
          [
            190475.23539999966,
            652219.7028999999
          ],
          [
            190502.81070000026,
            652314.1756999996
          ],
          [
            190709.99000000022,
            652912.852
          ]
        ]
      }
    },
    {
      "type": "Feature",
      "properties": {
        "OBJECTID_1": 189,
        "Shape_Leng": 864.707005593,
        "Shape_Length": 864.7070055934588
      },
      "geometry": {
        "type": "LineString",
        "coordinates": [
          [
            188227.34929999989,
            650261.6524999999
          ],
          [
            188898.0906999996,
            650807.3851999994
          ]
        ]
      }
    },
    {
      "type": "Feature",
      "properties": {
        "OBJECTID_1": 190,
        "Shape_Leng": 1225.08824815,
        "Shape_Length": 1225.0882481480996
      },
      "geometry": {
        "type": "LineString",
        "coordinates": [
          [
            189304.69240000006,
            652026.9431999996
          ],
          [
            189450.01049999986,
            651877.9297000002
          ],
          [
            189460.19820000045,
            651866.9386
          ],
          [
            189469.81539999973,
            651855.4450000003
          ],
          [
            189478.83750000037,
            651843.4785999991
          ],
          [
            189487.24120000005,
            651831.0702
          ],
          [
            189495.00490000006,
            651818.2514999993
          ],
          [
            189502.10869999975,
            651805.0557000004
          ],
          [
            189508.53419999965,
            651791.5166999996
          ],
          [
            189514.26499999966,
            651777.6692999993
          ],
          [
            189519.28619999997,
            651763.5491000004
          ],
          [
            189527.9952999996,
            651748.4788000006
          ],
          [
            189532.56259999983,
            651728.4528999999
          ],
          [
            189538.7564000003,
            651697.4328000005
          ],
          [
            189540.2918999996,
            651674.5232999995
          ],
          [
            189541.69730000012,
            651645.7139999997
          ],
          [
            189540.64329999965,
            651622.3502999991
          ],
          [
            189537.8326000003,
            651601.2704000007
          ],
          [
            189534.31929999962,
            651579.4877000004
          ],
          [
            189528.69790000003,
            651557.0023999996
          ],
          [
            189483.9559000004,
            651429.9595999997
          ],
          [
            189430.51520000026,
            651329.4911000002
          ],
          [
            189368.5240000002,
            651243.9858999997
          ],
          [
            189293.7070000004,
            651160.6184
          ],
          [
            189151.17080000043,
            651013.7344000004
          ]
        ]
      }
    },
    {
      "type": "Feature",
      "properties": {
        "OBJECTID_1": 195,
        "Shape_Leng": 7466.12417785,
        "Shape_Length": 7466.124177850922
      },
      "geometry": {
        "type": "LineString",
        "coordinates": [
          [
            190709.99000000022,
            652912.852
          ],
          [
            190774.15610000025,
            653130.8661000002
          ],
          [
            190790.875,
            653235.9567000009
          ],
          [
            190798.0708999997,
            653616.3034000006
          ],
          [
            190808.95019999985,
            653986.7425999995
          ],
          [
            190812.2139999997,
            654051.4741999991
          ],
          [
            190817.35020000022,
            654116.8615000006
          ],
          [
            190826.35699999984,
            654183.1133999992
          ],
          [
            190839.73170000035,
            654234.9006999992
          ],
          [
            190867.69830000028,
            654316.3845000006
          ],
          [
            190907.5491000004,
            654410.2139999997
          ],
          [
            191030.8872999996,
            654691.1753000002
          ],
          [
            191206.04360000044,
            655090.9885000009
          ],
          [
            191330.06730000023,
            655374.9375
          ],
          [
            191361.61710000038,
            655454.3562000003
          ],
          [
            191404.04629999958,
            655583.8194999993
          ],
          [
            191492.16839999985,
            655866.1366000008
          ],
          [
            191583.68049999978,
            656162.7774
          ],
          [
            191657.53330000024,
            656357.3355999999
          ],
          [
            191874.03079999983,
            656849.6226000004
          ],
          [
            192100.31960000005,
            657369.6517999992
          ],
          [
            192223.5186999999,
            657639.2201000005
          ],
          [
            192304.8498999998,
            657775.4485999998
          ],
          [
            192362.50999999978,
            657863.5706999991
          ],
          [
            192411.4667999996,
            657932.1100999992
          ],
          [
            192498.50090000033,
            658038.1829000004
          ],
          [
            192606.20569999982,
            658153.5032000002
          ],
          [
            192892.33050000016,
            658436.9081999995
          ],
          [
            192984.80429999996,
            658538.0854000002
          ],
          [
            193085.98149999976,
            658673.5324000008
          ],
          [
            193146.90550000034,
            658764.9181999993
          ],
          [
            193189.3345999997,
            658835.6335000005
          ],
          [
            193246.99480000045,
            658947.1459999997
          ],
          [
            193309.00659999996,
            659086.4006999992
          ],
          [
            193359.05119999964,
            659245.7819999997
          ],
          [
            193488.4643000001,
            659690.0413000006
          ]
        ]
      }
    }
  ]
}