{
  "type": "FeatureCollection",
  "name": "tama35_nature_reserves",
  "description": "תמ\"א 35 – שמורות וגנים",
  "crs": {
    "type": "name",
    "properties": {
      "name": "urn:ogc:def:crs:EPSG::2039"
    }
  },
  "features": [
    {
      "type": "Feature",
      "properties": {
        "OBJECTID": 17,
        "dunam": 8111.26687477,
        "Shape_Length": 30856.416830633418,
        "Shape_Area": 8111266.899686035
      },
      "geometry": {
        "type": "Polygon",
        "coordinates": [
          [
            [
              195523.3799999999,
              653041
            ],
            [
              195465.71030000038,
              653222.8695
            ],
            [
              195373.55480000004,
              653391.6570999995
            ],
            [
              195204.60250000004,
              653422.3457999993
            ],
            [
              195204.60250000004,
              653575.7890000008
            ],
            [
              195035.65020000003,
              653621.8221000005
            ],
            [
              194759.18329999968,
              653468.3785999995
            ],
            [
              194528.79389999993,
              653376.3126999997
            ],
            [
              194144.81180000026,
              653360.9684999995
            ],
            [
              194052.65629999992,
              653499.0671999995
            ],
            [
              193960.50030000042,
              653621.8221000005
            ],
            [
              193730.11139999982,
              653560.4444999993
            ],
            [
              193315.41050000023,
              653499.0671999995
            ],
            [
              192946.7876000004,
              653560.4444999993
            ],
            [
              192486.0092000002,
              653667.8549000006
            ],
            [
              192148.10510000028,
              653805.9539000001
            ],
            [
              191902.35649999976,
              653974.7415999994
            ],
            [
              191595.17069999967,
              654358.3498
            ],
            [
              191180.4704,
              654419.7270999998
            ],
            [
              190550.7396999998,
              654680.5807000007
            ],
            [
              190212.8350999998,
              654787.9908000007
            ],
            [
              189997.80530000012,
              654864.7125000004
            ],
            [
              189844.21270000003,
              655033.5001999997
            ],
            [
              189629.18240000028,
              655156.2547999993
            ],
            [
              189521.66779999994,
              655294.3534999993
            ],
            [
              190258.91309999954,
              655002.8113000002
            ],
            [
              190581.45799999963,
              654834.0239000004
            ],
            [
              190857.92540000007,
              654726.6135000009
            ],
            [
              191303.34470000025,
              654542.4815999996
            ],
            [
              191810.20100000035,
              654465.7599
            ],
            [
              191979.15280000027,
              654404.3826000001
            ],
            [
              192009.87170000002,
              654266.2836000007
            ],
            [
              192071.30879999977,
              654036.1188999992
            ],
            [
              192301.69770000037,
              653851.9868000001
            ],
            [
              192639.60230000038,
              653729.2322000004
            ],
            [
              193115.7399000004,
              653621.8221000005
            ],
            [
              193469.0036000004,
              653606.4776000008
            ],
            [
              193622.59630000032,
              653652.5107000005
            ],
            [
              193776.18890000042,
              653775.2653000001
            ],
            [
              193776.18890000042,
              653851.9868000001
            ],
            [
              193883.7039999999,
              653913.3640999999
            ],
            [
              194021.9375,
              653836.6425999999
            ],
            [
              194160.17150000017,
              653575.7890000008
            ],
            [
              194283.0451999996,
              653499.0671999995
            ],
            [
              194559.51269999985,
              653514.4116999991
            ],
            [
              194774.54250000045,
              653591.1331999991
            ],
            [
              194882.05759999994,
              653713.8880000003
            ],
            [
              195004.9319000002,
              653744.5767000001
            ],
            [
              195434.99199999962,
              653606.4776000008
            ],
            [
              195803.6144000003,
              653314.9353999998
            ],
            [
              195911.1294999998,
              653069.4263000004
            ],
            [
              196080.0817999998,
              652885.2940999996
            ],
            [
              196187.59640000015,
              652701.1623
            ],
            [
              196264.39329999965,
              652409.6199999992
            ],
            [
              196310.47080000024,
              652593.7522
            ],
            [
              196356.5488,
              652854.6054999996
            ],
            [
              196417.98589999974,
              652992.7045000009
            ],
            [
              196648.37540000025,
              653054.0818000007
            ],
            [
              196740.53079999983,
              653100.1149000004
            ],
            [
              196786.60879999958,
              653192.1808000002
            ],
            [
              196801.96800000034,
              653330.2798999995
            ],
            [
              196955.56060000043,
              653437.6899999995
            ],
            [
              197170.59090000018,
              653407.0012999997
            ],
            [
              197462.41700000037,
              653299.5911999997
            ],
            [
              197677.44730000012,
              653161.4922000002
            ],
            [
              197800.32160000037,
              653038.7376000006
            ],
            [
              197923.1958999997,
              652915.9829999991
            ],
            [
              198168.94450000022,
              652685.8180999998
            ],
            [
              198261.09999999963,
              652578.4077000003
            ],
            [
              198261.09999999963,
              652532.3746000007
            ],
            [
              198276.45909999963,
              652455.6531000007
            ],
            [
              198230.38159999996,
              652394.2758000009
            ],
            [
              198184.30360000022,
              652286.8653999995
            ],
            [
              198138.22559999954,
              652026.0118000004
            ],
            [
              198215.02199999988,
              651903.2573000006
            ],
            [
              198337.89630000014,
              651872.5686000008
            ],
            [
              198460.7706000004,
              651657.7480999995
            ],
            [
              198810.51999999955,
              651430.9000000004
            ],
            [
              198856.8099999996,
              651410.5999999996
            ],
            [
              198900.0599999996,
              651384.9000000004
            ],
            [
              198935.58999999985,
              651347.4000000004
            ],
            [
              198961.88999999966,
              651304.5999999996
            ],
            [
              198989.83000000007,
              651263
            ],
            [
              199008.41000000015,
              651213.0999999996
            ],
            [
              199015.23000000045,
              651163.5999999996
            ],
            [
              199013.51999999955,
              651113.5999999996
            ],
            [
              198985.01999999955,
              651071.5
            ],
            [
              198977.66000000015,
              651018.5999999996
            ],
            [
              198976.53000000026,
              650965.1999999993
            ],
            [
              198976.51999999955,
              650915.1999999993
            ],
            [
              198984.03000000026,
              650866
            ],
            [
              199001.6900000004,
              650819.0999999996
            ],
            [
              199042.76999999955,
              650785.8000000007
            ],
            [
              199086.46999999974,
              650758.8000000007
            ],
            [
              199135.46999999974,
              650743.5
            ],
            [
              199186.88999999966,
              650732.5
            ],
            [
              199234.3099999996,
              650715.5
            ],
            [
              199282.0499999998,
              650694.1999999993
            ],
            [
              199324.9500000002,
              650664.0999999996
            ],
            [
              199363.98000000045,
              650630.5999999996
            ],
            [
              199403.66000000015,
              650597.5
            ],
            [
              199419.53000000026,
              650547
            ],
            [
              199424.75,
              650496.0999999996
            ],
            [
              199432.6200000001,
              650442
            ],
            [
              199428.2999999998,
              650390
            ],
            [
              199417.6900000004,
              650334.5
            ],
            [
              199403,
              650282.8000000007
            ],
            [
              199379.66999999993,
              650236.1999999993
            ],
            [
              199390.3799999999,
              650159.8134000003
            ],
            [
              199492.55269999988,
              649517.3530000001
            ],
            [
              199534.62380000018,
              649181.1119999997
            ],
            [
              199588.71549999993,
              649025.0000999998
            ],
            [
              199624.77630000003,
              648802.841
            ],
            [
              199576.69489999954,
              648754.8065000009
            ],
            [
              199498.56300000008,
              648766.8151999991
            ],
            [
              199366.3398000002,
              648796.8365000002
            ],
            [
              199264.16720000003,
              648898.9097000007
            ],
            [
              199228.10580000002,
              649037.0088
            ],
            [
              199137.95380000025,
              649265.1722999997
            ],
            [
              199041.79090000037,
              649319.2109999992
            ],
            [
              198935.60369999986,
              649364.9425000008
            ],
            [
              198882.6900000004,
              649350.8000000007
            ],
            [
              198832.83000000007,
              649345.5999999996
            ],
            [
              198782.36000000034,
              649352.9000000004
            ],
            [
              198732.41000000015,
              649371.4000000004
            ],
            [
              198655.95820000023,
              649384.7182
            ],
            [
              198599.86000000034,
              649453.5999999996
            ],
            [
              198562.88999999966,
              649491.9000000004
            ],
            [
              198526.83999999985,
              649536
            ],
            [
              198494.86000000034,
              649576.5
            ],
            [
              198465.63999999966,
              649617
            ],
            [
              198432.58000000007,
              649658.1999999993
            ],
            [
              198399.26999999955,
              649698.0999999996
            ],
            [
              198366.46999999974,
              649740.4000000004
            ],
            [
              198330.91000000015,
              649787.1999999993
            ],
            [
              198297.46999999974,
              649824.1999999993
            ],
            [
              198268.08999999985,
              649866.9000000004
            ],
            [
              198239.3799999999,
              649914.1999999993
            ],
            [
              198213.76999999955,
              649957
            ],
            [
              198205.51999999955,
              650007
            ],
            [
              198217.6900000004,
              650055.5
            ],
            [
              198237.88999999966,
              650102.5
            ],
            [
              198266.08999999985,
              650143.9000000004
            ],
            [
              198290.5599999996,
              650189
            ],
            [
              198304.0499999998,
              650238.1999999993
            ],
            [
              198312.38999999966,
              650287.4000000004
            ],
            [
              198320.1900000004,
              650339
            ],
            [
              198320.1200000001,
              650389.9000000004
            ],
            [
              198284.76999999955,
              650425.0999999996
            ],
            [
              198247.33999999985,
              650460.0999999996
            ],
            [
              198209.75,
              650493.0999999996
            ],
            [
              198162.96999999974,
              650524.4000000004
            ],
            [
              198118.96999999974,
              650551
            ],
            [
              198076.98000000045,
              650578.0999999996
            ],
            [
              198034.58000000007,
              650606.1999999993
            ],
            [
              197995.5499999998,
              650639.8000000007
            ],
            [
              197951.75,
              650668.0999999996
            ],
            [
              197909.33000000007,
              650641.9000000004
            ],
            [
              197857.76999999955,
              650613.5
            ],
            [
              197810.11000000034,
              650597.0999999996
            ],
            [
              197748.3099999996,
              650586
            ],
            [
              197696.96999999974,
              650586.5
            ],
            [
              197643.48000000045,
              650597.4000000004
            ],
            [
              197590.83999999985,
              650615
            ],
            [
              197542.5599999996,
              650634.5
            ],
            [
              197497.48000000045,
              650656.9000000004
            ],
            [
              197468.0599999996,
              650700.0999999996
            ],
            [
              197445.1900000004,
              650747.5999999996
            ],
            [
              197420.0599999996,
              650797.5999999996
            ],
            [
              197398.75,
              650842.9000000004
            ],
            [
              197373.66000000015,
              650887.8000000007
            ],
            [
              197357.01999999955,
              650939.5
            ],
            [
              197333,
              650983.9000000004
            ],
            [
              197312.16999999993,
              651031.9000000004
            ],
            [
              197291.75,
              651078.9000000004
            ],
            [
              197268.48000000045,
              651127
            ],
            [
              197250.08999999985,
              651174.5
            ],
            [
              197242.46999999974,
              651225.1999999993
            ],
            [
              197235.13999999966,
              651276.5999999996
            ],
            [
              197228.88999999966,
              651327.5
            ],
            [
              197184.76999999955,
              651351
            ],
            [
              197135.58000000007,
              651341.4000000004
            ],
            [
              197079.58999999985,
              651316.9000000004
            ],
            [
              197032.36000000034,
              651299.5
            ],
            [
              196974.21999999974,
              651285.5
            ],
            [
              196922.88999999966,
              651281.1999999993
            ],
            [
              196871.76999999955,
              651283.5999999996
            ],
            [
              196820.78000000026,
              651288.8000000007
            ],
            [
              196770.9500000002,
              651296.5999999996
            ],
            [
              196720.53000000026,
              651303.0999999996
            ],
            [
              196663.66999999993,
              651308.5
            ],
            [
              196610.5499999998,
              651314.5
            ],
            [
              196559.58000000007,
              651328.5
            ],
            [
              196514.26999999955,
              651349.5
            ],
            [
              196465.1200000001,
              651366.5
            ],
            [
              196418.91000000015,
              651390.5
            ],
            [
              196377.03000000026,
              651420.8000000007
            ],
            [
              196341.66999999993,
              651456
            ],
            [
              196309.16000000015,
              651503.4000000004
            ],
            [
              196277.6200000001,
              651547.0999999996
            ],
            [
              196241.51999999955,
              651592.1999999993
            ],
            [
              196213.23000000045,
              651638.4000000004
            ],
            [
              196188.66999999993,
              651690.1999999993
            ],
            [
              196169.4400000004,
              651739.8000000007
            ],
            [
              196152.08999999985,
              651786.9000000004
            ],
            [
              196137.4400000004,
              651835
            ],
            [
              196120.66000000015,
              651888.5
            ],
            [
              196105.33999999985,
              651945.5
            ],
            [
              196094.8799999999,
              651997.4000000004
            ],
            [
              196085.58999999985,
              652047.4000000004
            ],
            [
              196075.1900000004,
              652098.5
            ],
            [
              196070.51999999955,
              652151.0999999996
            ],
            [
              196061.33000000007,
              652204.5
            ],
            [
              196053.73000000045,
              652254.9000000004
            ],
            [
              196043.4500000002,
              652304.4000000004
            ],
            [
              196033.2000000002,
              652358
            ],
            [
              196023.41999999993,
              652410
            ],
            [
              196010.4400000004,
              652463.4000000004
            ],
            [
              195993.38999999966,
              652511.1999999993
            ],
            [
              195963.98000000045,
              652554.0999999996
            ],
            [
              195927.91000000015,
              652589.5999999996
            ],
            [
              195884.3099999996,
              652615.1999999993
            ],
            [
              195842.78000000026,
              652645.5
            ],
            [
              195801.8799999999,
              652676.5
            ],
            [
              195756.08999999985,
              652699.1999999993
            ],
            [
              195707.8099999996,
              652718.5999999996
            ],
            [
              195662.03000000026,
              652741.4000000004
            ],
            [
              195618.5499999998,
              652765.5999999996
            ],
            [
              195570.6900000004,
              652793
            ],
            [
              195523.2000000002,
              652820
            ],
            [
              195476.58000000007,
              652844.8000000007
            ],
            [
              195433.5,
              652872.8000000007
            ],
            [
              195386.08999999985,
              652903.1999999993
            ],
            [
              195343.11000000034,
              652930
            ],
            [
              195297.3099999996,
              652962
            ],
            [
              195254.33000000007,
              653000
            ],
            [
              195223.1900000004,
              653031.8000000007
            ],
            [
              195184.98000000045,
              653072.5999999996
            ],
            [
              195155.0499999998,
              653113.4000000004
            ],
            [
              195130.36000000034,
              653157.5999999996
            ],
            [
              195189.03000000026,
              653187.5999999996
            ],
            [
              195233.83999999985,
              653164.0999999996
            ],
            [
              195283,
              653142.4000000004
            ],
            [
              195331.4400000004,
              653120.9000000004
            ],
            [
              195380.16999999993,
              653100.0999999996
            ],
            [
              195429.66999999993,
              653082.9000000004
            ],
            [
              195523.3799999999,
              653041
            ]
          ]
        ]
      }
    },
    {
      "type": "Feature",
      "properties": {
        "OBJECTID": 20,
        "dunam": 90.663049,
        "Shape_Length": 1178.3759521689362,
        "Shape_Area": 90663.0489999175
      },
      "geometry": {
        "type": "Polygon",
        "coordinates": [
          [
            [
              191302.8099999996,
              651318.5
            ],
            [
              191249.9500000002,
              651321.0999999996
            ],
            [
              191211.66000000015,
              651354
            ],
            [
              191218.33000000007,
              651397.9000000004
            ],
            [
              191249.9500000002,
              651439.5
            ],
            [
              191287.4400000004,
              651476.4000000004
            ],
            [
              191325.96999999974,
              651508.5999999996
            ],
            [
              191370.73000000045,
              651535.8000000007
            ],
            [
              191414.76999999955,
              651559
            ],
            [
              191462.66000000015,
              651576.8000000007
            ],
            [
              191512.7999999998,
              651583
            ],
            [
              191564.51999999955,
              651577.1999999993
            ],
            [
              191610.2000000002,
              651555.9000000004
            ],
            [
              191647.03000000026,
              651519.4000000004
            ],
            [
              191672.75,
              651475.1999999993
            ],
            [
              191679.98000000045,
              651425.0999999996
            ],
            [
              191655.21999999974,
              651379.1999999993
            ],
            [
              191610.33000000007,
              651353.9000000004
            ],
            [
              191562.71999999974,
              651336.8000000007
            ],
            [
              191512.7999999998,
              651327.9000000004
            ],
            [
              191461.33999999985,
              651320.9000000004
            ],
            [
              191405.73000000045,
              651318.8000000007
            ],
            [
              191354.88999999966,
              651321.8000000007
            ],
            [
              191302.8099999996,
              651318.5
            ]
          ]
        ]
      }
    },
    {
      "type": "Feature",
      "properties": {
        "OBJECTID": 23,
        "dunam": 2273.61824781,
        "Shape_Length": 17578.84653428071,
        "Shape_Area": 2273618.4107896197
      },
      "geometry": {
        "type": "Polygon",
        "coordinates": [
          [
            [
              194558.8326000003,
              644272.9478999991
            ],
            [
              193992.8951000003,
              644676.7951999996
            ],
            [
              193538.12380000018,
              645070.5465999991
            ],
            [
              193214.73080000002,
              645423.9131000005
            ],
            [
              192729.64180000033,
              645908.5302000009
            ],
            [
              192396.14250000007,
              646514.3014000002
            ],
            [
              192233.56859999988,
              647004.5737999994
            ],
            [
              192142.61429999955,
              647519.4792
            ],
            [
              192172.93259999994,
              647792.0763000008
            ],
            [
              192304.3108000001,
              648236.3084999993
            ],
            [
              192536.74959999975,
              648569.4826999996
            ],
            [
              192617.59759999998,
              648882.4646000005
            ],
            [
              192647.91590000037,
              649023.8112000003
            ],
            [
              192567.06730000023,
              649175.2542000003
            ],
            [
              192445.79540000018,
              649256.0236000009
            ],
            [
              192334.6286000004,
              649397.3703000005
            ],
            [
              192284.26470000017,
              649706.8115999997
            ],
            [
              192203.41669999994,
              650140.9477999993
            ],
            [
              192041.72020000033,
              650635.6609000005
            ],
            [
              191839.59970000014,
              650847.6808000002
            ],
            [
              191516.20669999998,
              651039.5083000008
            ],
            [
              191475.78270000033,
              651100.0855
            ],
            [
              191495.9946999997,
              651221.2398000006
            ],
            [
              191502.47389999963,
              651269.8918999992
            ],
            [
              191824.78409999982,
              651108.8936999999
            ],
            [
              192039.65809999965,
              651019.4502000008
            ],
            [
              192182.90710000042,
              650822.6744999997
            ],
            [
              192308.25,
              650572.2327999994
            ],
            [
              192397.78060000017,
              650071.3493000008
            ],
            [
              192487.31120000035,
              649713.5755000003
            ],
            [
              192505.21729999967,
              649409.4677000009
            ],
            [
              192809.6213999996,
              649123.2485000007
            ],
            [
              192881.24590000045,
              648854.9178999998
            ],
            [
              192881.24590000045,
              648550.8101000004
            ],
            [
              192773.80920000002,
              648336.1458
            ],
            [
              192558.93570000026,
              648139.3702000007
            ],
            [
              192451.49899999984,
              647799.4848999996
            ],
            [
              192379.87449999992,
              647459.5996000003
            ],
            [
              192523.12349999975,
              646833.4954000004
            ],
            [
              192612.65409999993,
              646583.0537
            ],
            [
              193078.21380000003,
              645903.2831999995
            ],
            [
              193328.89960000012,
              645724.3960999995
            ],
            [
              193794.45880000014,
              645581.2868000008
            ],
            [
              194064.3504999997,
              645694.8146000002
            ],
            [
              194265.75789999962,
              645131.1238000002
            ],
            [
              194215.22759999987,
              645060.4503000006
            ],
            [
              194083.84939999972,
              645009.9693999998
            ],
            [
              194114.16760000028,
              644919.1037000008
            ],
            [
              194184.90990000032,
              644828.2381999996
            ],
            [
              194326.39389999956,
              644737.3724000007
            ],
            [
              194407.24239999987,
              644666.6989999991
            ],
            [
              194518.40859999973,
              644363.8134000003
            ],
            [
              194558.8326000003,
              644272.9478999991
            ]
          ]
        ]
      }
    },
    {
      "type": "Feature",
      "properties": {
        "OBJECTID": 25,
        "dunam": 99.5993869939,
        "Shape_Length": 1169.9956890503877,
        "Shape_Area": 99599.38001759912
      },
      "geometry": {
        "type": "Polygon",
        "coordinates": [
          [
            [
              180958.90560000017,
              649771.8681000005
            ],
            [
              180893.6518000001,
              649823.9912999999
            ],
            [
              180827.88289999962,
              649900.0269000009
            ],
            [
              180774.73709999956,
              649967.7329999991
            ],
            [
              180763.82019999996,
              650074.6663000006
            ],
            [
              180827.31259999983,
              650148.8205999993
            ],
            [
              180921.14279999956,
              650192.0775000006
            ],
            [
              180973.25960000046,
              650172.1958000008
            ],
            [
              181028.0307,
              650117.9231000002
            ],
            [
              181076.59910000023,
              650040.5443999991
            ],
            [
              181108.7790000001,
              649968.5387999993
            ],
            [
              181126.19689999986,
              649915.3409000002
            ],
            [
              181107.0736999996,
              649869.9351000004
            ],
            [
              181040.62820000015,
              649799.5416000001
            ],
            [
              180958.90560000017,
              649771.8681000005
            ]
          ]
        ]
      }
    }
  ]
}