{
  "type": "FeatureCollection",
  "name": "tama1_nature",
  "description": "תמ\"א 1 – שמורה וגן",
  "crs": {
    "type": "name",
    "properties": {
      "name": "urn:ogc:def:crs:EPSG::2039"
    }
  },
  "features": [
    {
      "type": "Feature",
      "properties": {
        "OBJECTID": 294,
        "PL_NAME": "תוכנית מיתאר ארצית אחודה",
        "PL_NUMBER": "תמא/ 1",
        "stage": "שטחים פתוחים",
        "type_name": "מוגנים",
        "Layer_Name": "שמורת טבע וגן לאומי",
        "MAVAT_NAME": "גן לאומי",
        "MAVAT_CODE": 10321,
        "NAME": "סחנה-לוד",
        "SCENARIO": "ראשי",
        "DATA_DATE": 1563062400000,
        "STATUS": "מאושרת",
        "LABEL": "סחנה-לוד",
        "PL_change": null,
        "PL_URL": null,
        "REMARKS": null,
        "scale": "1:100000",
        "TYPE_CODE": null,
        "NUM": null,
        "LAST_UPDATE": "14/07/2019",
        "LEGAL_AREA": 3.6135675433606136,
        "Shape_Area": 3613.5675433606134,
        "LAST_UPDAT": null,
        "Shape_Leng": null
      },
      "geometry": {
        "type": "Polygon",
        "coordinates": [
          [
            [
              190727.9282999998,
              651272.6217
            ],
            [
              190716.55119999964,
              651266.0072000008
            ],
            [
              190702.26360000018,
              651270.7697000001
            ],
            [
              190686.6531999996,
              651268.9176000003
            ],
            [
              190684.0072999997,
              651270.7697000001
            ],
            [
              190676.8635999998,
              651285.8509
            ],
            [
              190675.27610000037,
              651293.2592999991
            ],
            [
              190679.50939999986,
              651305.9593000002
            ],
            [
              190679.7740000002,
              651316.2781000007
            ],
            [
              190681.09690000024,
              651322.0988999996
            ],
            [
              190684.8010999998,
              651325.8030999992
            ],
            [
              190693.00320000015,
              651327.9198000003
            ],
            [
              190709.93659999967,
              651326.8614000008
            ],
            [
              190727.9282999998,
              651325.8030999992
            ],
            [
              190740.09910000023,
              651325.0094000008
            ],
            [
              190743.53870000038,
              651319.4530999996
            ],
            [
              190746.44909999985,
              651308.6052000001
            ],
            [
              190746.44909999985,
              651291.6718000006
            ],
            [
              190742.7450000001,
              651281.3530000001
            ],
            [
              190727.9282999998,
              651272.6217
            ]
          ]
        ]
      }
    }
  ]
}