{
  "type": "FeatureCollection",
  "name": "tama35_forests",
  "description": "תמ\"א 35 – יער ויעור",
  "crs": {
    "type": "name",
    "properties": {
      "name": "urn:ogc:def:crs:EPSG::2039"
    }
  },
  "features": [
    {
      "type": "Feature",
      "properties": {
        "OBJECTID": 356,
        "TYPECODE": 860,
        "TYPENAME": "יער ויעור",
        "Shape_Length": 2275.2419696776806,
        "Shape_Area": 103548.02254120717
      },
      "geometry": {
        "type": "Polygon",
        "coordinates": [
          [
            [
              182531.76559999958,
              660000
            ],
            [
              182319.01559999958,
              660000
            ],
            [
              182165.71870000008,
              660062.4530999996
            ],
            [
              181887.1875,
              660195.7969000004
            ],
            [
              181668.14059999958,
              660382.4688000008
            ],
            [
              181548.82809999958,
              660489.7655999996
            ],
            [
              181561.26559999958,
              660516.8438000008
            ],
            [
              181627.90620000008,
              660516.4530999996
            ],
            [
              181684.65620000008,
              660487.75
            ],
            [
              181789.53120000008,
              660407.1563000008
            ],
            [
              182041.53120000008,
              660246.5625
            ],
            [
              182295.60940000042,
              660121.8438000008
            ],
            [
              182531.76559999958,
              660000
            ]
          ]
        ]
      }
    },
    {
      "type": "Feature",
      "properties": {
        "OBJECTID": 1277,
        "TYPECODE": 860,
        "TYPENAME": "יער ויעור",
        "Shape_Length": 4078.6942356172126,
        "Shape_Area": 207202.13520060744
      },
      "geometry": {
        "type": "Polygon",
        "coordinates": [
          [
            [
              190000,
              654580
            ],
            [
              190000,
              654750
            ],
            [
              190139.34370000008,
              654643.4844000004
            ],
            [
              190190,
              654550
            ],
            [
              190290,
              654480
            ],
            [
              190320,
              654390
            ],
            [
              190320,
              654280
            ],
            [
              190330,
              654210
            ],
            [
              190360,
              654110
            ],
            [
              190430,
              654020
            ],
            [
              190450,
              653970
            ],
            [
              190440,
              653880
            ],
            [
              190420,
              653790
            ],
            [
              190410,
              653740
            ],
            [
              190460,
              653660
            ],
            [
              190520,
              653590
            ],
            [
              190570,
              653510
            ],
            [
              190610,
              653450
            ],
            [
              190610,
              653350
            ],
            [
              190600,
              653220
            ],
            [
              190600,
              653140
            ],
            [
              190621.67190000042,
              653092.3125
            ],
            [
              190627.95309999958,
              653035.9063000008
            ],
            [
              190621.32809999958,
              653012.75
            ],
            [
              190591.53120000008,
              653009.4375
            ],
            [
              190568.35940000042,
              653022.6719000004
            ],
            [
              190524.4375,
              653073.3594000004
            ],
            [
              190480,
              653140
            ],
            [
              190480,
              653200
            ],
            [
              190490,
              653270
            ],
            [
              190550,
              653320
            ],
            [
              190550,
              653380
            ],
            [
              190500,
              653450
            ],
            [
              190440,
              653540
            ],
            [
              190340,
              653610
            ],
            [
              190290,
              653690
            ],
            [
              190290,
              653790
            ],
            [
              190300,
              653870
            ],
            [
              190330,
              653950
            ],
            [
              190310,
              654000
            ],
            [
              190270,
              654050
            ],
            [
              190210,
              654120
            ],
            [
              190190,
              654170
            ],
            [
              190220,
              654250
            ],
            [
              190230,
              654330
            ],
            [
              190180,
              654410
            ],
            [
              190120,
              654480
            ],
            [
              190051.03120000008,
              654561.1405999996
            ],
            [
              190000,
              654580
            ]
          ]
        ]
      }
    },
    {
      "type": "Feature",
      "properties": {
        "OBJECTID": 1278,
        "TYPECODE": 860,
        "TYPENAME": "יער ויעור",
        "Shape_Length": 8878.04381985833,
        "Shape_Area": 488598.2633815375
      },
      "geometry": {
        "type": "Polygon",
        "coordinates": [
          [
            [
              192560,
              647490
            ],
            [
              192520,
              647480
            ],
            [
              192480,
              647500
            ],
            [
              192460,
              647580
            ],
            [
              192440,
              647700
            ],
            [
              192420,
              647870
            ],
            [
              192410,
              648020
            ],
            [
              192410,
              648100
            ],
            [
              192460,
              648250
            ],
            [
              192520,
              648350
            ],
            [
              192570,
              648440
            ],
            [
              192640,
              648520
            ],
            [
              192680,
              648600
            ],
            [
              192730,
              648670
            ],
            [
              192750,
              648740
            ],
            [
              192760,
              648820
            ],
            [
              192760,
              648900
            ],
            [
              192750,
              648960
            ],
            [
              192720,
              649020
            ],
            [
              192690,
              649060
            ],
            [
              192610,
              649140
            ],
            [
              192480,
              649280
            ],
            [
              192410,
              649430
            ],
            [
              192360,
              649570
            ],
            [
              192310,
              649780
            ],
            [
              192260,
              650010
            ],
            [
              192220,
              650180
            ],
            [
              192170,
              650360
            ],
            [
              192110,
              650550
            ],
            [
              192060,
              650680
            ],
            [
              191990,
              650760
            ],
            [
              191900,
              650840
            ],
            [
              191760,
              650930
            ],
            [
              191714.46870000008,
              650972.0313000008
            ],
            [
              191557.1875,
              651024.1405999996
            ],
            [
              191462.70309999958,
              651057.9063000008
            ],
            [
              191442.1875,
              651078.4688000008
            ],
            [
              191427.625,
              651103.4219000004
            ],
            [
              191425.54690000042,
              651128.375
            ],
            [
              191424.5,
              651142.9375
            ],
            [
              191429.70309999958,
              651159.5780999996
            ],
            [
              191440.10940000042,
              651172.0469000004
            ],
            [
              191450.51559999958,
              651181.4063000008
            ],
            [
              191468.14059999958,
              651184.2813000008
            ],
            [
              191569.89059999958,
              651157.3905999996
            ],
            [
              191767.01559999958,
              651065.3594000004
            ],
            [
              191800,
              651040
            ],
            [
              191900,
              650970
            ],
            [
              192000,
              650900
            ],
            [
              192080,
              650830
            ],
            [
              192150,
              650760
            ],
            [
              192200,
              650640
            ],
            [
              192250,
              650500
            ],
            [
              192250,
              650410
            ],
            [
              192270,
              650330
            ],
            [
              192310,
              650200
            ],
            [
              192340,
              650070
            ],
            [
              192360,
              649960
            ],
            [
              192390,
              649830
            ],
            [
              192420,
              649730
            ],
            [
              192450,
              649630
            ],
            [
              192460,
              649510
            ],
            [
              192510,
              649430
            ],
            [
              192630,
              649380
            ],
            [
              192730,
              649280
            ],
            [
              192790,
              649190
            ],
            [
              192810,
              649090
            ],
            [
              192850,
              649050
            ],
            [
              192860,
              649000
            ],
            [
              192900,
              648860
            ],
            [
              192900,
              648720
            ],
            [
              192850,
              648640
            ],
            [
              192820,
              648590
            ],
            [
              192800,
              648490
            ],
            [
              192750,
              648440
            ],
            [
              192630,
              648360
            ],
            [
              192570,
              648270
            ],
            [
              192530,
              648180
            ],
            [
              192490,
              648010
            ],
            [
              192520,
              647890
            ],
            [
              192560,
              647760
            ],
            [
              192580,
              647670
            ],
            [
              192570,
              647560
            ],
            [
              192560,
              647490
            ]
          ]
        ]
      }
    },
    {
      "type": "Feature",
      "properties": {
        "OBJECTID": 1848,
        "TYPECODE": 860,
        "TYPENAME": "יער ויעור",
        "Shape_Length": 17817.417669368337,
        "Shape_Area": 878726.8110132847
      },
      "geometry": {
        "type": "Polygon",
        "coordinates": [
          [
            [
              195544.10940000042,
              654745.9530999996
            ],
            [
              195568.5,
              654683
            ],
            [
              195594.07809999958,
              654598.4375
            ],
            [
              195591,
              654599.5
            ],
            [
              195542.5,
              654624.5
            ],
            [
              195506.5,
              654644.5
            ],
            [
              195478.5,
              654669.5
            ],
            [
              195457.5,
              654692.5
            ],
            [
              195437.5,
              654712.5
            ],
            [
              195422.5,
              654728
            ],
            [
              195409,
              654743
            ],
            [
              195393.5,
              654763
            ],
            [
              195375.5,
              654791.5
            ],
            [
              195360.5,
              654819.5
            ],
            [
              195350,
              654836.5
            ],
            [
              195342.5,
              654860
            ],
            [
              195334,
              654890.5
            ],
            [
              195326,
              654915.5
            ],
            [
              195313.5,
              654933.5
            ],
            [
              195298.5,
              654946
            ],
            [
              195288,
              654951
            ],
            [
              195267.5,
              654961.5
            ],
            [
              195242,
              654969
            ],
            [
              195214,
              654976
            ],
            [
              195170.5,
              654981
            ],
            [
              195150.5,
              654981
            ],
            [
              195129.5,
              654981
            ],
            [
              195111.5,
              654980.5
            ],
            [
              195091.5,
              654980.5
            ],
            [
              194999.5,
              654974.5
            ],
            [
              194972,
              654969
            ],
            [
              194934,
              654966.5
            ],
            [
              194900,
              654964.5
            ],
            [
              194862,
              654953.5
            ],
            [
              194829.5,
              654943
            ],
            [
              194796,
              654935
            ],
            [
              194755.5,
              654924.5
            ],
            [
              194717,
              654916.5
            ],
            [
              194671.5,
              654909
            ],
            [
              194582.5,
              654883
            ],
            [
              194506,
              654861.5
            ],
            [
              194430,
              654858.5
            ],
            [
              194358,
              654848
            ],
            [
              194277,
              654837.5
            ],
            [
              194200.5,
              654826.5
            ],
            [
              194121.5,
              654833.5
            ],
            [
              194044.5,
              654836
            ],
            [
              193976,
              654837.5
            ],
            [
              193808,
              654849.5
            ],
            [
              193784.5,
              654867
            ],
            [
              193754,
              654884.5
            ],
            [
              193718,
              654897
            ],
            [
              193674.5,
              654904.5
            ],
            [
              193631,
              654909.5
            ],
            [
              193531.5,
              654957
            ],
            [
              193524,
              654970
            ],
            [
              193511,
              654998
            ],
            [
              193495,
              655020.5
            ],
            [
              193490.5,
              655041
            ],
            [
              193490.5,
              655069
            ],
            [
              193497.5,
              655097.5
            ],
            [
              193520.5,
              655163
            ],
            [
              193522.5,
              655184
            ],
            [
              193527.5,
              655202
            ],
            [
              193535,
              655229.5
            ],
            [
              193540,
              655265.5
            ],
            [
              193542,
              655289
            ],
            [
              193545,
              655303.5
            ],
            [
              193544.5,
              655319.5
            ],
            [
              193534,
              655337.5
            ],
            [
              193523.5,
              655352
            ],
            [
              193514,
              655364.5
            ],
            [
              193485,
              655387.5
            ],
            [
              193462,
              655402.5
            ],
            [
              193429,
              655415
            ],
            [
              193411,
              655430.5
            ],
            [
              193383.5,
              655440
            ],
            [
              193344.5,
              655450
            ],
            [
              193273.5,
              655480.5
            ],
            [
              193257.5,
              655516
            ],
            [
              193257,
              655554
            ],
            [
              193267.5,
              655592.5
            ],
            [
              193292.5,
              655639
            ],
            [
              193320.5,
              655679.5
            ],
            [
              193351,
              655710
            ],
            [
              193381.5,
              655738.5
            ],
            [
              193401.5,
              655764
            ],
            [
              193414,
              655779.5
            ],
            [
              193424,
              655810
            ],
            [
              193441.5,
              655851
            ],
            [
              193451,
              655892.5
            ],
            [
              193454,
              655925
            ],
            [
              193441,
              655948
            ],
            [
              193412.5,
              655957.5
            ],
            [
              193380,
              655962.5
            ],
            [
              193344,
              655962.5
            ],
            [
              193306,
              655967.5
            ],
            [
              193264.5,
              655969.5
            ],
            [
              193229,
              655977.5
            ],
            [
              193203.5,
              655995
            ],
            [
              193144.5,
              656099.5
            ],
            [
              193133.5,
              656129
            ],
            [
              193133.5,
              656157.5
            ],
            [
              193135.5,
              656198.5
            ],
            [
              193138,
              656236.5
            ],
            [
              193138,
              656277
            ],
            [
              193137.5,
              656305.5
            ],
            [
              193137.5,
              656333.5
            ],
            [
              193139.5,
              656372
            ],
            [
              193139.5,
              656397
            ],
            [
              193139,
              656412
            ],
            [
              193133.5,
              656455.5
            ],
            [
              193118.5,
              656489
            ],
            [
              193098,
              656509
            ],
            [
              193059,
              656539.5
            ],
            [
              193006,
              656569.5
            ],
            [
              192964.5,
              656600
            ],
            [
              192941.5,
              656630.5
            ],
            [
              192933.5,
              656650.5
            ],
            [
              192928.5,
              656673.5
            ],
            [
              192926,
              656696.5
            ],
            [
              192918,
              656729.5
            ],
            [
              192907.5,
              656755
            ],
            [
              192892.5,
              656770.5
            ],
            [
              192874.5,
              656772.5
            ],
            [
              192849,
              656772.5
            ],
            [
              192775.5,
              656757
            ],
            [
              192742,
              656756.5
            ],
            [
              192703.5,
              656756.5
            ],
            [
              192673,
              656753
            ],
            [
              192653,
              656753
            ],
            [
              192630,
              656753
            ],
            [
              192604.5,
              656758
            ],
            [
              192573.5,
              656783
            ],
            [
              192548,
              656816
            ],
            [
              192530,
              656846.5
            ],
            [
              192509.5,
              656877
            ],
            [
              192483,
              656897.5
            ],
            [
              192455.5,
              656919.5
            ],
            [
              192427,
              656937.5
            ],
            [
              192396,
              656965.5
            ],
            [
              192358,
              657003.5
            ],
            [
              192330,
              657026.5
            ],
            [
              192306.5,
              657051.5
            ],
            [
              192294,
              657077
            ],
            [
              192283,
              657112.5
            ],
            [
              192269.5,
              657214
            ],
            [
              192264.5,
              657247.5
            ],
            [
              192254.5,
              657285.5
            ],
            [
              192238.5,
              657321.5
            ],
            [
              192220,
              657364.5
            ],
            [
              192205,
              657390
            ],
            [
              192187,
              657415
            ],
            [
              192163.5,
              657445.5
            ],
            [
              192133,
              657474
            ],
            [
              192092,
              657508.5
            ],
            [
              192058.5,
              657529.5
            ],
            [
              192020,
              657562
            ],
            [
              191987,
              657585
            ],
            [
              191958.5,
              657602.5
            ],
            [
              191925.5,
              657622.5
            ],
            [
              191897,
              657633
            ],
            [
              191872,
              657632.5
            ],
            [
              191821,
              657632
            ],
            [
              191778,
              657632
            ],
            [
              191731.5,
              657631.5
            ],
            [
              191686,
              657646
            ],
            [
              191660.5,
              657669
            ],
            [
              191644.5,
              657709.5
            ],
            [
              191626,
              657758
            ],
            [
              191616,
              657783
            ],
            [
              191595,
              657822
            ],
            [
              191572.5,
              657865
            ],
            [
              191543.5,
              657908
            ],
            [
              191518,
              657943
            ],
            [
              191500,
              657969
            ],
            [
              191469,
              658007
            ],
            [
              191448.5,
              658037.5
            ],
            [
              191428,
              658080.5
            ],
            [
              191402,
              658108
            ],
            [
              191379.5,
              658133.5
            ],
            [
              191350.5,
              658161.5
            ],
            [
              191323,
              658181.5
            ],
            [
              191292,
              658199
            ],
            [
              191258.5,
              658206.5
            ],
            [
              191220.5,
              658211.5
            ],
            [
              191179.5,
              658216.5
            ],
            [
              191146.5,
              658221.5
            ],
            [
              191110.5,
              658231.5
            ],
            [
              191070,
              658251.5
            ],
            [
              191041.5,
              658274.5
            ],
            [
              191023.5,
              658291.5
            ],
            [
              190990.5,
              658322
            ],
            [
              190974.5,
              658342.5
            ],
            [
              190946.5,
              658393
            ],
            [
              190923,
              658438.5
            ],
            [
              190912.5,
              658469
            ],
            [
              190899.5,
              658510
            ],
            [
              190881.5,
              658548
            ],
            [
              190864,
              658581.5
            ],
            [
              190851,
              658601.5
            ],
            [
              190820.5,
              658639.5
            ],
            [
              190799,
              658667.5
            ],
            [
              190776.5,
              658705.5
            ],
            [
              190742.5,
              658756
            ],
            [
              190711.5,
              658794
            ],
            [
              190681,
              658829.5
            ],
            [
              190655,
              658870.5
            ],
            [
              190635,
              658898
            ],
            [
              190598.5,
              658933.5
            ],
            [
              190550,
              658979
            ],
            [
              190501,
              659017.5
            ],
            [
              190452.5,
              659044.5
            ],
            [
              190370.5,
              659074.5
            ],
            [
              190332.5,
              659079.5
            ],
            [
              190304,
              659087
            ],
            [
              190258.5,
              659107.5
            ],
            [
              190222.5,
              659140
            ],
            [
              190200,
              659152.5
            ],
            [
              190171.5,
              659134.5
            ],
            [
              190134,
              659101.5
            ],
            [
              190090.5,
              659070.5
            ],
            [
              190062.5,
              659049.5
            ],
            [
              190032,
              659039.5
            ],
            [
              190000,
              659025.4375
            ],
            [
              190000,
              659134.25
            ],
            [
              190015.6875,
              659139.3905999996
            ],
            [
              190031.46870000008,
              659151.2344000004
            ],
            [
              190071.78120000008,
              659179.9530999996
            ],
            [
              190111.39059999958,
              659214.8125
            ],
            [
              190196.73440000042,
              659268.7188000008
            ],
            [
              190281.04690000042,
              659221.875
            ],
            [
              190313.875,
              659192.2344000004
            ],
            [
              190337.5,
              659181.5938000008
            ],
            [
              190351.82809999958,
              659177.8125
            ],
            [
              190394.48440000042,
              659172.2030999996
            ],
            [
              190494.25,
              659135.7030999996
            ],
            [
              190556.5625,
              659101.0155999996
            ],
            [
              190615.21870000008,
              659054.9219000004
            ],
            [
              190667.57809999958,
              659005.8125
            ],
            [
              190710.84370000008,
              658963.7344000004
            ],
            [
              190737.75,
              658926.75
            ],
            [
              190761.57809999958,
              658889.1719000004
            ],
            [
              190788.1875,
              658858.2030999996
            ],
            [
              190822.89059999958,
              658815.6563000008
            ],
            [
              190861.07809999958,
              658758.9375
            ],
            [
              190881.98440000042,
              658723.625
            ],
            [
              190899.15620000008,
              658701.25
            ],
            [
              190932.125,
              658660.1875
            ],
            [
              190950.4375,
              658632.0155999996
            ],
            [
              190971.03120000008,
              658592.5780999996
            ],
            [
              190992.78120000008,
              658546.6875
            ],
            [
              191007.45309999958,
              658500.3905999996
            ],
            [
              191015.1875,
              658477.9219000004
            ],
            [
              191034.67190000042,
              658440.2030999996
            ],
            [
              191058.15620000008,
              658397.8438000008
            ],
            [
              191064.34370000008,
              658389.9219000004
            ],
            [
              191091.76559999958,
              658364.5780999996
            ],
            [
              191107.32809999958,
              658349.875
            ],
            [
              191124.1875,
              658336.2655999996
            ],
            [
              191146.34370000008,
              658325.3280999996
            ],
            [
              191167.45309999958,
              658319.4688000008
            ],
            [
              191193.04690000042,
              658315.5938000008
            ],
            [
              191233.07809999958,
              658310.7030999996
            ],
            [
              191275.98440000042,
              658305.0625
            ],
            [
              191328.28120000008,
              658293.3594000004
            ],
            [
              191377.17190000042,
              658265.75
            ],
            [
              191414.95309999958,
              658238.2813000008
            ],
            [
              191451.84370000008,
              658202.6563000008
            ],
            [
              191475.84370000008,
              658175.4530999996
            ],
            [
              191511.48440000042,
              658137.75
            ],
            [
              191535.59370000008,
              658087.1719000004
            ],
            [
              191549.40620000008,
              658066.625
            ],
            [
              191579.98440000042,
              658029.1563000008
            ],
            [
              191599.53120000008,
              658000.9063000008
            ],
            [
              191625.39059999958,
              657965.4219000004
            ],
            [
              191658.51559999958,
              657916.2969000004
            ],
            [
              191683.32809999958,
              657868.8905999996
            ],
            [
              191706.73440000042,
              657825.4063000008
            ],
            [
              191719.14059999958,
              657794.3905999996
            ],
            [
              191737.71870000008,
              657745.6875
            ],
            [
              191742.79690000042,
              657732.8594000004
            ],
            [
              191746.53120000008,
              657731.6719000004
            ],
            [
              191777.46870000008,
              657732
            ],
            [
              191820.51559999958,
              657732
            ],
            [
              191870.51559999958,
              657732.4844000004
            ],
            [
              191913.85940000042,
              657733.3594000004
            ],
            [
              191969.09370000008,
              657713
            ],
            [
              192010.57809999958,
              657687.875
            ],
            [
              192041.79690000042,
              657668.7030999996
            ],
            [
              192080.96870000008,
              657641.3905999996
            ],
            [
              192117.60940000042,
              657610.4688000008
            ],
            [
              192151.03120000008,
              657589.5155999996
            ],
            [
              192199.375,
              657548.8438000008
            ],
            [
              192237.73440000042,
              657513
            ],
            [
              192267.20309999958,
              657474.75
            ],
            [
              192288.85940000042,
              657444.6875
            ],
            [
              192309.375,
              657409.7969000004
            ],
            [
              192330.125,
              657361.5625
            ],
            [
              192349.15620000008,
              657318.75
            ],
            [
              192362.59370000008,
              657267.6719000004
            ],
            [
              192368.51559999958,
              657227.9688000008
            ],
            [
              192381.01559999958,
              657134.0469000004
            ],
            [
              192387.21870000008,
              657114.0313000008
            ],
            [
              192389.67190000042,
              657109.0313000008
            ],
            [
              192398.45309999958,
              657099.6875
            ],
            [
              192425.25,
              657077.6719000004
            ],
            [
              192464.92190000042,
              657038
            ],
            [
              192487.65620000008,
              657017.4688000008
            ],
            [
              192513.60940000042,
              657001.0780999996
            ],
            [
              192544.82809999958,
              656976.0938000008
            ],
            [
              192583.46870000008,
              656946.2030999996
            ],
            [
              192614.625,
              656899.8438000008
            ],
            [
              192630.95309999958,
              656872.2030999996
            ],
            [
              192646,
              656853
            ],
            [
              192667.28120000008,
              656853
            ],
            [
              192697.78120000008,
              656856.5
            ],
            [
              192741.25,
              656856.5
            ],
            [
              192764.32809999958,
              656856.8438000008
            ],
            [
              192838.57809999958,
              656872.5
            ],
            [
              192880.03120000008,
              656872.5
            ],
            [
              192939.32809999958,
              656865.9063000008
            ],
            [
              192992.67190000042,
              656810.7813000008
            ],
            [
              193013.375,
              656760.5
            ],
            [
              193024.71870000008,
              656713.75
            ],
            [
              193027.34370000008,
              656689.5625
            ],
            [
              193029.42190000042,
              656680
            ],
            [
              193035.51559999958,
              656671.9063000008
            ],
            [
              193060.4375,
              656653.5938000008
            ],
            [
              193114.73440000042,
              656622.8594000004
            ],
            [
              193163.92190000042,
              656584.4063000008
            ],
            [
              193201.98440000042,
              656547.2655999996
            ],
            [
              193230.84370000008,
              656482.7969000004
            ],
            [
              193238.79690000042,
              656419.9530999996
            ],
            [
              193239.5,
              656398.6719000004
            ],
            [
              193239.5,
              656369.4063000008
            ],
            [
              193237.5,
              656330.9063000008
            ],
            [
              193237.5,
              656306.375
            ],
            [
              193238,
              656277.875
            ],
            [
              193238,
              656233.2188000008
            ],
            [
              193235.34370000008,
              656192.7813000008
            ],
            [
              193233.5,
              656155.0625
            ],
            [
              193233.5,
              656147.0313000008
            ],
            [
              193235.45309999958,
              656141.8125
            ],
            [
              193278,
              656068.9688000008
            ],
            [
              193314.9375,
              656067.1875
            ],
            [
              193350.54690000042,
              656062.5
            ],
            [
              193387.64059999958,
              656062.5
            ],
            [
              193436.07809999958,
              656055.0469000004
            ],
            [
              193509.125,
              656030.7030999996
            ],
            [
              193556.45309999958,
              655946.9688000008
            ],
            [
              193549.96870000008,
              655876.6719000004
            ],
            [
              193536.98440000042,
              655819.9688000008
            ],
            [
              193517.67190000042,
              655774.7344000004
            ],
            [
              193503.32809999958,
              655730.9688000008
            ],
            [
              193479.76559999958,
              655701.75
            ],
            [
              193455.42190000042,
              655670.7030999996
            ],
            [
              193420.51559999958,
              655638.0938000008
            ],
            [
              193397.60940000042,
              655615.1875
            ],
            [
              193377.9375,
              655586.7344000004
            ],
            [
              193360.96870000008,
              655555.1875
            ],
            [
              193360.14059999958,
              655552.125
            ],
            [
              193376.84370000008,
              655544.9375
            ],
            [
              193412.29690000042,
              655535.8594000004
            ],
            [
              193461.75,
              655518.7655999996
            ],
            [
              193480.90620000008,
              655502.2813000008
            ],
            [
              193507.54690000042,
              655492.1719000004
            ],
            [
              193543.51559999958,
              655468.7344000004
            ],
            [
              193586,
              655435.0313000008
            ],
            [
              193603.8125,
              655411.5938000008
            ],
            [
              193617.89059999958,
              655392.1563000008
            ],
            [
              193643.65629999992,
              655347.9844000004
            ],
            [
              193645.32809999958,
              655294.8125
            ],
            [
              193641.14059999958,
              655274.5780999996
            ],
            [
              193639.42190000042,
              655254.375
            ],
            [
              193633.17190000042,
              655209.3905999996
            ],
            [
              193623.92190000042,
              655175.4688000008
            ],
            [
              193621.21870000008,
              655165.7344000004
            ],
            [
              193618.89059999958,
              655141.375
            ],
            [
              193593.45309999958,
              655068.9375
            ],
            [
              193590.84370000008,
              655058.2813000008
            ],
            [
              193597.82809999958,
              655048.4530999996
            ],
            [
              193605.17190000042,
              655032.6405999996
            ],
            [
              193659.01559999958,
              655006.9375
            ],
            [
              193688.71870000008,
              655003.5313000008
            ],
            [
              193743.0625,
              654994.1563000008
            ],
            [
              193795.64059999958,
              654975.8905999996
            ],
            [
              193839.4375,
              654950.7655999996
            ],
            [
              193844.28120000008,
              654947.1563000008
            ],
            [
              193980.65620000008,
              654937.4219000004
            ],
            [
              194047.21870000008,
              654935.9688000008
            ],
            [
              194127.54690000042,
              654933.3594000004
            ],
            [
              194197.76559999958,
              654927.1405999996
            ],
            [
              194263.45309999958,
              654936.5780999996
            ],
            [
              194344.35940000042,
              654947.0625
            ],
            [
              194420.78120000008,
              654958.2188000008
            ],
            [
              194490.28120000008,
              654960.9530999996
            ],
            [
              194554.95309999958,
              654979.125
            ],
            [
              194649.26559999958,
              655006.6875
            ],
            [
              194698.6875,
              655014.8280999996
            ],
            [
              194732.76559999958,
              655021.9063000008
            ],
            [
              194771.82809999958,
              655032.0469000004
            ],
            [
              194802.46870000008,
              655039.3594000004
            ],
            [
              194832.71870000008,
              655049.125
            ],
            [
              194882.95309999958,
              655063.6719000004
            ],
            [
              194927.78129999992,
              655066.3125
            ],
            [
              194958.85940000042,
              655068.3438000008
            ],
            [
              194986.39059999958,
              655073.8594000004
            ],
            [
              195088.25,
              655080.5
            ],
            [
              195110.10940000042,
              655080.5
            ],
            [
              195128.10940000042,
              655081
            ],
            [
              195176.23440000042,
              655081
            ],
            [
              195231.90620000008,
              655074.5938000008
            ],
            [
              195268.25,
              655065.5155999996
            ],
            [
              195304.73440000042,
              655054.7813000008
            ],
            [
              195332.29690000042,
              655040.6563000008
            ],
            [
              195352.85940000042,
              655030.875
            ],
            [
              195387.92190000042,
              655001.6563000008
            ],
            [
              195416.67190000042,
              654960.2344000004
            ],
            [
              195429.8125,
              654919.1719000004
            ],
            [
              195438.32809999958,
              654888.6405999996
            ],
            [
              195441.53120000008,
              654878.6094000004
            ],
            [
              195447.20309999958,
              654869.4375
            ],
            [
              195461.95309999958,
              654841.875
            ],
            [
              195475.48440000042,
              654820.4530999996
            ],
            [
              195485.79690000042,
              654807.1563000008
            ],
            [
              195495.625,
              654796.2344000004
            ],
            [
              195508.79690000042,
              654782.625
            ],
            [
              195529.8125,
              654761.6094000004
            ],
            [
              195544.10940000042,
              654745.9530999996
            ]
          ]
        ]
      }
    },
    {
      "type": "Feature",
      "properties": {
        "OBJECTID": 1869,
        "TYPECODE": 860,
        "TYPENAME": "יער ויעור",
        "Shape_Length": 3568.2936914600796,
        "Shape_Area": 200291.76290279566
      },
      "geometry": {
        "type": "Polygon",
        "coordinates": [
          [
            [
              183887.64059999958,
              659424.5313000008
            ],
            [
              183873.5,
              659401.5
            ],
            [
              183783.09370000008,
              659265.1875
            ],
            [
              183610.125,
              659275.5155999996
            ],
            [
              183398.9375,
              659345.8594000004
            ],
            [
              183206.70309999958,
              659442.9688000008
            ],
            [
              183029.4375,
              659612.5625
            ],
            [
              182795.07809999958,
              659759.0625
            ],
            [
              182462.8125,
              659920.4375
            ],
            [
              182319.01559999958,
              660000
            ],
            [
              182531.76559999958,
              660000
            ],
            [
              182811.1875,
              659867.1405999996
            ],
            [
              183101.57809999958,
              659684
            ],
            [
              183287.57809999958,
              659560.1875
            ],
            [
              183562.45309999958,
              659450.6875
            ],
            [
              183778.53120000008,
              659433.7188000008
            ],
            [
              183887.64059999958,
              659424.5313000008
            ]
          ]
        ]
      }
    },
    {
      "type": "Feature",
      "properties": {
        "OBJECTID": 1870,
        "TYPECODE": 860,
        "TYPENAME": "יער ויעור",
        "Shape_Length": 28751.13358620625,
        "Shape_Area": 1797480.418544031
      },
      "geometry": {
        "type": "Polygon",
        "coordinates": [
          [
            [
              190000,
              659134.25
            ],
            [
              190000,
              659025.4375
            ],
            [
              189828.96870000008,
              658943.8905999996
            ],
            [
              189628.15620000008,
              658996.8594000004
            ],
            [
              189484.15620000008,
              658980.3125
            ],
            [
              189314.48440000042,
              658869.6405999996
            ],
            [
              189176.25,
              658754.1405999996
            ],
            [
              189085.65620000008,
              658685.375
            ],
            [
              188990.70309999958,
              658627.8905999996
            ],
            [
              188959.03120000008,
              658607.9844000004
            ],
            [
              188846.57809999958,
              658600.1094000004
            ],
            [
              188700.89059999958,
              658639.7813000008
            ],
            [
              188615.8125,
              658672.0938000008
            ],
            [
              188546.3125,
              658688.5155999996
            ],
            [
              188479.14059999958,
              658713.9063000008
            ],
            [
              188431.65629999992,
              658685.1563000008
            ],
            [
              188323.23440000042,
              658630.0625
            ],
            [
              188248.71870000008,
              658594.8438000008
            ],
            [
              188180.9375,
              658559.5625
            ],
            [
              188108.59370000008,
              658517.5780999996
            ],
            [
              187931.1875,
              658530.5938000008
            ],
            [
              187810,
              658520
            ],
            [
              187770,
              658500
            ],
            [
              187750,
              658480
            ],
            [
              187730,
              658460
            ],
            [
              187720,
              658440
            ],
            [
              187720,
              658410
            ],
            [
              187710,
              658380
            ],
            [
              187700,
              658350
            ],
            [
              187700,
              658320
            ],
            [
              187690,
              658300
            ],
            [
              187670,
              658270
            ],
            [
              187650,
              658250
            ],
            [
              187620,
              658230
            ],
            [
              187580,
              658230
            ],
            [
              187550,
              658250
            ],
            [
              187520,
              658260
            ],
            [
              187480,
              658370
            ],
            [
              187470,
              658400
            ],
            [
              187460,
              658450
            ],
            [
              187440,
              658470
            ],
            [
              187400,
              658510
            ],
            [
              187380,
              658510
            ],
            [
              187360,
              658510
            ],
            [
              187330,
              658490
            ],
            [
              187310,
              658470
            ],
            [
              187290,
              658430
            ],
            [
              187270,
              658390
            ],
            [
              187250,
              658340
            ],
            [
              187230,
              658310
            ],
            [
              187230,
              658270
            ],
            [
              187210,
              658200
            ],
            [
              187190,
              658170
            ],
            [
              187150,
              658110
            ],
            [
              187120,
              658020
            ],
            [
              187110,
              658000
            ],
            [
              187100,
              657970
            ],
            [
              187070,
              657940
            ],
            [
              187040,
              657920
            ],
            [
              187010,
              657900
            ],
            [
              186990,
              657890
            ],
            [
              186930,
              657880
            ],
            [
              186920,
              657860
            ],
            [
              186900,
              657820
            ],
            [
              186900,
              657790
            ],
            [
              186930,
              657750
            ],
            [
              186990,
              657690
            ],
            [
              187030,
              657640
            ],
            [
              187040,
              657600
            ],
            [
              187060,
              657560
            ],
            [
              187090,
              657540
            ],
            [
              187110,
              657530
            ],
            [
              187300,
              657500
            ],
            [
              187460,
              657440
            ],
            [
              187610,
              657370
            ],
            [
              187700,
              657300
            ],
            [
              187750,
              657250
            ],
            [
              187800,
              657200
            ],
            [
              187860,
              657080
            ],
            [
              187930,
              656950
            ],
            [
              187970,
              656900
            ],
            [
              187980,
              656820
            ],
            [
              188000,
              656770
            ],
            [
              188010,
              656730
            ],
            [
              188030,
              656690
            ],
            [
              188070,
              656660
            ],
            [
              188110,
              656640
            ],
            [
              188140,
              656630
            ],
            [
              188180,
              656630
            ],
            [
              188200,
              656660
            ],
            [
              188230,
              656690
            ],
            [
              188280,
              656730
            ],
            [
              188350,
              656770
            ],
            [
              188390,
              656770
            ],
            [
              188440,
              656770
            ],
            [
              188480,
              656750
            ],
            [
              188510,
              656730
            ],
            [
              188530,
              656710
            ],
            [
              188530,
              656680
            ],
            [
              188530,
              656660
            ],
            [
              188540,
              656560
            ],
            [
              188630,
              656530
            ],
            [
              188700,
              656480
            ],
            [
              188730,
              656430
            ],
            [
              188750,
              656360
            ],
            [
              188790,
              656290
            ],
            [
              188800,
              656180
            ],
            [
              188820,
              656090
            ],
            [
              188830,
              656070
            ],
            [
              188870,
              656050
            ],
            [
              188890,
              656040
            ],
            [
              188930,
              656050
            ],
            [
              188950,
              656060
            ],
            [
              189020,
              656140
            ],
            [
              189070,
              656180
            ],
            [
              189180,
              656210
            ],
            [
              189240,
              656200
            ],
            [
              189296,
              656184
            ],
            [
              189340,
              656140
            ],
            [
              189400,
              656060
            ],
            [
              189430,
              655990
            ],
            [
              189460,
              655920
            ],
            [
              189460,
              655850
            ],
            [
              189490,
              655720
            ],
            [
              189490,
              655660
            ],
            [
              189490,
              655600
            ],
            [
              189440,
              655500
            ],
            [
              189440,
              655410
            ],
            [
              189460,
              655370
            ],
            [
              189480,
              655330
            ],
            [
              189510,
              655300
            ],
            [
              189620,
              655200
            ],
            [
              189650,
              655160
            ],
            [
              189670,
              655130
            ],
            [
              189710,
              655120
            ],
            [
              189750,
              655100
            ],
            [
              189780,
              655090
            ],
            [
              189840,
              655050
            ],
            [
              189890,
              655010
            ],
            [
              189930,
              654970
            ],
            [
              189950,
              654940
            ],
            [
              189960,
              654910
            ],
            [
              189960,
              654880
            ],
            [
              189950,
              654850
            ],
            [
              189940,
              654810
            ],
            [
              189940,
              654790
            ],
            [
              189950,
              654760
            ],
            [
              190000,
              654750
            ],
            [
              190000,
              654580
            ],
            [
              189900,
              654570
            ],
            [
              189880,
              654580
            ],
            [
              189850,
              654610
            ],
            [
              189790,
              654670
            ],
            [
              189800,
              654710
            ],
            [
              189810,
              654760
            ],
            [
              189820,
              654810
            ],
            [
              189830,
              654840
            ],
            [
              189830,
              654870
            ],
            [
              189820,
              654900
            ],
            [
              189760,
              654930
            ],
            [
              189730,
              654950
            ],
            [
              189690,
              654970
            ],
            [
              189650,
              654980
            ],
            [
              189610,
              655000
            ],
            [
              189510,
              655070
            ],
            [
              189450,
              655120
            ],
            [
              189400,
              655160
            ],
            [
              189370,
              655200
            ],
            [
              189350,
              655240
            ],
            [
              189350,
              655270
            ],
            [
              189340,
              655370
            ],
            [
              189340,
              655490
            ],
            [
              189370,
              655600
            ],
            [
              189380,
              655650
            ],
            [
              189380,
              655690
            ],
            [
              189370,
              655710
            ],
            [
              189330,
              655740
            ],
            [
              189320,
              655800
            ],
            [
              189310,
              655900
            ],
            [
              189300,
              655960
            ],
            [
              189290,
              655990
            ],
            [
              189280,
              656030
            ],
            [
              189270,
              656060
            ],
            [
              189220,
              656080
            ],
            [
              189180,
              656080
            ],
            [
              189160,
              656080
            ],
            [
              189140,
              656070
            ],
            [
              189050,
              656000
            ],
            [
              188980,
              655950
            ],
            [
              188930,
              655930
            ],
            [
              188890,
              655910
            ],
            [
              188860,
              655900
            ],
            [
              188830,
              655900
            ],
            [
              188800,
              655910
            ],
            [
              188760,
              655950
            ],
            [
              188750,
              655980
            ],
            [
              188740,
              656010
            ],
            [
              188730,
              656050
            ],
            [
              188690,
              656300
            ],
            [
              188680,
              656330
            ],
            [
              188570,
              656410
            ],
            [
              188520,
              656420
            ],
            [
              188500,
              656450
            ],
            [
              188480,
              656480
            ],
            [
              188460,
              656520
            ],
            [
              188460,
              656540
            ],
            [
              188460,
              656580
            ],
            [
              188460,
              656610
            ],
            [
              188450,
              656640
            ],
            [
              188430,
              656660
            ],
            [
              188400,
              656670
            ],
            [
              188350,
              656660
            ],
            [
              188330,
              656640
            ],
            [
              188310,
              656610
            ],
            [
              188290,
              656560
            ],
            [
              188280,
              656520
            ],
            [
              188270,
              656500
            ],
            [
              188230,
              656470
            ],
            [
              188200,
              656470
            ],
            [
              188140,
              656460
            ],
            [
              188080,
              656470
            ],
            [
              188040,
              656490
            ],
            [
              188020,
              656510
            ],
            [
              188000,
              656540
            ],
            [
              187990,
              656580
            ],
            [
              187970,
              656630
            ],
            [
              187970,
              656670
            ],
            [
              187890,
              656830
            ],
            [
              187860,
              656940
            ],
            [
              187800,
              657040
            ],
            [
              187700,
              657170
            ],
            [
              187610,
              657240
            ],
            [
              187540,
              657290
            ],
            [
              187510,
              657310
            ],
            [
              187410,
              657340
            ],
            [
              187340,
              657360
            ],
            [
              187240,
              657360
            ],
            [
              187150,
              657390
            ],
            [
              187090,
              657420
            ],
            [
              187030,
              657460
            ],
            [
              186980,
              657490
            ],
            [
              186950,
              657520
            ],
            [
              186930,
              657550
            ],
            [
              186910,
              657590
            ],
            [
              186900,
              657620
            ],
            [
              186870,
              657640
            ],
            [
              186850,
              657640
            ],
            [
              186820,
              657630
            ],
            [
              186800,
              657600
            ],
            [
              186780,
              657570
            ],
            [
              186720,
              657460
            ],
            [
              186670,
              657440
            ],
            [
              186610,
              657440
            ],
            [
              186580,
              657450
            ],
            [
              186580,
              657480
            ],
            [
              186610,
              657550
            ],
            [
              186640,
              657590
            ],
            [
              186660,
              657630
            ],
            [
              186640,
              657660
            ],
            [
              186600,
              657670
            ],
            [
              186560,
              657640
            ],
            [
              186530,
              657610
            ],
            [
              186500,
              657600
            ],
            [
              186460,
              657610
            ],
            [
              186430,
              657630
            ],
            [
              186400,
              657660
            ],
            [
              186380,
              657700
            ],
            [
              186370,
              657860
            ],
            [
              186330,
              657970
            ],
            [
              186290,
              658010
            ],
            [
              186070,
              658110
            ],
            [
              186010,
              658130
            ],
            [
              185970,
              658140
            ],
            [
              185930,
              658140
            ],
            [
              185880,
              658160
            ],
            [
              185840,
              658180
            ],
            [
              185800,
              658200
            ],
            [
              185790,
              658230
            ],
            [
              185800,
              658270
            ],
            [
              185820,
              658300
            ],
            [
              185850,
              658310
            ],
            [
              185870,
              658330
            ],
            [
              185890,
              658370
            ],
            [
              185890,
              658400
            ],
            [
              185890,
              658480
            ],
            [
              185880,
              658530
            ],
            [
              185860,
              658560
            ],
            [
              185840,
              658570
            ],
            [
              185810,
              658580
            ],
            [
              185740,
              658560
            ],
            [
              185680,
              658540
            ],
            [
              185630,
              658550
            ],
            [
              185600,
              658570
            ],
            [
              185570,
              658610
            ],
            [
              185550,
              658650
            ],
            [
              185550,
              658700
            ],
            [
              185550,
              658730
            ],
            [
              185540,
              658780
            ],
            [
              185530,
              658800
            ],
            [
              185510,
              658820
            ],
            [
              185480,
              658840
            ],
            [
              185390,
              658830
            ],
            [
              185360,
              658760
            ],
            [
              185330,
              658720
            ],
            [
              185300,
              658690
            ],
            [
              185260,
              658690
            ],
            [
              185220,
              658700
            ],
            [
              185190,
              658740
            ],
            [
              185150,
              658740
            ],
            [
              185130,
              658750
            ],
            [
              185080,
              658740
            ],
            [
              185040,
              658720
            ],
            [
              185010,
              658700
            ],
            [
              184960,
              658700
            ],
            [
              184930,
              658710
            ],
            [
              184910,
              658730
            ],
            [
              184890,
              658770
            ],
            [
              184890,
              658810
            ],
            [
              184870,
              658860
            ],
            [
              184870,
              658890
            ],
            [
              184850,
              658920
            ],
            [
              184820,
              658930
            ],
            [
              184790,
              658950
            ],
            [
              184770,
              658970
            ],
            [
              184750,
              658990
            ],
            [
              184720,
              659030
            ],
            [
              184710,
              659050
            ],
            [
              184700,
              659090
            ],
            [
              184700,
              659120
            ],
            [
              184700,
              659140
            ],
            [
              184680,
              659150
            ],
            [
              184460,
              659230
            ],
            [
              184370,
              659250
            ],
            [
              184280,
              659270
            ],
            [
              184200,
              659280
            ],
            [
              184180,
              659290
            ],
            [
              184150,
              659290
            ],
            [
              184120,
              659290
            ],
            [
              184070,
              659280
            ],
            [
              184010,
              659270
            ],
            [
              183970,
              659260
            ],
            [
              183940,
              659260
            ],
            [
              183900,
              659260
            ],
            [
              183870,
              659260
            ],
            [
              183783.09370000008,
              659265.1875
            ],
            [
              183873.5,
              659401.5
            ],
            [
              183887.64059999958,
              659424.5313000008
            ],
            [
              184060,
              659410
            ],
            [
              184100,
              659430
            ],
            [
              184140,
              659440
            ],
            [
              184210,
              659450
            ],
            [
              184300,
              659450
            ],
            [
              184410,
              659400
            ],
            [
              184460,
              659380
            ],
            [
              184530,
              659370
            ],
            [
              184620,
              659350
            ],
            [
              184690,
              659330
            ],
            [
              184760,
              659290
            ],
            [
              184800,
              659250
            ],
            [
              184810,
              659220
            ],
            [
              184830,
              659170
            ],
            [
              184840,
              659110
            ],
            [
              184850,
              659090
            ],
            [
              185010,
              659070
            ],
            [
              185010,
              658950
            ],
            [
              185020,
              658910
            ],
            [
              185090,
              658920
            ],
            [
              185140,
              658910
            ],
            [
              185200,
              658900
            ],
            [
              185260,
              658880
            ],
            [
              185280,
              658850
            ],
            [
              185340,
              658900
            ],
            [
              185410,
              658920
            ],
            [
              185480,
              658910
            ],
            [
              185530,
              658890
            ],
            [
              185570,
              658860
            ],
            [
              185630,
              658790
            ],
            [
              185650,
              658740
            ],
            [
              185670,
              658710
            ],
            [
              185680,
              658650
            ],
            [
              185710,
              658640
            ],
            [
              185760,
              658620
            ],
            [
              185790,
              658630
            ],
            [
              185830,
              658650
            ],
            [
              185870,
              658660
            ],
            [
              185900,
              658650
            ],
            [
              185920,
              658630
            ],
            [
              185960,
              658580
            ],
            [
              185980,
              658520
            ],
            [
              186000,
              658420
            ],
            [
              186010,
              658300
            ],
            [
              186040,
              658270
            ],
            [
              186090,
              658250
            ],
            [
              186140,
              658220
            ],
            [
              186240,
              658220
            ],
            [
              186370,
              658200
            ],
            [
              186410,
              658180
            ],
            [
              186440,
              658160
            ],
            [
              186470,
              658120
            ],
            [
              186500,
              658070
            ],
            [
              186510,
              658030
            ],
            [
              186520,
              657980
            ],
            [
              186520,
              657940
            ],
            [
              186510,
              657900
            ],
            [
              186510,
              657870
            ],
            [
              186510,
              657830
            ],
            [
              186530,
              657810
            ],
            [
              186550,
              657790
            ],
            [
              186560,
              657770
            ],
            [
              186730,
              657830
            ],
            [
              186760,
              657850
            ],
            [
              186790,
              657870
            ],
            [
              186850,
              657960
            ],
            [
              186870,
              657990
            ],
            [
              186910,
              658030
            ],
            [
              186970,
              658080
            ],
            [
              187000,
              658100
            ],
            [
              187040,
              658130
            ],
            [
              187050,
              658180
            ],
            [
              187100,
              658220
            ],
            [
              187100,
              658260
            ],
            [
              187070,
              658330
            ],
            [
              187060,
              658390
            ],
            [
              187060,
              658430
            ],
            [
              187060,
              658450
            ],
            [
              187090,
              658480
            ],
            [
              187120,
              658500
            ],
            [
              187150,
              658500
            ],
            [
              187190,
              658490
            ],
            [
              187220,
              658500
            ],
            [
              187250,
              658500
            ],
            [
              187280,
              658540
            ],
            [
              187290,
              658560
            ],
            [
              187310,
              658600
            ],
            [
              187330,
              658650
            ],
            [
              187370,
              658660
            ],
            [
              187400,
              658680
            ],
            [
              187450,
              658680
            ],
            [
              187490,
              658670
            ],
            [
              187520,
              658640
            ],
            [
              187550,
              658610
            ],
            [
              187580,
              658560
            ],
            [
              187600,
              658540
            ],
            [
              187630,
              658540
            ],
            [
              187670,
              658550
            ],
            [
              187700,
              658590
            ],
            [
              187720,
              658620
            ],
            [
              187740,
              658670
            ],
            [
              187770,
              658670
            ],
            [
              187800,
              658660
            ],
            [
              187943.3125,
              658620.3594000004
            ],
            [
              188096.54690000042,
              658661.5313000008
            ],
            [
              188247.85940000042,
              658734.1875
            ],
            [
              188423.98440000042,
              658817.8438000008
            ],
            [
              188549.70309999958,
              658803.0938000008
            ],
            [
              188739.92190000042,
              658722.5469000004
            ],
            [
              188894.76559999958,
              658698.5155999996
            ],
            [
              189027.95309999958,
              658757.875
            ],
            [
              189141.40620000008,
              658866.875
            ],
            [
              189281.92190000042,
              658984.5780999996
            ],
            [
              189440,
              659059.4219000004
            ],
            [
              189586.40620000008,
              659091.6719000004
            ],
            [
              189747.76559999958,
              659047.3594000004
            ],
            [
              189880.60940000042,
              659059.3905999996
            ],
            [
              190000,
              659134.25
            ]
          ]
        ]
      }
    }
  ]
}