{
  "type": "FeatureCollection",
  "name": "tmm321_תממ_3__21___נחלים",
  "features": [
    {
      "type": "Feature",
      "id": 20,
      "geometry": {
        "type": "LineString",
        "coordinates": [
          [
            185971.92056215176,
            658423.3668319152
          ],
          [
            186092.41188292904,
            658054.046394224
          ],
          [
            186126.53185687796,
            657797.384599129
          ],
          [
            186204.27826818102,
            657631.9882691177
          ],
          [
            186271.18310214736,
            657560.1847586425
          ],
          [
            186338.4000104654,
            657521.2467852773
          ],
          [
            186878.3670406174,
            657377.4670660829
          ],
          [
            186980.98928686185,
            657309.3456181188
          ],
          [
            187088.41940429958,
            657193.1045692819
          ],
          [
            187212.50177234528,
            656935.6265659853
          ],
          [
            187324.38758531498,
            656745.9422441247
          ],
          [
            187385.76686855475,
            656427.7297323059
          ],
          [
            187429.91420666175,
            656339.7771007816
          ],
          [
            187489.0876153754,
            656055.998526719
          ],
          [
            187627.16069893818,
            655807.6914000445
          ],
          [
            187808.6288731522,
            655787.9851958283
          ],
          [
            187926.97569057997,
            655894.4023359757
          ],
          [
            188222.84812384006,
            655992.9361550413
          ],
          [
            188763.3046984095,
            655937.7571044451
          ],
          [
            189099.61328240065,
            655624.5353404115
          ],
          [
            189415.36389562074,
            655229.4749066455
          ],
          [
            189959.89025422782,
            654805.6796525532
          ]
        ]
      },
      "properties": {
        "FID": 20,
        "MAPKEY": "5600",
        "LAYER": "NAHAL",
        "TYPECODE": 207001,
        "TYPENAME": "נחלים",
        "TCODE": "3"
      }
    }
  ]
}