{
  "type": "FeatureCollection",
  "name": "tmm321_תממ_נתבג___גבול_השקמא",
  "features": [
    {
      "type": "Feature",
      "id": 0,
      "geometry": {
        "type": "Polygon",
        "coordinates": [
          [
            [
              189264.44304376323,
              656060.339436446
            ],
            [
              188800.62818277674,
              655463.9158629307
            ],
            [
              189259.9595457484,
              655209.770058521
            ],
            [
              189523.1803395681,
              655916.5656456674
            ],
            [
              189264.44304376323,
              656060.339436446
            ]
          ]
        ]
      },
      "properties": {
        "FID": 0,
        "MAPKEY": "5B3",
        "LAYER": "lim-skma",
        "NAME": "lim-\"k",
        "TYPECODE": 315004,
        "TYPENAME": "lim-\"k a",
        "TCODE": "3"
      }
    },
    {
      "type": "Feature",
      "id": 2,
      "geometry": {
        "type": "Polygon",
        "coordinates": [
          [
            [
              187426.63641302913,
              657843.5431919189
            ],
            [
              187588.46416615002,
              658094.5106928921
            ],
            [
              187003.9520076739,
              658581.9666861271
            ],
            [
              186733.43391456545,
              658140.3604798482
            ],
            [
              187426.63641302913,
              657843.5431919189
            ]
          ]
        ]
      },
      "properties": {
        "FID": 2,
        "MAPKEY": "5C9",
        "LAYER": "lim-skma",
        "NAME": "lim-\"k",
        "TYPECODE": 315004,
        "TYPENAME": "lim-\"k a",
        "TCODE": "3"
      }
    },
    {
      "type": "Feature",
      "id": 3,
      "geometry": {
        "type": "Polygon",
        "coordinates": [
          [
            [
              186302.65256476743,
              657823.5172133545
            ],
            [
              185546.65121229627,
              657806.6252313188
            ],
            [
              185628.77274338226,
              657295.0376985664
            ],
            [
              186353.37487351953,
              657529.1131112524
            ],
            [
              186302.65256476743,
              657823.5172133545
            ]
          ]
        ]
      },
      "properties": {
        "FID": 3,
        "MAPKEY": "5CF",
        "LAYER": "lim-skma",
        "NAME": "lim-\"k",
        "TYPECODE": 315004,
        "TYPENAME": "lim-\"k a",
        "TCODE": "3"
      }
    }
  ]
}