{
  "type": "FeatureCollection",
  "name": "tmm321_תממ_3__21____נתב_ג__מגבלות_רעש",
  "features": [
    {
      "type": "Feature",
      "id": 0,
      "geometry": {
        "type": "LineString",
        "coordinates": [
          [
            174614.6050935338,
            656528.6977711486
          ],
          [
            174880.968593097,
            656385.9947837677
          ],
          [
            175228.399164613,
            656193.1529520035
          ],
          [
            175552.6676570939,
            656015.7384242798
          ],
          [
            175928.43886451385,
            655822.0436048518
          ],
          [
            176422.56226213527,
            655575.2059964427
          ],
          [
            176758.41179413372,
            655428.6461830516
          ],
          [
            177144.44576248477,
            655289.8000216808
          ],
          [
            177439.38485895447,
            655212.2842895983
          ],
          [
            177809.97750950546,
            655139.0043829028
          ],
          [
            178103.36336638624,
            655112.0064945803
          ],
          [
            178516.41969205491,
            655085.0086062578
          ],
          [
            178900.07068919324,
            655073.2121311222
          ],
          [
            179413.49568289728,
            655050.0711750615
          ],
          [
            179934.64164250615,
            655026.9301127491
          ],
          [
            180363.13928597487,
            655007.6459826985
          ],
          [
            180831.89569612916,
            654999.6042258071
          ],
          [
            181125.28155300996,
            654999.6042258071
          ],
          [
            181457.27080672584,
            655011.1747038375
          ],
          [
            181843.30477507692,
            655042.0294181701
          ],
          [
            182210.03714734537,
            655092.1683688049
          ],
          [
            182476.4004422387,
            655142.307213188
          ],
          [
            182864.35892130982,
            655235.119241116
          ],
          [
            183431.8288343189,
            655397.1063585476
          ],
          [
            183964.55562877544,
            655535.9525199184
          ],
          [
            184406.4603762777,
            655652.7293786388
          ],
          [
            184962.3492497693,
            655799.2891920299
          ],
          [
            185433.31077302553,
            655895.7100547862
          ],
          [
            185977.61860699957,
            656007.5584340862
          ],
          [
            186479.46276585598,
            656092.4088188121
          ],
          [
            186989.02768594734,
            656119.4067071346
          ],
          [
            187412.61202468933,
            656105.8968190608
          ],
          [
            187846.38257783375,
            656089.9638637633
          ],
          [
            188209.98431988058,
            656054.9112558569
          ],
          [
            188532.12260842934,
            656026.2319363211
          ],
          [
            188793.6608113068,
            655984.8061462957
          ],
          [
            189048.81986390005,
            655844.5960334251
          ],
          [
            189419.82697092326,
            655588.3974485388
          ],
          [
            189611.19636270314,
            655435.4408651785
          ],
          [
            189735.58631385767,
            655285.6708728777
          ],
          [
            189808.94470009737,
            655094.475196803
          ],
          [
            189847.21857845335,
            655053.0494067776
          ],
          [
            190134.27256378822,
            654931.9588402641
          ],
          [
            190330.16761557467,
            654876.3049015014
          ],
          [
            190505.58954098372,
            654853.9987640848
          ],
          [
            190706.52724885018,
            654901.7977362291
          ],
          [
            190875.5702286449,
            655019.7017116832
          ],
          [
            190942.5494646004,
            655131.2325050181
          ],
          [
            190952.11798535686,
            655249.1365867236
          ],
          [
            190913.84410700088,
            655363.8539711181
          ],
          [
            190894.70706548795,
            655475.384764453
          ],
          [
            190897.89664063006,
            655526.3703276571
          ],
          [
            190936.17051898604,
            655570.9826024903
          ],
          [
            190990.39186371284,
            655558.2362382523
          ],
          [
            191114.78181486734,
            655491.3177197507
          ],
          [
            191366.75149698838,
            655347.9210158205
          ],
          [
            191692.07936067923,
            655143.9788692562
          ],
          [
            191999.94458700484,
            654959.3370029823
          ],
          [
            192462.4204977488,
            654678.9166709894
          ],
          [
            193055.66530526162,
            654347.5107757925
          ],
          [
            193947.37608032013,
            653861.6666189877
          ],
          [
            194119.60863525697,
            653762.8821898908
          ],
          [
            194215.29322881196,
            653715.0832177463
          ],
          [
            194406.66262059184,
            653648.1646992448
          ],
          [
            194665.01104365734,
            653571.6864075647
          ],
          [
            194869.1383266659,
            653523.8875416717
          ],
          [
            195019.04446961757,
            653482.4617516464
          ],
          [
            195095.59202165966,
            653472.9019784678
          ],
          [
            195117.91843364484,
            653488.8349337653
          ],
          [
            195124.29758392903,
            653523.8875416717
          ],
          [
            195095.59202165966,
            653555.753452267
          ],
          [
            194929.73861700707,
            653657.7244724233
          ],
          [
            194569.32645010235,
            653861.6666189877
          ],
          [
            194253.56710716794,
            654043.3025218837
          ],
          [
            193992.02910896033,
            654202.632287363
          ],
          [
            193733.68048122496,
            654374.708310829
          ],
          [
            193449.81586636233,
            654565.9040931552
          ],
          [
            193188.27786815472,
            654744.3534049918
          ],
          [
            192862.95000446387,
            654941.9222631855
          ],
          [
            192472.62124371147,
            655182.4708407249
          ],
          [
            192153.67232563498,
            655383.2263962296
          ],
          [
            191871.90209747854,
            655569.6631704015
          ],
          [
            191603.9849489867,
            655719.4331627024
          ],
          [
            191431.75259871976,
            655824.5907739182
          ],
          [
            191304.17307242312,
            655904.255656658
          ],
          [
            191237.19383646763,
            655961.6142957293
          ],
          [
            191221.2463700968,
            655999.8534946953
          ],
          [
            191218.0567949547,
            656044.4657695286
          ],
          [
            191253.14130283843,
            656073.1451953158
          ],
          [
            191323.3099092662,
            656101.8245148517
          ],
          [
            191396.6682955059,
            656120.9440612087
          ],
          [
            191501.92140981735,
            656143.2501986255
          ],
          [
            191568.90064577284,
            656171.9296244127
          ],
          [
            191616.74304488528,
            656219.7284903056
          ],
          [
            191670.9641849422,
            656324.8862077731
          ],
          [
            191702.8591176838,
            656426.8572279294
          ],
          [
            191709.23806329817,
            656516.0818838477
          ],
          [
            191680.53270569866,
            656649.9188145993
          ],
          [
            191632.53086876307,
            656775.9066225694
          ],
          [
            191508.1407129387,
            656941.6095701678
          ],
          [
            191380.56118664207,
            657088.1929714092
          ],
          [
            191268.92912671625,
            657193.350582625
          ],
          [
            191163.6760124048,
            657285.7618296028
          ],
          [
            191087.12825569283,
            657257.0825100671
          ],
          [
            190953.16978378186,
            657260.2691011266
          ],
          [
            190854.29561508476,
            657288.9484206623
          ],
          [
            190780.9374335149,
            657343.1205749258
          ],
          [
            190723.526513646,
            657400.4792139973
          ],
          [
            190694.8211560465,
            657496.0770520347
          ],
          [
            190704.38967680297,
            657575.7419347743
          ],
          [
            190742.64472553154,
            657641.4253849395
          ],
          [
            190790.487124644,
            657708.3439034411
          ],
          [
            190870.2242518282,
            657784.8221951213
          ],
          [
            190946.77200854014,
            657845.3675315038
          ],
          [
            191042.45660209513,
            657909.0993526943
          ],
          [
            191096.67794682193,
            657985.5776443745
          ],
          [
            191141.33077079224,
            658081.1754824119
          ],
          [
            191157.27823716306,
            658157.653774092
          ],
          [
            191134.9518251779,
            658253.2516121293
          ],
          [
            191087.10963073533,
            658352.0360412261
          ],
          [
            191185.98359476257,
            658396.6484223111
          ],
          [
            191297.61585935825,
            658438.0741060849
          ],
          [
            191498.55356722474,
            658473.1267139913
          ],
          [
            191731.3862078328,
            658524.1121709436
          ],
          [
            191990.59854238926,
            658576.5432868589
          ],
          [
            192181.96772949927,
            658621.1556679439
          ],
          [
            192354.20007976625,
            658656.2081695986
          ],
          [
            192564.70651305903,
            658713.5669149216
          ],
          [
            192746.50717941258,
            658761.3657808146
          ],
          [
            192867.70776009487,
            658802.7915708399
          ],
          [
            192966.58192879197,
            658828.2842993161
          ],
          [
            192985.71897030488,
            658860.150316163
          ],
          [
            192953.82403756326,
            658888.8296356986
          ],
          [
            192835.81303202308,
            658885.6430446391
          ],
          [
            192561.51693791692,
            658872.896680401
          ],
          [
            192213.8626622409,
            658828.2842993161
          ],
          [
            191965.082555262,
            658786.8586155423
          ],
          [
            191776.90273862422,
            658761.3657808146
          ],
          [
            191601.48081321517,
            658742.2462344574
          ],
          [
            191432.4380380903,
            658719.9400970407
          ],
          [
            191371.83774774917,
            658726.3132791597
          ],
          [
            191333.5638693932,
            658754.9925986954
          ],
          [
            191317.6164030224,
            658828.2842993161
          ],
          [
            191387.78500945013,
            658962.1213363193
          ],
          [
            191528.12263164532,
            659185.1829229891
          ],
          [
            191677.55598721388,
            659451.4050691896
          ],
          [
            191859.3568582373,
            659766.8779028372
          ],
          [
            192041.1577292607,
            660082.3508427365
          ],
          [
            192462.5613106144,
            660861.5605987253
          ],
          [
            192816.86039805657,
            661490.801565712
          ],
          [
            193008.22978983645,
            661857.2599625636
          ],
          [
            193356.18759091903,
            662508.8973808078
          ],
          [
            193914.864272612,
            663635.7531606016
          ],
          [
            194232.94129707292,
            664251.5341777559
          ],
          [
            194384.59081791603,
            664585.7513834407
          ],
          [
            194513.93869182738,
            664830.8439159417
          ],
          [
            194612.0647921759,
            665093.76142558
          ],
          [
            194719.1114284952,
            665374.5039123558
          ],
          [
            194780.3085361563,
            665528.8609977586
          ],
          [
            194817.73446727064,
            665641.0367381687
          ],
          [
            194832.1288987224,
            665718.6967598933
          ],
          [
            194823.49223985136,
            665790.6043212144
          ],
          [
            194780.3085361563,
            665813.6146940865
          ],
          [
            194734.2459461709,
            665790.6043212144
          ],
          [
            194656.51540232176,
            665715.8205296915
          ],
          [
            194512.56985978485,
            665540.3662373204
          ],
          [
            194319.6828409722,
            665284.3755867712
          ],
          [
            194083.61211846452,
            664921.9618687186
          ],
          [
            193798.4996314483,
            664485.1706651753
          ],
          [
            193567.66907143826,
            664108.301845016
          ],
          [
            193331.2084528419,
            663692.0586340373
          ],
          [
            193116.9747766774,
            663334.637783861
          ],
          [
            192610.27339263668,
            662457.1522250766
          ],
          [
            192040.54801773938,
            661458.9171673423
          ],
          [
            191595.77686880837,
            660693.929716254
          ],
          [
            191365.1374704502,
            660266.0034005727
          ],
          [
            191107.12859468712,
            659794.021568324
          ],
          [
            190950.64518102404,
            659498.5130873258
          ],
          [
            190830.72542434325,
            659309.7202906754
          ],
          [
            190703.53804550378,
            659160.8644869471
          ],
          [
            190550.9130680945,
            659091.8825628113
          ],
          [
            190376.48461019952,
            658997.4862176118
          ],
          [
            190165.71681349192,
            658928.5041872244
          ],
          [
            189885.90445724316,
            658855.8916466868
          ],
          [
            189569.7529668516,
            658786.9096162994
          ],
          [
            189363.81742560506,
            658786.5047977894
          ],
          [
            189149.41571548316,
            658811.919218853
          ],
          [
            188938.64791877556,
            658891.792992194
          ],
          [
            188749.68380722348,
            659000.7119092518
          ],
          [
            188597.0588298142,
            659087.8470216478
          ],
          [
            188273.63930792423,
            659262.1172464398
          ],
          [
            188022.89846365957,
            659392.8199681595
          ],
          [
            187739.45198932666,
            659527.1532000295
          ],
          [
            187495.97897189055,
            659643.3333498908
          ],
          [
            187194.3631351561,
            659752.2522669487
          ],
          [
            186850.75211262,
            659866.1057197668
          ],
          [
            186545.5021578014,
            659935.0877501542
          ],
          [
            186283.85936862405,
            659996.8084414867
          ],
          [
            185989.51135871815,
            660036.7453281571
          ],
          [
            185727.8685695408,
            660051.2679000156
          ],
          [
            185502.56511917608,
            660054.8985164172
          ],
          [
            185219.11884951303,
            660069.4209820242
          ],
          [
            185055.5921318609,
            660098.4660194895
          ],
          [
            184826.6547680819,
            660163.8174334752
          ],
          [
            184617.89478272852,
            660248.2209240663
          ],
          [
            184345.3502533083,
            660378.9235395344
          ],
          [
            184051.0022434024,
            660527.7794495145
          ],
          [
            183811.16313938057,
            660651.2208321792
          ],
          [
            183556.78817703176,
            660800.0766359075
          ],
          [
            183275.2248701066,
            660957.2094375199
          ],
          [
            182810.08231572006,
            661207.7229255027
          ],
          [
            182461.22539993015,
            661396.5156159016
          ],
          [
            181970.64524697379,
            661654.2903366878
          ],
          [
            181697.1842059079,
            661808.1287018894
          ],
          [
            181384.66642426074,
            661978.7683102797
          ],
          [
            181133.92557999608,
            662102.2097991961
          ],
          [
            180937.69343694558,
            662200.2367607972
          ],
          [
            180748.7293253935,
            662283.7412567915
          ],
          [
            180647.96093711603,
            662322.318017019
          ],
          [
            180549.44842006653,
            662364.4993620117
          ],
          [
            180418.0980562174,
            662413.71105513
          ],
          [
            180345.38642674417,
            662430.1149174189
          ],
          [
            180284.40238041026,
            662434.8017807521
          ],
          [
            180256.2559762061,
            662404.3373284636
          ],
          [
            180263.29252608967,
            662355.1257415968
          ],
          [
            180307.8577513587,
            662284.8234291079
          ],
          [
            180411.06150633382,
            662202.8040114117
          ],
          [
            180518.95629456462,
            662090.3202476786
          ],
          [
            180786.34785084875,
            661884.1000672936
          ],
          [
            181077.5629791645,
            661655.469091688
          ],
          [
            181483.34124451148,
            661381.289977355
          ],
          [
            182020.95535062216,
            661002.818033395
          ],
          [
            182558.08397981827,
            660623.1852909513
          ],
          [
            182943.6545755999,
            660366.3979660743
          ],
          [
            183194.62731081917,
            660190.6421317264
          ],
          [
            183356.46959550033,
            660078.1583679932
          ],
          [
            183511.27512562805,
            659953.9576053043
          ],
          [
            183636.08117061364,
            659830.8244584658
          ],
          [
            183746.3216801422,
            659711.3104528586
          ],
          [
            183781.50463422993,
            659619.9174147476
          ],
          [
            183793.2324220391,
            659537.8979970515
          ],
          [
            183765.08581316506,
            659458.2220641477
          ],
          [
            183708.79300475674,
            659387.9196454072
          ],
          [
            183619.66255421864,
            659303.5568491702
          ],
          [
            183462.5113027932,
            659184.0429498146
          ],
          [
            183045.52797646672,
            658912.638064169
          ],
          [
            182674.8798603829,
            658630.8078799949
          ],
          [
            182458.3950203973,
            658473.5072008901
          ],
          [
            182241.65925515984,
            658330.7150684356
          ],
          [
            182031.73469828704,
            658206.185350863
          ],
          [
            181789.0093398598,
            658081.655739542
          ],
          [
            181523.32350221236,
            657970.2343853317
          ],
          [
            180927.98881073034,
            657753.543430743
          ],
          [
            180524.5398930921,
            657655.2304398954
          ],
          [
            179888.20593936084,
            657491.3756322353
          ],
          [
            179501.1574224998,
            657399.6169824463
          ],
          [
            179269.3475171962,
            657326.2447431298
          ],
          [
            178819.9776411176,
            657234.4860933408
          ],
          [
            178216.44428427095,
            657172.2212876803
          ],
          [
            177862.19656896434,
            657162.3899354697
          ],
          [
            177576.83029131824,
            657178.7754162358
          ],
          [
            177281.62369133785,
            657218.1006125748
          ],
          [
            176933.2827482721,
            657290.3515789943
          ],
          [
            176595.43522907284,
            657378.8331113798
          ],
          [
            176262.74150168913,
            657487.3303159267
          ],
          [
            175803.53130327625,
            657634.7996428208
          ],
          [
            175488.64426329717,
            657736.3896448205
          ],
          [
            175114.7161079919,
            657870.7506083521
          ],
          [
            174837.9830098292,
            657969.8749362453
          ],
          [
            174493.575412187,
            658127.1755090983
          ]
        ]
      },
      "properties": {
        "FID": 0,
        "MAPKEY": "225",
        "LAYER": "lim-ldn",
        "LINETYPE": "LDN60",
        "NAME": "מגבלת רעש",
        "TYPECODE": 215060,
        "TYPENAME": "מגבלות רעש 60",
        "TCODE": "3"
      }
    },
    {
      "type": "Feature",
      "id": 1,
      "geometry": {
        "type": "LineString",
        "coordinates": [
          [
            188677.83015381522,
            656400.4302293326
          ],
          [
            188510.7878219295,
            656431.2322428828
          ],
          [
            188254.7192164659,
            656478.6092900132
          ],
          [
            187951.23065048672,
            656538.6202872127
          ],
          [
            187580.2743015895,
            656615.2057867345
          ],
          [
            187166.13854706433,
            656681.533652717
          ],
          [
            186872.13397318826,
            656687.8506277516
          ],
          [
            186555.99987973506,
            656678.3752183255
          ],
          [
            186266.5745893696,
            656640.3780604531
          ],
          [
            185830.30951993717,
            656577.208628862
          ],
          [
            185403.52864727774,
            656498.2468128104
          ],
          [
            185033.651727237,
            656435.0773812195
          ],
          [
            184687.58282431835,
            656355.2080704446
          ],
          [
            184226.02710927764,
            656250.9784605063
          ],
          [
            183852.98885853586,
            656156.2243662456
          ],
          [
            183628.5337647525,
            656099.3718034376
          ],
          [
            183450.02521314233,
            656057.434093312
          ],
          [
            183174.98862347248,
            655978.4722772604
          ],
          [
            182884.14517562758,
            655886.8766173911
          ],
          [
            182571.1724128754,
            655782.6470074528
          ],
          [
            182134.90754811285,
            655700.5267570096
          ],
          [
            181913.6135803607,
            655668.9419880883
          ],
          [
            181641.73832139187,
            655640.5157598101
          ],
          [
            181297.1522516293,
            655627.8819159925
          ],
          [
            180966.28663546027,
            655620.4091362983
          ],
          [
            180613.1500728389,
            655647.9337136903
          ],
          [
            180272.53623577385,
            655675.4583973337
          ],
          [
            179979.50814181325,
            655700.4808563282
          ],
          [
            179824.2283916134,
            655750.5256680653
          ],
          [
            179590.75799971278,
            655826.7328057198
          ],
          [
            179455.51440573318,
            655871.7731681587
          ],
          [
            179322.77515219498,
            655924.3203107966
          ],
          [
            179222.59457576353,
            655961.8538930365
          ],
          [
            179132.43197510726,
            656009.3964801246
          ],
          [
            179052.28755489606,
            656051.9346179144
          ],
          [
            179014.71999223667,
            656096.9749803533
          ],
          [
            178997.18838112766,
            656142.0152365407
          ],
          [
            179009.71090201414,
            656194.5623791785
          ],
          [
            179049.78321445466,
            656264.6250943602
          ],
          [
            179137.4410653298,
            656347.1990390391
          ],
          [
            179254.56155229686,
            656420.8755828734
          ],
          [
            179469.74428261525,
            656565.2241946859
          ],
          [
            179663.408432897,
            656678.8603630282
          ],
          [
            179875.51702187592,
            656786.354021426
          ],
          [
            180050.73714280024,
            656856.9927264092
          ],
          [
            180176.77263965178,
            656890.7764779775
          ],
          [
            180398.10324330942,
            656946.0589612254
          ],
          [
            180720.8770317822,
            657025.9113779993
          ],
          [
            181071.31727363085,
            657118.048814662
          ],
          [
            181278.62921970483,
            657177.6100489342
          ],
          [
            181558.36646211395,
            657251.3200620153
          ],
          [
            181779.69706577156,
            657337.3149887336
          ],
          [
            181970.28748405358,
            657411.0248955631
          ],
          [
            182173.1738536839,
            657521.589862059
          ],
          [
            182413.8596769282,
            657663.3316976703
          ],
          [
            182641.33835859492,
            657813.8228194272
          ],
          [
            182810.41040151016,
            657948.9577194491
          ],
          [
            182982.556381095,
            658077.9501095265
          ],
          [
            183120.88803396476,
            658197.7287878132
          ],
          [
            183317.626325586,
            658345.1486014721
          ],
          [
            183499.89056917882,
            658472.1206178044
          ],
          [
            183934.059819216,
            658774.9780954089
          ],
          [
            184235.31523232203,
            658968.4667867767
          ],
          [
            184456.6460406495,
            659122.02911038
          ],
          [
            184551.9411474556,
            659195.7390172095
          ],
          [
            184601.12577152837,
            659269.4490302906
          ],
          [
            184607.27384953745,
            659364.6576687997
          ],
          [
            184545.7930694465,
            659444.5100855737
          ],
          [
            184404.38727523727,
            659595.0012073307
          ],
          [
            184222.74768406575,
            659759.2926027225
          ],
          [
            183982.97284638084,
            659955.8523896851
          ],
          [
            183650.97704322933,
            660210.7659679936
          ],
          [
            183484.9789369837,
            660361.2570897506
          ],
          [
            183408.12806420494,
            660431.8957947338
          ],
          [
            183389.68383017764,
            660471.8220562465
          ],
          [
            183414.27614221402,
            660499.4631916189
          ],
          [
            183463.4607662868,
            660499.4631916189
          ],
          [
            183580.27404378977,
            660462.6082382041
          ],
          [
            183718.60569665954,
            660410.3970630541
          ],
          [
            183869.23350554748,
            660336.6871562246
          ],
          [
            184155.11903063554,
            660195.4097462584
          ],
          [
            184428.70819503555,
            660047.9898263478
          ],
          [
            184654.5972058778,
            659927.3404163839
          ],
          [
            184882.07588754452,
            659798.3480263065
          ],
          [
            185014.25946240517,
            659752.2792548493
          ],
          [
            185186.40544199,
            659687.7830598106
          ],
          [
            185407.73604564765,
            659629.4293747162
          ],
          [
            185675.1773367084,
            659577.2181995664
          ],
          [
            185964.1367984661,
            659540.3632461516
          ],
          [
            186184.03123369635,
            659495.978349694
          ],
          [
            186528.32339753592,
            659413.0546248221
          ],
          [
            186823.4309373027,
            659342.415919839
          ],
          [
            187118.53847706947,
            659231.8510595948
          ],
          [
            187468.97851424827,
            659099.7873614193
          ],
          [
            187844.01106813332,
            658924.7263061363
          ],
          [
            188427.03711873552,
            658696.919842772
          ],
          [
            188672.96003442953,
            658613.9962241516
          ],
          [
            188857.40217003255,
            658564.856250848
          ],
          [
            189060.28874433276,
            658534.1438073777
          ],
          [
            189312.35973803586,
            658531.0724992797
          ],
          [
            189598.24505845408,
            658586.3549825277
          ],
          [
            189902.57461289957,
            658660.0648893572
          ],
          [
            190297.09808249035,
            658775.0712780423
          ],
          [
            190426.20772068138,
            658830.3536550386
          ],
          [
            190518.42889081783,
            658861.0662047606
          ],
          [
            190638.3163096603,
            658904.0636681197
          ],
          [
            190721.31526044814,
            658940.9186215345
          ],
          [
            190785.86997720876,
            658996.2011047824
          ],
          [
            190901.22191189122,
            659152.6722778219
          ],
          [
            191005.9987594319,
            659328.7279541215
          ],
          [
            191234.6027160044,
            659752.2131663682
          ],
          [
            191535.23409069868,
            660282.3768749104
          ],
          [
            191887.66515630294,
            660881.9177634567
          ],
          [
            192239.42920282428,
            661464.3545918186
          ],
          [
            192448.86910146195,
            661804.9940678513
          ],
          [
            192653.43847137422,
            662128.6016285208
          ],
          [
            192806.865345306,
            662330.5520892655
          ],
          [
            192918.89139471774,
            662469.2411045533
          ],
          [
            192970.03368602836,
            662522.7701180185
          ],
          [
            193006.563981823,
            662522.7701180185
          ],
          [
            193028.48207743184,
            662486.2730199166
          ],
          [
            193016.30544861354,
            662427.8776842039
          ],
          [
            192987.0812529118,
            662328.1190343933
          ],
          [
            192928.6328615083,
            662189.4300191056
          ],
          [
            192870.18447010478,
            662048.3080551971
          ],
          [
            192701.98780019282,
            661679.6576883026
          ],
          [
            192477.6084342587,
            661252.5705475801
          ],
          [
            192270.60390231866,
            660829.2043371001
          ],
          [
            192012.19653433267,
            660326.5841187306
          ],
          [
            191697.6852682217,
            659758.4807344192
          ],
          [
            191495.5512650071,
            659383.7773214085
          ],
          [
            191346.78717988994,
            659114.9085546652
          ],
          [
            191222.58429699004,
            658895.9260723054
          ],
          [
            191120.29971436883,
            658708.5743658
          ],
          [
            191112.99361427594,
            658650.1790300873
          ],
          [
            191132.47654785702,
            658620.9814153569
          ],
          [
            191178.74810577233,
            658606.3825548658
          ],
          [
            191271.29142627286,
            658618.5482542331
          ],
          [
            191427.1536669023,
            658623.4144702291
          ],
          [
            191514.82625400755,
            658635.5801695962
          ],
          [
            191563.5331786205,
            658625.8476313527
          ],
          [
            191561.09781192287,
            658596.6500166223
          ],
          [
            191514.82625400755,
            658582.0511561312
          ],
          [
            191422.28293350703,
            658552.8534351491
          ],
          [
            191327.30445097873,
            658533.388358662
          ],
          [
            191203.10156807883,
            658501.7575828077
          ],
          [
            191081.989814117,
            658469.1707552593
          ],
          [
            191000.95671736146,
            658436.4014937526
          ],
          [
            190950.7933620047,
            658376.645500339
          ],
          [
            190950.7933620047,
            658343.8762388321
          ],
          [
            190970.08697596268,
            658309.1792549556
          ],
          [
            190989.38058992065,
            658260.9889582513
          ],
          [
            190979.7338852766,
            658207.015919444
          ],
          [
            190949.43947086218,
            658144.9611731521
          ],
          [
            190893.63050200956,
            658089.2027890887
          ],
          [
            190782.01235963442,
            658022.2926644618
          ],
          [
            190726.2031861119,
            657985.1203375851
          ],
          [
            190648.07067065217,
            657907.0585786462
          ],
          [
            190595.9821905658,
            657828.9967134555
          ],
          [
            190540.17301704327,
            657710.0454162025
          ],
          [
            190450.7685135589,
            657515.5393659807
          ],
          [
            190406.55491111416,
            657388.9084172122
          ],
          [
            190371.1838654225,
            657285.836736965
          ],
          [
            190359.39365330516,
            657188.6547941593
          ],
          [
            190368.23621005824,
            657123.8668322889
          ],
          [
            190406.91349271382,
            657055.1320493222
          ],
          [
            190486.49814085022,
            656981.5093750379
          ],
          [
            190642.7199864286,
            656910.8316757258
          ],
          [
            190757.67568025668,
            656866.6581136558
          ],
          [
            190854.94564656905,
            656857.8234012418
          ],
          [
            190916.84497652948,
            656866.6581136558
          ],
          [
            191040.6432271106,
            656769.4761708501
          ],
          [
            191149.70381488002,
            656666.4044906029
          ],
          [
            191229.2884630164,
            656542.7184105553
          ],
          [
            191264.6593040382,
            656424.9221742008
          ],
          [
            191266.69208511568,
            656321.130958271
          ],
          [
            191262.1703138365,
            656275.9545938129
          ],
          [
            191235.03989083137,
            656199.1547848594
          ],
          [
            191204.8948854168,
            656170.5430413269
          ],
          [
            191149.12685053673,
            656152.472516794
          ],
          [
            191051.15568527437,
            656120.8490722985
          ],
          [
            190996.89483926405,
            656099.766740551
          ],
          [
            190969.7644162589,
            656072.6609006259
          ],
          [
            190968.2572273891,
            656041.0374561304
          ],
          [
            190978.80795881723,
            656004.896300813
          ],
          [
            191014.10962142542,
            655968.4100403719
          ],
          [
            191119.02748650158,
            655896.1185921015
          ],
          [
            191249.27017705317,
            655823.8270375795
          ],
          [
            191484.4309373508,
            655672.0149962115
          ],
          [
            191726.82739130847,
            655527.431993419
          ],
          [
            191972.84158976132,
            655368.3907009724
          ],
          [
            192204.38440089393,
            655191.2765464582
          ],
          [
            192493.8129659772,
            655006.933247117
          ],
          [
            192656.616585004,
            654898.4960747112
          ],
          [
            192812.18430570085,
            654782.829651227
          ],
          [
            192877.30575331155,
            654728.611065024
          ],
          [
            192891.77714063175,
            654685.2361960618
          ],
          [
            192844.74502950622,
            654681.6216236483
          ],
          [
            192747.06285809012,
            654724.9964926105
          ],
          [
            192605.96652471347,
            654790.058796054
          ],
          [
            192428.69151836648,
            654876.8086402301
          ],
          [
            192193.53096273873,
            654985.2458126359
          ],
          [
            191922.1915294708,
            655144.2871050824
          ],
          [
            191607.4381389121,
            655328.6304044237
          ],
          [
            191294.34277891213,
            655502.0275600037
          ],
          [
            191051.94632495442,
            655646.6105627961
          ],
          [
            190910.84999157776,
            655744.2040179613
          ],
          [
            190813.16782016167,
            655776.735169683
          ],
          [
            190769.7536582011,
            655765.8914524424
          ],
          [
            190755.28206621105,
            655700.8291489991
          ],
          [
            190766.13570903614,
            655628.5377007285
          ],
          [
            190802.31438200647,
            655509.2567048307
          ],
          [
            190780.6070963563,
            655451.4235462144
          ],
          [
            190704.63221059038,
            655375.5174192787
          ],
          [
            190588.86070268916,
            655310.4551158354
          ],
          [
            190455.0000629726,
            655299.6113985948
          ],
          [
            190270.4893629655,
            655342.9862675571
          ],
          [
            190140.24646774406,
            655386.3611365194
          ],
          [
            190042.56429632797,
            655447.8089738009
          ],
          [
            190010.0037771925,
            655516.4858496578
          ],
          [
            189934.0286867567,
            655603.2355875823
          ],
          [
            189821.0728221582,
            655713.6611520086
          ],
          [
            189564.20498088028,
            655916.0773134175
          ],
          [
            189289.2478031172,
            656136.566336894
          ],
          [
            189064.9406856447,
            656277.5347672729
          ],
          [
            188880.4299856376,
            656353.4407879568
          ],
          [
            188677.83015381522,
            656400.4302293326
          ]
        ]
      },
      "properties": {
        "FID": 1,
        "MAPKEY": "336",
        "LAYER": "lim-ldn",
        "LINETYPE": "LDN65",
        "NAME": "מגבלת רעש",
        "TYPECODE": 215065,
        "TYPENAME": "מגבלות רעש 65",
        "TCODE": "3"
      }
    },
    {
      "type": "Feature",
      "id": 2,
      "geometry": {
        "type": "LineString",
        "coordinates": [
          [
            187206.81586361935,
            657101.3550980699
          ],
          [
            186983.67475035528,
            657118.7721754013
          ],
          [
            186610.61091588065,
            657108.3219077522
          ],
          [
            186272.41259253654,
            657076.9711048044
          ],
          [
            185916.78151362715,
            657024.7198728097
          ],
          [
            185543.71747448266,
            656979.4354504974
          ],
          [
            185100.92200373742,
            656930.6676764698
          ],
          [
            184776.6700895154,
            656899.316873522
          ],
          [
            184258.45970974886,
            656801.2610114918
          ],
          [
            183979.53336933622,
            656749.0097794972
          ],
          [
            183711.06668226275,
            656686.3082798532
          ],
          [
            183386.81497271056,
            656602.7063511624
          ],
          [
            183073.02271182768,
            656515.6209645047
          ],
          [
            182755.74410450162,
            656404.1515845815
          ],
          [
            182568.84449785575,
            656355.0215989263
          ],
          [
            182401.48861174023,
            656323.6709022301
          ],
          [
            182237.61927673774,
            656302.7703669316
          ],
          [
            182066.77704417903,
            656292.3200992824
          ],
          [
            181888.96150472434,
            656320.1874442631
          ],
          [
            181766.9311924182,
            656361.9884086086
          ],
          [
            181700.68610726064,
            656400.3060212386
          ],
          [
            181679.76659591246,
            656463.0075208825
          ],
          [
            181697.1995561476,
            656529.1923722418
          ],
          [
            181777.39084575739,
            656598.8607878195
          ],
          [
            181923.82722052472,
            656706.8466035242
          ],
          [
            182133.02192466674,
            656828.7662510966
          ],
          [
            182324.7838732435,
            656936.7520668012
          ],
          [
            182572.3310489688,
            657103.9560304345
          ],
          [
            182931.44867899123,
            657354.76202901
          ],
          [
            183486.80008942305,
            657809.1732503977
          ],
          [
            183842.4311683324,
            658087.8464877025
          ],
          [
            184100.43799739686,
            658268.9841769518
          ],
          [
            184414.23025827974,
            658516.3067175605
          ],
          [
            184778.10032251672,
            658751.8552021163
          ],
          [
            184997.75488466775,
            658877.258201404
          ],
          [
            185144.19125943512,
            658960.8602363465
          ],
          [
            185206.94958880977,
            659013.1114683411
          ],
          [
            185248.78861150614,
            659089.7465873496
          ],
          [
            185252.2751626192,
            659162.8983546427
          ],
          [
            185241.81530461015,
            659253.4671992674
          ],
          [
            185213.92269103587,
            659337.0691279582
          ],
          [
            185199.97648658368,
            659368.4199309059
          ],
          [
            185234.84220238405,
            659389.3203599529
          ],
          [
            185322.0067988898,
            659368.4199309059
          ],
          [
            185527.71495191878,
            659323.1355085936
          ],
          [
            185709.0170424865,
            659281.3345442482
          ],
          [
            185940.85539690105,
            659209.0583962048
          ],
          [
            186143.07699881695,
            659142.8735448456
          ],
          [
            186425.4900950125,
            659059.2715099033
          ],
          [
            186763.68821368675,
            658965.2193135632
          ],
          [
            186958.93671337655,
            658902.5178139193
          ],
          [
            187244.83615601528,
            658777.1148146315
          ],
          [
            187486.56313485175,
            658668.3782252806
          ],
          [
            187636.48606073213,
            658605.6768318883
          ],
          [
            187863.1137251093,
            658522.0747969459
          ],
          [
            188061.84877591213,
            658448.9230296528
          ],
          [
            188197.8252926705,
            658410.6055232743
          ],
          [
            188359.7508779858,
            658389.1518422635
          ],
          [
            188541.05296855353,
            658382.1850325812
          ],
          [
            188865.30488277558,
            658389.1518422635
          ],
          [
            189248.82877992908,
            658410.0522713105
          ],
          [
            189660.245085987,
            658483.2040386036
          ],
          [
            189996.67424303695,
            658571.0729243935
          ],
          [
            190261.6541743275,
            658647.7081496536
          ],
          [
            190481.30873647853,
            658710.4095430459
          ],
          [
            190561.50002608832,
            658741.7603459937
          ],
          [
            190648.66462259408,
            658752.2106136429
          ],
          [
            190739.31556554302,
            658766.1442330074
          ],
          [
            190812.53375292668,
            658825.3622746845
          ],
          [
            190920.61765611073,
            658982.11607692
          ],
          [
            191147.24532048788,
            659372.2586941479
          ],
          [
            191374.54696272325,
            659753.9131916075
          ],
          [
            191541.9028488388,
            660046.5201545284
          ],
          [
            191656.95985424894,
            660220.6909278439
          ],
          [
            191744.1244507547,
            660356.544194781
          ],
          [
            191806.88278012935,
            660429.6959620741
          ],
          [
            191838.26194481668,
            660471.4969264194
          ],
          [
            191876.61441639997,
            660471.4969264194
          ],
          [
            191890.56082552206,
            660440.1461234718
          ],
          [
            191824.3157403645,
            660283.3924274878
          ],
          [
            191726.6914905196,
            660081.3543091916
          ],
          [
            191496.57727502938,
            659611.0931149882
          ],
          [
            191266.4630595392,
            659172.1827237325
          ],
          [
            191081.21247797803,
            658825.5467274229
          ],
          [
            191007.99429059436,
            658682.7266508036
          ],
          [
            190966.1554725679,
            658595.6412641458
          ],
          [
            190962.66871678497,
            658543.3899258997
          ],
          [
            190955.69561455885,
            658505.0724195212
          ],
          [
            190910.37004074946,
            658449.3377295595
          ],
          [
            190872.01777383604,
            658417.9870328634
          ],
          [
            190872.01777383604,
            658365.7358008688
          ],
          [
            190872.01777383604,
            658313.4844626226
          ],
          [
            190851.09826248785,
            658240.332801581
          ],
          [
            190784.85317733028,
            658156.7307666386
          ],
          [
            190659.40487831514,
            658078.9168926298
          ],
          [
            190582.70013981842,
            657960.4808092759
          ],
          [
            190481.58933886045,
            657765.409500662
          ],
          [
            190352.2469910354,
            657474.6924345492
          ],
          [
            190251.13619007744,
            657265.6875065706
          ],
          [
            190205.81061626805,
            657147.2513169652
          ],
          [
            190184.89130958973,
            657074.0995496721
          ],
          [
            190167.45834935462,
            657000.9478886304
          ],
          [
            190177.91800269377,
            656938.2463889866
          ],
          [
            190223.24357650318,
            656885.995156992
          ],
          [
            190286.0021105477,
            656844.194086395
          ],
          [
            190380.1396046097,
            656795.4263123673
          ],
          [
            190485.3560830157,
            656741.8119788854
          ],
          [
            190603.8998442088,
            656686.0773951755
          ],
          [
            190677.11803159246,
            656658.2100501946
          ],
          [
            190757.30932120225,
            656654.7265922277
          ],
          [
            190834.01405969897,
            656605.9588182
          ],
          [
            190924.66520731777,
            656532.8070509068
          ],
          [
            190976.96388335328,
            656466.622093296
          ],
          [
            191029.26255938876,
            656403.9206999037
          ],
          [
            191050.18207073695,
            656323.8021229283
          ],
          [
            191039.72221272794,
            656226.2664686213
          ],
          [
            191025.77600827572,
            656174.0152366266
          ],
          [
            190973.4773322402,
            656146.1478916458
          ],
          [
            190882.82618462143,
            656125.2473563474
          ],
          [
            190799.1483438986,
            656104.3468210489
          ],
          [
            190774.74228143736,
            656062.5458567034
          ],
          [
            190802.63489501164,
            656027.7117020404
          ],
          [
            190861.90667327325,
            655978.9439280126
          ],
          [
            191005.00344988905,
            655893.9196094545
          ],
          [
            191151.4398246564,
            655796.3839551475
          ],
          [
            191263.0102789535,
            655716.265378172
          ],
          [
            191381.55404014658,
            655632.6634494812
          ],
          [
            191461.74532975638,
            655576.9287595196
          ],
          [
            191493.1244944437,
            655549.0614145389
          ],
          [
            191493.1244944437,
            655524.677527525
          ],
          [
            191461.74532975638,
            655514.2272598757
          ],
          [
            191405.96010260782,
            655542.0946048566
          ],
          [
            191315.308954989,
            655594.3458368512
          ],
          [
            191175.84588711764,
            655667.4976041443
          ],
          [
            191039.86916568942,
            655740.6492651859
          ],
          [
            190876.00003535682,
            655834.7015677775
          ],
          [
            190771.40268328582,
            655904.3698771037
          ],
          [
            190705.15759812822,
            655914.820144753
          ],
          [
            190663.31878010175,
            655893.9196094545
          ],
          [
            190659.83202431884,
            655841.6683774597
          ],
          [
            190680.75153566702,
            655775.483419849
          ],
          [
            190698.18449590213,
            655702.3317588074
          ],
          [
            190701.67104701517,
            655657.047336495
          ],
          [
            190666.8053312148,
            655629.1799915143
          ],
          [
            190624.96630851846,
            655590.8623788842
          ],
          [
            190569.1810813699,
            655566.4784918705
          ],
          [
            190506.42254732538,
            655559.5116821881
          ],
          [
            190412.2850532634,
            655562.9950339035
          ],
          [
            190290.25474095726,
            655594.3458368512
          ],
          [
            190196.1170422254,
            655646.5970688459
          ],
          [
            189972.97592896133,
            655862.5688065067
          ],
          [
            189650.17839878445,
            656110.9647005508
          ],
          [
            189440.98348997257,
            656278.1686641839
          ],
          [
            189270.141052744,
            656389.6379378556
          ],
          [
            189134.16453598565,
            656497.6238598118
          ],
          [
            188980.7550589922,
            656556.8419014887
          ],
          [
            188705.31526969263,
            656640.4439364311
          ],
          [
            188056.02121090822,
            656857.0148267373
          ],
          [
            187710.84999000788,
            656961.5172907265
          ],
          [
            187411.00413824705,
            657034.6690580198
          ],
          [
            187206.81586361935,
            657101.3550980699
          ]
        ]
      },
      "properties": {
        "FID": 2,
        "MAPKEY": "420",
        "LAYER": "lim-ldn",
        "LINETYPE": "LDN70",
        "NAME": "מגבלת רעש",
        "TYPECODE": 215070,
        "TYPENAME": "מגבלות רעש 70",
        "TCODE": "3"
      }
    },
    {
      "type": "Feature",
      "id": 3,
      "geometry": {
        "type": "LineString",
        "coordinates": [
          [
            187271.9491820821,
            657406.5744419897
          ],
          [
            187095.84243131208,
            657429.7234731703
          ],
          [
            186769.02375234046,
            657421.560483229
          ],
          [
            186413.6086001364,
            657425.6419250739
          ],
          [
            186094.96034208834,
            657405.2342908432
          ],
          [
            185858.0169072856,
            657392.9897528054
          ],
          [
            185600.64721550408,
            657380.7452147678
          ],
          [
            185380.0446225485,
            657392.9897528054
          ],
          [
            185222.6047866165,
            657413.8371623153
          ],
          [
            185108.21827967692,
            657430.1632484494
          ],
          [
            185051.02512854204,
            657466.8969688143
          ],
          [
            185046.9397134104,
            657503.6306891792
          ],
          [
            185079.62160177456,
            657552.6090538334
          ],
          [
            185165.41163548164,
            657617.9133983703
          ],
          [
            185357.41755053485,
            657715.8701276787
          ],
          [
            185528.9972086093,
            657773.0114822743
          ],
          [
            185716.91791320074,
            657834.2343849663
          ],
          [
            185900.7534073304,
            657883.2126433689
          ],
          [
            186060.07763868934,
            657919.9463637338
          ],
          [
            186219.40166537842,
            657985.2508145223
          ],
          [
            186354.21442929682,
            658046.4737172142
          ],
          [
            186418.15104307167,
            658096.4172711981
          ],
          [
            186444.51927550772,
            658149.1061534403
          ],
          [
            186449.79300386287,
            658207.063945157
          ],
          [
            186426.06153326947,
            658270.2905400967
          ],
          [
            186370.68789721504,
            658330.8828396765
          ],
          [
            186212.4776839194,
            658457.3361358074
          ],
          [
            186046.35698042598,
            658575.8861208523
          ],
          [
            185964.6151119355,
            658633.8439125691
          ],
          [
            185925.06245627665,
            658665.4572631647
          ],
          [
            185917.15196607885,
            658707.6084327094
          ],
          [
            185935.60991298695,
            658744.490586528
          ],
          [
            185990.98334437152,
            658791.9106655472
          ],
          [
            186070.08845101934,
            658820.8895082797
          ],
          [
            186157.10404786497,
            658831.4273272288
          ],
          [
            186252.03033957825,
            658810.3517955823
          ],
          [
            186373.32486372755,
            658778.7384449866
          ],
          [
            186560.54027597175,
            658733.9528738305
          ],
          [
            186750.39245005857,
            658678.6294837253
          ],
          [
            186966.6130612513,
            658581.1550303269
          ],
          [
            187177.56014875873,
            658481.046175317
          ],
          [
            187318.40944561095,
            658425.4937068108
          ],
          [
            187481.89338726175,
            658359.6326040081
          ],
          [
            187711.29821700742,
            658288.5025917308
          ],
          [
            187911.69784780455,
            658230.544800014
          ],
          [
            188051.4501141921,
            658198.9314494184
          ],
          [
            188217.5710223554,
            658180.4903193833
          ],
          [
            188402.14946808707,
            658201.5658510299
          ],
          [
            188693.47184341095,
            658243.5327803392
          ],
          [
            188930.78716335443,
            658288.3183514954
          ],
          [
            189136.4605225067,
            658325.2006115656
          ],
          [
            189276.2129935641,
            658341.0072337376
          ],
          [
            189489.79663824433,
            658375.2549859447
          ],
          [
            189711.2909777922,
            658420.0405571009
          ],
          [
            189955.42978629208,
            658470.0551933901
          ],
          [
            190145.2819603789,
            658525.3785834954
          ],
          [
            190337.77110097822,
            658580.701867349
          ],
          [
            190517.07602302462,
            658630.7563479798
          ],
          [
            190622.54956677833,
            658654.4663874893
          ],
          [
            190706.9284017813,
            658649.1974780149
          ],
          [
            190762.30183316587,
            658649.1974780149
          ],
          [
            190820.31223106297,
            658683.445230222
          ],
          [
            190920.51204646152,
            658828.3396563879
          ],
          [
            191049.71706080862,
            659057.5364216433
          ],
          [
            191084.51339352553,
            659112.0129866763
          ],
          [
            191126.702811027,
            659180.5085973421
          ],
          [
            191158.3447718182,
            659198.9496211256
          ],
          [
            191179.43948056892,
            659198.9496211256
          ],
          [
            191189.98673260937,
            659177.874089479
          ],
          [
            191184.71320892408,
            659140.9919356605
          ],
          [
            191153.07104346305,
            659098.8407661157
          ],
          [
            191116.1553543167,
            659035.6140649244
          ],
          [
            191073.96593681522,
            658948.6774304751
          ],
          [
            190986.9503399696,
            658774.804055325
          ],
          [
            190899.88050561034,
            658607.7535189696
          ],
          [
            190855.05412159633,
            658510.2790655713
          ],
          [
            190828.68588916032,
            658465.4934944152
          ],
          [
            190789.13323350146,
            658407.5357026984
          ],
          [
            190781.22274330366,
            658368.0190410167
          ],
          [
            190786.49647165881,
            658331.1367809466
          ],
          [
            190775.9490149485,
            658288.9857176535
          ],
          [
            190720.57558356394,
            658233.6623275483
          ],
          [
            190641.47047691612,
            658146.725693099
          ],
          [
            190591.19700917316,
            658066.3477560229
          ],
          [
            190485.72367008933,
            657879.3021603122
          ],
          [
            190382.88688817824,
            657658.0088123943
          ],
          [
            190272.13982073925,
            657434.081062865
          ],
          [
            190171.36815774397,
            657219.5506278523
          ],
          [
            190092.26305109615,
            657069.3872922118
          ],
          [
            190052.71060010718,
            656974.5472404249
          ],
          [
            190028.97892484392,
            656895.5139170616
          ],
          [
            190028.97892484392,
            656837.5561253449
          ],
          [
            190055.34736194983,
            656792.7705541888
          ],
          [
            190137.50839431933,
            656733.7270838536
          ],
          [
            190300.9923359701,
            656657.3282683534
          ],
          [
            190498.75500025475,
            656565.1226181779
          ],
          [
            190643.78099499745,
            656515.0682437988
          ],
          [
            190759.8017907916,
            656459.7448536935
          ],
          [
            190830.99640724162,
            656391.2493492793
          ],
          [
            190881.0963149409,
            656296.4092974924
          ],
          [
            190883.7332814534,
            656206.83815518
          ],
          [
            190822.82987504546,
            656160.9470363604
          ],
          [
            190756.90898695058,
            656142.5060125769
          ],
          [
            190685.71437050056,
            656118.7959730673
          ],
          [
            190648.79847668434,
            656095.0859335577
          ],
          [
            190651.43544319685,
            656039.762649704
          ],
          [
            190601.33553549758,
            656002.8803896338
          ],
          [
            190588.15131694463,
            655968.6326374267
          ],
          [
            190603.97229734022,
            655876.427093503
          ],
          [
            190611.88278753802,
            655805.2970812257
          ],
          [
            190598.69856898507,
            655757.8770022064
          ],
          [
            190527.5041572049,
            655731.5325610853
          ],
          [
            190379.8411959497,
            655742.0703800344
          ],
          [
            190218.9942208114,
            655829.0070144837
          ],
          [
            189960.58398744735,
            656058.2037797391
          ],
          [
            189612.52160006485,
            656313.744879864
          ],
          [
            189340.9273528177,
            656524.5004088328
          ],
          [
            189181.66145236965,
            656609.7488119679
          ],
          [
            189049.8196761799,
            656680.8788242452
          ],
          [
            188796.683171171,
            656775.718876032
          ],
          [
            188503.99441984296,
            656907.4410816375
          ],
          [
            188115.5177166792,
            657090.1092186086
          ],
          [
            187894.02337713132,
            657206.0246957905
          ],
          [
            187709.44472672977,
            657279.7892159307
          ],
          [
            187486.16464262884,
            657359.3799350695
          ],
          [
            187380.70460708608,
            657385.7210823916
          ],
          [
            187271.9491820821,
            657406.5744419897
          ]
        ]
      },
      "properties": {
        "FID": 3,
        "MAPKEY": "4CB",
        "LAYER": "lim-ldn",
        "LINETYPE": "LDN75",
        "NAME": "מגבלת רעש",
        "TYPECODE": 215075,
        "TYPENAME": "מגבלות רעש 75",
        "TCODE": "3"
      }
    }
  ]
}