{
  "type": "FeatureCollection",
  "name": "tmm321_height_limit",
  "description": "תמ\"מ 3/21 – מגבלת גובה",
  "crs": {
    "type": "name",
    "properties": {
      "name": "urn:ogc:def:crs:EPSG::2039"
    }
  },
  "features": [
    {
      "type": "Feature",
      "properties": {
        "FID": 0,
        "MAPKEY": "75",
        "LAYER": "lim-gova",
        "NAME": "מגבלת גובה",
        "TYPECODE": 215002,
        "TYPENAME": "מגבלת גובה",
        "TCODE": "3"
      },
      "geometry": {
        "type": "LineString",
        "coordinates": [
          [
            180252.22418457852,
            657698.2893166663
          ],
          [
            180260.56591417725,
            657916.8661305034
          ],
          [
            180269.74453884506,
            658100.2719721766
          ],
          [
            180292.69110051455,
            658393.7212976037
          ],
          [
            180333.99491151964,
            658627.5637005803
          ],
          [
            180384.4773471925,
            658888.9169744953
          ],
          [
            180453.60070463084,
            659156.7536134152
          ],
          [
            180568.33330830844,
            659555.6612420223
          ],
          [
            180650.9409303186,
            659798.6738998946
          ],
          [
            180730.86655844646,
            659990.8810909865
          ],
          [
            180838.8168122101,
            660241.7549843201
          ],
          [
            180986.66172497335,
            660518.4197480562
          ],
          [
            173408.02181005647,
            663769.6330169905
          ],
          [
            175957.57239146638,
            667920.793321932
          ],
          [
            182509.96282035267,
            662350.3116951253
          ],
          [
            182664.8706854118,
            662488.6191609985
          ],
          [
            182985.78115945353,
            662699.0255472837
          ],
          [
            183300.00588775653,
            662889.3933110668
          ],
          [
            183537.3459727534,
            663002.9459656691
          ],
          [
            183851.5707010564,
            663159.9157773616
          ],
          [
            184203.97720627714,
            663298.8608589511
          ],
          [
            184494.80223383437,
            663399.0543964682
          ],
          [
            184849.14082256006,
            663509.2672452363
          ],
          [
            185206.82228415512,
            663586.0822481655
          ],
          [
            185649.54714379768,
            663700.0200647361
          ],
          [
            186100.8274083758,
            663820.2522247554
          ],
          [
            186481.9085707166,
            663893.7275281019
          ],
          [
            186913.13200741832,
            663943.8242968604
          ],
          [
            187325.56797873278,
            664004.401296213
          ],
          [
            187803.590816926,
            664074.5367937253
          ],
          [
            188244.8426675659,
            664137.9926795692
          ],
          [
            188684.03410669684,
            664198.4117890777
          ],
          [
            189091.85784265277,
            664265.2074807558
          ],
          [
            189553.16672583896,
            664318.6440553485
          ],
          [
            189904.16244169528,
            664368.740824107
          ],
          [
            190235.1013296752,
            664405.4783695287
          ],
          [
            190538.15579087537,
            664428.9137487105
          ],
          [
            190945.9795268313,
            664418.894331208
          ],
          [
            191330.40356204147,
            664378.816979952
          ],
          [
            191721.5131383205,
            664318.7008999424
          ],
          [
            192049.10915343105,
            664258.5847136813
          ],
          [
            192366.67675460342,
            664168.4105936668
          ],
          [
            192658.39250540364,
            664067.5169645059
          ],
          [
            195896.34218826683,
            672675.2366959779
          ],
          [
            198666.02615466499,
            671152.6528346298
          ],
          [
            200157.25763388159,
            670332.8751952546
          ],
          [
            199125.49319190974,
            668994.0847627603
          ],
          [
            194545.22473172712,
            663050.8487456047
          ],
          [
            194646.10159503188,
            662957.8160331504
          ],
          [
            194840.09587780235,
            662787.2561134433
          ],
          [
            195015.98383648903,
            662627.0330909522
          ],
          [
            195163.41940952666,
            662461.6415667273
          ],
          [
            195357.4134876273,
            662244.5652376672
          ],
          [
            195497.7365782622,
            662056.6241536617
          ],
          [
            195645.17215129983,
            661865.3902270191
          ],
          [
            195779.67463570618,
            661668.9879048943
          ],
          [
            195919.3505602349,
            661444.1588232334
          ],
          [
            196036.68083381132,
            661256.3300471453
          ],
          [
            196171.18352288753,
            660982.4004115161
          ],
          [
            196282.40685709732,
            660734.3131783045
          ],
          [
            196367.7642187144,
            660509.4840966436
          ],
          [
            205015.86700048705,
            663382.9687576537
          ],
          [
            205861.6054449697,
            658630.759323024
          ],
          [
            196757.63574699327,
            658397.9804983377
          ],
          [
            196753.43776343705,
            658142.1427438085
          ],
          [
            196732.44845966567,
            657835.9761670756
          ],
          [
            196694.26832010687,
            657523.126259869
          ],
          [
            196622.9044416803,
            657107.9141141978
          ],
          [
            196534.7492430385,
            656755.6128900298
          ],
          [
            196463.38536461195,
            656420.0879399297
          ],
          [
            196366.45126154445,
            656014.7228717025
          ],
          [
            196278.29606290266,
            655607.8988630653
          ],
          [
            196177.54711826218,
            655167.5223062923
          ],
          [
            196114.57900227813,
            654878.1320036274
          ],
          [
            196039.01734496522,
            654601.3239065133
          ],
          [
            195959.25790876598,
            654349.680220501
          ],
          [
            195875.229673238,
            654081.8636631293
          ],
          [
            204322.82905659307,
            650477.277941623
          ],
          [
            201791.81562932816,
            646337.0231923402
          ],
          [
            194753.0479431184,
            652250.0470484286
          ],
          [
            194577.76908194346,
            652065.4612829876
          ],
          [
            194359.85482763592,
            651847.7447881734
          ],
          [
            194141.9405733284,
            651663.1590227323
          ],
          [
            193947.71276224448,
            651516.4369631824
          ],
          [
            193762.9593237801,
            651374.4478801504
          ],
          [
            193492.93509905058,
            651204.061044263
          ],
          [
            193232.38545161052,
            651038.4071848933
          ],
          [
            193033.42035188185,
            650934.2819140039
          ],
          [
            192765.19087717935,
            650810.133214588
          ],
          [
            192367.26047305219,
            650639.7463787005
          ],
          [
            191940.90654172658,
            650488.2913426328
          ],
          [
            191557.18779886366,
            650369.96714219
          ],
          [
            191216.1046538032,
            650256.375918265
          ],
          [
            190856.0725588337,
            650142.78469434
          ],
          [
            190455.8085089307,
            650037.8720992617
          ],
          [
            190029.4545776051,
            650000.0083933705
          ],
          [
            189626.7868848332,
            649966.8775577457
          ],
          [
            189186.22108757345,
            649966.8775577457
          ],
          [
            188802.5025493804,
            650000.0083933705
          ],
          [
            188461.41940431992,
            650033.1391227439
          ],
          [
            188162.971652392,
            650085.2017581885
          ],
          [
            187821.88850733152,
            650175.128205776
          ],
          [
            187452.4225643753,
            650290.4415552684
          ],
          [
            184189.71089815948,
            641689.7434592926
          ],
          [
            179952.70212054066,
            644037.5821225822
          ],
          [
            185508.73857624814,
            651236.2702537049
          ],
          [
            185360.53958462225,
            651319.3308306085
          ],
          [
            185121.975164506,
            651452.9501581296
          ],
          [
            184843.64993948047,
            651608.237476093
          ],
          [
            184612.31486825857,
            651727.4114766524
          ],
          [
            184366.52130391786,
            651853.8080344409
          ],
          [
            184036.19765354556,
            652035.0163809892
          ],
          [
            183779.5602705332,
            652175.8583719911
          ],
          [
            183573.52751110183,
            652284.1983242034
          ],
          [
            183356.6507283289,
            652410.5949882435
          ],
          [
            183020.0060539134,
            652607.3817285756
          ],
          [
            182785.05610357452,
            652755.4463830582
          ],
          [
            182597.09630703926,
            652896.28837406
          ],
          [
            182372.99038004188,
            653062.4096341189
          ],
          [
            182206.71822084996,
            653224.9196155631
          ],
          [
            182058.51922922404,
            653365.761606565
          ],
          [
            181873.43279289285,
            653562.2138669312
          ],
          [
            181721.6189221499,
            653724.7238483754
          ],
          [
            181602.33671209178,
            653880.0111663388
          ],
          [
            181417.99159000372,
            654107.5251191105
          ],
          [
            181276.38337730017,
            654315.6033208305
          ],
          [
            181124.5697112271,
            654553.9512156976
          ],
          [
            180976.3705149313,
            654813.9672072587
          ],
          [
            180831.78619775255,
            655095.6510830107
          ],
          [
            180723.3478063661,
            655333.9990841295
          ],
          [
            180624.56389707848,
            655596.1215132136
          ],
          [
            171886.00624608548,
            652691.0233953564
          ],
          [
            171048.96156336565,
            657479.059799389
          ],
          [
            180252.22418457852,
            657698.2893166663
          ]
        ]
      }
    }
  ]
}