{
  "type": "FeatureCollection",
  "name": "tmm321_תממ_3__21___מרכז_תחבורה",
  "features": [
    {
      "type": "Feature",
      "id": 10,
      "geometry": {
        "type": "Polygon",
        "coordinates": [
          [
            [
              187835.35131381074,
              656241.353641154
            ],
            [
              187835.93162235175,
              656228.062390385
            ],
            [
              187837.66813147638,
              656214.8722940598
            ],
            [
              187840.54762530167,
              656201.8837367758
            ],
            [
              187844.54818914089,
              656189.1955692968
            ],
            [
              187849.63937628764,
              656176.9043562385
            ],
            [
              187855.78243973362,
              656165.103641154
            ],
            [
              187862.93062705666,
              656153.8832346104
            ],
            [
              187871.0295362351,
              656143.3285306768
            ],
            [
              187880.01752967978,
              656133.519857023
            ],
            [
              187889.82620333353,
              656124.5318635784
            ],
            [
              187900.38090726722,
              656116.4329544
            ],
            [
              187911.60131381074,
              656109.2847670768
            ],
            [
              187923.40202889527,
              656103.1417036309
            ],
            [
              187935.69324195356,
              656098.0505164842
            ],
            [
              187948.3814094326,
              656094.049952645
            ],
            [
              187961.36996671653,
              656091.1704588196
            ],
            [
              187974.56006304172,
              656089.433949695
            ],
            [
              187987.85131381074,
              656088.853641154
            ],
            [
              188001.14256457976,
              656089.433949695
            ],
            [
              188014.33266090494,
              656091.1704588196
            ],
            [
              188027.32121818888,
              656094.049952645
            ],
            [
              188040.00938566792,
              656098.0505164842
            ],
            [
              188052.3005987262,
              656103.1417036309
            ],
            [
              188064.10131381074,
              656109.2847670768
            ],
            [
              188075.32172035426,
              656116.4329544
            ],
            [
              188085.87642428794,
              656124.5318635784
            ],
            [
              188095.6850979417,
              656133.519857023
            ],
            [
              188104.6730913864,
              656143.3285306768
            ],
            [
              188112.77200056482,
              656153.8832346104
            ],
            [
              188119.92018788785,
              656165.103641154
            ],
            [
              188126.06325133384,
              656176.9043562385
            ],
            [
              188131.1544384806,
              656189.1955692968
            ],
            [
              188135.1550023198,
              656201.8837367758
            ],
            [
              188138.0344961451,
              656214.8722940598
            ],
            [
              188139.77100526972,
              656228.062390385
            ],
            [
              188140.35131381074,
              656241.353641154
            ],
            [
              188140.35131381074,
              656241.353641154
            ],
            [
              188139.77100526972,
              656254.6448919231
            ],
            [
              188138.0344961451,
              656267.8349882482
            ],
            [
              188135.1550023198,
              656280.8235455322
            ],
            [
              188131.1544384806,
              656293.5117130112
            ],
            [
              188126.06325133384,
              656305.8029260695
            ],
            [
              188119.92018788785,
              656317.603641154
            ],
            [
              188112.77200056482,
              656328.8240476976
            ],
            [
              188104.6730913864,
              656339.3787516312
            ],
            [
              188095.6850979417,
              656349.187425285
            ],
            [
              188085.87642428794,
              656358.1754187297
            ],
            [
              188075.32172035426,
              656366.2743279081
            ],
            [
              188064.10131381074,
              656373.4225152312
            ],
            [
              188052.3005987262,
              656379.5655786771
            ],
            [
              188040.00938566792,
              656384.6567658238
            ],
            [
              188027.32121818888,
              656388.657329663
            ],
            [
              188014.33266090494,
              656391.5368234884
            ],
            [
              188001.14256457976,
              656393.273332613
            ],
            [
              187987.85131381074,
              656393.853641154
            ],
            [
              187974.56006304172,
              656393.273332613
            ],
            [
              187961.36996671653,
              656391.5368234884
            ],
            [
              187948.3814094326,
              656388.657329663
            ],
            [
              187935.69324195356,
              656384.6567658238
            ],
            [
              187923.40202889527,
              656379.5655786771
            ],
            [
              187911.60131381074,
              656373.4225152312
            ],
            [
              187900.38090726722,
              656366.2743279081
            ],
            [
              187889.82620333353,
              656358.1754187297
            ],
            [
              187880.01752967978,
              656349.187425285
            ],
            [
              187871.0295362351,
              656339.3787516312
            ],
            [
              187862.93062705666,
              656328.8240476976
            ],
            [
              187855.78243973362,
              656317.603641154
            ],
            [
              187849.63937628764,
              656305.8029260695
            ],
            [
              187844.54818914089,
              656293.5117130112
            ],
            [
              187840.54762530167,
              656280.8235455322
            ],
            [
              187837.66813147638,
              656267.8349882482
            ],
            [
              187835.93162235175,
              656254.6448919231
            ],
            [
              187835.35131381074,
              656241.353641154
            ]
          ]
        ]
      },
      "properties": {
        "FID": 10,
        "MAPKEY": "B630",
        "LAYER": "MASOF-T",
        "NAME": "מרכז תחבורה",
        "X_COORD": 187987.85131,
        "Y_COORD": 656241.35364,
        "TYPECODE": 302010,
        "TYPENAME": "מרכז תחבורה",
        "TCODE": "3"
      }
    }
  ]
}