{
  "type": "FeatureCollection",
  "name": "tmm321_gas",
  "description": "תמ\"מ 3/21 – קו גז",
  "crs": {
    "type": "name",
    "properties": {
      "name": "urn:ogc:def:crs:EPSG::2039"
    }
  },
  "features": [
    {
      "type": "Feature",
      "properties": {
        "FID": 0,
        "MAPKEY": "2C3",
        "LAYER": "gas37",
        "NAME": "קו גז טבעי",
        "TYPECODE": 208001,
        "TYPENAME": "קו גז טבעי",
        "TCODE": "3"
      },
      "geometry": {
        "type": "LineString",
        "coordinates": [
          [
            191290.6658781265,
            654288.4124860987
          ],
          [
            190984.34001084318,
            654441.1408720567
          ],
          [
            190799.6764213026,
            654522.783280643
          ],
          [
            190568.80245202093,
            654726.8328533228
          ]
        ]
      }
    },
    {
      "type": "Feature",
      "properties": {
        "FID": 12,
        "MAPKEY": "DA0",
        "LAYER": "gas37",
        "NAME": "קו גז טבעי",
        "TYPECODE": 208001,
        "TYPENAME": "קו גז טבעי",
        "TCODE": "3"
      },
      "geometry": {
        "type": "LineString",
        "coordinates": [
          [
            167727.53495934932,
            639328.0313749313
          ],
          [
            168012.7354189225,
            639985.5892071628
          ],
          [
            168689.1721394218,
            639726.2193026828
          ],
          [
            168451.24321168428,
            639129.107175892
          ],
          [
            169120.3676337871,
            638814.9405082257
          ],
          [
            169321.4702549976,
            638789.3687962722
          ],
          [
            170274.18329169264,
            638811.1427648977
          ],
          [
            172070.9980287226,
            638880.8760620168
          ],
          [
            172911.97374284884,
            638921.0602995867
          ],
          [
            173263.2230075203,
            638983.0938952279
          ],
          [
            173753.69584958302,
            638795.9850516352
          ],
          [
            173519.68521608703,
            638496.4309095852
          ],
          [
            173039.8118965174,
            637771.0114895247
          ],
          [
            172575.44731262396,
            637014.8201487589
          ],
          [
            172553.50881573372,
            636894.2679903833
          ],
          [
            172759.24408977607,
            636817.0046180389
          ],
          [
            173405.60834243952,
            636891.517384283
          ],
          [
            173813.31542736746,
            636946.16031974
          ],
          [
            174133.27226203645,
            636869.6380921672
          ],
          [
            174670.25209071708,
            636576.5541384291
          ],
          [
            175430.97298078088,
            635975.4840657382
          ],
          [
            175948.06448969175,
            635687.3677775721
          ],
          [
            176487.59048886388,
            635517.0353029883
          ],
          [
            177283.11633895012,
            635139.5038061964
          ],
          [
            178068.69722830085,
            634776.8744746193
          ],
          [
            178622.97916373773,
            634511.8775240843
          ],
          [
            179373.75616086693,
            634258.5340634214
          ],
          [
            180129.50537141354,
            634193.9560739873
          ],
          [
            180760.95351772476,
            634253.5663978494
          ],
          [
            181425.01923456276,
            634428.5095468065
          ],
          [
            182543.72721098072,
            634711.6584465675
          ],
          [
            183508.30137655837,
            634875.5866986045
          ],
          [
            184086.81330893794,
            635101.303807751
          ],
          [
            184345.35933034343,
            635508.640466474
          ],
          [
            184648.6531369054,
            635866.302132479
          ],
          [
            185306.04990519863,
            636633.8262808055
          ],
          [
            185982.24637056654,
            637249.7990730456
          ],
          [
            186366.17140089662,
            637794.1136427969
          ],
          [
            187063.38271565002,
            638849.416212619
          ],
          [
            187500.92201328243,
            639589.5770409881
          ],
          [
            188052.81741441507,
            640230.387329587
          ],
          [
            188093.02811489173,
            640372.5202711334
          ],
          [
            188177.5525395876,
            640874.2400812216
          ],
          [
            188227.2725381616,
            641634.2710175444
          ],
          [
            188311.88025130308,
            642262.9674417519
          ],
          [
            188470.98574166046,
            642948.4856118308
          ],
          [
            188640.72278852842,
            643432.8799849248
          ],
          [
            188914.18438238592,
            644048.8527771649
          ],
          [
            189193.6427443209,
            644890.9368101389
          ],
          [
            189477.04876501346,
            645323.1112423879
          ],
          [
            190060.88742060424,
            645793.6184361135
          ],
          [
            190314.04478636466,
            645943.1298424924
          ],
          [
            190138.84273610986,
            646575.5987878235
          ],
          [
            190794.28863273677,
            646864.5939727996
          ],
          [
            191366.64949985454,
            647175.1103500244
          ],
          [
            191527.48002205475,
            647326.7390357263
          ],
          [
            191623.15121704282,
            647642.177623122
          ],
          [
            191764.70259970613,
            648063.3729130044
          ],
          [
            191887.87926992704,
            648643.1997920277
          ],
          [
            191995.5813740905,
            649150.478742236
          ],
          [
            192214.0635175996,
            649694.6508481083
          ],
          [
            192112.58775863913,
            650035.155594704
          ],
          [
            191915.6463563029,
            650736.1227806464
          ],
          [
            191789.4809122485,
            651000.8076410495
          ],
          [
            191724.85922263016,
            651212.9424546154
          ],
          [
            191616.9697194643,
            651351.8899149131
          ],
          [
            191395.29325050942,
            651846.6791621697
          ],
          [
            191238.35539533675,
            652320.139571131
          ],
          [
            191090.64974400983,
            652707.5163197661
          ],
          [
            191084.4805261381,
            653078.0155334082
          ],
          [
            191398.31085495872,
            654028.5339800271
          ],
          [
            191290.6658781265,
            654288.4124860987
          ],
          [
            191342.9784965174,
            654605.0775378228
          ],
          [
            191573.87488961127,
            655427.5337068706
          ],
          [
            191724.59761148726,
            655781.5162570578
          ],
          [
            191373.82298417506,
            656038.2622207929
          ],
          [
            191765.22955929418,
            656949.853382549
          ],
          [
            192101.06458864117,
            657729.2849057927
          ],
          [
            192230.3074339775,
            658116.6616544279
          ],
          [
            192461.09864871402,
            658393.3592132383
          ],
          [
            192587.93146813312,
            658475.2291024497
          ],
          [
            192920.26998446917,
            658659.6943264349
          ],
          [
            193086.43950958736,
            658807.266394756
          ],
          [
            193154.13806658727,
            659004.0292449067
          ],
          [
            193298.98414795136,
            659552.7981667983
          ],
          [
            193400.63182280574,
            659941.1921186164
          ],
          [
            193508.33446086955,
            660097.9874758536
          ],
          [
            193729.8934717602,
            660331.6432045011
          ],
          [
            193908.3715342055,
            660565.2989331486
          ],
          [
            193964.11499587144,
            660766.827116903
          ],
          [
            194033.21858622413,
            661120.0363804691
          ],
          [
            194010.30911691836,
            661786.2958636406
          ],
          [
            193899.49117065198,
            662719.8148217516
          ],
          [
            193813.32927376113,
            663473.04740394
          ],
          [
            193714.67411004228,
            664107.987293788
          ],
          [
            193603.92770641495,
            664730.7922545461
          ],
          [
            193628.5453149695,
            664989.0432355248
          ],
          [
            193660.47116354195,
            665326.1641036063
          ],
          [
            193692.90539344482,
            665575.2460660529
          ],
          [
            193797.59363046102,
            666659.4114297347
          ],
          [
            193871.44645612454,
            667498.7276722494
          ],
          [
            193868.26387648506,
            667854.12793205
          ],
          [
            193917.49909359403,
            668097.0069496135
          ],
          [
            193895.95888632152,
            668512.0532878293
          ],
          [
            193955.76426140743,
            668703.2680845428
          ],
          [
            194590.04368096613,
            668864.5862541889
          ],
          [
            194716.74088971107,
            669742.75162045
          ],
          [
            195457.81958803977,
            670690.4072083012
          ],
          [
            196148.61288738542,
            671523.1565311933
          ],
          [
            196303.46906532045,
            671677.8723038305
          ],
          [
            196558.9819991683,
            672165.2273756714
          ],
          [
            196706.0955550716,
            672838.2411529432
          ],
          [
            196787.94353760476,
            673268.2159872466
          ],
          [
            196820.3069715927,
            674102.0764729618
          ],
          [
            196779.7620495333,
            674405.887624191
          ],
          [
            196374.3128289393,
            674355.2525247084
          ],
          [
            196137.97812747315,
            675835.711379151
          ],
          [
            195816.17026049248,
            677377.6104145166
          ],
          [
            195887.10051595862,
            677950.477350998
          ],
          [
            196119.53667749418,
            679044.2889605596
          ],
          [
            197151.7186370222,
            680547.2413093669
          ],
          [
            197658.2367845542,
            680375.3877418488
          ],
          [
            198124.56291811983,
            681071.5652034844
          ],
          [
            198356.0978559627,
            681630.7847101215
          ],
          [
            198763.46324470395,
            682744.6687596054
          ],
          [
            199167.35561204702,
            683854.5147619029
          ],
          [
            199653.20060638036,
            685250.4226899708
          ],
          [
            200138.28319109709,
            686495.0725047225
          ],
          [
            200315.36350257846,
            686961.1730190455
          ],
          [
            200613.02786446374,
            687616.5417856805
          ],
          [
            200161.01880112302,
            687836.8339035732
          ],
          [
            200790.11351494794,
            688835.9976672085
          ],
          [
            201071.24084919516,
            689177.4503252171
          ],
          [
            201259.329650793,
            689609.9343530943
          ],
          [
            201308.94019980717,
            690022.9820394975
          ],
          [
            201226.2561294171,
            690672.8434962558
          ],
          [
            201154.59603225195,
            690882.1209943956
          ],
          [
            200969.4744823962,
            690882.5146658071
          ],
          [
            201141.69967070362,
            691395.5699609685
          ],
          [
            201186.43090495095,
            691987.25571067
          ],
          [
            201120.2833282987,
            692532.478279775
          ],
          [
            200987.98817499424,
            693000.599064943
          ],
          [
            200935.40579168044,
            693256.908431399
          ],
          [
            200888.5338596545,
            693544.4147656002
          ],
          [
            200866.89811758292,
            693834.912209449
          ],
          [
            200870.66322652687,
            694126.1899019906
          ],
          [
            200899.80053173384,
            694416.0310441062
          ],
          [
            200954.08828071764,
            694702.2297696938
          ],
          [
            201033.11331092863,
            694982.60793364
          ],
          [
            201111.25895129202,
            695195.1840591951
          ],
          [
            201338.27373223787,
            695756.0744591228
          ],
          [
            201390.78215076192,
            695904.0650748713
          ],
          [
            201430.19252686552,
            696056.0689518641
          ],
          [
            201456.2049237899,
            696210.929248815
          ],
          [
            201468.6213714877,
            696367.4673853571
          ],
          [
            201467.34737329476,
            696524.4920117509
          ],
          [
            201458.08761755048,
            696636.0183122053
          ],
          [
            201387.1678465933,
            697255.8153790603
          ],
          [
            201381.53702962914,
            697305.0254059859
          ],
          [
            201379.70532338653,
            697321.0706443659
          ],
          [
            201377.74105069676,
            697338.5350382188
          ],
          [
            201375.95723463598,
            697354.8788707854
          ],
          [
            201374.3860196121,
            697369.890833816
          ],
          [
            201372.99394760054,
            697383.8965980727
          ],
          [
            201372.08142161486,
            697393.655573376
          ],
          [
            201370.1654510303,
            697414.7059389721
          ],
          [
            201368.53435513237,
            697438.029095364
          ],
          [
            201368.07212795204,
            697445.0887486523
          ],
          [
            201367.74999293993,
            697450.4882664157
          ],
          [
            201366.01467972688,
            697572.7847176816
          ],
          [
            201374.94480794997,
            697694.7670365401
          ],
          [
            201388.9521809896,
            697787.3731657278
          ],
          [
            201388.9521809896,
            697787.3731657278
          ],
          [
            201416.4976406696,
            697906.5397757951
          ],
          [
            201426.63259031126,
            697941.2993952918
          ],
          [
            201429.87568910792,
            697951.7721035797
          ],
          [
            201433.42193883503,
            697962.9188825922
          ],
          [
            201437.16459718707,
            697974.389663775
          ],
          [
            201441.12911154152,
            697986.2580546944
          ],
          [
            201445.35176424065,
            697998.6275541949
          ],
          [
            201449.8870668432,
            698011.6518421547
          ],
          [
            201454.82322978476,
            698025.5772027059
          ],
          [
            201460.31994892485,
            698040.8461087013
          ],
          [
            201466.7240159939,
            698058.4141681063
          ],
          [
            201474.34264052738,
            698079.1512277981
          ],
          [
            201785.6693963768,
            698925.2716458899
          ],
          [
            201809.55418589586,
            698995.9989257891
          ],
          [
            201850.13323485764,
            699147.5143746577
          ],
          [
            201877.35242680306,
            699301.9899586518
          ],
          [
            201883.8243757342,
            699357.965512624
          ],
          [
            201888.25459524684,
            699403.7977238771
          ],
          [
            201888.94793208916,
            699420.3276564536
          ],
          [
            201891.89083425322,
            699482.3086733456
          ],
          [
            201907.70743524324,
            700004.9382613716
          ],
          [
            201907.71869543497,
            700005.3103541099
          ],
          [
            201907.77809981417,
            700007.2733706782
          ]
        ]
      }
    }
  ]
}