{
  "type": "FeatureCollection",
  "name": "tmm321_electricity",
  "description": "תמ\"מ 3/21 – קווי חשמל",
  "crs": {
    "type": "name",
    "properties": {
      "name": "urn:ogc:def:crs:EPSG::2039"
    }
  },
  "features": [
    {
      "type": "Feature",
      "properties": {
        "FID": 1,
        "EHANDLE": "20C7",
        "LAYER": "     K-H400",
        "LENGTH": 14363.862810491477,
        "LINETYPE": "3",
        "TYPE": "electric line",
        "TYPECODE": 210006
      },
      "geometry": {
        "type": "LineString",
        "coordinates": [
          [
            189771.724233,
            645851.669001
          ],
          [
            188819.42119068396,
            644908.5548625373
          ],
          [
            186789.529891,
            645297.518387
          ],
          [
            185210.13140500002,
            645285.368691
          ],
          [
            182768.140916,
            647715.209316
          ],
          [
            182720.31101842268,
            648126.5543229233
          ],
          [
            182795.18534227027,
            649227.7294252843
          ],
          [
            182542.12767015336,
            649538.786301384
          ],
          [
            182479.9457696864,
            649609.6782457298
          ],
          [
            182421.80496232148,
            649665.5860397349
          ],
          [
            181935.32167662482,
            650101.8414466988
          ],
          [
            181731.29047653795,
            650242.479072242
          ],
          [
            181245.8023597872,
            650434.9365089769
          ],
          [
            180798.6264735972,
            650595.4205281272
          ],
          [
            180226.21914143374,
            650813.6274356985
          ],
          [
            179763.05572219778,
            650993.8089730534
          ],
          [
            179016.57513349238,
            651357.7213275036
          ]
        ]
      }
    },
    {
      "type": "Feature",
      "properties": {
        "FID": 3,
        "EHANDLE": "1F16",
        "LAYER": "     K-H400",
        "LENGTH": 32225.62536287391,
        "LINETYPE": "3",
        "TYPE": "electric line",
        "TYPECODE": 210006
      },
      "geometry": {
        "type": "LineString",
        "coordinates": [
          [
            168687.10770196212,
            631950.917627
          ],
          [
            169387.57750696212,
            632565.1855210001
          ],
          [
            169761.51251596212,
            633003.94822
          ],
          [
            169893.17960296213,
            633193.493852
          ],
          [
            170156.51438296214,
            633958.6963869999
          ],
          [
            170549.76058996213,
            634237.749303
          ],
          [
            171060.6296899621,
            635060.868455
          ],
          [
            171545.1649039621,
            635831.335812
          ],
          [
            171773.38800096212,
            635901.53789
          ],
          [
            172071.83385596212,
            636343.810908
          ],
          [
            172486.14633896213,
            636963.344097
          ],
          [
            172489.65768396214,
            637796.993734
          ],
          [
            172507.21322196213,
            638630.643004
          ],
          [
            172496.68037396212,
            638783.332621
          ],
          [
            172494.9246879621,
            639199.279741
          ],
          [
            172510.7245669621,
            640385.694272
          ],
          [
            172510.03648296214,
            640528.640968
          ],
          [
            172412.89797096213,
            640531.131036
          ],
          [
            172402.93529696212,
            640777.641631
          ],
          [
            173107.81157896214,
            642186.983679
          ],
          [
            174126.52002496214,
            644056.976511
          ],
          [
            174654.5545869621,
            645015.6280970001
          ],
          [
            175127.7932189621,
            646066.410028
          ],
          [
            175177.60779996213,
            646295.490571
          ],
          [
            175399.2828019621,
            648347.253975
          ],
          [
            175558.6892429621,
            649674.42642
          ],
          [
            176517.6204359621,
            650874.608465
          ],
          [
            179020.80335496212,
            651768.5200799999
          ],
          [
            179048.20130696212,
            651828.279968
          ],
          [
            179461.66207896214,
            651980.17015
          ],
          [
            179523.93061396212,
            652044.910593
          ],
          [
            179576.2358699621,
            652139.530586
          ],
          [
            180081.8538029621,
            653145.492142
          ],
          [
            180781.74873496214,
            654998.055342
          ],
          [
            181122.97887796213,
            655879.516619
          ],
          [
            181593.72680896212,
            656285.387599
          ],
          [
            182044.54881196213,
            656661.3781880001
          ],
          [
            182316.03781496212,
            657002.508777
          ],
          [
            182562.62009396212,
            657306.28914
          ],
          [
            182786.7857449621,
            657607.579488
          ],
          [
            183255.04302796212,
            658364.540854
          ],
          [
            183282.81497936742,
            658406.7902117783
          ]
        ]
      }
    },
    {
      "type": "Feature",
      "properties": {
        "FID": 4,
        "EHANDLE": "1F16",
        "LAYER": "     K-H400-A",
        "LENGTH": 15625.567835683212,
        "LINETYPE": "3",
        "TYPE": "electric line by tma 31",
        "TYPECODE": 210007
      },
      "geometry": {
        "type": "LineString",
        "coordinates": [
          [
            183282.81497936742,
            658406.7902117783
          ],
          [
            183426.90342396213,
            658625.991382
          ],
          [
            183573.8565419621,
            658845.111706
          ],
          [
            183693.41165696213,
            658987.042038
          ],
          [
            183793.0408439621,
            659069.212114
          ],
          [
            184674.75887096213,
            658314.740816
          ],
          [
            184712.12012996213,
            657709.669632
          ],
          [
            184749.48078096213,
            657236.568982
          ],
          [
            185404.54306296213,
            656663.8678349999
          ],
          [
            185845.4017859621,
            656185.78705
          ],
          [
            186201.57653296212,
            655767.466626
          ],
          [
            186754.51837196213,
            655132.5155239999
          ],
          [
            187436.97802496213,
            654323.264053
          ],
          [
            188478.1030999621,
            653080.7521190001
          ],
          [
            189155.58142996213,
            653063.322119
          ],
          [
            190351.13162196212,
            653040.911931
          ],
          [
            190928.98076496212,
            653212.722233
          ],
          [
            191287.6461859621,
            653446.782911
          ],
          [
            191795.7547689621,
            653436.823061
          ],
          [
            192565.39028696212,
            652859.1417789999
          ],
          [
            193840.64368596213,
            652410.9409640001
          ],
          [
            194557.97392296212,
            652159.450234
          ],
          [
            194797.61108082067,
            651760.93870788
          ]
        ]
      }
    }
  ]
}