{
  "type": "FeatureCollection",
  "name": "tmm321_תממ_3__21___קווי_חשמל",
  "features": [
    {
      "type": "Feature",
      "id": 4,
      "geometry": {
        "type": "LineString",
        "coordinates": [
          [
            183282.81497936742,
            658406.7902117783
          ],
          [
            183426.90342396213,
            658625.991382
          ],
          [
            183573.8565419621,
            658845.111706
          ],
          [
            183693.41165696213,
            658987.042038
          ],
          [
            183793.0408439621,
            659069.212114
          ],
          [
            184674.75887096213,
            658314.740816
          ],
          [
            184712.12012996213,
            657709.669632
          ],
          [
            184749.48078096213,
            657236.568982
          ],
          [
            185404.54306296213,
            656663.8678349999
          ],
          [
            185845.4017859621,
            656185.78705
          ],
          [
            186201.57653296212,
            655767.466626
          ],
          [
            186754.51837196213,
            655132.5155239999
          ],
          [
            187436.97802496213,
            654323.264053
          ],
          [
            188478.1030999621,
            653080.7521190001
          ],
          [
            189155.58142996213,
            653063.322119
          ],
          [
            190351.13162196212,
            653040.911931
          ],
          [
            190928.98076496212,
            653212.722233
          ],
          [
            191287.6461859621,
            653446.782911
          ],
          [
            191795.7547689621,
            653436.823061
          ],
          [
            192565.39028696212,
            652859.1417789999
          ],
          [
            193840.64368596213,
            652410.9409640001
          ],
          [
            194557.97392296212,
            652159.450234
          ],
          [
            194797.61108082067,
            651760.93870788
          ]
        ]
      },
      "properties": {
        "FID": 4,
        "EHANDLE": "1F16",
        "LAYER": "     K-H400-A",
        "LENGTH": 15625.567835683212,
        "LINETYPE": "3",
        "TYPE": "electric line by tma 31",
        "TYPECODE": 210007
      }
    }
  ]
}