{
  "type": "FeatureCollection",
  "name": "tmm321_תממ_3__21___מסילה",
  "features": [
    {
      "type": "Feature",
      "id": 12,
      "geometry": {
        "type": "LineString",
        "coordinates": [
          [
            179504.9350408198,
            661754.825137224
          ],
          [
            179571.57577499357,
            661590.5326618628
          ],
          [
            179627.73819136224,
            661456.7369118178
          ],
          [
            179674.85007576252,
            661349.3916910528
          ],
          [
            179714.33921403118,
            661264.4508035319
          ],
          [
            179747.63339200488,
            661197.8680532188
          ],
          [
            179776.16039552045,
            661145.5972440774
          ],
          [
            179801.34801041457,
            661103.5921800714
          ],
          [
            179824.624022524,
            661067.8066651649
          ],
          [
            179847.35225931887,
            661034.6853865882
          ],
          [
            179870.6407148033,
            661002.6365646373
          ],
          [
            179895.53342461464,
            660970.5593028748
          ],
          [
            179923.07442439042,
            660937.3527048635
          ],
          [
            179954.3077497681,
            660901.9158741657
          ],
          [
            179990.27743638516,
            660863.1479143442
          ],
          [
            180032.02751987902,
            660819.9479289614
          ],
          [
            180080.6020358872,
            660771.21502158
          ],
          [
            180136.8518270573,
            660716.0768470275
          ],
          [
            180200.8549640778,
            660654.5752651917
          ],
          [
            180272.49632464722,
            660586.9806872254
          ],
          [
            180351.66078646417,
            660513.5635242811
          ],
          [
            180438.2332272273,
            660434.5941875118
          ],
          [
            180532.0985246351,
            660350.3430880699
          ],
          [
            180633.14155638625,
            660261.0806371085
          ],
          [
            180741.24720017932,
            660167.0772457802
          ],
          [
            180855.9016490598,
            660068.8726653606
          ],
          [
            180974.99635746097,
            659968.0840076176
          ],
          [
            181096.02409516298,
            659866.5977244418
          ],
          [
            181216.4776319461,
            659766.3002677242
          ],
          [
            181333.8497375904,
            659669.0780893555
          ],
          [
            181445.63318187612,
            659576.8176412266
          ],
          [
            181549.32073458345,
            659491.405375228
          ],
          [
            181642.40516549256,
            659414.7277432507
          ],
          [
            181723.13598749368,
            659348.0870720119
          ],
          [
            181792.7896859172,
            659290.4491875349
          ],
          [
            181853.39948920364,
            659240.1957906694
          ],
          [
            181906.99862579344,
            659195.7085822653
          ],
          [
            181955.62032412703,
            659155.3692631723
          ],
          [
            182001.29781264495,
            659117.55953424
          ],
          [
            182046.0643197876,
            659080.6610963185
          ],
          [
            182091.95307399548,
            659043.0556502574
          ],
          [
            182140.59879713884,
            659003.4367979972
          ],
          [
            182192.04218480704,
            658961.7457458428
          ],
          [
            182245.92542601933,
            658918.2356011895
          ],
          [
            182301.89070979485,
            658873.1594714329
          ],
          [
            182359.58022515278,
            658826.7704639684
          ],
          [
            182418.63616111234,
            658779.3216861915
          ],
          [
            182478.70070669267,
            658731.0662454979
          ],
          [
            182539.41605091296,
            658682.2572492828
          ],
          [
            182600.41868810848,
            658633.1591779463
          ],
          [
            182661.32233387863,
            658584.0820039057
          ],
          [
            182721.7350091389,
            658535.3470725829
          ],
          [
            182781.2647348048,
            658487.2757293996
          ],
          [
            182839.5195317918,
            658440.1893197775
          ],
          [
            182896.10742101536,
            658394.4091891387
          ],
          [
            182950.636423391,
            658350.2566829047
          ],
          [
            183002.71455983416,
            658308.0531464973
          ],
          [
            183052.1047322942,
            658267.9848316049
          ],
          [
            183099.18936685557,
            658229.6976149813
          ],
          [
            183144.50577063664,
            658192.7022796472
          ],
          [
            183188.5912507557,
            658156.509608623
          ],
          [
            183231.98311433115,
            658120.6303849291
          ],
          [
            183275.21866848125,
            658084.575391586
          ],
          [
            183318.83522032434,
            658047.8554116144
          ],
          [
            183363.37007697872,
            658009.9812280345
          ],
          [
            183409.26684624905,
            657970.5744476513
          ],
          [
            183456.5943386849,
            657929.699972408
          ],
          [
            183505.32766552208,
            657887.5335280322
          ],
          [
            183555.44193799654,
            657844.2508402516
          ],
          [
            183606.91226734413,
            657800.0276347937
          ],
          [
            183659.71376480066,
            657755.0396373861
          ],
          [
            183713.82154160205,
            657709.4625737565
          ],
          [
            183769.21070898414,
            657663.4721696326
          ],
          [
            183825.77993343674,
            657617.2589771076
          ],
          [
            183883.12210246522,
            657571.0728537384
          ],
          [
            183940.75365882897,
            657525.1784834478
          ],
          [
            183998.1910452873,
            657479.8405501578
          ],
          [
            184054.95070459956,
            657435.3237377915
          ],
          [
            184110.54907952505,
            657391.8927302712
          ],
          [
            184164.50261282315,
            657349.8122115195
          ],
          [
            184216.3277472532,
            657309.3468654589
          ],
          [
            184265.58961821088,
            657270.7463668522
          ],
          [
            184312.04813163722,
            657234.2003538219
          ],
          [
            184355.51188610963,
            657199.8834553306
          ],
          [
            184395.78948020554,
            657167.9703003413
          ],
          [
            184432.68951250237,
            657138.6355178164
          ],
          [
            184466.02058157747,
            657112.0537367188
          ],
          [
            184495.5912860083,
            657088.3995860111
          ],
          [
            184521.21022437225,
            657067.847694656
          ],
          [
            184542.8503416735,
            657050.4378127543
          ],
          [
            184561.14196862318,
            657035.6701749595
          ],
          [
            184576.87978235923,
            657022.9101370631
          ],
          [
            184590.85846001958,
            657011.5230548566
          ],
          [
            184603.8726787421,
            657000.8742841317
          ],
          [
            184616.71711566477,
            656990.3291806797
          ],
          [
            184630.1864479255,
            656979.2531002924
          ],
          [
            184645.07535266216,
            656967.0113987613
          ],
          [
            184662.0039795609,
            656953.1067767962
          ],
          [
            184680.89436850048,
            656937.5913147804
          ],
          [
            184701.49403190785,
            656920.6544380154
          ],
          [
            184723.55048220998,
            656902.4855718028
          ],
          [
            184746.8112318338,
            656883.2741414441
          ],
          [
            184771.0237932063,
            656863.2095722411
          ],
          [
            184795.9356787544,
            656842.481289495
          ],
          [
            184821.2944009051,
            656821.2787185076
          ],
          [
            184846.8887424518,
            656799.7578760607
          ],
          [
            184872.67256765347,
            656777.9411448565
          ],
          [
            184898.64101113577,
            656755.8174990779
          ],
          [
            184924.78920752413,
            656733.3759129075
          ],
          [
            184951.11229144412,
            656710.6053605279
          ],
          [
            184977.60539752123,
            656687.4948161219
          ],
          [
            185004.26366038097,
            656664.0332538718
          ],
          [
            185031.0822146489,
            656640.2096479607
          ],
          [
            185058.05058817606,
            656616.0259434165
          ],
          [
            185085.13588171583,
            656591.535968649
          ],
          [
            185112.2995892471,
            656566.8065229134
          ],
          [
            185139.50320474876,
            656541.9044054648
          ],
          [
            185166.70822219973,
            656516.8964155585
          ],
          [
            185193.87613557887,
            656491.8493524498
          ],
          [
            185220.96843886515,
            656466.8300153937
          ],
          [
            185247.94662603745,
            656441.9052036455
          ],
          [
            185274.77952464746,
            656417.1296556738
          ],
          [
            185301.4652965381,
            656392.5098668004
          ],
          [
            185328.00943712512,
            656368.0402715607
          ],
          [
            185354.41744182422,
            656343.7153044897
          ],
          [
            185380.6948060511,
            656319.529400123
          ],
          [
            185406.84702522148,
            656295.4769929958
          ],
          [
            185432.8795947511,
            656271.5525176432
          ],
          [
            185458.7980100557,
            656247.7504086007
          ],
          [
            185484.59997796212,
            656224.0791929447
          ],
          [
            185510.25205094193,
            656200.6037679178
          ],
          [
            185535.71299287782,
            656177.4031233039
          ],
          [
            185560.94156765248,
            656154.5562488867
          ],
          [
            185585.89653914864,
            656132.1421344503
          ],
          [
            185610.536671249,
            656110.2397697783
          ],
          [
            185634.82072783625,
            656088.9281446548
          ],
          [
            185658.70747279315,
            656068.2862488636
          ],
          [
            185682.18198946177,
            656048.350744709
          ],
          [
            185705.3346390221,
            656028.988984578
          ],
          [
            185728.28210211356,
            656010.0259933784
          ],
          [
            185751.14105937548,
            655991.2867960171
          ],
          [
            185774.02819144735,
            655972.5964174022
          ],
          [
            185797.06017896847,
            655953.7798824407
          ],
          [
            185820.35370257832,
            655934.6622160404
          ],
          [
            185844.02544291623,
            655915.0684431088
          ],
          [
            185868.18424522562,
            655894.8249746525
          ],
          [
            185892.90761316594,
            655873.7637660746
          ],
          [
            185918.2652150006,
            655851.7181588773
          ],
          [
            185944.32671899302,
            655828.5214945631
          ],
          [
            185971.16179340665,
            655804.007114634
          ],
          [
            185998.84010650485,
            655778.0083605924
          ],
          [
            186027.4313265511,
            655750.3585739406
          ],
          [
            186057.00512180882,
            655720.8910961808
          ],
          [
            186087.5863268152,
            655689.5292643087
          ],
          [
            186119.02044120245,
            655656.5563972944
          ],
          [
            186151.10813087656,
            655622.345809601
          ],
          [
            186183.65006174357,
            655587.2708156918
          ],
          [
            186216.4468997094,
            655551.7047300304
          ],
          [
            186249.29931068013,
            655516.0208670797
          ],
          [
            186282.0079605617,
            655480.5925413035
          ],
          [
            186314.3735152601,
            655445.793067165
          ],
          [
            186346.25662146733,
            655411.8725948969
          ],
          [
            186377.7578490194,
            655378.5886178113
          ],
          [
            186409.0377485383,
            655345.5754649895
          ],
          [
            186440.256870646,
            655312.4674655129
          ],
          [
            186471.57576596455,
            655278.898948463
          ],
          [
            186503.1549851159,
            655244.5042429211
          ],
          [
            186535.15507872205,
            655208.9176779687
          ],
          [
            186567.736597405,
            655171.7735826873
          ],
          [
            186601.01415766845,
            655132.8335695837
          ],
          [
            186634.91863954303,
            655092.3683848685
          ],
          [
            186669.334988941,
            655050.7760581772
          ],
          [
            186704.1481517747,
            655008.4546191462
          ],
          [
            186739.24307395637,
            654965.802097411
          ],
          [
            186774.50470139837,
            654923.2165226077
          ],
          [
            186809.81798001294,
            654881.0959243721
          ],
          [
            186845.06785571246,
            654839.8383323402
          ],
          [
            186880.18013613217,
            654799.7036712228
          ],
          [
            186915.24407579942,
            654760.3994460293
          ],
          [
            186950.38979096457,
            654721.4950568445
          ],
          [
            186985.74739787795,
            654682.5599037528
          ],
          [
            187021.4470127899,
            654643.1633868385
          ],
          [
            187057.6187519507,
            654602.8749061865
          ],
          [
            187094.39273161077,
            654561.263861881
          ],
          [
            187131.89906802043,
            654517.8996540066
          ],
          [
            187170.1628547616,
            654472.5608658327
          ],
          [
            187208.78909474277,
            654425.8628133686
          ],
          [
            187247.2777682039,
            654378.6299958082
          ],
          [
            187285.1288553851,
            654331.6869123458
          ],
          [
            187321.84233652637,
            654285.8580621756
          ],
          [
            187356.91819186782,
            654241.9679444915
          ],
          [
            187389.85640164945,
            654200.8410584878
          ],
          [
            187420.1569461113,
            654163.3019033585
          ],
          [
            187447.47775319294,
            654129.942274764
          ],
          [
            187472.10854163204,
            654100.4231542281
          ],
          [
            187494.49697786573,
            654074.1728197413
          ],
          [
            187515.09072833112,
            654050.6195492935
          ],
          [
            187534.3374594654,
            654029.1916208751
          ],
          [
            187552.68483770572,
            654009.3173124762
          ],
          [
            187570.5805294892,
            653990.4249020871
          ],
          [
            187588.47220125303,
            653971.9426676978
          ],
          [
            187606.71732952306,
            653953.3858891712
          ],
          [
            187625.31263118016,
            653934.6178538607
          ],
          [
            187644.1646331939,
            653915.5888509927
          ],
          [
            187663.17986253384,
            653896.2491697931
          ],
          [
            187682.26484616962,
            653876.5490994882
          ],
          [
            187701.32611107075,
            653856.438929304
          ],
          [
            187720.27018420683,
            653835.8689484668
          ],
          [
            187739.00359254747,
            653814.7894462027
          ],
          [
            187757.46573157102,
            653793.1789480164
          ],
          [
            187775.72747079097,
            653771.1289245274
          ],
          [
            187793.8925482296,
            653748.759082634
          ],
          [
            187812.0647019092,
            653726.1891292341
          ],
          [
            187830.34766985205,
            653703.538771226
          ],
          [
            187848.84519008044,
            653680.9277155077
          ],
          [
            187867.66100061664,
            653658.4756689774
          ],
          [
            187886.89883948295,
            653636.3023385331
          ],
          [
            187906.60817144567,
            653614.5155226968
          ],
          [
            187926.6213682472,
            653593.1753864852
          ],
          [
            187946.716528374,
            653572.3301865389
          ],
          [
            187966.6717503125,
            653552.0281794982
          ],
          [
            187986.2651325491,
            653532.3176220036
          ],
          [
            188005.2747735703,
            653513.2467706956
          ],
          [
            188023.47877186252,
            653494.8638822148
          ],
          [
            188040.65522591217,
            653477.2172132016
          ],
          [
            188056.6628776036,
            653460.3180703884
          ],
          [
            188071.68304241274,
            653444.0299608755
          ],
          [
            188085.97767921336,
            653428.1794418552
          ],
          [
            188099.80874687934,
            653412.5930705196
          ],
          [
            188113.4382042844,
            653397.0974040609
          ],
          [
            188127.1280103024,
            653381.5189996714
          ],
          [
            188141.14012380716,
            653365.6844145434
          ],
          [
            188155.73650367244,
            653349.420205869
          ],
          [
            188171.09179742003,
            653332.6140798102
          ],
          [
            188187.0314071633,
            653315.3983384082
          ],
          [
            188203.29342366362,
            653297.9664326734
          ],
          [
            188219.61593768236,
            653280.5118136168
          ],
          [
            188235.73703998083,
            653263.2279322494
          ],
          [
            188251.39482132037,
            653246.3082395816
          ],
          [
            188266.32737246234,
            653229.9461866245
          ],
          [
            188280.2727841681,
            653214.3352243886
          ],
          [
            188293.05182395718,
            653199.6039185843
          ],
          [
            188304.8159663819,
            653185.6212937186
          ],
          [
            188315.7993627528,
            653172.1914889984
          ],
          [
            188326.23616438033,
            653159.1186436301
          ],
          [
            188336.36052257512,
            653146.2068968206
          ],
          [
            188346.40658864763,
            653133.2603877764
          ],
          [
            188356.60851390837,
            653120.0832557041
          ],
          [
            188367.2004496679,
            653106.4796398104
          ],
          [
            188378.37122505673,
            653092.2905120086
          ],
          [
            188390.12838048537,
            653077.5041750382
          ],
          [
            188402.43413418435,
            653062.1457643455
          ],
          [
            188415.25070438415,
            653046.2404153767
          ],
          [
            188428.54030931529,
            653029.8132635781
          ],
          [
            188442.26516720827,
            653012.889444396
          ],
          [
            188456.38749629364,
            652995.4940932766
          ],
          [
            188470.86951480186,
            652977.652345666
          ],
          [
            188485.6692656037,
            652959.4014398402
          ],
          [
            188500.72809013096,
            652940.8270253933
          ],
          [
            188515.9831544556,
            652922.0268547486
          ],
          [
            188531.37162464965,
            652903.0986803303
          ],
          [
            188546.8306667851,
            652884.1402545618
          ],
          [
            188562.29744693395,
            652865.2493298666
          ],
          [
            188577.7091311682,
            652846.5236586687
          ],
          [
            188593.00288555984,
            652828.0609933917
          ],
          [
            188608.12172522309,
            652809.9436433306
          ],
          [
            188623.03206144084,
            652792.1921452673
          ],
          [
            188637.70615453811,
            652774.8115928551
          ],
          [
            188652.11626484006,
            652757.8070797472
          ],
          [
            188666.2346526717,
            652741.1836995969
          ],
          [
            188680.03357835812,
            652724.9465460575
          ],
          [
            188693.48530222444,
            652709.1007127824
          ],
          [
            188706.56208459567,
            652693.6512934245
          ],
          [
            188719.25211842006,
            652678.5845702395
          ],
          [
            188731.60732713845,
            652663.8115798897
          ],
          [
            188743.6955668148,
            652649.2245476402
          ],
          [
            188755.5846935131,
            652634.7156987551
          ],
          [
            188767.34256329737,
            652620.1772584995
          ],
          [
            188779.0370322315,
            652605.501452138
          ],
          [
            188790.73595637956,
            652590.580504935
          ],
          [
            188802.5071918055,
            652575.3066421553
          ],
          [
            188814.38971116062,
            652559.6255431671
          ],
          [
            188826.30695344554,
            652543.6967037523
          ],
          [
            188838.1534742482,
            652527.7330737961
          ],
          [
            188849.8238291565,
            652511.9476031843
          ],
          [
            188861.2125737584,
            652496.5532418021
          ],
          [
            188872.2142636419,
            652481.762939535
          ],
          [
            188882.7234543948,
            652467.7896462684
          ],
          [
            188892.63470160516,
            652454.8463118877
          ],
          [
            188901.95806814422,
            652443.0079411017
          ],
          [
            188911.1656460166,
            652431.7977579124
          ],
          [
            188920.84503451025,
            652420.6010411455
          ],
          [
            188931.58383291317,
            652408.8030696262
          ],
          [
            188943.96964051333,
            652395.7891221801
          ],
          [
            188958.59005659868,
            652380.9444776324
          ],
          [
            188976.0326804572,
            652363.6544148088
          ],
          [
            188996.88511137685,
            652343.3042125347
          ],
          [
            189021.5092598537,
            652319.4970770637
          ],
          [
            189049.36428121597,
            652292.7079243619
          ],
          [
            189079.683642,
            652263.6295978242
          ],
          [
            189111.70080874208,
            652232.9549408448
          ],
          [
            189144.6492479786,
            652201.3767968186
          ],
          [
            189177.76242624584,
            652169.5880091398
          ],
          [
            189210.27381008014,
            652138.2814212029
          ],
          [
            189241.41686601783,
            652108.1498764028
          ],
          [
            189270.56988426798,
            652079.7436696219
          ],
          [
            189297.69044973105,
            652053.0429016955
          ],
          [
            189322.8809709801,
            652027.8851249471
          ],
          [
            189346.24385658832,
            652004.1078917002
          ],
          [
            189367.8815151289,
            651981.5487542782
          ],
          [
            189387.89635517492,
            651960.0452650047
          ],
          [
            189406.39078529962,
            651939.4349762033
          ],
          [
            189423.46721407617,
            651919.5554401971
          ],
          [
            189439.21976426474,
            651900.242224649
          ],
          [
            189453.70941537415,
            651881.3229585779
          ],
          [
            189466.98886110025,
            651862.623286342
          ],
          [
            189479.11079513884,
            651843.9688522998
          ],
          [
            189490.12791118585,
            651825.1853008094
          ],
          [
            189500.0929029371,
            651806.098276229
          ],
          [
            189509.05846408842,
            651786.5334229169
          ],
          [
            189517.07728833568,
            651766.3163852312
          ],
          [
            189524.18063368084,
            651745.3101520465
          ],
          [
            189530.31401535016,
            651723.5270903024
          ],
          [
            189535.401512876,
            651701.0169114548
          ],
          [
            189539.36720579074,
            651677.8293269598
          ],
          [
            189542.1351736267,
            651654.014048273
          ],
          [
            189543.62949591628,
            651629.6207868506
          ],
          [
            189543.77425219183,
            651604.6992541482
          ],
          [
            189542.49352198569,
            651579.299161622
          ],
          [
            189539.70915780574,
            651553.4584785574
          ],
          [
            189535.33410406203,
            651527.1682055586
          ],
          [
            189529.27907814004,
            651500.4076010594
          ],
          [
            189521.4547974253,
            651473.1559234936
          ],
          [
            189511.77197930333,
            651445.3924312948
          ],
          [
            189500.14134115964,
            651417.0963828971
          ],
          [
            189486.47360037977,
            651388.2470367341
          ],
          [
            189470.67947434922,
            651358.8236512397
          ],
          [
            189452.53349364092,
            651328.6306773442
          ],
          [
            189431.2654415772,
            651296.773335964
          ],
          [
            189405.96891466796,
            651262.1820405119
          ],
          [
            189375.73750942285,
            651223.7872044011
          ],
          [
            189339.66482235174,
            651180.5192410443
          ],
          [
            189296.84444996438,
            651131.3085638548
          ],
          [
            189246.36998877054,
            651075.0855862452
          ],
          [
            189187.33503528003,
            651010.7807216286
          ]
        ]
      },
      "properties": {
        "FID": 12,
        "MAPKEY": "507F",
        "LAYER": "RAK-ZIR",
        "NAME": "מסילת ברזל",
        "TYPECODE": 204001,
        "TYPENAME": "מסילת ברזל",
        "TCODE": "3"
      }
    },
    {
      "type": "Feature",
      "id": 26,
      "geometry": {
        "type": "LineString",
        "coordinates": [
          [
            188175.00329755133,
            653328.3894233827
          ],
          [
            188150.97015362987,
            653342.0746868646
          ],
          [
            188130.2787513613,
            653353.2852891794
          ],
          [
            188112.5205179227,
            653362.3081234142
          ],
          [
            188097.28688049104,
            653369.4300826562
          ],
          [
            188084.16926624332,
            653374.9380599926
          ],
          [
            188072.75910235656,
            653379.1189485106
          ],
          [
            188062.64781600775,
            653382.2596412976
          ],
          [
            188053.42683437388,
            653384.6470314405
          ],
          [
            188044.744703113,
            653386.5245847661
          ],
          [
            188036.47844180744,
            653387.9620580585
          ],
          [
            188028.56218852053,
            653388.9857808413
          ],
          [
            188020.93008131554,
            653389.6220826382
          ],
          [
            188013.51625825587,
            653389.8972929727
          ],
          [
            188006.25485740483,
            653389.8377413683
          ],
          [
            187999.08001682576,
            653389.4697573488
          ],
          [
            187991.925874582,
            653388.8196704376
          ],
          [
            187984.74740679425,
            653387.9149520089
          ],
          [
            187977.58294181264,
            653386.7876408392
          ],
          [
            187970.49164604468,
            653385.4709175556
          ],
          [
            187963.53268589787,
            653383.997962785
          ],
          [
            187956.76522777975,
            653382.4019571544
          ],
          [
            187950.2484380978,
            653380.716081291
          ],
          [
            187944.04148325953,
            653378.9735158216
          ],
          [
            187938.20352967244,
            653377.2074413734
          ],
          [
            187932.7629546697,
            653375.4352200335
          ],
          [
            187927.62497928698,
            653373.61093973
          ],
          [
            187922.66403548565,
            653371.6728698511
          ],
          [
            187917.75455522697,
            653369.5592797849
          ],
          [
            187912.77097047237,
            653367.2084389197
          ],
          [
            187907.5877131831,
            653364.5586166438
          ],
          [
            187902.07921532053,
            653361.548082345
          ],
          [
            187896.119908846,
            653358.1151054121
          ],
          [
            187889.61031740537,
            653354.2134211008
          ],
          [
            187882.55533138275,
            653349.858628139
          ],
          [
            187874.98593284673,
            653345.0817911226
          ],
          [
            187866.93310386597,
            653339.9139746473
          ],
          [
            187858.42782650905,
            653334.3862433089
          ],
          [
            187849.50108284465,
            653328.5296617032
          ],
          [
            187840.1838549414,
            653322.3752944258
          ],
          [
            187830.5071248679,
            653315.9542060726
          ],
          [
            187820.50060706382,
            653309.2955352714
          ],
          [
            187810.188945453,
            653302.4207167783
          ],
          [
            187799.59551633036,
            653295.3492593813
          ],
          [
            187788.74369599076,
            653288.1006718687
          ],
          [
            187777.65686072913,
            653280.6944630282
          ],
          [
            187766.35838684032,
            653273.1501416482
          ],
          [
            187754.87165061926,
            653265.4872165169
          ],
          [
            187743.22002836078,
            653257.7251964221
          ],
          [
            187731.41163068675,
            653249.8741228923
          ],
          [
            187719.39350552662,
            653241.9061684171
          ],
          [
            187707.09743513682,
            653233.784038226
          ],
          [
            187694.45520177373,
            653225.470437549
          ],
          [
            187681.39858769378,
            653216.9280716158
          ],
          [
            187667.85937515335,
            653208.1196456561
          ],
          [
            187653.7693464089,
            653199.0078648998
          ],
          [
            187639.06028371677,
            653189.5554345765
          ],
          [
            187623.70270541176,
            653179.7445254765
          ],
          [
            187607.82207414202,
            653169.6351706311
          ],
          [
            187591.58258863413,
            653159.3068686324
          ],
          [
            187575.1484476146,
            653148.8391180723
          ],
          [
            187558.68384980998,
            653138.3114175426
          ],
          [
            187542.35299394678,
            653127.8032656354
          ],
          [
            187526.32007875157,
            653117.3941609423
          ],
          [
            187510.74930295083,
            653107.1636020553
          ],
          [
            187495.7636001494,
            653097.1691291748
          ],
          [
            187481.32084346502,
            653087.3804489346
          ],
          [
            187467.3376408937,
            653077.745309577
          ],
          [
            187453.7306004315,
            653068.211459344
          ],
          [
            187440.41633007437,
            653058.7266464783
          ],
          [
            187427.31143781837,
            653049.2386192216
          ],
          [
            187414.3325316595,
            653039.6951258166
          ],
          [
            187401.39621959373,
            653030.0439145053
          ],
          [
            187388.42753915867,
            653020.2406261617
          ],
          [
            187375.38524605782,
            653010.2724721858
          ],
          [
            187362.23652553625,
            653000.1345566097
          ],
          [
            187348.948562839,
            652989.8219834648
          ],
          [
            187335.48854321116,
            652979.3298567832
          ],
          [
            187321.82365189775,
            652968.6532805965
          ],
          [
            187307.92107414387,
            652957.7873589367
          ],
          [
            187293.74799519457,
            652946.7271958354
          ],
          [
            187279.2749600279,
            652935.4662165429
          ],
          [
            187264.48595255392,
            652923.9911311822
          ],
          [
            187249.3683164157,
            652912.2869710949
          ],
          [
            187233.90939525628,
            652900.3387676225
          ],
          [
            187218.09653271877,
            652888.1315521065
          ],
          [
            187201.9170724462,
            652875.6503558884
          ],
          [
            187185.35835808163,
            652862.8802103098
          ],
          [
            187168.40773326813,
            652849.806146712
          ],
          [
            187151.06098917042,
            652836.4277603503
          ],
          [
            187133.34770703982,
            652822.8029021345
          ],
          [
            187115.30591564928,
            652809.003986888
          ],
          [
            187096.97364377175,
            652795.1034294341
          ],
          [
            187078.38892018027,
            652781.1736445965
          ],
          [
            187059.58977364772,
            652767.2870471983
          ],
          [
            187040.6142329471,
            652753.5160520632
          ],
          [
            187021.50032685138,
            652739.9330740145
          ],
          [
            187002.2856211861,
            652726.5934368342
          ],
          [
            186983.00582998694,
            652713.4841001381
          ],
          [
            186963.69620434224,
            652700.5749325005
          ],
          [
            186944.3919953402,
            652687.8358024958
          ],
          [
            186925.12845406914,
            652675.2365786985
          ],
          [
            186905.94083161736,
            652662.7471296828
          ],
          [
            186886.8643790731,
            652650.3373240231
          ],
          [
            186867.93434752463,
            652637.9770302938
          ],
          [
            186849.16409660832,
            652625.6274327779
          ],
          [
            186830.4794201527,
            652613.2149785939
          ],
          [
            186811.78422053438,
            652600.6574305687
          ],
          [
            186792.98240012996,
            652587.8725515294
          ],
          [
            186773.97786131606,
            652574.7781043034
          ],
          [
            186754.67450646928,
            652561.2918517174
          ],
          [
            186734.97623796627,
            652547.3315565987
          ],
          [
            186714.7869581836,
            652532.8149817742
          ],
          [
            186694.04132716163,
            652517.6823028645
          ],
          [
            186672.79703559578,
            652501.9633466634
          ],
          [
            186651.14253184522,
            652485.710352758
          ],
          [
            186629.16626426906,
            652468.9755607352
          ],
          [
            186606.95668122653,
            652451.8112101825
          ],
          [
            186584.60223107671,
            652434.2695406869
          ],
          [
            186562.1913621788,
            652416.4027918354
          ],
          [
            186539.81252289197,
            652398.2632032152
          ],
          [
            186517.52388716856,
            652379.9056154012
          ],
          [
            186495.26253133372,
            652361.3952729197
          ],
          [
            186472.93525730583,
            652342.800021284
          ],
          [
            186450.44886700326,
            652324.1877060082
          ],
          [
            186427.7101623444,
            652305.6261726061
          ],
          [
            186404.62594524756,
            652287.1832665914
          ],
          [
            186381.1030176312,
            652268.926833478
          ],
          [
            186357.0481814136,
            652250.9247187796
          ],
          [
            186332.41784261374,
            652233.2346011677
          ],
          [
            186307.36682365296,
            652215.8734919443
          ],
          [
            186282.09955105325,
            652198.8482355684
          ],
          [
            186256.82045133648,
            652182.1656764997
          ],
          [
            186231.73395102462,
            652165.8326591977
          ],
          [
            186207.0444766396,
            652149.8560281217
          ],
          [
            186182.95645470332,
            652134.2426277313
          ],
          [
            186159.6743117378,
            652118.9993024857
          ],
          [
            186137.3359921407,
            652104.1218546686
          ],
          [
            186115.8135118132,
            652089.5619178602
          ],
          [
            186094.91240453217,
            652075.2600834647
          ],
          [
            186074.43820407457,
            652061.1569428862
          ],
          [
            186054.19644421735,
            652047.1930875292
          ],
          [
            186033.99265873738,
            652033.3091087978
          ],
          [
            186013.6323814116,
            652019.4455980964
          ],
          [
            185992.92114601695,
            652005.5431468289
          ],
          [
            185971.6856897408,
            651991.5287252903
          ],
          [
            185949.83756341232,
            651977.2748193362
          ],
          [
            185927.30952127103,
            651962.6402937127
          ],
          [
            185904.03431755656,
            651947.4840131662
          ],
          [
            185879.9447065085,
            651931.6648424425
          ],
          [
            185854.97344236646,
            651915.041646288
          ],
          [
            185829.05327936995,
            651897.4732894485
          ],
          [
            185802.11697175863,
            651878.8186366706
          ],
          [
            185773.97820292064,
            651858.9248414766
          ],
          [
            185743.97437283857,
            651837.5922124954
          ],
          [
            185711.32381064352,
            651814.609347132
          ],
          [
            185675.24484546666,
            651789.764842792
          ],
          [
            185634.95580643913,
            651762.8472968802
          ],
          [
            185589.67502269207,
            651733.6453068021
          ],
          [
            185538.62082335664,
            651701.9474699628
          ],
          [
            185481.011537564,
            651667.5423837675
          ]
        ]
      },
      "properties": {
        "FID": 26,
        "MAPKEY": "6FF9",
        "LAYER": "RAK-ZIR",
        "NAME": "מסילת ברזל",
        "TYPECODE": 204001,
        "TYPENAME": "מסילת ברזל",
        "TCODE": "3"
      }
    },
    {
      "type": "Feature",
      "id": 35,
      "geometry": {
        "type": "LineString",
        "coordinates": [
          [
            199313.3337714171,
            649093.1822969343
          ],
          [
            199289.4398724513,
            649116.2940394697
          ],
          [
            199148.64261439495,
            649244.219766457
          ],
          [
            199005.9542989845,
            649354.0518597942
          ],
          [
            198823.00044454483,
            649519.7943258374
          ],
          [
            198685.16008788,
            649654.6664897756
          ],
          [
            198545.55078887512,
            649756.5739938602
          ],
          [
            198347.35892026956,
            649882.2778314785
          ],
          [
            198137.34802660852,
            650030.2570344458
          ],
          [
            197882.07321430973,
            650177.0238288457
          ],
          [
            197576.53037121662,
            650361.0817195226
          ],
          [
            197427.96858218315,
            650443.451495501
          ],
          [
            197272.25429135145,
            650534.8947141172
          ],
          [
            197096.85846084336,
            650610.9926978317
          ],
          [
            196887.90481697186,
            650689.758747248
          ],
          [
            196646.75066628074,
            650804.4786370858
          ],
          [
            196382.41589865353,
            650947.4419412254
          ],
          [
            196218.64584358793,
            651031.1886101428
          ],
          [
            195900.10652856063,
            651183.2905709443
          ],
          [
            195621.5415483695,
            651345.0055933933
          ],
          [
            195381.80622118583,
            651498.6429178251
          ],
          [
            195182.32904341983,
            651627.0438727613
          ],
          [
            194993.76160625005,
            651754.6842303879
          ],
          [
            194704.90703577313,
            651910.5403007951
          ],
          [
            194664.42536423734,
            651938.3424155271
          ],
          [
            193784.19089060815,
            652489.5837746196
          ],
          [
            192424.197735257,
            653118.3082571782
          ],
          [
            192320.38267855975,
            653175.6251833668
          ],
          [
            192159.22690021727,
            653286.2656304764
          ],
          [
            191981.3422172045,
            653422.5684968871
          ],
          [
            191839.02518249047,
            653544.9047632243
          ],
          [
            191679.757775881,
            653674.5108092023
          ],
          [
            191544.12267594744,
            653785.3934398631
          ],
          [
            191416.83441609965,
            653893.0375259068
          ],
          [
            191119.1511785346,
            654157.7716825521
          ],
          [
            190951.71195568866,
            654302.8429798578
          ],
          [
            190799.4873961791,
            654419.1215751391
          ],
          [
            190640.9509961274,
            654539.6173604664
          ],
          [
            190459.23798700975,
            654667.6209693132
          ],
          [
            190308.31073405,
            654767.3440644739
          ],
          [
            190126.5335592641,
            654898.5439052948
          ],
          [
            189974.49423503198,
            655045.0067473305
          ],
          [
            189858.56258522498,
            655169.5831253445
          ],
          [
            189759.29752069202,
            655242.8933906367
          ],
          [
            189623.95792453276,
            655352.1729177488
          ],
          [
            189429.31622987086,
            655505.1822572469
          ],
          [
            189332.6884908753,
            655601.5281876874
          ],
          [
            189181.918418722,
            655739.0258032802
          ],
          [
            189042.7249838168,
            655857.2808680711
          ],
          [
            188889.34991030858,
            655985.8263358288
          ],
          [
            188703.02632309374,
            656098.057829523
          ],
          [
            188529.5348630271,
            656197.013746145
          ],
          [
            188391.37798557797,
            656280.9850248151
          ],
          [
            188233.07998349483,
            656365.0325862227
          ],
          [
            188233.07998349483,
            656365.0325862227
          ],
          [
            188059.94219684054,
            656468.856244266
          ],
          [
            187921.43164597906,
            656552.9038056737
          ],
          [
            187921.43164597906,
            656552.9038056737
          ],
          [
            187683.9850447769,
            656681.4473014136
          ],
          [
            187525.68744461628,
            656780.326935298
          ],
          [
            187382.2300309494,
            656874.2625450236
          ],
          [
            187382.2300309494,
            656874.2625450236
          ],
          [
            187208.87493905757,
            656969.6899444358
          ],
          [
            187114.72129706145,
            657023.784669061
          ],
          [
            187055.3609732922,
            657045.7541215257
          ],
          [
            186877.3142602821,
            657125.7447978636
          ],
          [
            186770.21029397973,
            657167.0835787818
          ],
          [
            186656.63109739372,
            657202.0442714209
          ],
          [
            186562.42629989254,
            657236.9376593668
          ],
          [
            186482.41330262081,
            657265.3808013359
          ],
          [
            186340.39824265504,
            657294.0404562606
          ],
          [
            186197.08339224453,
            657320.1445593813
          ],
          [
            186030.45330039662,
            657322.0064780568
          ],
          [
            185808.23182929828,
            657307.4196251612
          ],
          [
            185635.0935477458,
            657292.6611418988
          ],
          [
            185523.9756345035,
            657284.0872120596
          ],
          [
            185392.19394189894,
            657278.1457735025
          ],
          [
            185222.94709877894,
            657272.3349518036
          ],
          [
            184974.94020873876,
            657284.7226380039
          ],
          [
            184781.12372371287,
            657272.5960096825
          ],
          [
            184375.51729028314,
            657295.7762976302
          ],
          [
            184136.50305842035,
            657375.4592997348
          ],
          [
            184098.84159051933,
            657401.4082779576
          ]
        ]
      },
      "properties": {
        "FID": 35,
        "MAPKEY": "8DD5",
        "LAYER": "RAK-ZIR",
        "NAME": "מסילת ברזל",
        "TYPECODE": 204001,
        "TYPENAME": "מסילת ברזל",
        "TCODE": "3"
      }
    }
  ]
}