{
  "type": "FeatureCollection",
  "name": "tmm321_roads",
  "description": "תמ\"מ 3/21 – כבישים",
  "crs": {
    "type": "name",
    "properties": {
      "name": "urn:ogc:def:crs:EPSG::2039"
    }
  },
  "features": [
    {
      "type": "Feature",
      "properties": {
        "FID": 1,
        "MAPKEY": "116D",
        "LAYER": "H-ROAD-E",
        "NAME": "דרך עורקית עירונית",
        "ROAD_NUM": " ",
        "TYPECODE": 202007,
        "TYPENAME": "דרך עורקית עירונית",
        "TCODE": "3"
      },
      "geometry": {
        "type": "LineString",
        "coordinates": [
          [
            176965.900597,
            654989.783177
          ],
          [
            177200.858805,
            654919.977724
          ],
          [
            177471.40649700002,
            654857.432886
          ],
          [
            177813.157313,
            654766.857986
          ],
          [
            178105.087489,
            654661.8645
          ],
          [
            178397.040688,
            654521.4118240001
          ],
          [
            178703.25840599998,
            654338.476786
          ],
          [
            179194.563492,
            654149.325516
          ],
          [
            179749.94020399998,
            653953.386116
          ],
          [
            179906.576589,
            653911.577292
          ],
          [
            180098.796187,
            653884.120074
          ],
          [
            180390.67138800002,
            653864.226612
          ],
          [
            180547.30780100002,
            653822.4177880001
          ],
          [
            180703.95769,
            653759.334098
          ],
          [
            180860.64419000002,
            653639.516296
          ],
          [
            180953.286213,
            653483.93689
          ],
          [
            181088.74069,
            653172.541975
          ],
          [
            181181.542495,
            652768.753712
          ],
          [
            181274.403993,
            652272.7724820001
          ],
          [
            181317.27540699998,
            652024.764788
          ],
          [
            181345.878403,
            651826.332175
          ],
          [
            181403.02781,
            651514.5669730001
          ],
          [
            181424.429306,
            651443.7511839999
          ]
        ]
      }
    },
    {
      "type": "Feature",
      "properties": {
        "FID": 9,
        "MAPKEY": "18EF",
        "LAYER": "ROAD-A-ZIR",
        "NAME": "דרך מהירה",
        "ROAD_NUM": "1",
        "TYPECODE": 202005,
        "TYPENAME": "דרך מהירה",
        "TCODE": "3"
      },
      "geometry": {
        "type": "LineString",
        "coordinates": [
          [
            179717.04708693892,
            661763.0614968677
          ],
          [
            179878.211148,
            661360.151309
          ],
          [
            179994.628046,
            661159.067578
          ],
          [
            180142.79500699998,
            660979.1505410001
          ],
          [
            180798.96300699998,
            660365.315973
          ],
          [
            181910.215244,
            659455.147523
          ],
          [
            182185.382457,
            659222.313667
          ],
          [
            182661.633404,
            658841.312955
          ],
          [
            183159.051088,
            658439.145437
          ],
          [
            183477.360605,
            658179.966787
          ],
          [
            183883.352492,
            657820.210409
          ],
          [
            184367.658207,
            657446.641892
          ],
          [
            184691.796013,
            657187.908323
          ],
          [
            184745.139391,
            657143.484606
          ],
          [
            184944.555687,
            656995.502278
          ],
          [
            185165.363987,
            656790.887425
          ],
          [
            185386.172202,
            656586.273075
          ],
          [
            185685.33560299998,
            656304.0202
          ],
          [
            186077.044693,
            656015.113715
          ],
          [
            186354.805892,
            655803.676573
          ],
          [
            186675.27928699998,
            655592.442101
          ],
          [
            186896.010407,
            655508.386517
          ],
          [
            187059.338293,
            655458.449576
          ],
          [
            187205.680803,
            655426.845412
          ],
          [
            187400.52178900002,
            655451.597593
          ],
          [
            187659.833802,
            655596.978479
          ],
          [
            187967.609997,
            655806.742185
          ],
          [
            188178.322596,
            655919.847378
          ],
          [
            188430.055207,
            655936.768274
          ],
          [
            188625.031512,
            655929.413273
          ],
          [
            188820.415014,
            655825.7343220001
          ],
          [
            189073.064201,
            655625.928176
          ],
          [
            189342.230009,
            655361.961917
          ],
          [
            189578.769801,
            655129.99199
          ],
          [
            189896.60271099998,
            654882.247805
          ],
          [
            190271.531804,
            654578.51092
          ],
          [
            190784.885088,
            654194.980323
          ],
          [
            191151.827496,
            653859.10762
          ],
          [
            191771.248799,
            653363.5631
          ],
          [
            191983.285088,
            653163.617189
          ],
          [
            192260.267402,
            652971.921521
          ],
          [
            192463.842092,
            652852.216804
          ],
          [
            192675.402705,
            652764.648014
          ],
          [
            193171.559895,
            652605.816179
          ],
          [
            193415.577192,
            652526.385777
          ],
          [
            193635.294697,
            652430.818309
          ],
          [
            193757.405187,
            652367.0224
          ],
          [
            193896.066593,
            652231.0396809999
          ],
          [
            194034.897388,
            652054.922578
          ],
          [
            194214.815994,
            651766.567783
          ],
          [
            194471.425514,
            651664.384381
          ],
          [
            194785.088107,
            651556.715217
          ],
          [
            195107.21549200002,
            651449.074576
          ],
          [
            195454.737305,
            651341.52218
          ],
          [
            195759.864313,
            651250.5543869999
          ],
          [
            196022.59561199998,
            651176.1705819999
          ],
          [
            196268.53821300002,
            651068.268384
          ],
          [
            196641.667603,
            650910.611207
          ],
          [
            197023.296898,
            650744.6185
          ],
          [
            197396.532197,
            650561.865982
          ],
          [
            197752.802093,
            650387.420473
          ],
          [
            198007.280986,
            650262.816291
          ],
          [
            198202.363907,
            650171.469503
          ],
          [
            198346.656303,
            650079.947619
          ],
          [
            198482.44890699998,
            649996.76121
          ],
          [
            198677.70839100002,
            649863.588017
          ],
          [
            198822.072401,
            649755.335514
          ],
          [
            198975.006999,
            649622.016304
          ],
          [
            199195.696705,
            649480.565294
          ],
          [
            199450.52889400002,
            649272.308802
          ],
          [
            199526.92541300002,
            649222.379173
          ],
          [
            199781.722487,
            649022.488019
          ],
          [
            200010.912014,
            648872.700975
          ],
          [
            200248.63800099998,
            648706.212617
          ],
          [
            200401.325213,
            648631.449817
          ],
          [
            200537.08270199999,
            648556.6293029999
          ],
          [
            200732.059006,
            648490.377801
          ],
          [
            200927.035198,
            648424.12641
          ],
          [
            201215.161801,
            648349.8307950001
          ],
          [
            201706.552004,
            648251.139388
          ],
          [
            202197.837201,
            648177.543321
          ],
          [
            202570.506113,
            648128.634912
          ],
          [
            203129.474691,
            648063.637719
          ],
          [
            203476.643292,
            648039.737578
          ],
          [
            203730.55579800002,
            648048.977616
          ],
          [
            204069.08298900002,
            648066.874186
          ],
          [
            204289.029687,
            648101.0938019999
          ]
        ]
      }
    },
    {
      "type": "Feature",
      "properties": {
        "FID": 11,
        "MAPKEY": "197A",
        "LAYER": "ROAD-A-ZIR",
        "NAME": "דרך מהירה",
        "ROAD_NUM": " ",
        "TYPECODE": 202005,
        "TYPENAME": "דרך מהירה",
        "TCODE": "3"
      },
      "geometry": {
        "type": "LineString",
        "coordinates": [
          [
            191151.827496,
            653859.10762
          ],
          [
            191245.965901,
            653597.5067
          ],
          [
            191332.541711,
            653261.2003029999
          ],
          [
            191462.316609,
            652777.778298
          ],
          [
            191599.12830799998,
            652308.406322
          ],
          [
            191772.042798,
            651691.893174
          ],
          [
            191822.337589,
            651544.802627
          ],
          [
            191915.594504,
            651306.695504
          ],
          [
            192037.887094,
            650914.411588
          ],
          [
            192117.307594,
            650592.105879
          ],
          [
            192275.46669,
            650108.781776
          ],
          [
            192368.96070899998,
            649814.575007
          ],
          [
            192498.083197,
            649485.427696
          ],
          [
            192612.924613,
            649177.269415
          ],
          [
            192742.106088,
            648834.097025
          ],
          [
            192914.219403,
            648406.92191
          ],
          [
            193057.682799,
            648042.761216
          ]
        ]
      }
    },
    {
      "type": "Feature",
      "properties": {
        "FID": 13,
        "MAPKEY": "1CDC",
        "LAYER": "H-ROAD-C",
        "NAME": "דרך ראשית",
        "ROAD_NUM": "40",
        "TYPECODE": 202009,
        "TYPENAME": "דרך ראשית",
        "TCODE": "3"
      },
      "geometry": {
        "type": "LineString",
        "coordinates": [
          [
            179894.14188900002,
            629747.066918
          ],
          [
            179714.326706,
            630231.639804
          ],
          [
            179406.477288,
            630966.732296
          ],
          [
            179252.3748,
            631376.105005
          ],
          [
            179106.80868900003,
            631768.7763980001
          ],
          [
            179029.421692,
            632052.932505
          ],
          [
            178977.32329899998,
            632362.2719759999
          ],
          [
            178950.514414,
            632696.7944199999
          ],
          [
            178881.804592,
            632930.788479
          ],
          [
            178796.200304,
            633156.358927
          ],
          [
            178659.911995,
            633356.658324
          ],
          [
            178455.869511,
            633565.090024
          ],
          [
            178201.21399800002,
            633731.519999
          ],
          [
            177988.883286,
            633898.095989
          ],
          [
            177835.666186,
            634098.337616
          ],
          [
            177741.561286,
            634332.244098
          ],
          [
            177698.210892,
            634574.690511
          ],
          [
            177697.503706,
            634741.995801
          ],
          [
            177730.868096,
            634859.226115
          ],
          [
            177772.768099,
            634959.755003
          ],
          [
            177915.257712,
            635294.860674
          ],
          [
            178116.718613,
            635697.093219
          ],
          [
            178318.497808,
            636024.038009
          ],
          [
            178478.44689100003,
            636233.723293
          ],
          [
            178579.46050599997,
            636367.917204
          ],
          [
            178722.232593,
            636636.101183
          ],
          [
            178924.011703,
            636963.045973
          ],
          [
            179083.5726,
            637264.749518
          ],
          [
            179277.063597,
            637549.838598
          ],
          [
            179428.371297,
            637801.321208
          ],
          [
            179587.790491,
            638136.485877
          ],
          [
            179747.209798,
            638471.6501
          ],
          [
            179873.369694,
            638664.488611
          ],
          [
            179965.953492,
            638790.287993
          ],
          [
            180142.903912,
            638983.301712
          ],
          [
            180353.607697,
            639201.526816
          ],
          [
            180463.051102,
            639344.115814
          ],
          [
            180724.54459200002,
            639562.516125
          ],
          [
            180935.38991099998,
            639747.280718
          ],
          [
            181112.233686,
            639965.389723
          ],
          [
            181390.232695,
            640284.232016
          ],
          [
            181626.154289,
            640544.371827
          ],
          [
            181920.942109,
            640896.733127
          ],
          [
            182266.23560699998,
            641316.191215
          ],
          [
            182468.439486,
            641542.753077
          ],
          [
            182645.53070499998,
            641702.305616
          ],
          [
            182805.69299100002,
            641861.7991
          ],
          [
            182988.375394,
            642028.8167109999
          ],
          [
            183269.318803,
            642323.492506
          ],
          [
            183537.246012,
            642632.804125
          ],
          [
            183885.74078800002,
            643076.532809
          ],
          [
            184177.337612,
            643489.2326849999
          ],
          [
            184419.140012,
            643844.963016
          ],
          [
            184575.57508699998,
            644115.188876
          ],
          [
            184824.410306,
            644605.695787
          ],
          [
            185222.656594,
            645217.468827
          ],
          [
            185578.274901,
            645701.3896079999
          ],
          [
            185891.277091,
            646036.182093
          ],
          [
            186126.034807,
            646278.411882
          ],
          [
            186424.854601,
            646528.0363030001
          ],
          [
            186974.47461099998,
            646928.849098
          ],
          [
            187249.06458900002,
            647086.871817
          ],
          [
            187492.029313,
            647256.277427
          ],
          [
            187735.232695,
            647369.493917
          ],
          [
            188205.562692,
            647555.73709
          ],
          [
            188805.583289,
            647806.643115
          ],
          [
            189072.847805,
            647992.18618
          ],
          [
            189242.913295,
            648113.178027
          ],
          [
            189404.619,
            648290.330918
          ],
          [
            189501.51329200002,
            648427.124373
          ],
          [
            189646.702292,
            648668.436984
          ],
          [
            190033.46449800002,
            649408.259315
          ],
          [
            190235.035998,
            649762.144909
          ],
          [
            190428.824497,
            650035.7324880001
          ],
          [
            190525.88899500002,
            650132.391783
          ],
          [
            190606.84330799998,
            650196.887185
          ],
          [
            190850.08010999998,
            650302.077201
          ],
          [
            191085.15999100002,
            650415.266175
          ],
          [
            191206.62600999998,
            650503.9822730001
          ],
          [
            191368.297505,
            650689.161694
          ],
          [
            191424.680796,
            650801.73462
          ],
          [
            191464.784514,
            650922.279321
          ],
          [
            191455.948912,
            651090.816928
          ],
          [
            191348.997905,
            651411.53142
          ],
          [
            191290.074388,
            651556.993798
          ],
          [
            191110.828898,
            652028.795077
          ],
          [
            190954.49800999998,
            652501.853122
          ],
          [
            190904.336786,
            652838.817707
          ],
          [
            190911.71250599998,
            653015.438275
          ],
          [
            190975.641695,
            653264.49761
          ],
          [
            191151.827496,
            653859.10762
          ],
          [
            191149.767806,
            654074.383322
          ],
          [
            191123.99149100002,
            654310.980106
          ],
          [
            191131.52549600002,
            654482.399688
          ],
          [
            191155.541995,
            654662.036694
          ],
          [
            191204.26638800002,
            654858.082479
          ],
          [
            191318.507912,
            655184.9396929999
          ],
          [
            191424.939398,
            655405.669118
          ],
          [
            191645.47468800002,
            655985.9011220001
          ],
          [
            191800.69980899998,
            656386.353286
          ],
          [
            191955.994114,
            656770.482292
          ],
          [
            192062.425487,
            656991.211605
          ],
          [
            192201.891995,
            657212.054727
          ],
          [
            192390.80689,
            657457.553301
          ],
          [
            192629.20591,
            657719.545272
          ],
          [
            192908.7252,
            658022.486605
          ],
          [
            193163.675899,
            658276.373623
          ],
          [
            193440.571796,
            658607.567057
          ],
          [
            194044.36500299998,
            659223.287666
          ],
          [
            194747.71324100002,
            659816.882151
          ],
          [
            194833.327276,
            659889.1366109999
          ],
          [
            195286.966547,
            660188.91694
          ],
          [
            195707.301657,
            660405.564501
          ]
        ]
      }
    },
    {
      "type": "Feature",
      "properties": {
        "FID": 14,
        "MAPKEY": "1E70",
        "LAYER": "H-ROAD-C",
        "NAME": "דרך ראשית",
        "ROAD_NUM": "44",
        "TYPECODE": 202009,
        "TYPENAME": "דרך ראשית",
        "TCODE": "3"
      },
      "geometry": {
        "type": "LineString",
        "coordinates": [
          [
            179218.44809100003,
            660697.697685
          ],
          [
            179787.016268,
            660430.6300359999
          ],
          [
            180160.236369,
            660234.598986
          ],
          [
            180453.751576,
            660025.341759
          ],
          [
            180707.253663,
            659842.236704
          ],
          [
            180974.179093,
            659632.939513
          ],
          [
            181241.29733,
            659384.324032
          ],
          [
            181476.29768599998,
            659084.730074
          ],
          [
            181677.381448,
            658841.312955
          ],
          [
            181867.881826,
            658576.729086
          ],
          [
            182022.01748,
            658362.049729
          ],
          [
            182095.976207,
            658276.325063
          ],
          [
            182169.5207989532,
            658187.297335307
          ],
          [
            182169.5207989532,
            658187.297335307
          ],
          [
            182277.57496300002,
            658050.7023700001
          ],
          [
            182370.474655,
            657909.939745
          ],
          [
            182534.018796,
            657656.930274
          ],
          [
            182624.672883,
            657524.4358089999
          ],
          [
            182672.171869,
            657458.796838
          ],
          [
            182830.32814,
            657213.765616
          ],
          [
            182987.289261,
            656956.104394
          ],
          [
            183060.509869,
            656837.5566980001
          ],
          [
            183126.75709600002,
            656725.982441
          ],
          [
            183303.3076604073,
            656429.4120525625
          ],
          [
            183303.3076604073,
            656429.4120525625
          ],
          [
            183279.140619,
            656469.921871
          ],
          [
            183279.140619,
            656469.921871
          ],
          [
            183542.815444,
            656027.938961
          ],
          [
            183970.401041,
            655299.515596
          ],
          [
            184497.756456,
            654401.363165
          ],
          [
            184690.14120399999,
            654118.605095
          ],
          [
            184839.804802,
            653849.827897
          ],
          [
            185108.548976,
            653424.03318
          ],
          [
            185222.707727,
            653243.161568
          ],
          [
            185281.609265,
            653149.838763
          ],
          [
            185374.24430999998,
            653004.896707
          ],
          [
            185512.174348,
            652771.2426829999
          ],
          [
            185374.244479,
            653004.89693
          ],
          [
            185374.24430999998,
            653004.896707
          ],
          [
            185657.06251199997,
            652533.343755
          ],
          [
            185880.20529100002,
            652166.922882
          ],
          [
            185898.57811600002,
            652134.890661
          ],
          [
            185963.250002,
            652022.187515
          ],
          [
            186258.453128,
            651507.71873
          ],
          [
            186464.587056,
            651148.481055
          ],
          [
            186538.562508,
            650993.484374
          ],
          [
            186657.04926600002,
            650745.163939
          ],
          [
            186835.169157,
            650504.888566
          ],
          [
            186899.29121,
            650420.091403
          ],
          [
            187019.718754,
            650309.093732
          ],
          [
            187151.874998,
            650187.265641
          ],
          [
            187476.718748,
            649968.890615
          ],
          [
            187801.593742,
            649741.375015
          ],
          [
            187879.265642,
            649679.062486
          ],
          [
            188108.046897,
            649495.484386
          ],
          [
            188266.01561600002,
            649340.562499
          ],
          [
            188386.92841300002,
            649217.4632989999
          ],
          [
            188554.187504,
            649039.734382
          ],
          [
            188694.015642,
            648802.437491
          ],
          [
            188861.953133,
            648482.9218830001
          ],
          [
            189030.00000899998,
            648135.953131
          ],
          [
            189072.847805,
            647992.18618
          ],
          [
            189245.406258,
            647533.093714
          ],
          [
            189479.046878,
            646994.296842
          ],
          [
            189581.968735,
            646729.437519
          ],
          [
            189656.843757,
            646528.484398
          ],
          [
            189679.078124,
            646463.500043
          ],
          [
            189684.968761,
            646446.265625
          ],
          [
            189701.705902,
            646328.611942
          ],
          [
            189713.57811300003,
            646245.156274
          ],
          [
            189709.263213,
            646148.983085
          ],
          [
            189708.218749,
            646125.7031769999
          ],
          [
            189698.343739,
            646018.437511
          ],
          [
            189696.437503,
            645855.015602
          ],
          [
            189681.593771,
            645701.7499599999
          ],
          [
            189672.159492,
            645557.855413
          ],
          [
            189588.783491,
            645256.414597
          ],
          [
            189564.696988,
            644946.8129
          ],
          [
            189574.046489,
            644737.710285
          ],
          [
            189634.644703,
            644420.034725
          ],
          [
            189780.988795,
            643843.327982
          ],
          [
            189909.979412,
            643366.945894
          ],
          [
            189936.151793,
            643182.997619
          ],
          [
            189929.137393,
            642839.993125
          ],
          [
            189921.768793,
            642580.640997
          ],
          [
            189906.00549100002,
            642304.529003
          ],
          [
            189881.707394,
            642045.118491
          ],
          [
            189882.5912,
            641835.987298
          ],
          [
            189908.729512,
            641660.404304
          ],
          [
            190242.363212,
            640833.381126
          ],
          [
            190626.928093,
            639973.071921
          ],
          [
            190900.494201,
            639338.246202
          ],
          [
            191113.8146,
            638937.4425049999
          ],
          [
            191437.887205,
            638369.7135739999
          ],
          [
            191557.28079400002,
            638160.99001
          ],
          [
            191608.5653,
            638044.051616
          ],
          [
            191643.09760799998,
            637885.228376
          ],
          [
            191652.622909,
            637634.300025
          ],
          [
            191679.53920199999,
            637274.6816809999
          ],
          [
            191714.812991,
            636940.1878150001
          ],
          [
            191775.411996,
            636622.512199
          ],
          [
            191861.369609,
            636313.289385
          ],
          [
            191980.763197,
            636104.566378
          ],
          [
            192125.162209,
            635987.948595
          ],
          [
            192405.106411,
            635846.701426
          ],
          [
            192727.268797,
            635730.696118
          ],
          [
            193032.289895,
            635664.82361
          ],
          [
            193472.961301,
            635549.226376
          ],
          [
            193990.242401,
            635333.508496
          ],
          [
            194337.729213,
            635234.321381
          ],
          [
            194566.423909,
            635201.647884
          ]
        ]
      }
    },
    {
      "type": "Feature",
      "properties": {
        "FID": 15,
        "MAPKEY": "1FB6",
        "LAYER": "H-ROAD-C",
        "NAME": "דרך ראשית",
        "ROAD_NUM": "40",
        "TYPECODE": 202009,
        "TYPENAME": "דרך ראשית",
        "TCODE": "3"
      },
      "geometry": {
        "type": "LineString",
        "coordinates": [
          [
            189626.62098462493,
            675974.6808000276
          ],
          [
            189833.065125,
            675866.729609
          ],
          [
            190104.386928,
            675534.806932
          ],
          [
            190191.680292,
            674920.126129
          ],
          [
            190227.673076,
            674454.917007
          ],
          [
            190180.60911400002,
            673740.33475
          ],
          [
            190232.805874,
            673408.082364
          ],
          [
            190239.079329,
            672128.61782
          ],
          [
            190256.668354,
            671979.095402
          ],
          [
            190291.52051,
            671746.516182
          ],
          [
            190377.10293199998,
            671480.78026
          ],
          [
            190496.31543699998,
            671231.711437
          ],
          [
            190682.869552,
            670999.360506
          ],
          [
            190835.712083,
            670766.958838
          ],
          [
            190878.593129,
            670702.4688500001
          ],
          [
            191056.46656600002,
            670434.960083
          ],
          [
            191091.548141,
            669951.326645
          ],
          [
            191092.622297,
            669936.518125
          ],
          [
            191060.62171099999,
            669587.522507
          ],
          [
            191033.13710999998,
            669325.126926
          ],
          [
            190996.213117,
            668972.613415
          ],
          [
            190997.109325,
            668789.8327649999
          ],
          [
            190998.657348,
            668474.120776
          ],
          [
            191119.091926,
            667975.805577
          ],
          [
            191221.53011199998,
            667710.0949959999
          ],
          [
            191459.303306,
            667344.888802
          ],
          [
            191529.903854,
            666696.949768
          ],
          [
            191499.278316,
            666390.753829
          ],
          [
            191481.69926400002,
            666214.997413
          ],
          [
            191433.576147,
            665716.42864
          ],
          [
            191346.401688,
            665380.652333
          ],
          [
            191334.315397,
            665334.098768
          ],
          [
            191201.261646,
            664968.334576
          ],
          [
            191169.179587,
            664635.955376
          ],
          [
            191087.42638800002,
            664120.719504
          ],
          [
            191080.323056,
            663835.8005520001
          ],
          [
            191073.34072100002,
            663555.735742
          ],
          [
            191127.73726400002,
            662774.839971
          ],
          [
            191131.239548,
            662724.562493
          ],
          [
            191146.542005,
            662460.855503
          ],
          [
            191162.866582,
            662246.701546
          ],
          [
            191182.133835,
            661993.944199
          ],
          [
            191232.872492,
            661620.373506
          ],
          [
            191252.082567,
            661478.936561
          ],
          [
            191270.497061,
            661256.925477
          ],
          [
            191282.607703,
            661110.915985
          ],
          [
            191287.91243199998,
            661046.960274
          ],
          [
            191302.53818499998,
            660867.4979739999
          ],
          [
            191358.920319,
            660315.939151
          ],
          [
            191446.702524,
            659601.559787
          ],
          [
            191459.062417,
            659310.5750279999
          ],
          [
            191467.500822,
            659159.868965
          ],
          [
            191466.232673,
            659152.855896
          ],
          [
            191379.53583309037,
            658848.6919401685
          ],
          [
            191242.32254551613,
            658607.2463377098
          ],
          [
            191314.42260169174,
            658153.6978376808
          ],
          [
            191404.20852965693,
            658011.2259875976
          ],
          [
            191644.65947732638,
            657693.7344197441
          ],
          [
            191930.23328,
            657242.737863
          ],
          [
            192062.425487,
            656991.211605
          ]
        ]
      }
    },
    {
      "type": "Feature",
      "properties": {
        "FID": 26,
        "MAPKEY": "3DB2",
        "LAYER": "H-ROAD-D",
        "NAME": "דרך אזורית",
        "ROAD_NUM": "453",
        "TYPECODE": 202004,
        "TYPENAME": "דרך אזורית",
        "TCODE": "3"
      },
      "geometry": {
        "type": "LineString",
        "coordinates": [
          [
            191318.507912,
            655184.9396929999
          ],
          [
            191451.371992,
            655014.004375
          ],
          [
            191609.21929100002,
            654794.1849839999
          ],
          [
            191733.514309,
            654696.674208
          ],
          [
            191915.447292,
            654640.170005
          ],
          [
            192138.60479,
            654600.131179
          ],
          [
            192336.952693,
            654568.168115
          ],
          [
            192469.092101,
            654568.623075
          ],
          [
            192609.455212,
            654577.268221
          ],
          [
            192832.164803,
            654643.328105
          ],
          [
            192947.64899400002,
            654676.372615
          ],
          [
            193079.719104,
            654693.150621
          ],
          [
            193294.5145,
            654677.5671999999
          ],
          [
            193616.777202,
            654637.869582
          ],
          [
            193930.780295,
            654598.1433850001
          ],
          [
            194186.973605,
            654558.218313
          ],
          [
            194401.906608,
            654509.989415
          ],
          [
            194616.806191,
            654469.921397
          ],
          [
            194748.97980899998,
            654462.215421
          ],
          [
            194947.050804,
            654495.543982
          ],
          [
            195285.313009,
            654578.325274
          ],
          [
            195684.27018022677,
            654704.9507713212
          ],
          [
            195807.6402651659,
            654701.3274729939
          ],
          [
            195941.29589674502,
            654657.9310332696
          ],
          [
            196063.19195664595,
            654558.2550162908
          ],
          [
            196174.00620274094,
            654425.353725589
          ],
          [
            196271.02544728035,
            654312.5338469552
          ],
          [
            196373.47217930888,
            654203.8514438792
          ],
          [
            196492.16979504746,
            654011.077741059
          ]
        ]
      }
    },
    {
      "type": "Feature",
      "properties": {
        "FID": 36,
        "MAPKEY": "4D48",
        "LAYER": "H-ROAD-E",
        "NAME": "דרך עורקית עירונית",
        "ROAD_NUM": " ",
        "TYPECODE": 202007,
        "TYPENAME": "דרך עורקית עירונית",
        "TCODE": "3"
      },
      "geometry": {
        "type": "LineString",
        "coordinates": [
          [
            181663.282503,
            656373.628621
          ],
          [
            181869.762608,
            656310.780309
          ],
          [
            182161.692812,
            656205.786209
          ],
          [
            182531.968597,
            656037.337406
          ],
          [
            182794.88464985177,
            655905.0956310156
          ]
        ]
      }
    },
    {
      "type": "Feature",
      "properties": {
        "FID": 40,
        "MAPKEY": "5266",
        "LAYER": "H-ROAD-D",
        "NAME": "דרך אזורית",
        "ROAD_NUM": "423",
        "TYPECODE": 202004,
        "TYPENAME": "דרך אזורית",
        "TCODE": "3"
      },
      "geometry": {
        "type": "LineString",
        "coordinates": [
          [
            186550.11069,
            650992.868215
          ],
          [
            186300.950905,
            651005.8720740001
          ],
          [
            186101.645208,
            650983.6531829999
          ],
          [
            185802.696593,
            650932.596507
          ],
          [
            185525.127212,
            650846.182115
          ],
          [
            184934.417809,
            650637.7260789999
          ],
          [
            184336.631206,
            650365.410782
          ],
          [
            184172.954008,
            650286.626903
          ],
          [
            184002.158986,
            650207.80959
          ],
          [
            183852.704891,
            650150.368673
          ],
          [
            183710.33859,
            650142.603085
          ],
          [
            183503.895097,
            650148.717285
          ],
          [
            183375.765404,
            650141.019179
          ],
          [
            183261.881895,
            650119.204901
          ],
          [
            183112.432602,
            650054.6723249999
          ],
          [
            183005.709207,
            649969.066325
          ],
          [
            182714.030401,
            649684.016707
          ],
          [
            182657.172988,
            649541.913089
          ],
          [
            182614.704111,
            649165.85069
          ],
          [
            182593.519802,
            648899.810791
          ],
          [
            182586.545094,
            648676.3887209999
          ],
          [
            182565.4022,
            648346.523721
          ],
          [
            182537.119899,
            648048.537781
          ],
          [
            182480.466113,
            647590.853399
          ],
          [
            182501.86678900002,
            647521.810009
          ],
          [
            182523.30568800002,
            647392.48771
          ],
          [
            182687.207108,
            647123.778218
          ],
          [
            182972.160203,
            646798.908072
          ],
          [
            183306.921196,
            646509.732105
          ],
          [
            183385.320905,
            646361.1768199999
          ],
          [
            183699.16969500002,
            645384.004685
          ],
          [
            183841.874913,
            644866.9845809999
          ],
          [
            184069.984888,
            644378.735506
          ],
          [
            184248.150799,
            644067.543317
          ],
          [
            184419.140012,
            643844.963016
          ],
          [
            184469.02269,
            643763.644507
          ],
          [
            184775.3001,
            643488.517285
          ],
          [
            185159.890492,
            643199.576807
          ],
          [
            185387.758589,
            643087.188075
          ],
          [
            185750.842394,
            643032.17289
          ],
          [
            186256.279109,
            643006.198717
          ],
          [
            186904.070204,
            643009.264887
          ],
          [
            187202.791292,
            642981.177612
          ],
          [
            187397.55521199998,
            642965.117294
          ],
          [
            187558.636391,
            642907.114975
          ],
          [
            187685.82329200002,
            642857.36061
          ],
          [
            187830.08068699998,
            642774.203896
          ],
          [
            187965.87329000002,
            642691.018101
          ],
          [
            188084.736313,
            642607.7739210001
          ],
          [
            188186.562996,
            642549.566588
          ],
          [
            188305.460992,
            642457.957127
          ],
          [
            188466.789586,
            642341.397672
          ],
          [
            188602.441391,
            642291.673002
          ],
          [
            188839.565114,
            642267.393419
          ],
          [
            189203.593293,
            642260.2822799999
          ],
          [
            189508.366298,
            642252.966908
          ],
          [
            189779.10258900002,
            642287.361118
          ],
          [
            189906.00549100002,
            642304.529003
          ]
        ]
      }
    },
    {
      "type": "Feature",
      "properties": {
        "FID": 42,
        "MAPKEY": "56A9",
        "LAYER": "H-ROAD-E",
        "NAME": "דרך עורקית עירונית",
        "ROAD_NUM": " ",
        "TYPECODE": 202007,
        "TYPENAME": "דרך עורקית עירונית",
        "TCODE": "3"
      },
      "geometry": {
        "type": "LineString",
        "coordinates": [
          [
            181972.9673820606,
            650345.2757287894
          ],
          [
            182599.39669233875,
            651272.9576528813
          ],
          [
            183458.05608516792,
            652515.1878176238
          ],
          [
            183604.545919228,
            652690.7010994351
          ],
          [
            183691.14319768827,
            652761.4888424142
          ],
          [
            183819.72626882256,
            652845.3856841887
          ],
          [
            184029.65895235783,
            652955.5003372997
          ],
          [
            184299.94686389086,
            653104.9415142877
          ],
          [
            184504.63113733358,
            653222.9210859194
          ],
          [
            184761.79802363517,
            653364.496958132
          ],
          [
            184945.4886567078,
            653474.6116112429
          ],
          [
            185032.0859351682,
            653537.5340494465
          ]
        ]
      }
    },
    {
      "type": "Feature",
      "properties": {
        "FID": 43,
        "MAPKEY": "56B8",
        "LAYER": "H-ROAD-E",
        "NAME": "דרך עורקית עירונית",
        "ROAD_NUM": " ",
        "TYPECODE": 202007,
        "TYPENAME": "דרך עורקית עירונית",
        "TCODE": "3"
      },
      "geometry": {
        "type": "LineString",
        "coordinates": [
          [
            183778.68931722708,
            652818.6102260778
          ],
          [
            183727.88132430287,
            652924.0391181977
          ],
          [
            183643.9082508887,
            653049.8839946049
          ],
          [
            183565.18358756718,
            653139.0246303995
          ],
          [
            183436.59977239976,
            653209.8123733785
          ],
          [
            183255.53334437334,
            653293.709215153
          ],
          [
            183129.57373425225,
            653351.3882455912
          ],
          [
            183014.11094431614,
            653411.6887867847
          ],
          [
            182056.93623492576,
            653831.2551409691
          ]
        ]
      }
    },
    {
      "type": "Feature",
      "properties": {
        "FID": 44,
        "MAPKEY": "56D3",
        "LAYER": "H-ROAD-E",
        "NAME": "דרך עורקית עירונית",
        "ROAD_NUM": " ",
        "TYPECODE": 202007,
        "TYPENAME": "דרך עורקית עירונית",
        "TCODE": "3"
      },
      "geometry": {
        "type": "LineString",
        "coordinates": [
          [
            183200.2042294129,
            652142.1512493073
          ],
          [
            183072.00053422106,
            652195.6800906571
          ],
          [
            182964.39992817363,
            652225.5839643008
          ],
          [
            182810.0301603584,
            652233.3928793255
          ],
          [
            182668.2380801763,
            652217.5683927569
          ],
          [
            182441.17051630514,
            652197.0877862393
          ],
          [
            182188.3939112192,
            652168.7717910513
          ],
          [
            181894.73292651947,
            652137.2573472558
          ],
          [
            181803.2750131928,
            652127.8046349527
          ],
          [
            181702.35638500703,
            652126.229182902
          ],
          [
            181599.8605373759,
            652137.2573472558
          ],
          [
            181481.59613782947,
            652160.8885877354
          ]
        ]
      }
    },
    {
      "type": "Feature",
      "properties": {
        "FID": 52,
        "MAPKEY": "6442",
        "LAYER": "ROAD-A-ZIR",
        "NAME": "דרך מהירה",
        "ROAD_NUM": "4",
        "TYPECODE": 202005,
        "TYPENAME": "דרך מהירה",
        "TCODE": "3"
      },
      "geometry": {
        "type": "LineString",
        "coordinates": [
          [
            185749.90114729913,
            667838.3746208482
          ],
          [
            185743.75219899992,
            667814.8999899997
          ],
          [
            185716.95430356977,
            667683.7187798014
          ],
          [
            185681.91258799992,
            667512.1822029997
          ],
          [
            185562.5538610003,
            666771.0539880019
          ],
          [
            185547.965511,
            666682.1669239999
          ],
          [
            185485.82749400003,
            666170.1046130002
          ],
          [
            185451.244279,
            665408.3298030001
          ],
          [
            185336.43133999998,
            664760.1117420001
          ],
          [
            185102.9762099998,
            664244.6475799996
          ],
          [
            184919.35516699878,
            663878.8073109974
          ],
          [
            184769.20123200017,
            663562.8670870004
          ],
          [
            184037.079733,
            661617.629676
          ],
          [
            183954.18590600003,
            661335.0237060001
          ],
          [
            183955.40803599998,
            661085.7773859998
          ],
          [
            183950.91287200002,
            660646.667075
          ],
          [
            183944.01093599995,
            659972.451733
          ],
          [
            183877.972901,
            659689.8711039999
          ],
          [
            183758.84359633137,
            659366.6923787331
          ],
          [
            183715.091226,
            659247.999157
          ],
          [
            183645.088113,
            659058.091963
          ],
          [
            183477.353797,
            658791.2115229999
          ],
          [
            183265.25465199997,
            658453.742691
          ],
          [
            183171.26874479945,
            658167.8806564135
          ],
          [
            183121.81412678488,
            658091.6716700137
          ],
          [
            182976.90916813668,
            657868.3755985876
          ],
          [
            182908.14056673303,
            657762.4046741034
          ],
          [
            182847.2720836278,
            657684.0878384586
          ],
          [
            182672.17252234012,
            657458.7976786138
          ],
          [
            182559.62621524604,
            657313.9859683671
          ],
          [
            182454.122966816,
            657192.1210387126
          ],
          [
            182374.6279979943,
            657100.2981133264
          ],
          [
            182248.5893783048,
            656969.1001832212
          ],
          [
            182183.20502390142,
            656901.0332198768
          ],
          [
            182111.3205348224,
            656826.2060907976
          ],
          [
            182009.77750798478,
            656720.5020379842
          ],
          [
            181901.14835864538,
            656607.4214941543
          ],
          [
            181834.0274165947,
            656537.5503675863
          ],
          [
            181724.176779,
            656415.071177
          ],
          [
            181521.029909,
            656188.57021
          ],
          [
            181392.991689,
            656039.038081
          ],
          [
            181229.42441200002,
            655790.0535960001
          ],
          [
            181058.83058799995,
            655399.2014869998
          ],
          [
            180831.45181100004,
            654752.7782070001
          ],
          [
            180497.45060499996,
            653864.7320859999
          ],
          [
            180326.92040000012,
            653374.5961880003
          ],
          [
            180028.40220399998,
            652656.919183
          ],
          [
            179957.320896,
            652493.473217
          ],
          [
            179843.5288039999,
            652329.824693
          ],
          [
            179708.38149,
            652166.075922
          ],
          [
            179366.817606,
            651965.8908930001
          ],
          [
            178640.8693870001,
            651735.519496
          ],
          [
            178099.94409699968,
            651598.2163239999
          ],
          [
            177779.66800100007,
            651504.5077150001
          ],
          [
            177359.7863900001,
            651325.2270980001
          ],
          [
            177146.30688599992,
            651203.6574939999
          ],
          [
            176790.593094,
            650868.663121
          ],
          [
            176271.29369000017,
            650313.0506220001
          ],
          [
            176029.45868899996,
            650006.9616279999
          ],
          [
            175844.58610799996,
            649679.867193
          ],
          [
            175745.09989299992,
            649409.9107039998
          ],
          [
            175652.754695,
            649104.529686
          ],
          [
            175560.72058800003,
            648316.913379
          ],
          [
            175411.96658900005,
            647174.4418900002
          ],
          [
            175312.773187,
            646450.6166920002
          ],
          [
            175227.63429199997,
            646010.527191
          ],
          [
            175114.00689800005,
            645591.5774800001
          ],
          [
            174943.417114,
            645193.633823
          ],
          [
            174659.15860599998,
            644440.565612
          ],
          [
            174339.24360399996,
            643786.6126799999
          ],
          [
            173969.46589700005,
            643182.0663760001
          ],
          [
            173756.146289,
            642812.287188
          ],
          [
            173474.85760599998,
            642415.231015
          ],
          [
            173315.15509100002,
            642146.988595
          ],
          [
            173206.1015100016,
            641912.3826200034
          ],
          [
            173004.74719699987,
            641485.0542879998
          ],
          [
            172820.39249799977,
            641041.0542799995
          ],
          [
            172694.62090100005,
            640756.1981770002
          ],
          [
            172652.93330999996,
            640605.47749
          ],
          [
            172620.0986960001,
            640362.7682930005
          ],
          [
            172595.62389399996,
            640145.1842979998
          ],
          [
            172563.92148900003,
            639634.7874969998
          ],
          [
            172565.5833887023,
            639241.6204674295
          ],
          [
            172567.28110999998,
            638840.0880150005
          ],
          [
            172560.019211,
            638555.6399880002
          ],
          [
            172543.65530999994,
            638421.737495
          ],
          [
            172518.75489200006,
            638304.5363730001
          ],
          [
            172443.17220399983,
            638162.0648129997
          ],
          [
            172317.08239800023,
            637952.4956830003
          ],
          [
            172014.25461299997,
            637499.7223189999
          ],
          [
            171761.827387,
            637139.141085
          ],
          [
            171732.5183915,
            637063.7518559999
          ],
          [
            171646.55828241436,
            636906.3892438742
          ],
          [
            171570.94546844612,
            636746.0169320885
          ],
          [
            171500.61967104557,
            636532.3044031854
          ],
          [
            171476.12848893425,
            636293.3582979233
          ],
          [
            171479.31414038572,
            636125.6659828713
          ],
          [
            171508.0459552476,
            635922.4981820674
          ],
          [
            171525.55504682296,
            635798.8637872622
          ],
          [
            171503.83345666976,
            635696.334926856
          ],
          [
            171438.25741684198,
            635569.0339169998
          ],
          [
            171355.0706226279,
            635395.9275968904
          ],
          [
            171210.92078932375,
            635217.5049551772
          ],
          [
            171112.3515943294,
            635079.9131942011
          ],
          [
            170993.60139925522,
            634904.1291765991
          ],
          [
            170930.49792166738,
            634794.624519691
          ],
          [
            170847.28182241725,
            634629.1410215541
          ],
          [
            170784.33463835524,
            634478.9813141255
          ],
          [
            170680.73240377265,
            634328.665313171
          ],
          [
            170554.39846010727,
            634142.6882279027
          ],
          [
            170448.25528486713,
            633992.3624586029
          ],
          [
            170357.39682695369,
            633831.931536745
          ],
          [
            170185.2478046898,
            633666.1061465206
          ],
          [
            170030.86583033792,
            633505.4310160287
          ],
          [
            169861.09168686043,
            633382.8113853277
          ],
          [
            169734.66005974144,
            633222.2437066349
          ],
          [
            169603.07817288986,
            633079.443075854
          ],
          [
            169517.22344952857,
            632939.3592159471
          ],
          [
            169416.02539876843,
            632824.6261525436
          ],
          [
            169388.19227167987,
            632794.0274128541
          ],
          [
            169302.14218141133,
            632704.7623660981
          ],
          [
            169223.84190160513,
            632582.4943958301
          ],
          [
            169092.1134895731,
            632477.8078749123
          ],
          [
            168965.41811712936,
            632385.8455939728
          ],
          [
            168871.73543654283,
            632299.0921828382
          ],
          [
            168772.99041133196,
            632207.2373536978
          ],
          [
            168689.49103006633,
            632115.4411346295
          ],
          [
            168654.35743640212,
            632000.9620482053
          ],
          [
            168632.0066927885,
            631866.2042782477
          ],
          [
            168624.72576290357,
            631777.2420501978
          ],
          [
            168605.0234117465,
            631614.5437013526
          ],
          [
            168595.3969081113,
            631474.7528918067
          ],
          [
            168593.4909099023,
            631309.5819807214
          ],
          [
            168586.57140879577,
            631126.6049483428
          ],
          [
            168584.70448396826,
            630951.2702746275
          ],
          [
            168580.12078826665,
            630821.6627644023
          ],
          [
            168585.7301602313,
            630684.4715055862
          ],
          [
            168586.28695591696,
            630539.6378881066
          ],
          [
            168586.28695591696,
            630539.6378881066
          ]
        ]
      }
    },
    {
      "type": "Feature",
      "properties": {
        "FID": 59,
        "MAPKEY": "7656",
        "LAYER": "H-ROAD-E",
        "NAME": "דרך עורקית עירונית",
        "ROAD_NUM": " ",
        "TYPECODE": 202007,
        "TYPENAME": "דרך עורקית עירונית",
        "TCODE": "3"
      },
      "geometry": {
        "type": "LineString",
        "coordinates": [
          [
            180833.19623882975,
            653662.9043956341
          ],
          [
            181310.9732089659,
            654449.9174773241
          ],
          [
            181363.5444088366,
            654589.9676058496
          ],
          [
            181561.0303696949,
            655118.5615020171
          ],
          [
            181699.29845905196,
            655467.482185811
          ],
          [
            181747.488738444,
            655555.0135229593
          ],
          [
            181810.37364618154,
            655670.2649586307
          ],
          [
            181893.59919404332,
            655753.4146812188
          ],
          [
            182031.24114214024,
            655782.197090636
          ],
          [
            182198.7249128689,
            655745.3941648892
          ],
          [
            182295.10544963487,
            655723.5113306021
          ],
          [
            182424.34301109042,
            655677.5573840551
          ],
          [
            182574.38197249942,
            655611.6841676555
          ]
        ]
      }
    },
    {
      "type": "Feature",
      "properties": {
        "FID": 72,
        "MAPKEY": "8D11",
        "LAYER": "H-ROAD-B",
        "NAME": "דרך פרברית מהירה",
        "ROAD_NUM": "431 + 20",
        "TYPECODE": 202008,
        "TYPENAME": "דרך פרברית מהירה",
        "TCODE": "3"
      },
      "geometry": {
        "type": "LineString",
        "coordinates": [
          [
            182220.70101861423,
            671789.5390608904
          ],
          [
            182258.8952,
            670189.091501
          ],
          [
            182246.52044700002,
            669275.162971
          ],
          [
            182197.582596,
            668942.758373
          ],
          [
            182147.748566,
            668793.134537
          ],
          [
            181963.883074,
            668477.1435209999
          ],
          [
            181730.020605,
            668044.761503
          ],
          [
            181596.966854,
            667678.997255
          ],
          [
            181397.95654100002,
            667014.036017
          ],
          [
            181282.41036900002,
            666515.365825
          ],
          [
            181182.905198,
            666182.885206
          ],
          [
            181100.58171300002,
            665783.964257
          ],
          [
            181034.951045,
            665418.30154
          ],
          [
            180951.323957,
            665285.243329
          ],
          [
            180851.329974,
            665052.461215
          ],
          [
            180684.401748,
            664719.879177
          ],
          [
            180568.040813,
            664387.373217
          ],
          [
            180519.102963,
            664054.968676
          ],
          [
            180469.26893199998,
            663905.344784
          ],
          [
            180268.87354200002,
            663522.8626999999
          ],
          [
            180118.475214,
            663256.77173
          ],
          [
            179833.882479,
            662857.546413
          ],
          [
            179719.460833,
            662693.653971
          ],
          [
            179666.544061,
            662471.403546
          ],
          [
            179677.127415,
            662270.319815
          ],
          [
            179719.460833,
            662069.236083
          ],
          [
            179740.62754100002,
            661942.235809
          ],
          [
            179730.044187,
            661804.652215
          ],
          [
            179677.127415,
            661635.318553
          ],
          [
            179603.043935,
            661423.651447
          ],
          [
            179497.21039100003,
            661159.067578
          ],
          [
            179380.793493,
            660979.1505410001
          ],
          [
            179139.486742,
            660730.187323
          ],
          [
            179074.982887,
            660673.502106
          ],
          [
            179012.433661,
            660636.363508
          ],
          [
            178901.017888,
            660569.904983
          ],
          [
            178650.542013,
            660428.81611
          ],
          [
            178407.340891,
            660376.900417
          ],
          [
            177761.733166,
            660460.73374
          ],
          [
            177375.241738,
            660332.945224
          ],
          [
            177239.360767,
            660052.113048
          ],
          [
            177260.52747600002,
            659702.862348
          ],
          [
            177511.348878,
            658891.470538
          ],
          [
            177591.12188299999,
            658173.063676
          ],
          [
            177621.496362,
            657963.34479
          ],
          [
            177606.729499,
            657859.976849
          ],
          [
            177609.660226,
            657756.538133
          ],
          [
            177577.195801,
            657313.60344
          ],
          [
            177441.87119,
            656502.572707
          ],
          [
            177441.87119,
            656502.572707
          ],
          [
            177441.87119,
            656502.572707
          ],
          [
            177370.922713,
            656133.467393
          ],
          [
            177292.85629999998,
            655764.328198
          ],
          [
            177150.663398,
            655487.078216
          ],
          [
            176965.88630299998,
            655011.057987
          ],
          [
            176973.27360773107,
            654716.2415614121
          ],
          [
            176973.27360773107,
            654716.2415614121
          ],
          [
            176980.76208251267,
            654129.6081321933
          ],
          [
            176980.76208251267,
            654129.6081321933
          ],
          [
            176980.76208251267,
            654129.6081321933
          ],
          [
            176980.76208251267,
            654129.6081321933
          ],
          [
            176999.0815474225,
            653900.919671125
          ],
          [
            177027.10515179776,
            653745.980343719
          ],
          [
            177047.49876483576,
            653608.8186291561
          ],
          [
            177060.2663745106,
            653481.8138413717
          ],
          [
            177090.81292635313,
            653359.8988162364
          ],
          [
            177160.5476514001,
            653261.417119367
          ],
          [
            177160.5476514001,
            653261.417119367
          ],
          [
            177484.3338552977,
            652978.2659212383
          ],
          [
            177484.3338552977,
            652978.2659212383
          ],
          [
            177651.285958234,
            652872.0842644562
          ],
          [
            177828.35654603568,
            652735.5648456811
          ],
          [
            178430.2225692443,
            652303.5635166008
          ],
          [
            178430.2225692443,
            652303.5635166008
          ],
          [
            178430.2225692443,
            652303.5635166008
          ],
          [
            178430.2225692443,
            652303.5635166008
          ],
          [
            179251.29794518085,
            651651.0391719919
          ],
          [
            179251.29794518085,
            651651.0391719919
          ],
          [
            179251.29794518085,
            651651.0391719919
          ],
          [
            179251.29794518085,
            651651.0391719919
          ],
          [
            179251.29794518085,
            651651.0391719919
          ],
          [
            179251.29794518085,
            651651.0391719919
          ],
          [
            179335.49152895145,
            651562.1162201259
          ],
          [
            179442.58553976478,
            651478.3325272674
          ],
          [
            179562.37066196784,
            651412.3951745818
          ],
          [
            179659.27665016265,
            651331.1358635288
          ],
          [
            179761.23672522718,
            651267.7069228729
          ],
          [
            179868.76579568634,
            651194.1113441474
          ],
          [
            180307.080601,
            651023.596506
          ],
          [
            180876.7083,
            650806.4492200001
          ],
          [
            181325.28359,
            650645.462978
          ],
          [
            181837.953587,
            650442.230087
          ],
          [
            182072.972194,
            650280.233006
          ],
          [
            182400.60971400002,
            649998.114594
          ],
          [
            182642.791598,
            649765.234187
          ],
          [
            182714.030401,
            649684.016707
          ],
          [
            183055.993602,
            649263.677722
          ],
          [
            183469.19569000002,
            648762.121927
          ],
          [
            183711.410203,
            648479.599012
          ],
          [
            183974.95779100002,
            648232.636315
          ],
          [
            184373.77210499998,
            647965.0386880001
          ],
          [
            184779.66768699998,
            647754.208719
          ],
          [
            185691.088407,
            647382.661319
          ],
          [
            186509.911599,
            647095.776621
          ],
          [
            186974.47461099998,
            646928.849098
          ],
          [
            187118.484505,
            646904.2495190001
          ],
          [
            187584.444487,
            646813.835202
          ],
          [
            188380.714311,
            646682.732523
          ],
          [
            189227.809493,
            646543.4389899999
          ],
          [
            189625.944391,
            646477.887706
          ],
          [
            189931.035606,
            646395.285194
          ],
          [
            190405.531992,
            646288.170121
          ],
          [
            191083.398594,
            646131.562686
          ],
          [
            191829.37430599998,
            645883.171309
          ],
          [
            192253.257692,
            645734.05518
          ],
          [
            193364.322094,
            645227.594394
          ],
          [
            193830.81281099998,
            645011.70192
          ],
          [
            194322.804403,
            644770.801123
          ]
        ]
      }
    },
    {
      "type": "Feature",
      "properties": {
        "FID": 74,
        "MAPKEY": "934",
        "LAYER": "H-ROAD-B",
        "NAME": "דרך פרברית מהירה",
        "ROAD_NUM": "461",
        "TYPECODE": 202008,
        "TYPENAME": "דרך פרברית מהירה",
        "TCODE": "3"
      },
      "geometry": {
        "type": "LineString",
        "coordinates": [
          [
            183950.91287200002,
            660646.667075
          ],
          [
            184376.773655,
            660544.008227
          ],
          [
            184564.971025,
            660525.79942
          ],
          [
            184965.646233,
            660483.299364
          ],
          [
            185299.540823,
            660440.799308
          ],
          [
            185518.089506,
            660410.44482
          ],
          [
            185797.346551,
            660367.944764
          ],
          [
            185997.68416900001,
            660331.527149
          ],
          [
            186301.226005,
            660282.9639089999
          ],
          [
            186531.91779,
            660240.463853
          ],
          [
            186944.733953,
            660197.963797
          ],
          [
            187321.125133,
            660185.837374
          ],
          [
            187481.859287,
            660168.610268
          ],
          [
            187661.09124500002,
            660149.400502
          ],
          [
            187994.987275,
            660082.628455
          ],
          [
            188262.103704,
            659955.128287
          ],
          [
            188352.52413499999,
            659908.462922
          ],
          [
            188450.299351,
            659858.0017520001
          ],
          [
            188772.05326800002,
            659688.020729
          ],
          [
            189014.886375,
            659536.24857
          ],
          [
            189439.844227,
            659323.767492
          ],
          [
            189609.827679,
            659275.204252
          ],
          [
            189895.156275,
            659190.223397
          ],
          [
            190222.980726,
            659135.577717
          ],
          [
            190496.168367,
            659093.077605
          ],
          [
            190701.321986,
            659101.125458
          ],
          [
            190805.78101900002,
            659105.223229
          ],
          [
            191060.75618199998,
            659129.514533
          ],
          [
            191224.819193,
            659141.758171
          ],
          [
            191467.500822,
            659159.868965
          ]
        ]
      }
    },
    {
      "type": "Feature",
      "properties": {
        "FID": 75,
        "MAPKEY": "954",
        "LAYER": "H-ROAD-D",
        "NAME": "דרך אזורית",
        "ROAD_NUM": "461",
        "TYPECODE": 202004,
        "TYPENAME": "דרך אזורית",
        "TCODE": "3"
      },
      "geometry": {
        "type": "LineString",
        "coordinates": [
          [
            179751.98144085484,
            661675.7256044445
          ],
          [
            180394.313426,
            661715.666411
          ],
          [
            180928.54704600002,
            661715.666411
          ],
          [
            181541.69724,
            661630.685556
          ],
          [
            181912.019722,
            661545.685444
          ],
          [
            182224.120789,
            661417.365778
          ],
          [
            182444.680713,
            661339.302546
          ],
          [
            182525.172769,
            661308.932374
          ],
          [
            182846.925698,
            661193.577775
          ],
          [
            183150.467505,
            661060.03368
          ],
          [
            183454.009341,
            660853.615785
          ],
          [
            183757.551176,
            660695.780387
          ],
          [
            183950.91287200002,
            660646.667075
          ]
        ]
      }
    },
    {
      "type": "Feature",
      "properties": {
        "FID": 76,
        "MAPKEY": "95CF",
        "LAYER": "H-ROAD-E",
        "NAME": "דרך עורקית עירונית",
        "ROAD_NUM": " ",
        "TYPECODE": 202007,
        "TYPENAME": "דרך עורקית עירונית",
        "TCODE": "3"
      },
      "geometry": {
        "type": "LineString",
        "coordinates": [
          [
            184834.82488082,
            647782.2105492118
          ],
          [
            185207.63581405074,
            648110.627259485
          ],
          [
            185244.3955904874,
            648150.0742138552
          ],
          [
            185358.87477279478,
            648359.3177001008
          ],
          [
            185468.05464866525,
            648589.8751900182
          ],
          [
            185559.86488728214,
            648760.9343016285
          ],
          [
            185686.4151015581,
            648892.3272210448
          ],
          [
            185870.03557879187,
            649028.6784599845
          ],
          [
            186081.28305542885,
            649191.2156258031
          ],
          [
            186258.89398194864,
            649475.135226435
          ],
          [
            186385.0775460587,
            649661.2369972528
          ],
          [
            186535.29561416918,
            649799.312629232
          ],
          [
            186769.6363063642,
            649889.3617361179
          ],
          [
            186979.9417505255,
            649907.371634746
          ],
          [
            187160.20387867803,
            649949.3946027935
          ],
          [
            187358.4916988226,
            650021.4338110512
          ]
        ]
      }
    },
    {
      "type": "Feature",
      "properties": {
        "FID": 77,
        "MAPKEY": "963",
        "LAYER": "H-ROAD-D",
        "NAME": "דרך אזורית",
        "ROAD_NUM": " ",
        "TYPECODE": 202004,
        "TYPENAME": "דרך אזורית",
        "TCODE": "3"
      },
      "geometry": {
        "type": "LineString",
        "coordinates": [
          [
            186962.093699,
            664100.453298
          ],
          [
            186905.54304295592,
            663692.9786019245
          ],
          [
            186983.46679586163,
            663368.4795546873
          ],
          [
            187208.36489503906,
            662923.30197857
          ],
          [
            187289.88833077098,
            662640.0105360307
          ],
          [
            187334.12808094415,
            661927.7041153087
          ],
          [
            187334.12808094415,
            661927.7041153087
          ],
          [
            187464.0010024537,
            661525.3260400323
          ],
          [
            187554.9135131793,
            661122.947964756
          ],
          [
            187554.9135131793,
            660733.5486951282
          ],
          [
            187505.1540539168,
            660471.7055238388
          ],
          [
            187481.859287,
            660168.610268
          ]
        ]
      }
    },
    {
      "type": "Feature",
      "properties": {
        "FID": 80,
        "MAPKEY": "9A3",
        "LAYER": "H-ROAD-D",
        "NAME": "דרך אזורית",
        "ROAD_NUM": "412",
        "TYPECODE": 202004,
        "TYPENAME": "דרך אזורית",
        "TCODE": "3"
      },
      "geometry": {
        "type": "LineString",
        "coordinates": [
          [
            183279.142398,
            656469.923489
          ],
          [
            183407.24031,
            656527.263378
          ],
          [
            183556.6848,
            656598.888227
          ],
          [
            183656.280795,
            656698.643387
          ],
          [
            183762.99068699998,
            656805.524923
          ],
          [
            183891.093288,
            656855.77332
          ],
          [
            184097.512995,
            656885.117193
          ],
          [
            184318.162105,
            656928.7119229999
          ],
          [
            184496.09418900002,
            656979.196201
          ],
          [
            184631.296505,
            657057.845116
          ],
          [
            184731.48232015042,
            657154.8580486506
          ]
        ]
      }
    },
    {
      "type": "Feature",
      "properties": {
        "FID": 81,
        "MAPKEY": "9B0",
        "LAYER": "H-ROAD-E",
        "NAME": "דרך עורקית עירונית",
        "ROAD_NUM": " ",
        "TYPECODE": 202007,
        "TYPENAME": "דרך עורקית עירונית",
        "TCODE": "3"
      },
      "geometry": {
        "type": "LineString",
        "coordinates": [
          [
            182988.375394,
            642028.8167109999
          ],
          [
            182956.961706,
            642413.468272
          ],
          [
            182938.232505,
            642605.785513
          ],
          [
            182917.839003,
            642724.456787
          ],
          [
            182874.92628800002,
            643036.2890250001
          ],
          [
            182803.589513,
            643269.978325
          ],
          [
            182682.413905,
            643517.614895
          ],
          [
            182589.748887,
            643708.6529880001
          ],
          [
            182532.690106,
            643878.584223
          ],
          [
            182461.298498,
            644197.37349
          ],
          [
            182418.500309,
            644331.914077
          ],
          [
            182318.6028,
            644700.210275
          ],
          [
            182240.105996,
            644997.69141
          ],
          [
            182183.048091,
            645167.622476
          ],
          [
            182111.76148800002,
            645323.30291
          ],
          [
            181983.480713,
            645549.630622
          ],
          [
            181840.97189000002,
            645761.708091
          ],
          [
            181776.799297,
            645924.513618
          ],
          [
            181698.385209,
            646094.343824
          ],
          [
            181502.32940999998,
            646550.8317239999
          ],
          [
            181384.715497,
            646794.9399069999
          ],
          [
            181156.564191,
            647347.014084
          ],
          [
            181092.401006,
            647495.6362920001
          ],
          [
            181070.994792,
            647573.543684
          ],
          [
            181035.296997,
            647736.484789
          ],
          [
            181028.059703,
            647920.835223
          ],
          [
            181049.24641300002,
            648183.328985
          ],
          [
            181070.446598,
            648424.547881
          ],
          [
            181119.99759,
            648857.3778820001
          ],
          [
            181141.133394,
            649197.880009
          ],
          [
            181141.01011,
            649389.356094
          ],
          [
            181183.570404,
            649623.584303
          ],
          [
            181233.117413,
            650063.506019
          ],
          [
            181325.28359,
            650645.462978
          ],
          [
            181382.044699,
            650936.49239
          ],
          [
            181410.34539,
            651206.111804
          ],
          [
            181424.429306,
            651443.7511839999
          ],
          [
            181459.804796,
            651780.7753260001
          ],
          [
            181488.08240699998,
            652085.853483
          ],
          [
            181509.19589200002,
            652461.814297
          ],
          [
            181537.537913,
            652667.608609
          ],
          [
            181622.823314,
            652880.764007
          ],
          [
            181779.217002,
            653214.815025
          ],
          [
            181914.305498,
            653470.756706
          ],
          [
            181978.24901099998,
            653662.535596
          ],
          [
            182035.092893,
            653825.914583
          ],
          [
            182184.27169000002,
            654308.857291
          ],
          [
            182418.673002,
            655104.239911
          ],
          [
            182510.9943,
            655445.079616
          ],
          [
            182582.066089,
            655622.708789
          ],
          [
            182702.96329100002,
            655807.666228
          ],
          [
            182788.321888,
            655907.354519
          ],
          [
            182937.68840699998,
            656099.537911
          ],
          [
            183115.538509,
            656277.672503
          ],
          [
            183158.22689000002,
            656313.33319
          ],
          [
            183279.14095078644,
            656469.921614802
          ]
        ]
      }
    },
    {
      "type": "Feature",
      "properties": {
        "FID": 82,
        "MAPKEY": "9EA",
        "LAYER": "H-ROAD-B",
        "NAME": "דרך פרברית מהירה",
        "ROAD_NUM": "412",
        "TYPECODE": 202008,
        "TYPENAME": "דרך פרברית מהירה",
        "TCODE": "3"
      },
      "geometry": {
        "type": "LineString",
        "coordinates": [
          [
            189014.886375,
            659536.24857
          ],
          [
            188820.619969,
            659372.330731
          ],
          [
            188541.361794,
            659250.9322609999
          ],
          [
            188359.23690699998,
            659141.640901
          ],
          [
            188195.324526,
            659032.3687420001
          ],
          [
            188122.474645,
            658995.951126
          ],
          [
            188019.270626,
            658935.242262
          ],
          [
            187928.20806900001,
            658874.533343
          ],
          [
            187779.823215,
            658800.471488
          ],
          [
            187646.26517,
            658751.908248
          ],
          [
            187464.1400569999,
            658691.199329
          ],
          [
            187221.306583,
            658630.490521
          ],
          [
            187140.531235,
            658616.563512
          ],
          [
            187045.253049,
            658600.136033
          ],
          [
            186942.048832,
            658563.699161
          ],
          [
            186737.884194,
            658544.025671
          ],
          [
            186708.489544,
            658534.255822
          ],
          [
            186562.386906,
            658485.695932
          ],
          [
            186368.70573,
            658413.094795
          ],
          [
            186270.08826400002,
            658352.10484
          ],
          [
            186168.80644100002,
            658296.397473
          ],
          [
            186013.507927,
            658176.278206
          ],
          [
            185923.652104,
            658105.387456
          ],
          [
            185853.430334,
            658049.986802
          ],
          [
            185755.850185,
            657996.52566
          ],
          [
            185599.661226,
            657910.9546010001
          ],
          [
            185448.74128800002,
            657846.995149
          ],
          [
            185336.390688,
            657790.8198170001
          ],
          [
            185218.933252,
            657724.430839
          ],
          [
            185142.33059300002,
            657647.828158
          ],
          [
            185086.155279,
            657596.759705
          ],
          [
            185004.445783,
            657520.157025
          ],
          [
            184932.94993099998,
            657443.5543440001
          ],
          [
            184851.240407,
            657356.738018
          ],
          [
            184731.48232015045,
            657154.8580486506
          ]
        ]
      }
    },
    {
      "type": "Feature",
      "properties": {
        "FID": 95,
        "MAPKEY": "F80",
        "LAYER": "H-ROAD-D",
        "NAME": "דרך אזורית",
        "ROAD_NUM": "443",
        "TYPECODE": 202004,
        "TYPENAME": "דרך אזורית",
        "TCODE": "3"
      },
      "geometry": {
        "type": "LineString",
        "coordinates": [
          [
            191290.074388,
            651556.993798
          ],
          [
            191602.330491,
            651551.057206
          ],
          [
            191822.337589,
            651544.802627
          ],
          [
            191907.460607,
            651552.108287
          ],
          [
            192006.71610299998,
            651573.487809
          ],
          [
            192141.39330599998,
            651609.014593
          ],
          [
            192361.103692,
            651672.8852959999
          ],
          [
            192524.13480899998,
            651715.521991
          ],
          [
            192673.093199,
            651730.060415
          ],
          [
            192772.467204,
            651723.390393
          ],
          [
            192878.99731099998,
            651702.719518
          ],
          [
            193035.28760399998,
            651661.182577
          ],
          [
            193205.919594,
            651584.6315820001
          ],
          [
            193340.95159100002,
            651536.0091210001
          ],
          [
            193475.895306,
            651508.423581
          ],
          [
            193639.19381099998,
            651487.948007
          ],
          [
            193866.356191,
            651467.692575
          ],
          [
            193908.992111,
            651453.814684
          ],
          [
            194015.550893,
            651426.131297
          ],
          [
            194115.044199,
            651391.411007
          ],
          [
            194243.06970599998,
            651321.726006
          ],
          [
            194371.09521300002,
            651252.041619
          ],
          [
            194449.418589,
            651189.197493
          ],
          [
            194605.97621199998,
            651084.548283
          ],
          [
            194790.711102,
            651029.084221
          ],
          [
            194961.134691,
            651001.620417
          ],
          [
            195081.767699,
            651002.036417
          ],
          [
            195244.97710299998,
            651002.598378
          ],
          [
            195465.043102,
            650982.318721
          ],
          [
            195642.415098,
            650989.942479
          ],
          [
            195791.55089800002,
            650962.4057219999
          ],
          [
            195947.78228900002,
            650934.893916
          ],
          [
            196040.17921300002,
            650900.1492890001
          ],
          [
            196118.443688,
            650851.330298
          ],
          [
            196246.498603,
            650774.633288
          ],
          [
            196452.847487,
            650642.104887
          ],
          [
            196673.4473,
            650495.600024
          ],
          [
            196794.317496,
            650439.915709
          ],
          [
            196908.06178800002,
            650391.219626
          ],
          [
            197043.035702,
            650356.621574
          ],
          [
            197199.267093,
            650329.109712
          ],
          [
            197398.105109,
            650294.731298
          ],
          [
            197597.031293,
            650239.315908
          ],
          [
            197724.997898,
            650183.6558739999
          ],
          [
            197881.466393,
            650100.04431
          ],
          [
            198002.425689,
            650023.322406
          ],
          [
            198116.40711300002,
            649918.526008
          ],
          [
            198216.196396,
            649813.680882
          ],
          [
            198323.052708,
            649715.8727150001
          ],
          [
            198408.619706,
            649617.9909270001
          ],
          [
            198501.28390399998,
            649520.133977
          ],
          [
            198636.523596,
            649422.423712
          ],
          [
            198728.9801,
            649373.654007
          ],
          [
            198807.155502,
            649345.872718
          ],
          [
            198892.455988,
            649311.103812
          ],
          [
            198970.542289,
            649304.360113
          ],
          [
            199013.207589,
            649283.469711
          ],
          [
            199048.80679200002,
            649255.54168
          ],
          [
            199084.494192,
            649206.576226
          ],
          [
            199091.916806,
            649129.463773
          ],
          [
            199092.18329000002,
            649066.350891
          ],
          [
            199092.628088,
            648961.164001
          ],
          [
            199114.18309500001,
            648898.1246849999
          ],
          [
            199192.65439,
            648800.218616
          ],
          [
            199271.245097,
            648674.262892
          ],
          [
            199342.739395,
            648548.282218
          ],
          [
            199428.366,
            648436.376021
          ],
          [
            199506.68940499998,
            648373.532509
          ],
          [
            199623.895189,
            648310.887425
          ],
          [
            199705.823991,
            648269.029315
          ],
          [
            199833.848707,
            648199.344203
          ],
          [
            199990.34751300002,
            648108.720128
          ],
          [
            200175.230406,
            648018.193285
          ],
          [
            200281.848795,
            647976.484819
          ],
          [
            200381.490103,
            647906.702418
          ],
          [
            200523.91539100002,
            647787.9789
          ],
          [
            200616.549305,
            647697.133903
          ],
          [
            200723.287108,
            647627.375894
          ],
          [
            200858.5268,
            647529.665573
          ],
          [
            201064.964699,
            647376.099526
          ],
          [
            201271.4615,
            647208.508903
          ],
          [
            201428.167889,
            647068.797024
          ],
          [
            201556.63811,
            646893.924407
          ],
          [
            201642.44300199999,
            646739.942918
          ],
          [
            201721.092499,
            646599.962115
          ],
          [
            201764.733305,
            646502.97568
          ],
          [
            201807.431206,
            646319.755977
          ],
          [
            201843.296892,
            646228.71579
          ],
          [
            201936.078809,
            646102.808794
          ],
          [
            202064.341391,
            645977.02398
          ],
          [
            202277.756514,
            645851.532427
          ],
          [
            202398.715697,
            645774.8105220001
          ],
          [
            202597.998398,
            645635.245218
          ],
          [
            202847.189993,
            645439.751011
          ],
          [
            203146.054309,
            645244.427827
          ],
          [
            203409.290806,
            645084.045017
          ],
          [
            203537.25659200002,
            645028.384983
          ],
          [
            203686.481493,
            644979.8111940001
          ],
          [
            203842.712997,
            644952.298717
          ],
          [
            203970.590501,
            644917.676385
          ],
          [
            204098.496595,
            644876.0414849999
          ],
          [
            204283.350107,
            644792.52721
          ],
          [
            204506.51158800002,
            644713.865011
          ],
          [
            204645.752999,
            644674.561513
          ],
          [
            204837.49449100002,
            644640.1593770001
          ],
          [
            205128.69909,
            644578.048904
          ],
          [
            205469.517509,
            644530.134978
          ]
        ]
      }
    }
  ]
}