{
  "type": "FeatureCollection",
  "name": "tmm321_תממ_3__21___גבול_מוניציפלי",
  "features": [
    {
      "type": "Feature",
      "id": 26,
      "geometry": {
        "type": "LineString",
        "coordinates": [
          [
            185397.0490539148,
            652956.6235161154
          ],
          [
            185252.015625,
            653181.625
          ],
          [
            185004.6875,
            653643.8750000001
          ],
          [
            184807.1875,
            653892.125
          ],
          [
            184290.65624999988,
            654811.2500000001
          ],
          [
            184055.6768698538,
            655202.4612986338
          ]
        ]
      },
      "properties": {
        "FID": 26,
        "MAPKEY": "3BCA7",
        "LAYER": "g-muni-new",
        "TYPECODE": 201002,
        "TYPENAME": "גבול מוניציפלי",
        "TCODE": "3"
      }
    },
    {
      "type": "Feature",
      "id": 29,
      "geometry": {
        "type": "LineString",
        "coordinates": [
          [
            185397.0490539148,
            652956.6235161154
          ],
          [
            185651.4452448344,
            652649.456841345
          ],
          [
            186026.2433202766,
            652045.2305152242
          ],
          [
            186064.14790927904,
            652059.2565266951
          ],
          [
            186091.28947834007,
            652023.7239830274
          ],
          [
            186042.9965766656,
            651987.947527315
          ],
          [
            186183.96950096078,
            651801.1533605799
          ],
          [
            186429.44030515134,
            651297.4564190379
          ],
          [
            186553.9818978813,
            651013.8474900926
          ],
          [
            186784.4293933377,
            650525.2821926756
          ],
          [
            187051.89424576814,
            650187.9900187532
          ],
          [
            187258.955781424,
            649878.7957914593
          ]
        ]
      },
      "properties": {
        "FID": 29,
        "MAPKEY": "3BCDB",
        "LAYER": "g-muni-new",
        "TYPECODE": 201002,
        "TYPENAME": "גבול מוניציפלי",
        "TCODE": "3"
      }
    },
    {
      "type": "Feature",
      "id": 30,
      "geometry": {
        "type": "LineString",
        "coordinates": [
          [
            185397.0490539148,
            652956.6235161154
          ],
          [
            184686.21044097038,
            652751.3659494912
          ],
          [
            184565.63092823996,
            652711.102766748
          ],
          [
            184656.27813536982,
            652321.8803125517
          ]
        ]
      },
      "properties": {
        "FID": 30,
        "MAPKEY": "3BCE9",
        "LAYER": "g-muni-new",
        "TYPECODE": 201002,
        "TYPENAME": "גבול מוניציפלי",
        "TCODE": "3"
      }
    },
    {
      "type": "Feature",
      "id": 43,
      "geometry": {
        "type": "LineString",
        "coordinates": [
          [
            190802.33869597153,
            654157.5288092722
          ],
          [
            190712.83848532703,
            654238.9508006722
          ],
          [
            190185.6479865074,
            654656.5674630388
          ],
          [
            190050.74045172514,
            654707.3928278346
          ],
          [
            189929.95109028718,
            654728.553951181
          ],
          [
            189816.0564963427,
            654766.0184783004
          ],
          [
            189700.0612649565,
            654824.4261862643
          ],
          [
            189598.28432150715,
            654896.7980824475
          ],
          [
            189525.29072556767,
            654965.0633791736
          ],
          [
            189463.91315124446,
            655037.5078034749
          ],
          [
            189144.91815855674,
            655501.41232365
          ],
          [
            189054.2850764172,
            655614.4972451974
          ],
          [
            188897.83635519684,
            655761.6038749596
          ],
          [
            188714.62339924177,
            655882.9057149151
          ],
          [
            188577.5917234164,
            655923.6704915059
          ],
          [
            188438.6841150968,
            655939.6743435977
          ],
          [
            188294.14509189787,
            655930.8649694156
          ],
          [
            188158.20924321265,
            655898.109939679
          ],
          [
            188029.9130558342,
            655842.5083638472
          ],
          [
            187913.0646371814,
            655765.710616555
          ],
          [
            187817.85116689868,
            655677.4026748079
          ],
          [
            187707.32130370388,
            655542.8428444276
          ],
          [
            187665.06305902248,
            655577.9768207006
          ],
          [
            187624.64209364628,
            655628.4378490183
          ],
          [
            187519.15048747422,
            655820.8400263726
          ],
          [
            187127.6800853063,
            656907.1067807714
          ],
          [
            187056.37312998943,
            657135.6762020052
          ],
          [
            187022.20520846004,
            657195.012132875
          ],
          [
            186973.85733815766,
            657238.0629718725
          ],
          [
            186769.3377830721,
            657328.7392797039
          ],
          [
            186574.86013902858,
            657374.0152471722
          ],
          [
            186460.23581731052,
            657382.5124512531
          ],
          [
            186246.29247394094,
            657379.7634218967
          ],
          [
            186029.90546782984,
            657361.5363321028
          ],
          [
            185977.615467139,
            657539.355410089
          ],
          [
            185826.08424452174,
            657511.8034880408
          ],
          [
            185602.4284362211,
            657503.6796254318
          ],
          [
            185603.76934528397,
            657595.5110571372
          ],
          [
            185802.7622291037,
            657618.603772354
          ],
          [
            185854.03258085577,
            657634.5990041175
          ],
          [
            185954.29345172102,
            657646.155694402
          ],
          [
            185937.71695979597,
            657860.1626816198
          ],
          [
            186030.84316041117,
            657871.6229335945
          ],
          [
            186126.27610211953,
            657862.7114083825
          ],
          [
            186141.06831098447,
            657939.4224415643
          ],
          [
            186137.6053001684,
            657964.6032037539
          ],
          [
            186116.7010989847,
            658036.4756131236
          ],
          [
            186083.95038113673,
            658096.7733040544
          ],
          [
            186139.7133321971,
            658158.7359150507
          ],
          [
            186228.84330374625,
            658047.7244081321
          ],
          [
            186255.5182073188,
            657879.760573105
          ],
          [
            186365.6630428612,
            657876.1486457111
          ],
          [
            186379.26172366407,
            657927.3398498042
          ],
          [
            186506.22399622452,
            657923.9552412836
          ],
          [
            186570.3051935116,
            657913.0039598654
          ],
          [
            186634.4058112058,
            657922.087809624
          ],
          [
            186684.3390817921,
            657944.7688943081
          ],
          [
            186873.82014416548,
            658071.7446849731
          ],
          [
            186902.39898268128,
            658107.8361558947
          ],
          [
            186711.61341429572,
            658197.070641682
          ],
          [
            186674.51842861978,
            658227.173669715
          ],
          [
            186560.0283747699,
            658251.1298204925
          ],
          [
            186511.43610066012,
            658293.6793219366
          ],
          [
            186429.34721086995,
            658430.4195261311
          ]
        ]
      },
      "properties": {
        "FID": 43,
        "MAPKEY": "3BEBB",
        "LAYER": "g-muni-new",
        "TYPECODE": 201002,
        "TYPENAME": "גבול מוניציפלי",
        "TCODE": "3"
      }
    },
    {
      "type": "Feature",
      "id": 48,
      "geometry": {
        "type": "LineString",
        "coordinates": [
          [
            190837.7969397637,
            653206.7801237125
          ],
          [
            190806.66462220164,
            653091.4356240912
          ],
          [
            190785.909743827,
            652968.3150437295
          ],
          [
            190785.909743827,
            652894.4426574383
          ],
          [
            190771.6406274293,
            652858.154534478
          ],
          [
            190715.8617542822,
            652891.8506622533
          ],
          [
            190689.91815631388,
            652885.3706266982
          ],
          [
            190619.87035012263,
            652965.7230485445
          ],
          [
            190564.09147697553,
            653034.4113492804
          ],
          [
            190453.69340544654,
            653227.9529253992
          ],
          [
            190350.55356287054,
            653208.1533833072
          ],
          [
            190357.850499955,
            653172.3133655316
          ],
          [
            190278.81637810468,
            653183.3984929535
          ],
          [
            190230.720073683,
            653173.7096197915
          ],
          [
            190103.3314171757,
            653149.5659411419
          ],
          [
            189962.017507879,
            653070.3107581422
          ],
          [
            189716.14623801218,
            652943.9493644824
          ],
          [
            189629.68158662593,
            652917.8369483196
          ],
          [
            189543.79495644715,
            652881.5218297562
          ],
          [
            189536.96467807662,
            652912.0948262231
          ],
          [
            189474.4180361401,
            652891.2505372472
          ],
          [
            189372.73314024223,
            652854.8265754079
          ],
          [
            189237.75184914976,
            652843.6899274822
          ],
          [
            189231.47889132932,
            652836.6049597497
          ],
          [
            188864.9652112531,
            652422.6475139619
          ],
          [
            188795.7217138913,
            652488.5139066315
          ],
          [
            188762.55626841664,
            652527.3780224151
          ],
          [
            188583.57225134393,
            652737.1160634204
          ],
          [
            188507.74428530392,
            652854.7196945611
          ],
          [
            188465.63773842406,
            652920.0238701374
          ],
          [
            188396.26757115748,
            652776.652353376
          ],
          [
            188344.1963762128,
            652641.1640702331
          ],
          [
            188418.32484708,
            652603.2906783328
          ],
          [
            188325.3170223345,
            652260.7259562375
          ],
          [
            188331.19823598937,
            652255.5238572322
          ],
          [
            188347.9767888146,
            652240.6827550225
          ],
          [
            188359.66686034488,
            652230.3425577348
          ],
          [
            188316.1163889619,
            652112.6656394011
          ],
          [
            188317.0022089664,
            652056.5349763694
          ],
          [
            188254.22967404628,
            651765.211986047
          ],
          [
            188266.7619476898,
            651760.3704810243
          ],
          [
            188274.94812881568,
            651757.2079713179
          ],
          [
            188319.122600679,
            651740.142358685
          ],
          [
            188325.9470162897,
            651740.142358685
          ],
          [
            188255.93749999988,
            651519.2500000001
          ],
          [
            188038.875,
            651451
          ],
          [
            187739.53125,
            650667.5
          ],
          [
            187747.125,
            650666
          ],
          [
            187816.125,
            650652.875
          ],
          [
            187858.265625,
            650729.7499999999
          ],
          [
            187915.859375,
            650730.25
          ],
          [
            187914.09375,
            650699.625
          ],
          [
            188017.109375,
            650695.5000000001
          ],
          [
            188031.0625,
            650731.375
          ],
          [
            188343.40625,
            650637.125
          ],
          [
            188269.984375,
            650468.125
          ],
          [
            188297.28125,
            650437.75
          ],
          [
            188251.90625,
            650325
          ],
          [
            188071.75,
            650119.2500000001
          ],
          [
            187816.359375,
            650004.75
          ],
          [
            187628.63120717148,
            649964.3475634295
          ]
        ]
      },
      "properties": {
        "FID": 48,
        "MAPKEY": "3C06A",
        "LAYER": "g-muni-new",
        "TYPECODE": 201002,
        "TYPENAME": "גבול מוניציפלי",
        "TCODE": "3"
      }
    },
    {
      "type": "Feature",
      "id": 49,
      "geometry": {
        "type": "LineString",
        "coordinates": [
          [
            184055.6768698538,
            655202.4612986338
          ],
          [
            184165.48930388672,
            655279.3130366015
          ],
          [
            184259.75713527697,
            655179.1480058802
          ],
          [
            184276.8837534156,
            655215.2030712257
          ],
          [
            184276.0933920085,
            655460.0852410619
          ],
          [
            184206.40398339572,
            655708.6984838528
          ],
          [
            184176.0456906191,
            655850.9515150257
          ],
          [
            184169.12434658984,
            655942.6505040097
          ],
          [
            184145.58860266668,
            656023.8148174281
          ],
          [
            184143.55536600127,
            656074.7947548169
          ],
          [
            184108.10616340482,
            656267.9668812075
          ],
          [
            184361.47961216484,
            656216.8861204246
          ],
          [
            184390.73812774575,
            656283.7948256852
          ],
          [
            184524.8623234777,
            656230.3412202178
          ],
          [
            184530.57206487464,
            656250.8629918057
          ],
          [
            184557.78431352932,
            656241.2003873638
          ],
          [
            184567.6723536937,
            656256.7032600357
          ],
          [
            184593.35576577106,
            656247.0102345082
          ],
          [
            184611.81102408312,
            656318.8060139802
          ],
          [
            184661.95582139696,
            656309.5997258241
          ],
          [
            184746.06528761692,
            656540.865130302
          ],
          [
            184571.79094806773,
            656664.9483736228
          ],
          [
            184549.77622256527,
            656669.6123598726
          ],
          [
            184896.551800602,
            657023.4512541988
          ],
          [
            184620.53125,
            657234.125
          ],
          [
            184428.578125,
            657064.2500000001
          ],
          [
            184338.21874999988,
            657012.8750000001
          ],
          [
            184271.25,
            656994.5
          ],
          [
            183937.0625,
            656941.25
          ],
          [
            183781.59375,
            656909.8750000001
          ],
          [
            183744.625,
            656895.6250000001
          ],
          [
            183698.546875,
            656858.2500000001
          ],
          [
            183524.265625,
            656641.625
          ],
          [
            183258.671875,
            656529.3750000001
          ]
        ]
      },
      "properties": {
        "FID": 49,
        "MAPKEY": "3C0A9",
        "LAYER": "g-muni-new",
        "TYPECODE": 201002,
        "TYPENAME": "גבול מוניציפלי",
        "TCODE": "3"
      }
    },
    {
      "type": "Feature",
      "id": 50,
      "geometry": {
        "type": "LineString",
        "coordinates": [
          [
            184055.6768698538,
            655202.4612986338
          ],
          [
            183258.671875,
            656529.3750000001
          ]
        ]
      },
      "properties": {
        "FID": 50,
        "MAPKEY": "3C0CD",
        "LAYER": "g-muni-new",
        "TYPECODE": 201002,
        "TYPENAME": "גבול מוניציפלי",
        "TCODE": "3"
      }
    },
    {
      "type": "Feature",
      "id": 67,
      "geometry": {
        "type": "LineString",
        "coordinates": [
          [
            188696.74403014377,
            658715.8689632177
          ],
          [
            188665.890625,
            658053.375
          ],
          [
            188646.734375,
            658060.125
          ],
          [
            188580.328125,
            658131
          ],
          [
            188528.39062499988,
            658237.625
          ],
          [
            188485.984375,
            658247.5000000001
          ],
          [
            188427.25,
            658298
          ],
          [
            188393.6875,
            658302.75
          ],
          [
            188365.015625,
            658284.625
          ],
          [
            188291.671875,
            658135.3750000001
          ],
          [
            188285.015625,
            658078.875
          ],
          [
            188312.453125,
            657985.75
          ],
          [
            188293.546875,
            657944.4999999999
          ],
          [
            188253.6875,
            657922.875
          ],
          [
            188230.71875,
            657922.5
          ],
          [
            188198.984375,
            657935.4999999999
          ],
          [
            188059.578125,
            658044.625
          ],
          [
            187975.53125,
            658207.2500000001
          ],
          [
            187930.171875,
            658319.125
          ],
          [
            187753.5625,
            658472.7499999999
          ],
          [
            187647.01772421203,
            658752.1819459995
          ]
        ]
      },
      "properties": {
        "FID": 67,
        "MAPKEY": "3C251",
        "LAYER": "g-muni-new",
        "TYPECODE": 201002,
        "TYPENAME": "גבול מוניציפלי",
        "TCODE": "3"
      }
    }
  ]
}