{
  "type": "FeatureCollection",
  "name": "tmm321_birds_natbag",
  "description": "תמ\"מ 3/21 – מגבלת ציפורים נתב\"ג",
  "crs": {
    "type": "name",
    "properties": {
      "name": "urn:ogc:def:crs:EPSG::2039"
    }
  },
  "features": [
    {
      "type": "Feature",
      "properties": {
        "FID": 0,
        "MAPKEY": "553",
        "LAYER": "lim-zip",
        "NAME": "מגבלת ציפורים",
        "TYPECODE": 215003,
        "TYPENAME": "מגבלת ציפורים",
        "TCODE": "3"
      },
      "geometry": {
        "type": "LineString",
        "coordinates": [
          [
            178406.9071932284,
            658337.4663999189
          ],
          [
            178418.51790987604,
            658516.3876812625
          ],
          [
            178431.4209120375,
            658761.323386435
          ],
          [
            178495.93612751455,
            659128.7271035714
          ],
          [
            178586.25755198434,
            659521.9134034872
          ],
          [
            178708.83678886254,
            659927.9912072958
          ],
          [
            178864.66116556735,
            660427.476366621
          ],
          [
            179013.04640676844,
            660794.8799775057
          ],
          [
            175082.8766407831,
            663197.8857348303
          ],
          [
            177233.07497652882,
            666626.3760419469
          ],
          [
            181517.73355891916,
            663969.9374282974
          ],
          [
            181717.06665506118,
            664138.4509426227
          ],
          [
            182033.95536629859,
            664347.8161697005
          ],
          [
            182432.62176325245,
            664567.394404655
          ],
          [
            182929.88868529684,
            664855.4127869519
          ],
          [
            183420.55479959561,
            665131.1620870966
          ],
          [
            183906.11010275,
            665366.0596744888
          ],
          [
            184413.94024108414,
            665576.0524233831
          ],
          [
            184935.27326894764,
            665744.5659377084
          ],
          [
            185482.16158055206,
            665877.3341900939
          ],
          [
            185988.16115163316,
            665969.2506234755
          ],
          [
            186546.28010794998,
            666021.5411685539
          ],
          [
            187381.17616645,
            666093.3600098077
          ],
          [
            188224.50871669524,
            666144.4246241853
          ],
          [
            189427.65006708965,
            666231.0609916768
          ],
          [
            190127.87171849856,
            666292.3386139312
          ],
          [
            190768.16951346293,
            666292.2227997117
          ],
          [
            191258.83583243153,
            666276.9033410223
          ],
          [
            191754.61316721438,
            666220.7321695805
          ],
          [
            192219.72379310234,
            666149.241645701
          ],
          [
            192686.44455680106,
            666021.1165872503
          ],
          [
            195252.3425294937,
            670602.3028452953
          ],
          [
            198790.67102444047,
            668648.956632563
          ],
          [
            196228.51953358663,
            664069.4703997574
          ],
          [
            196556.47638166536,
            663726.2084222899
          ],
          [
            196790.7310684803,
            663468.7619126264
          ],
          [
            197064.02837365592,
            663125.4998289074
          ],
          [
            197323.4404659985,
            662739.1604868945
          ],
          [
            197643.5887494711,
            662216.4660517443
          ],
          [
            197924.69461925284,
            661724.9772798871
          ],
          [
            203025.54939345724,
            662614.2053380058
          ],
          [
            203712.03053362606,
            658637.4921667327
          ],
          [
            198548.8842820041,
            657745.8899171157
          ],
          [
            198509.84166364337,
            657355.8194447088
          ],
          [
            198314.11607850334,
            656283.280533827
          ],
          [
            198165.75457900637,
            655339.3099629771
          ],
          [
            197970.54230588226,
            654434.3464712432
          ],
          [
            197830.36514485953,
            653969.6981228706
          ],
          [
            202368.1502034355,
            651189.7712696106
          ],
          [
            200211.14372937309,
            647777.473065389
          ],
          [
            195708.89754577627,
            650515.3468193102
          ],
          [
            195437.38189175646,
            650248.0667261531
          ],
          [
            195145.9019206382,
            650012.7006755557
          ],
          [
            194786.54298484753,
            649741.4313669229
          ],
          [
            194270.29416104621,
            649416.6579076941
          ],
          [
            193803.12762638627,
            649165.3348889427
          ],
          [
            193240.13179657832,
            648914.0117639396
          ],
          [
            192227.95929904227,
            648550.1300740929
          ],
          [
            191641.00645245213,
            648358.6458187338
          ],
          [
            190898.33115474883,
            648179.1294223049
          ],
          [
            190269.48279658018,
            648074.8206549414
          ],
          [
            189818.287674665,
            648046.8958278572
          ],
          [
            189411.0140913003,
            648034.9280751786
          ],
          [
            188991.7619995445,
            648054.87436506
          ],
          [
            188656.3602852059,
            648074.8206549414
          ],
          [
            188246.65767990935,
            648121.1382675929
          ],
          [
            187839.38409654467,
            648184.9663527126
          ],
          [
            187408.1532917279,
            648284.6976958677
          ],
          [
            184842.11450616963,
            643714.3857555176
          ],
          [
            181304.31815286618,
            645670.9248281525
          ],
          [
            183728.8301843263,
            650013.5725760004
          ],
          [
            183268.15025162857,
            650277.9784577357
          ],
          [
            182949.59491369827,
            650439.5598003931
          ],
          [
            182621.23773136787,
            650630.5195979658
          ],
          [
            182243.8721457166,
            650831.2721784264
          ],
          [
            181869.541609461,
            651073.3619350968
          ],
          [
            181546.08524699573,
            651308.3893619167
          ],
          [
            181232.43072893054,
            651548.3131801807
          ],
          [
            180884.47026713975,
            651861.6830826073
          ],
          [
            180600.22087293502,
            652145.6746363702
          ],
          [
            180355.17844699085,
            652410.0805181055
          ],
          [
            180030.50081945414,
            652794.8971687618
          ],
          [
            179795.2598285703,
            653137.6454198522
          ],
          [
            179530.61391849586,
            653544.0470784691
          ],
          [
            179319.8772316074,
            653916.1738907264
          ],
          [
            179079.55981411616,
            654350.5174829314
          ],
          [
            173881.58223123074,
            653444.0573314775
          ],
          [
            173180.04393859435,
            657448.3342869746
          ],
          [
            178406.9071932284,
            658337.4663999189
          ]
        ]
      }
    }
  ]
}