{
  "type": "FeatureCollection",
  "name": "tmm321_transport_center",
  "description": "תמ\"מ 3/21 – מרכז תחבורה",
  "crs": {
    "type": "name",
    "properties": {
      "name": "urn:ogc:def:crs:EPSG::2039"
    }
  },
  "features": [
    {
      "type": "Feature",
      "properties": {
        "FID": 9,
        "MAPKEY": "B62C",
        "LAYER": "MASOF-T",
        "NAME": "מרכז תחבורה",
        "X_COORD": 182646.80502,
        "Y_COORD": 656834.1107,
        "TYPECODE": 302010,
        "TYPENAME": "מרכז תחבורה",
        "TCODE": "3"
      },
      "geometry": {
        "type": "Polygon",
        "coordinates": [
          [
            [
              182494.3050153497,
              656834.1107038339
            ],
            [
              182494.88532389072,
              656847.4019546029
            ],
            [
              182496.62183301535,
              656860.592050928
            ],
            [
              182499.50132684063,
              656873.580608212
            ],
            [
              182503.50189067985,
              656886.268775691
            ],
            [
              182508.5930778266,
              656898.5599887493
            ],
            [
              182514.7361412726,
              656910.3607038339
            ],
            [
              182521.88432859562,
              656921.5811103774
            ],
            [
              182529.98323777405,
              656932.1358143111
            ],
            [
              182538.97123121875,
              656941.9444879649
            ],
            [
              182548.7799048725,
              656950.9324814095
            ],
            [
              182559.33460880618,
              656959.0313905879
            ],
            [
              182570.5550153497,
              656966.179577911
            ],
            [
              182582.35573043424,
              656972.322641357
            ],
            [
              182594.64694349252,
              656977.4138285037
            ],
            [
              182607.33511097156,
              656981.4143923429
            ],
            [
              182620.3236682555,
              656984.2938861683
            ],
            [
              182633.51376458068,
              656986.0303952929
            ],
            [
              182646.8050153497,
              656986.6107038339
            ],
            [
              182660.09626611872,
              656986.0303952929
            ],
            [
              182673.2863624439,
              656984.2938861683
            ],
            [
              182686.27491972785,
              656981.4143923429
            ],
            [
              182698.96308720688,
              656977.4138285037
            ],
            [
              182711.25430026517,
              656972.322641357
            ],
            [
              182723.0550153497,
              656966.179577911
            ],
            [
              182734.27542189322,
              656959.0313905879
            ],
            [
              182744.8301258269,
              656950.9324814095
            ],
            [
              182754.63879948066,
              656941.9444879649
            ],
            [
              182763.62679292535,
              656932.1358143111
            ],
            [
              182771.72570210378,
              656921.5811103774
            ],
            [
              182778.87388942682,
              656910.3607038339
            ],
            [
              182785.0169528728,
              656898.5599887493
            ],
            [
              182790.10814001955,
              656886.268775691
            ],
            [
              182794.10870385877,
              656873.580608212
            ],
            [
              182796.98819768406,
              656860.592050928
            ],
            [
              182798.7247068087,
              656847.4019546029
            ],
            [
              182799.3050153497,
              656834.1107038339
            ],
            [
              182799.3050153497,
              656834.1107038339
            ],
            [
              182798.7247068087,
              656820.8194530648
            ],
            [
              182796.98819768406,
              656807.6293567397
            ],
            [
              182794.10870385877,
              656794.6407994557
            ],
            [
              182790.10814001955,
              656781.9526319767
            ],
            [
              182785.0169528728,
              656769.6614189184
            ],
            [
              182778.87388942682,
              656757.8607038339
            ],
            [
              182771.72570210378,
              656746.6402972903
            ],
            [
              182763.62679292535,
              656736.0855933566
            ],
            [
              182754.63879948066,
              656726.2769197029
            ],
            [
              182744.8301258269,
              656717.2889262582
            ],
            [
              182734.27542189322,
              656709.1900170798
            ],
            [
              182723.0550153497,
              656702.0418297567
            ],
            [
              182711.25430026517,
              656695.8987663108
            ],
            [
              182698.96308720688,
              656690.807579164
            ],
            [
              182686.27491972785,
              656686.8070153248
            ],
            [
              182673.2863624439,
              656683.9275214995
            ],
            [
              182660.09626611872,
              656682.1910123748
            ],
            [
              182646.8050153497,
              656681.6107038339
            ],
            [
              182633.51376458068,
              656682.1910123748
            ],
            [
              182620.3236682555,
              656683.9275214995
            ],
            [
              182607.33511097156,
              656686.8070153248
            ],
            [
              182594.64694349252,
              656690.807579164
            ],
            [
              182582.35573043424,
              656695.8987663108
            ],
            [
              182570.5550153497,
              656702.0418297567
            ],
            [
              182559.33460880618,
              656709.1900170798
            ],
            [
              182548.7799048725,
              656717.2889262582
            ],
            [
              182538.97123121875,
              656726.2769197029
            ],
            [
              182529.98323777405,
              656736.0855933566
            ],
            [
              182521.88432859562,
              656746.6402972903
            ],
            [
              182514.7361412726,
              656757.8607038339
            ],
            [
              182508.5930778266,
              656769.6614189184
            ],
            [
              182503.50189067985,
              656781.9526319767
            ],
            [
              182499.50132684063,
              656794.6407994557
            ],
            [
              182496.62183301535,
              656807.6293567397
            ],
            [
              182494.88532389072,
              656820.8194530648
            ],
            [
              182494.3050153497,
              656834.1107038339
            ]
          ]
        ]
      }
    },
    {
      "type": "Feature",
      "properties": {
        "FID": 10,
        "MAPKEY": "B630",
        "LAYER": "MASOF-T",
        "NAME": "מרכז תחבורה",
        "X_COORD": 187987.85131,
        "Y_COORD": 656241.35364,
        "TYPECODE": 302010,
        "TYPENAME": "מרכז תחבורה",
        "TCODE": "3"
      },
      "geometry": {
        "type": "Polygon",
        "coordinates": [
          [
            [
              187835.35131381074,
              656241.353641154
            ],
            [
              187835.93162235175,
              656254.6448919231
            ],
            [
              187837.66813147638,
              656267.8349882482
            ],
            [
              187840.54762530167,
              656280.8235455322
            ],
            [
              187844.54818914089,
              656293.5117130112
            ],
            [
              187849.63937628764,
              656305.8029260695
            ],
            [
              187855.78243973362,
              656317.603641154
            ],
            [
              187862.93062705666,
              656328.8240476976
            ],
            [
              187871.0295362351,
              656339.3787516312
            ],
            [
              187880.01752967978,
              656349.187425285
            ],
            [
              187889.82620333353,
              656358.1754187297
            ],
            [
              187900.38090726722,
              656366.2743279081
            ],
            [
              187911.60131381074,
              656373.4225152312
            ],
            [
              187923.40202889527,
              656379.5655786771
            ],
            [
              187935.69324195356,
              656384.6567658238
            ],
            [
              187948.3814094326,
              656388.657329663
            ],
            [
              187961.36996671653,
              656391.5368234884
            ],
            [
              187974.56006304172,
              656393.273332613
            ],
            [
              187987.85131381074,
              656393.853641154
            ],
            [
              188001.14256457976,
              656393.273332613
            ],
            [
              188014.33266090494,
              656391.5368234884
            ],
            [
              188027.32121818888,
              656388.657329663
            ],
            [
              188040.00938566792,
              656384.6567658238
            ],
            [
              188052.3005987262,
              656379.5655786771
            ],
            [
              188064.10131381074,
              656373.4225152312
            ],
            [
              188075.32172035426,
              656366.2743279081
            ],
            [
              188085.87642428794,
              656358.1754187297
            ],
            [
              188095.6850979417,
              656349.187425285
            ],
            [
              188104.6730913864,
              656339.3787516312
            ],
            [
              188112.77200056482,
              656328.8240476976
            ],
            [
              188119.92018788785,
              656317.603641154
            ],
            [
              188126.06325133384,
              656305.8029260695
            ],
            [
              188131.1544384806,
              656293.5117130112
            ],
            [
              188135.1550023198,
              656280.8235455322
            ],
            [
              188138.0344961451,
              656267.8349882482
            ],
            [
              188139.77100526972,
              656254.6448919231
            ],
            [
              188140.35131381074,
              656241.353641154
            ],
            [
              188140.35131381074,
              656241.353641154
            ],
            [
              188139.77100526972,
              656228.062390385
            ],
            [
              188138.0344961451,
              656214.8722940598
            ],
            [
              188135.1550023198,
              656201.8837367758
            ],
            [
              188131.1544384806,
              656189.1955692968
            ],
            [
              188126.06325133384,
              656176.9043562385
            ],
            [
              188119.92018788785,
              656165.103641154
            ],
            [
              188112.77200056482,
              656153.8832346104
            ],
            [
              188104.6730913864,
              656143.3285306768
            ],
            [
              188095.6850979417,
              656133.519857023
            ],
            [
              188085.87642428794,
              656124.5318635784
            ],
            [
              188075.32172035426,
              656116.4329544
            ],
            [
              188064.10131381074,
              656109.2847670768
            ],
            [
              188052.3005987262,
              656103.1417036309
            ],
            [
              188040.00938566792,
              656098.0505164842
            ],
            [
              188027.32121818888,
              656094.049952645
            ],
            [
              188014.33266090494,
              656091.1704588196
            ],
            [
              188001.14256457976,
              656089.433949695
            ],
            [
              187987.85131381074,
              656088.853641154
            ],
            [
              187974.56006304172,
              656089.433949695
            ],
            [
              187961.36996671653,
              656091.1704588196
            ],
            [
              187948.3814094326,
              656094.049952645
            ],
            [
              187935.69324195356,
              656098.0505164842
            ],
            [
              187923.40202889527,
              656103.1417036309
            ],
            [
              187911.60131381074,
              656109.2847670768
            ],
            [
              187900.38090726722,
              656116.4329544
            ],
            [
              187889.82620333353,
              656124.5318635784
            ],
            [
              187880.01752967978,
              656133.519857023
            ],
            [
              187871.0295362351,
              656143.3285306768
            ],
            [
              187862.93062705666,
              656153.8832346104
            ],
            [
              187855.78243973362,
              656165.103641154
            ],
            [
              187849.63937628764,
              656176.9043562385
            ],
            [
              187844.54818914089,
              656189.1955692968
            ],
            [
              187840.54762530167,
              656201.8837367758
            ],
            [
              187837.66813147638,
              656214.8722940598
            ],
            [
              187835.93162235175,
              656228.062390385
            ],
            [
              187835.35131381074,
              656241.353641154
            ]
          ]
        ]
      }
    },
    {
      "type": "Feature",
      "properties": {
        "FID": 11,
        "MAPKEY": "B634",
        "LAYER": "MASOF-T",
        "NAME": "מרכז תחבורה",
        "X_COORD": 189234.71785,
        "Y_COORD": 651281.68028,
        "TYPECODE": 302010,
        "TYPENAME": "מרכז תחבורה",
        "TCODE": "3"
      },
      "geometry": {
        "type": "Polygon",
        "coordinates": [
          [
            [
              189082.21785008436,
              651281.6802763683
            ],
            [
              189082.79815862537,
              651294.9715271373
            ],
            [
              189084.53466775,
              651308.1616234625
            ],
            [
              189087.4141615753,
              651321.1501807465
            ],
            [
              189091.4147254145,
              651333.8383482255
            ],
            [
              189096.50591256126,
              651346.1295612837
            ],
            [
              189102.64897600724,
              651357.9302763683
            ],
            [
              189109.79716333028,
              651369.1506829119
            ],
            [
              189117.8960725087,
              651379.7053868455
            ],
            [
              189126.8840659534,
              651389.5140604993
            ],
            [
              189136.69273960716,
              651398.5020539439
            ],
            [
              189147.24744354084,
              651406.6009631223
            ],
            [
              189158.46785008436,
              651413.7491504455
            ],
            [
              189170.2685651689,
              651419.8922138914
            ],
            [
              189182.55977822718,
              651424.9834010381
            ],
            [
              189195.2479457062,
              651428.9839648773
            ],
            [
              189208.23650299016,
              651431.8634587027
            ],
            [
              189221.42659931534,
              651433.5999678273
            ],
            [
              189234.71785008436,
              651434.1802763683
            ],
            [
              189248.00910085338,
              651433.5999678273
            ],
            [
              189261.19919717856,
              651431.8634587027
            ],
            [
              189274.1877544625,
              651428.9839648773
            ],
            [
              189286.87592194154,
              651424.9834010381
            ],
            [
              189299.16713499982,
              651419.8922138914
            ],
            [
              189310.96785008436,
              651413.7491504455
            ],
            [
              189322.18825662788,
              651406.6009631223
            ],
            [
              189332.74296056156,
              651398.5020539439
            ],
            [
              189342.5516342153,
              651389.5140604993
            ],
            [
              189351.53962766,
              651379.7053868455
            ],
            [
              189359.63853683844,
              651369.1506829119
            ],
            [
              189366.78672416147,
              651357.9302763683
            ],
            [
              189372.92978760746,
              651346.1295612837
            ],
            [
              189378.0209747542,
              651333.8383482255
            ],
            [
              189382.02153859343,
              651321.1501807465
            ],
            [
              189384.9010324187,
              651308.1616234625
            ],
            [
              189386.63754154334,
              651294.9715271373
            ],
            [
              189387.21785008436,
              651281.6802763683
            ],
            [
              189387.21785008436,
              651281.6802763683
            ],
            [
              189386.63754154334,
              651268.3890255992
            ],
            [
              189384.9010324187,
              651255.1989292741
            ],
            [
              189382.02153859343,
              651242.2103719901
            ],
            [
              189378.0209747542,
              651229.5222045111
            ],
            [
              189372.92978760746,
              651217.2309914528
            ],
            [
              189366.78672416147,
              651205.4302763683
            ],
            [
              189359.63853683844,
              651194.2098698247
            ],
            [
              189351.53962766,
              651183.655165891
            ],
            [
              189342.5516342153,
              651173.8464922373
            ],
            [
              189332.74296056156,
              651164.8584987926
            ],
            [
              189322.18825662788,
              651156.7595896142
            ],
            [
              189310.96785008436,
              651149.6114022911
            ],
            [
              189299.16713499982,
              651143.4683388452
            ],
            [
              189286.87592194154,
              651138.3771516985
            ],
            [
              189274.1877544625,
              651134.3765878592
            ],
            [
              189261.19919717856,
              651131.4970940339
            ],
            [
              189248.00910085338,
              651129.7605849092
            ],
            [
              189234.71785008436,
              651129.1802763683
            ],
            [
              189221.42659931534,
              651129.7605849092
            ],
            [
              189208.23650299016,
              651131.4970940339
            ],
            [
              189195.2479457062,
              651134.3765878592
            ],
            [
              189182.55977822718,
              651138.3771516985
            ],
            [
              189170.2685651689,
              651143.4683388452
            ],
            [
              189158.46785008436,
              651149.6114022911
            ],
            [
              189147.24744354084,
              651156.7595896142
            ],
            [
              189136.69273960716,
              651164.8584987926
            ],
            [
              189126.8840659534,
              651173.8464922373
            ],
            [
              189117.8960725087,
              651183.655165891
            ],
            [
              189109.79716333028,
              651194.2098698247
            ],
            [
              189102.64897600724,
              651205.4302763683
            ],
            [
              189096.50591256126,
              651217.2309914528
            ],
            [
              189091.4147254145,
              651229.5222045111
            ],
            [
              189087.4141615753,
              651242.2103719901
            ],
            [
              189084.53466775,
              651255.1989292741
            ],
            [
              189082.79815862537,
              651268.3890255992
            ],
            [
              189082.21785008436,
              651281.6802763683
            ]
          ]
        ]
      }
    }
  ]
}