{
  "type": "FeatureCollection",
  "name": "tmm321_תממ_3__21___כבישים",
  "features": [
    {
      "type": "Feature",
      "id": 9,
      "geometry": {
        "type": "LineString",
        "coordinates": [
          [
            179717.04708693892,
            661763.0614968677
          ],
          [
            179878.211148,
            661360.151309
          ],
          [
            179994.628046,
            661159.067578
          ],
          [
            180142.79500699998,
            660979.1505410001
          ],
          [
            180798.96300699998,
            660365.315973
          ],
          [
            181910.215244,
            659455.147523
          ],
          [
            182185.382457,
            659222.313667
          ],
          [
            182661.633404,
            658841.312955
          ],
          [
            183159.051088,
            658439.145437
          ],
          [
            183477.360605,
            658179.966787
          ],
          [
            183883.352492,
            657820.210409
          ],
          [
            184367.658207,
            657446.641892
          ],
          [
            184691.796013,
            657187.908323
          ],
          [
            184745.139391,
            657143.484606
          ],
          [
            184944.555687,
            656995.502278
          ],
          [
            185165.363987,
            656790.887425
          ],
          [
            185386.172202,
            656586.273075
          ],
          [
            185685.33560299998,
            656304.0202
          ],
          [
            186077.044693,
            656015.113715
          ],
          [
            186354.805892,
            655803.676573
          ],
          [
            186675.27928699998,
            655592.442101
          ],
          [
            186896.010407,
            655508.386517
          ],
          [
            187059.338293,
            655458.449576
          ],
          [
            187205.680803,
            655426.845412
          ],
          [
            187400.52178900002,
            655451.597593
          ],
          [
            187659.833802,
            655596.978479
          ],
          [
            187967.609997,
            655806.742185
          ],
          [
            188178.322596,
            655919.847378
          ],
          [
            188430.055207,
            655936.768274
          ],
          [
            188625.031512,
            655929.413273
          ],
          [
            188820.415014,
            655825.7343220001
          ],
          [
            189073.064201,
            655625.928176
          ],
          [
            189342.230009,
            655361.961917
          ],
          [
            189578.769801,
            655129.99199
          ],
          [
            189896.60271099998,
            654882.247805
          ],
          [
            190271.531804,
            654578.51092
          ],
          [
            190784.885088,
            654194.980323
          ],
          [
            191151.827496,
            653859.10762
          ],
          [
            191771.248799,
            653363.5631
          ],
          [
            191983.285088,
            653163.617189
          ],
          [
            192260.267402,
            652971.921521
          ],
          [
            192463.842092,
            652852.216804
          ],
          [
            192675.402705,
            652764.648014
          ],
          [
            193171.559895,
            652605.816179
          ],
          [
            193415.577192,
            652526.385777
          ],
          [
            193635.294697,
            652430.818309
          ],
          [
            193757.405187,
            652367.0224
          ],
          [
            193896.066593,
            652231.0396809999
          ],
          [
            194034.897388,
            652054.922578
          ],
          [
            194214.815994,
            651766.567783
          ],
          [
            194471.425514,
            651664.384381
          ],
          [
            194785.088107,
            651556.715217
          ],
          [
            195107.21549200002,
            651449.074576
          ],
          [
            195454.737305,
            651341.52218
          ],
          [
            195759.864313,
            651250.5543869999
          ],
          [
            196022.59561199998,
            651176.1705819999
          ],
          [
            196268.53821300002,
            651068.268384
          ],
          [
            196641.667603,
            650910.611207
          ],
          [
            197023.296898,
            650744.6185
          ],
          [
            197396.532197,
            650561.865982
          ],
          [
            197752.802093,
            650387.420473
          ],
          [
            198007.280986,
            650262.816291
          ],
          [
            198202.363907,
            650171.469503
          ],
          [
            198346.656303,
            650079.947619
          ],
          [
            198482.44890699998,
            649996.76121
          ],
          [
            198677.70839100002,
            649863.588017
          ],
          [
            198822.072401,
            649755.335514
          ],
          [
            198975.006999,
            649622.016304
          ],
          [
            199195.696705,
            649480.565294
          ],
          [
            199450.52889400002,
            649272.308802
          ],
          [
            199526.92541300002,
            649222.379173
          ],
          [
            199781.722487,
            649022.488019
          ],
          [
            200010.912014,
            648872.700975
          ],
          [
            200248.63800099998,
            648706.212617
          ],
          [
            200401.325213,
            648631.449817
          ],
          [
            200537.08270199999,
            648556.6293029999
          ],
          [
            200732.059006,
            648490.377801
          ],
          [
            200927.035198,
            648424.12641
          ],
          [
            201215.161801,
            648349.8307950001
          ],
          [
            201706.552004,
            648251.139388
          ],
          [
            202197.837201,
            648177.543321
          ],
          [
            202570.506113,
            648128.634912
          ],
          [
            203129.474691,
            648063.637719
          ],
          [
            203476.643292,
            648039.737578
          ],
          [
            203730.55579800002,
            648048.977616
          ],
          [
            204069.08298900002,
            648066.874186
          ],
          [
            204289.029687,
            648101.0938019999
          ]
        ]
      },
      "properties": {
        "FID": 9,
        "MAPKEY": "18EF",
        "LAYER": "ROAD-A-ZIR",
        "NAME": "דרך מהירה",
        "ROAD_NUM": "1",
        "TYPECODE": 202005,
        "TYPENAME": "דרך מהירה",
        "TCODE": "3"
      }
    },
    {
      "type": "Feature",
      "id": 14,
      "geometry": {
        "type": "LineString",
        "coordinates": [
          [
            179218.44809100003,
            660697.697685
          ],
          [
            179787.016268,
            660430.6300359999
          ],
          [
            180160.236369,
            660234.598986
          ],
          [
            180453.751576,
            660025.341759
          ],
          [
            180707.253663,
            659842.236704
          ],
          [
            180974.179093,
            659632.939513
          ],
          [
            181241.29733,
            659384.324032
          ],
          [
            181476.29768599998,
            659084.730074
          ],
          [
            181677.381448,
            658841.312955
          ],
          [
            181867.881826,
            658576.729086
          ],
          [
            182022.01748,
            658362.049729
          ],
          [
            182095.976207,
            658276.325063
          ],
          [
            182169.5207989532,
            658187.297335307
          ],
          [
            182169.5207989532,
            658187.297335307
          ],
          [
            182277.57496300002,
            658050.7023700001
          ],
          [
            182370.474655,
            657909.939745
          ],
          [
            182534.018796,
            657656.930274
          ],
          [
            182624.672883,
            657524.4358089999
          ],
          [
            182672.171869,
            657458.796838
          ],
          [
            182830.32814,
            657213.765616
          ],
          [
            182987.289261,
            656956.104394
          ],
          [
            183060.509869,
            656837.5566980001
          ],
          [
            183126.75709600002,
            656725.982441
          ],
          [
            183303.3076604073,
            656429.4120525625
          ],
          [
            183303.3076604073,
            656429.4120525625
          ],
          [
            183279.140619,
            656469.921871
          ],
          [
            183279.140619,
            656469.921871
          ],
          [
            183542.815444,
            656027.938961
          ],
          [
            183970.401041,
            655299.515596
          ],
          [
            184497.756456,
            654401.363165
          ],
          [
            184690.14120399999,
            654118.605095
          ],
          [
            184839.804802,
            653849.827897
          ],
          [
            185108.548976,
            653424.03318
          ],
          [
            185222.707727,
            653243.161568
          ],
          [
            185281.609265,
            653149.838763
          ],
          [
            185374.24430999998,
            653004.896707
          ],
          [
            185512.174348,
            652771.2426829999
          ],
          [
            185374.244479,
            653004.89693
          ],
          [
            185374.24430999998,
            653004.896707
          ],
          [
            185657.06251199997,
            652533.343755
          ],
          [
            185880.20529100002,
            652166.922882
          ],
          [
            185898.57811600002,
            652134.890661
          ],
          [
            185963.250002,
            652022.187515
          ],
          [
            186258.453128,
            651507.71873
          ],
          [
            186464.587056,
            651148.481055
          ],
          [
            186538.562508,
            650993.484374
          ],
          [
            186657.04926600002,
            650745.163939
          ],
          [
            186835.169157,
            650504.888566
          ],
          [
            186899.29121,
            650420.091403
          ],
          [
            187019.718754,
            650309.093732
          ],
          [
            187151.874998,
            650187.265641
          ],
          [
            187476.718748,
            649968.890615
          ],
          [
            187801.593742,
            649741.375015
          ],
          [
            187879.265642,
            649679.062486
          ],
          [
            188108.046897,
            649495.484386
          ],
          [
            188266.01561600002,
            649340.562499
          ],
          [
            188386.92841300002,
            649217.4632989999
          ],
          [
            188554.187504,
            649039.734382
          ],
          [
            188694.015642,
            648802.437491
          ],
          [
            188861.953133,
            648482.9218830001
          ],
          [
            189030.00000899998,
            648135.953131
          ],
          [
            189072.847805,
            647992.18618
          ],
          [
            189245.406258,
            647533.093714
          ],
          [
            189479.046878,
            646994.296842
          ],
          [
            189581.968735,
            646729.437519
          ],
          [
            189656.843757,
            646528.484398
          ],
          [
            189679.078124,
            646463.500043
          ],
          [
            189684.968761,
            646446.265625
          ],
          [
            189701.705902,
            646328.611942
          ],
          [
            189713.57811300003,
            646245.156274
          ],
          [
            189709.263213,
            646148.983085
          ],
          [
            189708.218749,
            646125.7031769999
          ],
          [
            189698.343739,
            646018.437511
          ],
          [
            189696.437503,
            645855.015602
          ],
          [
            189681.593771,
            645701.7499599999
          ],
          [
            189672.159492,
            645557.855413
          ],
          [
            189588.783491,
            645256.414597
          ],
          [
            189564.696988,
            644946.8129
          ],
          [
            189574.046489,
            644737.710285
          ],
          [
            189634.644703,
            644420.034725
          ],
          [
            189780.988795,
            643843.327982
          ],
          [
            189909.979412,
            643366.945894
          ],
          [
            189936.151793,
            643182.997619
          ],
          [
            189929.137393,
            642839.993125
          ],
          [
            189921.768793,
            642580.640997
          ],
          [
            189906.00549100002,
            642304.529003
          ],
          [
            189881.707394,
            642045.118491
          ],
          [
            189882.5912,
            641835.987298
          ],
          [
            189908.729512,
            641660.404304
          ],
          [
            190242.363212,
            640833.381126
          ],
          [
            190626.928093,
            639973.071921
          ],
          [
            190900.494201,
            639338.246202
          ],
          [
            191113.8146,
            638937.4425049999
          ],
          [
            191437.887205,
            638369.7135739999
          ],
          [
            191557.28079400002,
            638160.99001
          ],
          [
            191608.5653,
            638044.051616
          ],
          [
            191643.09760799998,
            637885.228376
          ],
          [
            191652.622909,
            637634.300025
          ],
          [
            191679.53920199999,
            637274.6816809999
          ],
          [
            191714.812991,
            636940.1878150001
          ],
          [
            191775.411996,
            636622.512199
          ],
          [
            191861.369609,
            636313.289385
          ],
          [
            191980.763197,
            636104.566378
          ],
          [
            192125.162209,
            635987.948595
          ],
          [
            192405.106411,
            635846.701426
          ],
          [
            192727.268797,
            635730.696118
          ],
          [
            193032.289895,
            635664.82361
          ],
          [
            193472.961301,
            635549.226376
          ],
          [
            193990.242401,
            635333.508496
          ],
          [
            194337.729213,
            635234.321381
          ],
          [
            194566.423909,
            635201.647884
          ]
        ]
      },
      "properties": {
        "FID": 14,
        "MAPKEY": "1E70",
        "LAYER": "H-ROAD-C",
        "NAME": "דרך ראשית",
        "ROAD_NUM": "44",
        "TYPECODE": 202009,
        "TYPENAME": "דרך ראשית",
        "TCODE": "3"
      }
    },
    {
      "type": "Feature",
      "id": 42,
      "geometry": {
        "type": "LineString",
        "coordinates": [
          [
            181972.9673820606,
            650345.2757287894
          ],
          [
            182599.39669233875,
            651272.9576528813
          ],
          [
            183458.05608516792,
            652515.1878176238
          ],
          [
            183604.545919228,
            652690.7010994351
          ],
          [
            183691.14319768827,
            652761.4888424142
          ],
          [
            183819.72626882256,
            652845.3856841887
          ],
          [
            184029.65895235783,
            652955.5003372997
          ],
          [
            184299.94686389086,
            653104.9415142877
          ],
          [
            184504.63113733358,
            653222.9210859194
          ],
          [
            184761.79802363517,
            653364.496958132
          ],
          [
            184945.4886567078,
            653474.6116112429
          ],
          [
            185032.0859351682,
            653537.5340494465
          ]
        ]
      },
      "properties": {
        "FID": 42,
        "MAPKEY": "56A9",
        "LAYER": "H-ROAD-E",
        "NAME": "דרך עורקית עירונית",
        "ROAD_NUM": " ",
        "TYPECODE": 202007,
        "TYPENAME": "דרך עורקית עירונית",
        "TCODE": "3"
      }
    },
    {
      "type": "Feature",
      "id": 43,
      "geometry": {
        "type": "LineString",
        "coordinates": [
          [
            183778.68931722708,
            652818.6102260778
          ],
          [
            183727.88132430287,
            652924.0391181977
          ],
          [
            183643.9082508887,
            653049.8839946049
          ],
          [
            183565.18358756718,
            653139.0246303995
          ],
          [
            183436.59977239976,
            653209.8123733785
          ],
          [
            183255.53334437334,
            653293.709215153
          ],
          [
            183129.57373425225,
            653351.3882455912
          ],
          [
            183014.11094431614,
            653411.6887867847
          ],
          [
            182056.93623492576,
            653831.2551409691
          ]
        ]
      },
      "properties": {
        "FID": 43,
        "MAPKEY": "56B8",
        "LAYER": "H-ROAD-E",
        "NAME": "דרך עורקית עירונית",
        "ROAD_NUM": " ",
        "TYPECODE": 202007,
        "TYPENAME": "דרך עורקית עירונית",
        "TCODE": "3"
      }
    },
    {
      "type": "Feature",
      "id": 80,
      "geometry": {
        "type": "LineString",
        "coordinates": [
          [
            183279.142398,
            656469.923489
          ],
          [
            183407.24031,
            656527.263378
          ],
          [
            183556.6848,
            656598.888227
          ],
          [
            183656.280795,
            656698.643387
          ],
          [
            183762.99068699998,
            656805.524923
          ],
          [
            183891.093288,
            656855.77332
          ],
          [
            184097.512995,
            656885.117193
          ],
          [
            184318.162105,
            656928.7119229999
          ],
          [
            184496.09418900002,
            656979.196201
          ],
          [
            184631.296505,
            657057.845116
          ],
          [
            184731.48232015042,
            657154.8580486506
          ]
        ]
      },
      "properties": {
        "FID": 80,
        "MAPKEY": "9A3",
        "LAYER": "H-ROAD-D",
        "NAME": "דרך אזורית",
        "ROAD_NUM": "412",
        "TYPECODE": 202004,
        "TYPENAME": "דרך אזורית",
        "TCODE": "3"
      }
    },
    {
      "type": "Feature",
      "id": 82,
      "geometry": {
        "type": "LineString",
        "coordinates": [
          [
            189014.886375,
            659536.24857
          ],
          [
            188820.619969,
            659372.330731
          ],
          [
            188541.361794,
            659250.9322609999
          ],
          [
            188359.23690699998,
            659141.640901
          ],
          [
            188195.324526,
            659032.3687420001
          ],
          [
            188122.474645,
            658995.951126
          ],
          [
            188019.270626,
            658935.242262
          ],
          [
            187928.20806900001,
            658874.533343
          ],
          [
            187779.823215,
            658800.471488
          ],
          [
            187646.26517,
            658751.908248
          ],
          [
            187464.1400569999,
            658691.199329
          ],
          [
            187221.306583,
            658630.490521
          ],
          [
            187140.531235,
            658616.563512
          ],
          [
            187045.253049,
            658600.136033
          ],
          [
            186942.048832,
            658563.699161
          ],
          [
            186737.884194,
            658544.025671
          ],
          [
            186708.489544,
            658534.255822
          ],
          [
            186562.386906,
            658485.695932
          ],
          [
            186368.70573,
            658413.094795
          ],
          [
            186270.08826400002,
            658352.10484
          ],
          [
            186168.80644100002,
            658296.397473
          ],
          [
            186013.507927,
            658176.278206
          ],
          [
            185923.652104,
            658105.387456
          ],
          [
            185853.430334,
            658049.986802
          ],
          [
            185755.850185,
            657996.52566
          ],
          [
            185599.661226,
            657910.9546010001
          ],
          [
            185448.74128800002,
            657846.995149
          ],
          [
            185336.390688,
            657790.8198170001
          ],
          [
            185218.933252,
            657724.430839
          ],
          [
            185142.33059300002,
            657647.828158
          ],
          [
            185086.155279,
            657596.759705
          ],
          [
            185004.445783,
            657520.157025
          ],
          [
            184932.94993099998,
            657443.5543440001
          ],
          [
            184851.240407,
            657356.738018
          ],
          [
            184731.48232015045,
            657154.8580486506
          ]
        ]
      },
      "properties": {
        "FID": 82,
        "MAPKEY": "9EA",
        "LAYER": "H-ROAD-B",
        "NAME": "דרך פרברית מהירה",
        "ROAD_NUM": "412",
        "TYPECODE": 202008,
        "TYPENAME": "דרך פרברית מהירה",
        "TCODE": "3"
      }
    }
  ]
}