{
  "type": "FeatureCollection",
  "name": "tmm321_water",
  "description": "תמ\"מ 3/21 – קו מים",
  "crs": {
    "type": "name",
    "properties": {
      "name": "urn:ogc:def:crs:EPSG::2039"
    }
  },
  "features": [
    {
      "type": "Feature",
      "properties": {
        "FID": 1,
        "MAPKEY": "3AB",
        "LAYER": "water",
        "NAME": "קו מים",
        "TYPECODE": 211002,
        "TYPENAME": "קו מים ארצי",
        "TCODE": "3"
      },
      "geometry": {
        "type": "LineString",
        "coordinates": [
          [
            170510.4198027469,
            626000
          ],
          [
            170525.9770726096,
            626183.4151683343
          ],
          [
            170549.1921838997,
            626444.9620429052
          ],
          [
            170623.27102727536,
            626671.6203853174
          ],
          [
            170623.27102727536,
            626778.0091237291
          ],
          [
            170646.41943974886,
            626972.2882848855
          ],
          [
            170729.75764811505,
            627434.8541275433
          ],
          [
            170841.09758865368,
            627820.7136755486
          ],
          [
            170892.02409609593,
            628468.3074847183
          ],
          [
            170943.07223079074,
            629122.3091006584
          ],
          [
            170929.17925984692,
            629515.4909834825
          ],
          [
            170961.54387925286,
            629910.8563274818
          ],
          [
            170905.98768931534,
            630072.7542705715
          ],
          [
            170980.06260923203,
            630230.02865315
          ],
          [
            171007.8446276607,
            630424.3057774955
          ],
          [
            171017.10399264935,
            630757.3528583194
          ],
          [
            171100.63445054274,
            631190.0916436512
          ],
          [
            171118.80006914493,
            631665.9558240094
          ],
          [
            171147.21376459114,
            632046.3506086436
          ],
          [
            171204.0411554845,
            632352.9395172014
          ],
          [
            171294.96341153048,
            632693.5920495451
          ],
          [
            171454.57367726695,
            633292.2759210225
          ],
          [
            171619.37075678166,
            633695.3811460542
          ],
          [
            171772.80549688637,
            634240.4256051665
          ],
          [
            171950.9266456822,
            634823.5706470658
          ],
          [
            172188.63730102964,
            635544.856270907
          ],
          [
            172383.77449472435,
            636185.9893162255
          ],
          [
            172508.46989222337,
            636474.3345104656
          ],
          [
            172665.4043584168,
            636948.2657573763
          ],
          [
            172676.1036331309,
            637058.7321910057
          ],
          [
            172811.91811553668,
            637483.584444928
          ],
          [
            172904.9551163828,
            637659.8541250085
          ],
          [
            173143.92127884738,
            638041.1389959613
          ],
          [
            173372.18424313795,
            638354.718239178
          ],
          [
            173225.95297511946,
            638564.9578497473
          ],
          [
            173311.79827425908,
            638761.7728403471
          ],
          [
            173387.1090839943,
            639020.4722534225
          ],
          [
            173643.90737098362,
            639790.1667594998
          ],
          [
            173636.83337306976,
            640226.2744298917
          ],
          [
            173697.46651991177,
            640383.0640515
          ],
          [
            173854.3970626453,
            640639.6288868592
          ],
          [
            174172.21691899188,
            641115.3382695965
          ],
          [
            174475.3826532038,
            641553.6375484071
          ],
          [
            174586.15761554055,
            642181.9468329411
          ],
          [
            174689.77226384915,
            642693.377803454
          ],
          [
            174821.7378322482,
            643238.5790969974
          ],
          [
            174900.48951617628,
            643582.1605632685
          ],
          [
            175096.65465632267,
            643967.0078163072
          ],
          [
            175286.04790495615,
            644364.4690386178
          ],
          [
            175549.9790417552,
            644902.5435311792
          ],
          [
            175871.5026440965,
            645563.7045370743
          ],
          [
            176171.0980299441,
            646155.2290185965
          ],
          [
            176335.83625756297,
            646513.6425410989
          ],
          [
            176453.5361263426,
            646834.3485852976
          ],
          [
            176667.82765049487,
            647459.9346537949
          ],
          [
            176839.02389284782,
            647983.7555443917
          ],
          [
            177035.7343938984,
            648559.651576661
          ],
          [
            177214.06740952097,
            649090.5972314293
          ],
          [
            177406.21885035187,
            649861.226633663
          ],
          [
            178095.66881339625,
            650197.1680226307
          ],
          [
            178207.15392194595,
            650452.6635323211
          ],
          [
            178504.54432341922,
            650793.5706660144
          ],
          [
            178808.6124533713,
            651073.2329358228
          ],
          [
            179184.26410630438,
            651486.07615328
          ],
          [
            179353.8948882213,
            651750.0060964846
          ],
          [
            179472.85026411805,
            652275.4421780442
          ],
          [
            179592.09205257613,
            652501.5587287841
          ],
          [
            180248.61241801176,
            652706.8590731684
          ],
          [
            180394.27478436846,
            653105.3346272565
          ],
          [
            180518.29927025083,
            653457.947312606
          ],
          [
            180972.20432772487,
            654649.2086967882
          ],
          [
            181260.2922061514,
            655413.0881080371
          ],
          [
            181464.90063166153,
            655900.5580363222
          ],
          [
            181670.0269538574,
            656127.0839860323
          ],
          [
            181991.80558108166,
            656455.5584266149
          ],
          [
            182406.75853024423,
            656840.9515449472
          ],
          [
            182714.9502163846,
            657145.9354465965
          ],
          [
            182931.7998362882,
            657486.6388992101
          ],
          [
            182564.98773815203,
            657856.1347092642
          ],
          [
            183286.72385140788,
            658926.8779985288
          ],
          [
            183887.0485029677,
            659133.2252636633
          ],
          [
            184095.06249153335,
            659716.0383054025
          ],
          [
            184131.5624375064,
            659943.7456053756
          ],
          [
            184140.60601221025,
            660296.1444255912
          ],
          [
            184136.08226312883,
            661095.8207866151
          ],
          [
            184148.93551724125,
            661325.6606274936
          ],
          [
            184296.061334081,
            661822.6322781513
          ],
          [
            184674.25931238662,
            662773.8086631412
          ],
          [
            184898.69297996908,
            663353.8699734923
          ],
          [
            185165.05273834802,
            663966.4326737472
          ],
          [
            185442.8807695508,
            664430.3835477477
          ],
          [
            185530.44454405736,
            664784.5930927629
          ],
          [
            185586.0125043746,
            665304.0572450629
          ],
          [
            185633.72177482862,
            665781.3064567635
          ],
          [
            185657.53717545886,
            666193.7056494667
          ],
          [
            185745.5403774567,
            666473.2334897623
          ],
          [
            185752.947869448,
            666770.7850688095
          ],
          [
            185844.23500724975,
            667421.1082044486
          ],
          [
            185931.91648554895,
            667640.5093899874
          ],
          [
            186805.57288344763,
            668120.6895724263
          ],
          [
            187019.89579527732,
            668168.2735462892
          ],
          [
            187342.12169691268,
            668355.397391112
          ],
          [
            188755.0811770158,
            668775.7279250626
          ],
          [
            188980.40154650062,
            668985.0081977462
          ],
          [
            189912.5998871997,
            668796.1021434751
          ],
          [
            191127.57374183647,
            668659.4402861726
          ],
          [
            191866.29843577184,
            668571.5763419685
          ],
          [
            192443.4158229623,
            668588.2537487824
          ],
          [
            192883.13365001138,
            667828.2340939958
          ],
          [
            193064.2209343724,
            667536.5770453978
          ],
          [
            193295.916925936,
            666888.9180582827
          ],
          [
            193549.9491738081,
            666227.2172975261
          ],
          [
            193588.98367477395,
            665731.3597823749
          ],
          [
            193747.17757154442,
            665426.3107027803
          ],
          [
            193917.6518973047,
            665184.641064787
          ],
          [
            194149.308654272,
            664857.1198516579
          ],
          [
            194161.7852562489,
            664316.973922515
          ],
          [
            194314.05865226965,
            664143.2869185265
          ],
          [
            194413.8675446296,
            663937.6158745771
          ],
          [
            194411.78811096586,
            663833.7405606899
          ],
          [
            194338.72936712299,
            663756.0606704759
          ],
          [
            194282.58465822507,
            663654.2649404136
          ],
          [
            194285.72365762445,
            663475.3404117431
          ],
          [
            194331.65122592042,
            663337.6838573646
          ],
          [
            194172.33936295286,
            663250.277776306
          ],
          [
            194153.50675619487,
            662721.9025767648
          ],
          [
            194153.50675619487,
            662607.639527808
          ],
          [
            194170.0294254463,
            662522.530445645
          ],
          [
            194194.25580906868,
            662233.9397402669
          ],
          [
            194252.4760281695,
            661951.6459109073
          ],
          [
            194288.1363537591,
            661689.1193303426
          ],
          [
            194342.5861280486,
            661310.9202277486
          ],
          [
            194370.74087515287,
            661063.3947587111
          ],
          [
            194423.39370488096,
            660709.5559132611
          ],
          [
            194451.54845198523,
            660546.4155155846
          ],
          [
            194466.56353241485,
            660392.6505580114
          ],
          [
            194483.48149081971,
            660144.4101683837
          ],
          [
            194479.7267398471,
            659985.0195393863
          ],
          [
            194430.8365080105,
            659753.3486056002
          ],
          [
            194380.1571785314,
            659520.8242480899
          ],
          [
            194338.86668821424,
            659374.5608646858
          ],
          [
            194272.99964607693,
            659236.6382214993
          ],
          [
            194171.64883403853,
            659062.2444441637
          ],
          [
            194079.67901424225,
            658884.10293496
          ],
          [
            193950.1734551005,
            658675.9571658911
          ],
          [
            193829.7820929382,
            658427.3521871304
          ],
          [
            193674.0011239089,
            658170.4512779897
          ],
          [
            193527.32650493924,
            657905.1159353345
          ],
          [
            193414.71143998392,
            657717.5969492167
          ],
          [
            193377.17570063844,
            657640.7134520246
          ],
          [
            193339.41632408835,
            657371.6120462038
          ],
          [
            193294.37108279858,
            657125.9624799113
          ],
          [
            193267.96619873866,
            656879.4554162726
          ],
          [
            193222.9209574489,
            656646.9330955732
          ],
          [
            193179.70404839795,
            656326.8360578029
          ],
          [
            193140.28897183668,
            656053.0601712007
          ],
          [
            193048.29561128188,
            655553.1799547235
          ],
          [
            192965.5106107397,
            655041.808051724
          ],
          [
            192871.55944377463,
            654506.493437794
          ],
          [
            192815.24994956702,
            654208.3389627505
          ],
          [
            192756.94733781088,
            653822.8623351753
          ],
          [
            192677.96416975837,
            653382.7808469166
          ],
          [
            192602.8887676075,
            652960.8636373545
          ],
          [
            192523.94091069326,
            652560.2514687392
          ],
          [
            192484.525834132,
            652303.3505595985
          ],
          [
            192422.47631832305,
            651942.2545572752
          ],
          [
            192347.28713583946,
            651517.2454689217
          ],
          [
            192270.33631993365,
            651115.9550423108
          ],
          [
            192191.40023339726,
            650642.2396973446
          ],
          [
            192104.98995605484,
            650149.6818156864
          ],
          [
            192071.20504422206,
            650003.4163954712
          ],
          [
            192032.65259032452,
            649874.223263934
          ],
          [
            192103.4511161236,
            649737.9957750133
          ],
          [
            192083.90920686442,
            649565.4796689828
          ],
          [
            192048.6686914675,
            649271.2643860227
          ],
          [
            192048.5133249968,
            649076.8088909801
          ],
          [
            191973.77769192588,
            648740.6873940087
          ],
          [
            191918.14105702133,
            648444.3967056181
          ],
          [
            191807.1056299772,
            647976.6284033499
          ],
          [
            191666.0568209542,
            647567.6697241443
          ],
          [
            191598.77340984996,
            647343.0868919354
          ],
          [
            191382.6927880561,
            646533.6888329727
          ],
          [
            191316.0018193731,
            646308.4134850923
          ],
          [
            191279.40771036595,
            645996.4086966226
          ],
          [
            191209.65251962468,
            645372.368567521
          ],
          [
            191169.51160301082,
            645064.9404929143
          ],
          [
            191072.37458673585,
            644199.9680513283
          ],
          [
            191041.6028919844,
            643918.9818545012
          ],
          [
            191004.12600453477,
            643381.1477056141
          ],
          [
            190963.15723791625,
            642776.9970339548
          ],
          [
            190911.92862407397,
            642230.9850897139
          ],
          [
            190871.04617356881,
            641682.9404082964
          ],
          [
            190833.52220460307,
            641112.6883787483
          ],
          [
            190400.81952357106,
            640591.8738208893
          ],
          [
            190103.4997443743,
            640232.6007642304
          ],
          [
            190001.28577119298,
            640103.2490208817
          ],
          [
            189766.19598695263,
            639895.604307269
          ],
          [
            189370.97019337025,
            639538.1827116255
          ],
          [
            189015.68521995377,
            639141.6645327143
          ],
          [
            188583.3393174644,
            638624.802691174
          ],
          [
            188302.3426344964,
            638314.9707406037
          ],
          [
            187924.74369812012,
            637928.0308187269
          ],
          [
            187385.84473227058,
            637344.5741447753
          ],
          [
            186956.551537754,
            636878.2259444655
          ],
          [
            186464.97734330315,
            636328.437753005
          ],
          [
            186168.55995984655,
            636015.2679087587
          ],
          [
            185796.46296143904,
            635605.0114410152
          ],
          [
            185339.90956863947,
            635104.6220218383
          ],
          [
            184919.7776526194,
            634632.9801502647
          ],
          [
            184596.1039943397,
            634258.5389635931
          ],
          [
            184459.8186967643,
            634112.1655924055
          ],
          [
            184418.63413986005,
            633828.1975045702
          ],
          [
            184299.38450448215,
            633307.3849835219
          ],
          [
            184220.70344282966,
            633006.2363966056
          ],
          [
            184155.97028055787,
            632832.6329018597
          ],
          [
            183992.4287081603,
            632482.018327903
          ],
          [
            183882.89748256188,
            632261.7963076127
          ],
          [
            183750.02167150192,
            631911.1837704668
          ],
          [
            183535.37311251368,
            631421.0048838204
          ],
          [
            183412.2902569687,
            631075.2705085357
          ],
          [
            183126.0934861377,
            630350.2167847182
          ],
          [
            183003.03809481114,
            629983.8332215634
          ],
          [
            182713.43183746468,
            629367.706102412
          ],
          [
            182495.3777154209,
            628891.1453327611
          ],
          [
            182324.26778918225,
            628538.4287700609
          ],
          [
            182228.86886557192,
            628317.1679762634
          ],
          [
            182116.434279765,
            628031.2302923864
          ],
          [
            181989.9654784631,
            627702.696784291
          ],
          [
            181884.34594222717,
            627457.6073409677
          ],
          [
            181785.53753210139,
            627236.3465471703
          ],
          [
            181683.32355892006,
            627093.3787236372
          ],
          [
            181632.2204957893,
            626981.0465713169
          ],
          [
            181546.63022153266,
            626815.8204793832
          ],
          [
            181182.07018928882,
            626271.1793088091
          ],
          [
            181006.44149904317,
            626000
          ]
        ]
      }
    },
    {
      "type": "Feature",
      "properties": {
        "FID": 3,
        "MAPKEY": "A83",
        "LAYER": "kavey30-up",
        "NAME": " ",
        "TYPECODE": 211003,
        "TYPENAME": "קו מים ראשי",
        "TCODE": "3"
      },
      "geometry": {
        "type": "LineString",
        "coordinates": [
          [
            194884.02050760388,
            655566.4894747604
          ],
          [
            194932.28351112455,
            655417.0132919652
          ],
          [
            194657.18983118515,
            655214.492162718
          ],
          [
            194092.5135966828,
            655161.4519232134
          ],
          [
            193223.78860019334,
            654828.743682608
          ],
          [
            192586.72239384986,
            654708.1964000207
          ],
          [
            192176.49139736593,
            654452.6350312689
          ],
          [
            191378.0981909018,
            654277.7460381542
          ],
          [
            190572.1160056768,
            654070.4049945218
          ],
          [
            190379.06399159506,
            654137.912037604
          ],
          [
            190089.49050391186,
            653983.6112334756
          ],
          [
            189930.22168560605,
            653978.7889656164
          ]
        ]
      }
    },
    {
      "type": "Feature",
      "properties": {
        "FID": 18,
        "MAPKEY": "B78",
        "LAYER": "kavey30-up",
        "NAME": " ",
        "TYPECODE": 211003,
        "TYPENAME": "קו מים ראשי",
        "TCODE": "3"
      },
      "geometry": {
        "type": "LineString",
        "coordinates": [
          [
            184139.08324861087,
            660565.3278024647
          ],
          [
            183383.20226530847,
            661039.5797993927
          ],
          [
            183123.69839619566,
            661212.42569512
          ],
          [
            182514.9049377027,
            661449.5423920125
          ]
        ]
      }
    },
    {
      "type": "Feature",
      "properties": {
        "FID": 19,
        "MAPKEY": "B7E",
        "LAYER": "kavey30-up",
        "NAME": " ",
        "TYPECODE": 211003,
        "TYPENAME": "קו מים ראשי",
        "TCODE": "3"
      },
      "geometry": {
        "type": "LineString",
        "coordinates": [
          [
            181931.28356920314,
            656393.7770268798
          ],
          [
            181578.57086109533,
            656683.287529936
          ],
          [
            181523.40734484885,
            656588.3700012174
          ],
          [
            181367.10992201464,
            656830.2567129629
          ],
          [
            181232.2663001686,
            656618.9887183207
          ],
          [
            181011.61064824509,
            656585.3077999724
          ],
          [
            180407.87634483376,
            656618.9887183207
          ],
          [
            180373.8873286671,
            656402.0947424297
          ],
          [
            179645.31980185886,
            656432.0675715115
          ],
          [
            178783.89708523592,
            656521.9852349204
          ],
          [
            178216.99241517973,
            656549.8589279322
          ],
          [
            177865.68265502853,
            656552.6229002693
          ],
          [
            177680.34587245807,
            656566.4419381182
          ],
          [
            177189.64908989635,
            656635.8938486809
          ],
          [
            176993.24818272446,
            656658.0039797045
          ],
          [
            176852.16948549706,
            656702.2234179147
          ],
          [
            176583.84700760455,
            656804.4805083476
          ]
        ]
      }
    },
    {
      "type": "Feature",
      "properties": {
        "FID": 28,
        "MAPKEY": "BFF",
        "LAYER": "kavey30-up",
        "NAME": " ",
        "TYPECODE": 211003,
        "TYPENAME": "קו מים ראשי",
        "TCODE": "3"
      },
      "geometry": {
        "type": "LineString",
        "coordinates": [
          [
            192268.40685499017,
            658389.626470144
          ],
          [
            192135.39455841528,
            658104.8582310899
          ],
          [
            192025.1833723213,
            657774.5268760662
          ],
          [
            191994.78083372186,
            657675.8065168535
          ],
          [
            192112.59186099726,
            657550.5083598557
          ],
          [
            192009.98210302158,
            657334.0847947559
          ],
          [
            191781.55680766003,
            656815.2505263396
          ],
          [
            191161.6627250153,
            655355.4422657056
          ],
          [
            191077.92482156632,
            655156.3159772645
          ],
          [
            191180.534579542,
            655118.3469885689
          ],
          [
            190962.4402438989,
            654848.1433596335
          ],
          [
            190882.16186305904,
            654589.6349173741
          ],
          [
            191015.44700631112,
            654190.0166093487
          ]
        ]
      }
    }
  ]
}