{
  "type": "FeatureCollection",
  "name": "tmm_merkaz_לייבל_ישובים",
  "features": [
    {
      "type": "Feature",
      "id": 2,
      "geometry": {
        "type": "Polygon",
        "coordinates": [
          [
            [
              186846.2098000003,
              654797.3143000007,
              0,
              null
            ],
            [
              186777.28230000008,
              654865.3423999995,
              0,
              null
            ],
            [
              186687.89300000016,
              654885.5510000009,
              0,
              null
            ],
            [
              186564.06180000026,
              654932.9498999994,
              0,
              null
            ],
            [
              186446.92860000022,
              655034.9524000008,
              0,
              null
            ],
            [
              186357.17150000017,
              655171.1490000002,
              0,
              null
            ],
            [
              186342.8454,
              655355.3258999996,
              0,
              null
            ],
            [
              186252.61230000015,
              655641.6257000007,
              0,
              null
            ],
            [
              186011.64790000021,
              655791.0271000005,
              0,
              null
            ],
            [
              185915.45239999983,
              655790.7467,
              0,
              null
            ],
            [
              185846.89279999956,
              655742.7861000001,
              0,
              null
            ],
            [
              185785.11780000012,
              655722.1370000001,
              0,
              null
            ],
            [
              185688.92229999974,
              655721.8564999998,
              0,
              null
            ],
            [
              185627.12569999974,
              655708.0304000005,
              0,
              null
            ],
            [
              185579.1793999998,
              655660.1301000006,
              0,
              null
            ],
            [
              185586.54810000025,
              655503.2241999991,
              0,
              null
            ],
            [
              185559.21509999968,
              655455.3840999994,
              0,
              null
            ],
            [
              185518.16160000023,
              655400.6805000007,
              0,
              null
            ],
            [
              185477.0429999996,
              655366.4461000003,
              0,
              null
            ],
            [
              185456.64630000014,
              655298.1572999991,
              0,
              null
            ],
            [
              185456.79789999966,
              655250.3971999995,
              0,
              null
            ],
            [
              185505.06859999988,
              655195.9550999999,
              0,
              null
            ],
            [
              185491.49920000043,
              655141.3314999994,
              0,
              null
            ],
            [
              185409.21939999983,
              655086.5081999991,
              0,
              null
            ],
            [
              185334.00509999972,
              654970.2993000001,
              0,
              null
            ],
            [
              185313.78110000025,
              654847.4273000006,
              0,
              null
            ],
            [
              185334.71879999992,
              654745.1449999996,
              0,
              null
            ],
            [
              185389.8822999997,
              654683.8988000005,
              0,
              null
            ],
            [
              185472.46530000027,
              654643.2026000004,
              0,
              null
            ],
            [
              185616.78029999975,
              654636.8002000004,
              0,
              null
            ],
            [
              185664.6180999996,
              654718.8153000008,
              0,
              null
            ],
            [
              185788.125,
              654773.7589999996,
              0,
              null
            ],
            [
              186427.20249999966,
              654755.1547999997,
              0,
              null
            ],
            [
              186496.0865000002,
              654700.7719999999,
              0,
              null
            ],
            [
              186523.70040000044,
              654659.9151000008,
              0,
              null
            ],
            [
              186523.85199999996,
              654612.1549999993,
              0,
              null
            ],
            [
              186496.4974999996,
              654571.1379000004,
              0,
              null
            ],
            [
              186537.8322999999,
              654537.1436999999,
              0,
              null
            ],
            [
              186585.99480000045,
              654516.8154000007,
              0,
              null
            ],
            [
              186641.0502000004,
              654489.6845999993,
              0,
              null
            ],
            [
              186730.48249999993,
              654455.8306000009,
              0,
              null
            ],
            [
              186806.08660000004,
              654449.2285999991,
              0,
              null
            ],
            [
              186888.47449999955,
              654469.9372000005,
              0,
              null
            ],
            [
              186943.31369999982,
              654511.0350000001,
              0,
              null
            ],
            [
              186963.7538999999,
              654565.6776,
              0,
              null
            ],
            [
              186949.7955,
              654633.8665999994,
              0,
              null
            ],
            [
              186901.4598000003,
              654708.7780000009,
              0,
              null
            ],
            [
              186846.2098000003,
              654797.3143000007,
              0,
              null
            ]
          ]
        ]
      },
      "properties": {
        "OBJECTID": 2,
        "PLAN_NAME": "תממ/ 3/ 21",
        "NOTES": " ",
        "TYPE_NAME": "אזור פיתוח כפרי",
        "Scale": 50000,
        "YEUD_COMP": "אזור פתוח כפרי",
        "AREA_sqm": 1082506.20155,
        "AREA_dunam": 1082.50620155,
        "ET_ID": 7,
        "name": "כפר חב\"ד",
        "Shape_Length": 5164.81173666329,
        "Shape_Area": 1082506.1796586178
      }
    },
    {
      "type": "Feature",
      "id": 3,
      "geometry": {
        "type": "Polygon",
        "coordinates": [
          [
            [
              186420.57809999958,
              657221.9374000002,
              0,
              null
            ],
            [
              186386.46860000025,
              657240.6406999994,
              0,
              null
            ],
            [
              186333.40639999975,
              657281.9061999992,
              0,
              null
            ],
            [
              186303.07820000034,
              657304.4058999997,
              0,
              null
            ],
            [
              186276.56240000017,
              657311.8280999996,
              0,
              null
            ],
            [
              186212.1875,
              657266.2340999991,
              0,
              null
            ],
            [
              186155.40620000008,
              657190.4843000006,
              0,
              null
            ],
            [
              186136.48429999966,
              657145.0938000008,
              0,
              null
            ],
            [
              186144.09360000025,
              657107.3907999992,
              0,
              null
            ],
            [
              186166.85950000025,
              657050.8747000005,
              0,
              null
            ],
            [
              186166.87509999983,
              657024.4688000008,
              0,
              null
            ],
            [
              186140.37490000017,
              656990.3747000005,
              0,
              null
            ],
            [
              186083.56269999966,
              656959.9063000008,
              0,
              null
            ],
            [
              186019.18740000017,
              656944.5154999997,
              0,
              null
            ],
            [
              185958.5625,
              656932.9066000003,
              0,
              null
            ],
            [
              185939.625,
              656925.2656999994,
              0,
              null
            ],
            [
              185909.32820000034,
              656913.7971000001,
              0,
              null
            ],
            [
              185886.64070000034,
              656845.7499000002,
              0,
              null
            ],
            [
              185898.06259999983,
              656747.6718000006,
              0,
              null
            ],
            [
              185913.25019999966,
              656702.4528999999,
              0,
              null
            ],
            [
              185954.9375,
              656680.0155999996,
              0,
              null
            ],
            [
              186015.54669999983,
              656684.0627999995,
              0,
              null
            ],
            [
              186079.95299999975,
              656695.6876999997,
              0,
              null
            ],
            [
              186148.15620000008,
              656692.2342000008,
              0,
              null
            ],
            [
              186216.35940000042,
              656666.1559999995,
              0,
              null
            ],
            [
              186265.625,
              656636.1875999998,
              0,
              null
            ],
            [
              186314.90639999975,
              656591.1249000002,
              0,
              null
            ],
            [
              186352.82809999958,
              656534.6874000002,
              0,
              null
            ],
            [
              186368.03129999992,
              656470.5935999993,
              0,
              null
            ],
            [
              186368.06259999983,
              656413.9845000003,
              0,
              null
            ],
            [
              186371.87490000017,
              656364.9378999993,
              0,
              null
            ],
            [
              186360.59360000025,
              656255.4376999997,
              0,
              null
            ],
            [
              186334.10950000025,
              656194.9215999991,
              0,
              null
            ],
            [
              186326.54690000042,
              656164.6873000003,
              0,
              null
            ],
            [
              186326.59389999975,
              656100.5309999995,
              0,
              null
            ],
            [
              186353.125,
              656078.0153000001,
              0,
              null
            ],
            [
              186459.21899999958,
              656063.4217000008,
              0,
              null
            ],
            [
              186519.82820000034,
              656063.7029999997,
              0,
              null
            ],
            [
              186553.93759999983,
              656063.8592000008,
              0,
              null
            ],
            [
              186576.65649999958,
              656071.5153999999,
              0,
              null
            ],
            [
              186595.57799999975,
              656094.2657999992,
              0,
              null
            ],
            [
              186599.32799999975,
              656162.2032999992,
              0,
              null
            ],
            [
              186599.28129999992,
              656230.1559999995,
              0,
              null
            ],
            [
              186610.59399999958,
              656305.6877999995,
              0,
              null
            ],
            [
              186610.54700000025,
              656388.7188000008,
              0,
              null
            ],
            [
              186655.98429999966,
              656434.2191000003,
              0,
              null
            ],
            [
              186690.06240000017,
              656457.0313000008,
              0,
              null
            ],
            [
              186724.14049999975,
              656483.6095000003,
              0,
              null
            ],
            [
              186754.45289999992,
              656483.7497000005,
              0,
              null
            ],
            [
              186784.76580000017,
              656483.9059999995,
              0,
              null
            ],
            [
              186803.71860000025,
              656461.3436999992,
              0,
              null
            ],
            [
              186845.40639999975,
              656427.5628999993,
              0,
              null
            ],
            [
              186879.89070000034,
              656390.4375999998,
              0,
              null
            ],
            [
              186887.57830000017,
              656364.2344000004,
              0,
              null
            ],
            [
              186918.06230000034,
              656323.1564000007,
              0,
              null
            ],
            [
              186940.8125,
              656319.5001999997,
              0,
              null
            ],
            [
              186974.84360000025,
              656334.5936999992,
              0,
              null
            ],
            [
              187005.04669999983,
              656360.9058999997,
              0,
              null
            ],
            [
              187035.26559999958,
              656383.4689000007,
              0,
              null
            ],
            [
              187065.45309999958,
              656409.7810999993,
              0,
              null
            ],
            [
              187084.25,
              656443.5467000008,
              0,
              null
            ],
            [
              187084.14070000034,
              656469.7499000002,
              0,
              null
            ],
            [
              187068.84379999992,
              656503.4065000005,
              0,
              null
            ],
            [
              187042.17210000008,
              656540.7345000003,
              0,
              null
            ],
            [
              186973.57789999992,
              656634.1092000008,
              0,
              null
            ],
            [
              186902.04700000025,
              656733.5470000003,
              0,
              null
            ],
            [
              186830.01549999975,
              656820.0154999997,
              0,
              null
            ],
            [
              186761.78129999992,
              656868.7655999996,
              0,
              null
            ],
            [
              186727.65620000008,
              656906.3436999992,
              0,
              null
            ],
            [
              186685.95320000034,
              656943.8904999997,
              0,
              null
            ],
            [
              186674.56259999983,
              656977.7971000001,
              0,
              null
            ],
            [
              186674.54700000025,
              657026.875,
              0,
              null
            ],
            [
              186685.89049999975,
              657060.8905999996,
              0,
              null
            ],
            [
              186704.81240000017,
              657094.9534000009,
              0,
              null
            ],
            [
              186723.73429999966,
              657121.4530999996,
              0,
              null
            ],
            [
              186735.09389999975,
              657136.6092000008,
              0,
              null
            ],
            [
              186746.4375,
              657151.7653000001,
              0,
              null
            ],
            [
              186761.59370000008,
              657166.9373000003,
              0,
              null
            ],
            [
              186761.56240000017,
              657197.1251999997,
              0,
              null
            ],
            [
              186746.39049999975,
              657231.0157999992,
              0,
              null
            ],
            [
              186704.70309999958,
              657264.7967000008,
              0,
              null
            ],
            [
              186681.95330000017,
              657283.5471999999,
              0,
              null
            ],
            [
              186647.84389999975,
              657294.7032999992,
              0,
              null
            ],
            [
              186609.95309999958,
              657294.5310999993,
              0,
              null
            ],
            [
              186583.45289999992,
              657283.0936999992,
              0,
              null
            ],
            [
              186556.95309999958,
              657256.5468000006,
              0,
              null
            ],
            [
              186534.23429999966,
              657230.0157999992,
              0,
              null
            ],
            [
              186496.35960000008,
              657214.7347999997,
              0,
              null
            ],
            [
              186462.26580000017,
              657210.7965999991,
              0,
              null
            ],
            [
              186420.57809999958,
              657221.9374000002,
              0,
              null
            ]
          ]
        ]
      },
      "properties": {
        "OBJECTID": 3,
        "PLAN_NAME": "תממ/ 3/ 21",
        "NOTES": " ",
        "TYPE_NAME": "אזור פיתוח כפרי",
        "Scale": 50000,
        "YEUD_COMP": "אזור פתוח כפרי",
        "AREA_sqm": 697329.56746,
        "AREA_dunam": 697.32956746,
        "ET_ID": 8,
        "name": "צפריה",
        "Shape_Length": 4546.706105678968,
        "Shape_Area": 697329.5736562955
      }
    },
    {
      "type": "Feature",
      "id": 65,
      "geometry": {
        "type": "Polygon",
        "coordinates": [
          [
            [
              185755.84999999963,
              657996.5255999994,
              0,
              null
            ],
            [
              185755.46609999985,
              658074.8607999999,
              0,
              null
            ],
            [
              185698.27280000038,
              658186.4584999997,
              0,
              null
            ],
            [
              185612.61980000045,
              658325.9340000004,
              0,
              null
            ],
            [
              185654.8300999999,
              658381.8388,
              0,
              null
            ],
            [
              185739.66199999955,
              658409.8871999998,
              0,
              null
            ],
            [
              185725.0898000002,
              658493.6285999995,
              0,
              null
            ],
            [
              185625.68609999958,
              658549.3208000008,
              0,
              null
            ],
            [
              185498.23340000026,
              658549.1286999993,
              0,
              null
            ],
            [
              185427.0839999998,
              658618.8236999996,
              0,
              null
            ],
            [
              185469.22580000013,
              658688.6895000003,
              0,
              null
            ],
            [
              185454.79069999978,
              658744.5097000003,
              0,
              null
            ],
            [
              185341.56769999955,
              658730.3787999991,
              0,
              null
            ],
            [
              185200.02190000005,
              658716.2051999997,
              0,
              null
            ],
            [
              185001.76209999993,
              658715.9071999993,
              0,
              null
            ],
            [
              184916.31439999957,
              658813.5012999997,
              0,
              null
            ],
            [
              184802.26999999955,
              658966.8949999996,
              0,
              null
            ],
            [
              184674.1325000003,
              659106.3063999992,
              0,
              null
            ],
            [
              184588.75329999998,
              659189.9403000008,
              0,
              null
            ],
            [
              184447.07079999987,
              659203.6877999995,
              0,
              null
            ],
            [
              184319.89180000033,
              659147.6542000007,
              0,
              null
            ],
            [
              184292.18479999993,
              659021.9690000005,
              0,
              null
            ],
            [
              184353.41530000046,
              658995.7329999991,
              0,
              null
            ],
            [
              184405.45669999998,
              658925.7354000006,
              0,
              null
            ],
            [
              184528.73950000014,
              658823.9920000006,
              0,
              null
            ],
            [
              184580.68730000034,
              658773.1062000003,
              0,
              null
            ],
            [
              184678.30829999968,
              658633.1009999998,
              0,
              null
            ],
            [
              184743.2742999997,
              658563.1231999993,
              0,
              null
            ],
            [
              184795.34740000032,
              658486.7544,
              0,
              null
            ],
            [
              184795.69099999964,
              658416.6790999994,
              0,
              null
            ],
            [
              184750.82990000024,
              658340.1655000001,
              0,
              null
            ],
            [
              184744.83609999996,
              658244.5980999991,
              0,
              null
            ],
            [
              184777.5532999998,
              658161.8308000006,
              0,
              null
            ],
            [
              184803.77740000002,
              658085.4232000001,
              0,
              null
            ],
            [
              184991.1827999996,
              658085.7051999997,
              0,
              null
            ],
            [
              185095.01609999966,
              657996.6742000002,
              0,
              null
            ],
            [
              185134.22699999996,
              657907.5457000006,
              0,
              null
            ],
            [
              185153.98840000015,
              657831.1290000007,
              0,
              null
            ],
            [
              185172.79860000033,
              657733.1956999991,
              0,
              null
            ],
            [
              185249.2229000004,
              657758.6710000001,
              0,
              null
            ],
            [
              185446.65220000036,
              657835.0945999995,
              0,
              null
            ],
            [
              185755.84999999963,
              657996.5255999994,
              0,
              null
            ]
          ]
        ]
      },
      "properties": {
        "OBJECTID": 65,
        "PLAN_NAME": "תממ/ 3/ 21",
        "NOTES": " ",
        "TYPE_NAME": "אזור פיתוח כפרי",
        "Scale": 50000,
        "YEUD_COMP": "אזור פתוח כפרי",
        "AREA_sqm": 894915.8602,
        "AREA_dunam": 894.9158602,
        "ET_ID": 169,
        "name": "חמד",
        "Shape_Length": 4997.001645358335,
        "Shape_Area": 894915.8873513291
      }
    },
    {
      "type": "Feature",
      "id": 73,
      "geometry": {
        "type": "Polygon",
        "coordinates": [
          [
            [
              188452.3058000002,
              654685.0314000007,
              0,
              null
            ],
            [
              188347.12490000017,
              654619.8750999998,
              0,
              null
            ],
            [
              188199.76549999975,
              654525.7809999995,
              0,
              null
            ],
            [
              188146.45289999992,
              654589.2345000003,
              0,
              null
            ],
            [
              188116.17179999966,
              654585.3907999992,
              0,
              null
            ],
            [
              188055.62490000017,
              654566.4528000001,
              0,
              null
            ],
            [
              188010.28120000008,
              654540.0941000003,
              0,
              null
            ],
            [
              187857.95309999958,
              654723.0317000002,
              0,
              null
            ],
            [
              187663.65600000042,
              654980.7030999996,
              0,
              null
            ],
            [
              187541.54679999966,
              655186.2028999999,
              0,
              null
            ],
            [
              187488.45320000034,
              655197.25,
              0,
              null
            ],
            [
              187461.98429999966,
              655185.9217000008,
              0,
              null
            ],
            [
              187439.34379999992,
              655167.1253999993,
              0,
              null
            ],
            [
              187416.71860000025,
              655140.8436999992,
              0,
              null
            ],
            [
              187386.45309999958,
              655129.5000999998,
              0,
              null
            ],
            [
              187348.51580000017,
              655140.5936999992,
              0,
              null
            ],
            [
              187306.64080000017,
              655189.1250999998,
              0,
              null
            ],
            [
              187264.89070000034,
              655207.7034000009,
              0,
              null
            ],
            [
              187230.81259999983,
              655200.0936999992,
              0,
              null
            ],
            [
              187166.45299999975,
              655192.3903000001,
              0,
              null
            ],
            [
              187113.43740000017,
              655188.4689000007,
              0,
              null
            ],
            [
              187060.3125,
              655206.9999000002,
              0,
              null
            ],
            [
              186961.53120000008,
              655270.3124000002,
              0,
              null
            ],
            [
              186874.15620000008,
              655326.1721999999,
              0,
              null
            ],
            [
              186851.43730000034,
              655326.0936999992,
              0,
              null
            ],
            [
              186809.90629999992,
              655292.2503999993,
              0,
              null
            ],
            [
              186795,
              655232.2969000004,
              0,
              null
            ],
            [
              186814.1875,
              655172.4530999996,
              0,
              null
            ],
            [
              186859.92169999983,
              655108.9691000003,
              0,
              null
            ],
            [
              186996.98429999966,
              654948.4535000008,
              0,
              null
            ],
            [
              187061.4375,
              654941.1875999998,
              0,
              null
            ],
            [
              187091.64070000034,
              654963.7498000003,
              0,
              null
            ],
            [
              187114.32820000034,
              654975.0622000005,
              0,
              null
            ],
            [
              187137.07799999975,
              654971.4059999995,
              0,
              null
            ],
            [
              187163.6875,
              654949.0160000008,
              0,
              null
            ],
            [
              187175.20299999975,
              654911.6247000005,
              0,
              null
            ],
            [
              187247.26549999975,
              654896.8907999992,
              0,
              null
            ],
            [
              187269.93730000034,
              654911.9531999994,
              0,
              null
            ],
            [
              187281.23429999966,
              654926.9529999997,
              0,
              null
            ],
            [
              187307.67179999966,
              654945.7653000001,
              0,
              null
            ],
            [
              187330.375,
              654953.3436999992,
              0,
              null
            ],
            [
              187349.34389999975,
              654945.9222999997,
              0,
              null
            ],
            [
              187372.21860000025,
              654912.2969000004,
              0,
              null
            ],
            [
              187467.40620000008,
              654800.3126999997,
              0,
              null
            ],
            [
              187566.45299999975,
              654669.6093000006,
              0,
              null
            ],
            [
              187771.98440000042,
              654449.4221999999,
              0,
              null
            ],
            [
              187764.60940000042,
              654400.7184999995,
              0,
              null
            ],
            [
              187798.87509999983,
              654359.6565000005,
              0,
              null
            ],
            [
              187844.54669999983,
              654311.1403000001,
              0,
              null
            ],
            [
              187844.60940000042,
              654296.1717000008,
              0,
              null
            ],
            [
              187829.54679999966,
              654277.4059999995,
              0,
              null
            ],
            [
              187810.68759999983,
              654254.875,
              0,
              null
            ],
            [
              187784.25009999983,
              654236.0626999997,
              0,
              null
            ],
            [
              187769.21879999992,
              654206.0471000001,
              0,
              null
            ],
            [
              187769.34379999992,
              654176.0939000007,
              0,
              null
            ],
            [
              187803.6875,
              654120.0625999998,
              0,
              null
            ],
            [
              187845.64039999992,
              654052.8125999998,
              0,
              null
            ],
            [
              187872.31259999983,
              654015.4532999992,
              0,
              null
            ],
            [
              187902.68769999966,
              654004.3436999992,
              0,
              null
            ],
            [
              187944.29669999983,
              654015.7032999992,
              0,
              null
            ],
            [
              187974.5625,
              654027.0469000004,
              0,
              null
            ],
            [
              187993.51570000034,
              654027.1094000004,
              0,
              null
            ],
            [
              188012.49990000017,
              654015.9532999992,
              0,
              null
            ],
            [
              188050.62490000017,
              653959.9220000003,
              0,
              null
            ],
            [
              188073.40610000025,
              653948.7659000009,
              0,
              null
            ],
            [
              188107.45320000034,
              653960.1095000003,
              0,
              null
            ],
            [
              188164.04690000042,
              654012.7185999993,
              0,
              null
            ],
            [
              188320.29690000042,
              653796.1092000008,
              0,
              null
            ],
            [
              188521.98419999983,
              653587.1406999994,
              0,
              null
            ],
            [
              188678.20289999992,
              653378.0159000009,
              0,
              null
            ],
            [
              188723.84360000025,
              653333.2345000003,
              0,
              null
            ],
            [
              188758.04700000025,
              653310.9061999992,
              0,
              null
            ],
            [
              188871.34360000025,
              653397.4058999997,
              0,
              null
            ],
            [
              188920.34370000008,
              653457.4684999995,
              0,
              null
            ],
            [
              188889.79700000025,
              653513.5310999993,
              0,
              null
            ],
            [
              188821.21889999975,
              653603.1565000005,
              0,
              null
            ],
            [
              188741.35950000025,
              653674.0153999999,
              0,
              null
            ],
            [
              188668.84379999992,
              653797.3126999997,
              0,
              null
            ],
            [
              188573.65629999992,
              653913.0468000006,
              0,
              null
            ],
            [
              188436.67210000008,
              654051.0939000007,
              0,
              null
            ],
            [
              188356.75,
              654136.9374000002,
              0,
              null
            ],
            [
              188348.98450000025,
              654181.8439000007,
              0,
              null
            ],
            [
              188363.98440000042,
              654215.5933999997,
              0,
              null
            ],
            [
              188382.70299999975,
              654271.8123000003,
              0,
              null
            ],
            [
              188359.8125,
              654305.4375999998,
              0,
              null
            ],
            [
              188344.43730000034,
              654361.5467000008,
              0,
              null
            ],
            [
              188344.28139999975,
              654398.9845000003,
              0,
              null
            ],
            [
              188359.29700000025,
              654428.9842000008,
              0,
              null
            ],
            [
              188427.34350000042,
              654462.9059999995,
              0,
              null
            ],
            [
              188487.73460000008,
              654519.2810999993,
              0,
              null
            ],
            [
              188536.48290000018,
              654558.7655999996,
              0,
              null
            ],
            [
              188452.3058000002,
              654685.0314000007,
              0,
              null
            ]
          ]
        ]
      },
      "properties": {
        "OBJECTID": 73,
        "PLAN_NAME": "תממ/ 3/ 21",
        "NOTES": " ",
        "TYPE_NAME": "אזור פיתוח כפרי",
        "Scale": 50000,
        "YEUD_COMP": "אזור פתוח כפרי",
        "AREA_sqm": 1414462.84115,
        "AREA_dunam": 1414.46284115,
        "ET_ID": 190,
        "name": "אחיעזר",
        "Shape_Length": 7246.801480955698,
        "Shape_Area": 885110.5102676633
      }
    },
    {
      "type": "Feature",
      "id": 101,
      "geometry": {
        "type": "Polygon",
        "coordinates": [
          [
            [
              183542.8125,
              656027.9374000002,
              0,
              null
            ],
            [
              183650.17210000008,
              655982.0156999994,
              0,
              null
            ],
            [
              183728.40620000008,
              655971.7657999992,
              0,
              null
            ],
            [
              183810.18740000017,
              655989.8593000006,
              0,
              null
            ],
            [
              183891.95330000017,
              656032.7657999992,
              0,
              null
            ],
            [
              183952.35960000008,
              656089.7346999999,
              0,
              null
            ],
            [
              184034.09370000008,
              656171.5933999997,
              0,
              null
            ],
            [
              184076.76549999975,
              656193.0467000008,
              0,
              null
            ],
            [
              184122.98429999966,
              656196.8125999998,
              0,
              null
            ],
            [
              184151.43759999983,
              656196.9528999999,
              0,
              null
            ],
            [
              184194.06240000017,
              656246.7502999995,
              0,
              null
            ],
            [
              184250.98429999966,
              656218.6874000002,
              0,
              null
            ],
            [
              184332.79679999966,
              656190.7190000005,
              0,
              null
            ],
            [
              184425.25019999966,
              656184.0779999997,
              0,
              null
            ],
            [
              184428.76549999975,
              656240.7655999996,
              0,
              null
            ],
            [
              184467.85919999983,
              656287.0157999992,
              0,
              null
            ],
            [
              184478.5,
              656333.125,
              0,
              null
            ],
            [
              184485.5625,
              656396.9221999999,
              0,
              null
            ],
            [
              184481.95309999958,
              656489.0155999996,
              0,
              null
            ],
            [
              184507.56290000025,
              656553.0118000004,
              0,
              null
            ],
            [
              184510.35940000042,
              656560.0002999995,
              0,
              null
            ],
            [
              184563.8342000004,
              656627.5954999998,
              0,
              null
            ],
            [
              184577.87519999966,
              656645.3438000008,
              0,
              null
            ],
            [
              184610.71889999975,
              656685.5223999992,
              0,
              null
            ],
            [
              184614.69020000007,
              656690.4286000002,
              0,
              null
            ],
            [
              184641.82809999958,
              656723.5784000009,
              0,
              null
            ],
            [
              184705.79679999966,
              656777.0160000008,
              0,
              null
            ],
            [
              184657.63580000028,
              656972.4815999996,
              0,
              null
            ],
            [
              184631.29700000025,
              657057.8433999997,
              0,
              null
            ],
            [
              184557.0510999998,
              657014.6587000005,
              0,
              null
            ],
            [
              184515.84080000035,
              656990.6886999998,
              0,
              null
            ],
            [
              184496.09360000025,
              656979.2032999992,
              0,
              null
            ],
            [
              184471.92810000014,
              656972.3443999998,
              0,
              null
            ],
            [
              184447.80179999955,
              656965.4977000002,
              0,
              null
            ],
            [
              184434.19990000036,
              656961.6371999998,
              0,
              null
            ],
            [
              184401.1629999997,
              656952.2608000003,
              0,
              null
            ],
            [
              184318.15649999958,
              656928.7031999994,
              0,
              null
            ],
            [
              184097.51549999975,
              656885.1251999997,
              0,
              null
            ],
            [
              184073.11739999987,
              656881.6549999993,
              0,
              null
            ],
            [
              183983.24590000045,
              656868.8723000009,
              0,
              null
            ],
            [
              183905.96600000001,
              656857.8808999993,
              0,
              null
            ],
            [
              183891.09379999992,
              656855.7657999992,
              0,
              null
            ],
            [
              183762.98450000025,
              656805.5155999996,
              0,
              null
            ],
            [
              183656.28100000042,
              656698.6403999999,
              0,
              null
            ],
            [
              183605.01910000015,
              656647.2980000004,
              0,
              null
            ],
            [
              183556.68730000034,
              656598.8907999992,
              0,
              null
            ],
            [
              183536.79870000016,
              656589.3588999994,
              0,
              null
            ],
            [
              183407.23450000025,
              656527.2659000009,
              0,
              null
            ],
            [
              183283.15649999958,
              656471.7185999993,
              0,
              null
            ],
            [
              183542.8125,
              656027.9374000002,
              0,
              null
            ]
          ]
        ]
      },
      "properties": {
        "OBJECTID": 101,
        "PLAN_NAME": "תממ/ 3/ 21",
        "NOTES": " ",
        "TYPE_NAME": "אזור פיתוח  עירוני",
        "Scale": 50000,
        "YEUD_COMP": "אזור פיתוח עירוני",
        "AREA_sqm": 834305.374147,
        "AREA_dunam": 834.305374147,
        "ET_ID": 260,
        "name": "בית דגן",
        "Shape_Length": 4002.7871189505454,
        "Shape_Area": 834305.3543736063
      }
    },
    {
      "type": "Feature",
      "id": 139,
      "geometry": {
        "type": "Polygon",
        "coordinates": [
          [
            [
              184006.4489000002,
              657823.6656999998,
              0,
              null
            ],
            [
              183292.84130000044,
              658431.5577000007,
              0,
              null
            ],
            [
              183283.6473000003,
              658418.0984000005,
              0,
              null
            ],
            [
              183276.15969999973,
              658408.1732999999,
              0,
              null
            ],
            [
              183258.6649000002,
              658384.9832000006,
              0,
              null
            ],
            [
              183251.16729999986,
              658389.4785999991,
              0,
              null
            ],
            [
              183244.59590000007,
              658379.0364999995,
              0,
              null
            ],
            [
              183238.07809999958,
              658368.0003999993,
              0,
              null
            ],
            [
              183230.03589999955,
              658353.6511000004,
              0,
              null
            ],
            [
              183162.4263000004,
              658244.0885000005,
              0,
              null
            ],
            [
              183133.09389999975,
              658199.3592000008,
              0,
              null
            ],
            [
              183106.80080000032,
              658162.7267000005,
              0,
              null
            ],
            [
              183070.24239999987,
              658114.9055000003,
              0,
              null
            ],
            [
              183013.35649999976,
              658047.0196000002,
              0,
              null
            ],
            [
              182934.68589999992,
              657964.7050999999,
              0,
              null
            ],
            [
              182708.0904000001,
              657644.2761000004,
              0,
              null
            ],
            [
              182628.0700000003,
              657544.3061999995,
              0,
              null
            ],
            [
              182827.01169999968,
              657240.3999000005,
              0,
              null
            ],
            [
              183004.52579999994,
              657324.6221999992,
              0,
              null
            ],
            [
              183101.83409999963,
              657248.3220000006,
              0,
              null
            ],
            [
              183167.26900000032,
              657082.7866999991,
              0,
              null
            ],
            [
              183219.37310000043,
              657000.0482999999,
              0,
              null
            ],
            [
              183297.70079999976,
              656840.9024,
              0,
              null
            ],
            [
              183336.66179999989,
              656802.7375000007,
              0,
              null
            ],
            [
              183426.88350000046,
              656853.8381999992,
              0,
              null
            ],
            [
              183581.35309999995,
              656981.4806999993,
              0,
              null
            ],
            [
              183684.21810000017,
              657089.9352000002,
              0,
              null
            ],
            [
              183799.8200000003,
              657236.6316,
              0,
              null
            ],
            [
              183890.01070000045,
              657294.1019000001,
              0,
              null
            ],
            [
              183961.2516999999,
              657262.3561000004,
              0,
              null
            ],
            [
              184019.72410000023,
              657198.7388000004,
              0,
              null
            ],
            [
              184122.9330000002,
              657237.1171000004,
              0,
              null
            ],
            [
              184373.58640000038,
              657517.7982000001,
              0,
              null
            ],
            [
              184292.8585000001,
              657580.1938000005,
              0,
              null
            ],
            [
              184006.4489000002,
              657823.6656999998,
              0,
              null
            ]
          ]
        ]
      },
      "properties": {
        "OBJECTID": 139,
        "PLAN_NAME": "תממ/ 3/ 21",
        "NOTES": " ",
        "TYPE_NAME": "אזור פיתוח כפרי",
        "Scale": 50000,
        "YEUD_COMP": "אזור פתוח כפרי",
        "AREA_sqm": 1379772.23816,
        "AREA_dunam": 1379.77223816,
        "ET_ID": 347,
        "name": "משמר השבע",
        "Shape_Length": 5123.103027316674,
        "Shape_Area": 1379772.2813280858
      }
    },
    {
      "type": "Feature",
      "id": 140,
      "geometry": {
        "type": "Polygon",
        "coordinates": [
          [
            [
              184006.4489000002,
              657823.6656999998,
              0,
              null
            ],
            [
              184029.02520000003,
              657937.7352000009,
              0,
              null
            ],
            [
              184170.7575000003,
              658027.1364999991,
              0,
              null
            ],
            [
              184202.60039999988,
              658122.7421000004,
              0,
              null
            ],
            [
              184221.64329999965,
              658192.8464000002,
              0,
              null
            ],
            [
              184337.58920000028,
              658269.4673999995,
              0,
              null
            ],
            [
              184447.79119999986,
              658199.5574999992,
              0,
              null
            ],
            [
              184551.62449999992,
              658110.5264999997,
              0,
              null
            ],
            [
              184609.59740000032,
              658148.8369999994,
              0,
              null
            ],
            [
              184621.9285000004,
              658269.8958,
              0,
              null
            ],
            [
              184531.05069999956,
              658352.5754000004,
              0,
              null
            ],
            [
              184492.05879999977,
              658397.1107000001,
              0,
              null
            ],
            [
              184414.2304999996,
              658454.3288000003,
              0,
              null
            ],
            [
              184336.1213999996,
              658568.8806999996,
              0,
              null
            ],
            [
              184147.90390000027,
              658734.2315999996,
              0,
              null
            ],
            [
              184025.4020999996,
              658676.7125000004,
              0,
              null
            ],
            [
              183954.31740000006,
              658676.6050000004,
              0,
              null
            ],
            [
              183921.75609999988,
              658727.5206000004,
              0,
              null
            ],
            [
              183947.01169999968,
              658848.5991999991,
              0,
              null
            ],
            [
              183882.108,
              658905.8363000005,
              0,
              null
            ],
            [
              183759.20010000002,
              658931.1331999991,
              0,
              null
            ],
            [
              183554.28890000004,
              658829.4059999995,
              0,
              null
            ],
            [
              183539.92119999975,
              658806.7503999993,
              0,
              null
            ],
            [
              183530.92839999963,
              658792.5796000008,
              0,
              null
            ],
            [
              183527.47800000012,
              658787.1424000002,
              0,
              null
            ],
            [
              183517.98479999974,
              658772.1867999993,
              0,
              null
            ],
            [
              183517.77639999986,
              658771.8624000009,
              0,
              null
            ],
            [
              183513.15079999994,
              658764.5600000005,
              0,
              null
            ],
            [
              183502.47559999954,
              658747.7292,
              0,
              null
            ],
            [
              183497.9299999997,
              658740.5695999991,
              0,
              null
            ],
            [
              183476.18439999968,
              658706.2647999991,
              0,
              null
            ],
            [
              183444.17559999973,
              658655.8232000005,
              0,
              null
            ],
            [
              183440.35680000018,
              658649.8032000009,
              0,
              null
            ],
            [
              183419.89240000024,
              658617.5497999992,
              0,
              null
            ],
            [
              183414.67949999962,
              658609.9186000004,
              0,
              null
            ],
            [
              183292.84130000044,
              658431.5577000007,
              0,
              null
            ],
            [
              184006.4489000002,
              657823.6656999998,
              0,
              null
            ]
          ]
        ]
      },
      "properties": {
        "OBJECTID": 140,
        "PLAN_NAME": "תממ/ 3/ 21",
        "NOTES": " ",
        "TYPE_NAME": "אזור פיתוח כפרי",
        "Scale": 50000,
        "YEUD_COMP": "אזור פתוח כפרי",
        "AREA_sqm": 720068.785378,
        "AREA_dunam": 720.068785378,
        "ET_ID": 348,
        "name": "גנות",
        "Shape_Length": 3967.425477868113,
        "Shape_Area": 720068.7686957892
      }
    },
    {
      "type": "Feature",
      "id": 197,
      "geometry": {
        "type": "Polygon",
        "coordinates": [
          [
            [
              182184.26580000017,
              654308.8590999991,
              0,
              null
            ],
            [
              182303.2505999999,
              654712.5928000007,
              0,
              null
            ],
            [
              182418.67190000042,
              655104.2344000004,
              0,
              null
            ],
            [
              182494.98340000026,
              655385.9985000007,
              0,
              null
            ],
            [
              182510.98419999983,
              655445.0778000001,
              0,
              null
            ],
            [
              182568.40639999975,
              655588.5784000009,
              0,
              null
            ],
            [
              182571.1311999997,
              655595.8741999995,
              0,
              null
            ],
            [
              182499.29110000003,
              655622.9866000004,
              0,
              null
            ],
            [
              182368.7569000004,
              655677.3217999991,
              0,
              null
            ],
            [
              182217.4802000001,
              655724.4967999998,
              0,
              null
            ],
            [
              182105.97059999965,
              655745.3369999994,
              0,
              null
            ],
            [
              182021.30759999994,
              655750.0366999991,
              0,
              null
            ],
            [
              181927.70179999992,
              655727.4506999999,
              0,
              null
            ],
            [
              181832.0270999996,
              655646.0576000009,
              0,
              null
            ],
            [
              181769.35500000045,
              655544.5238000005,
              0,
              null
            ],
            [
              181720.79330000002,
              655443.6157000009,
              0,
              null
            ],
            [
              181645.03670000006,
              655274.7888999991,
              0,
              null
            ],
            [
              181538.4143000003,
              654997.6729000006,
              0,
              null
            ],
            [
              181384.92320000008,
              654571.7335999999,
              0,
              null
            ],
            [
              181268.3250000002,
              654323.9061999992,
              0,
              null
            ],
            [
              181193.04569999967,
              654228.1648999993,
              0,
              null
            ],
            [
              181131.24909999967,
              654214.3388999999,
              0,
              null
            ],
            [
              180973.01889999956,
              654275.284,
              0,
              null
            ],
            [
              180695.86110000033,
              654392.2659000009,
              0,
              null
            ],
            [
              180667.49629999977,
              654316.8490999993,
              0,
              null
            ],
            [
              180491.63109999988,
              654403.5150000006,
              0,
              null
            ],
            [
              180470.73649999965,
              654492.1517999992,
              0,
              null
            ],
            [
              180484.08920000028,
              654615.0040000007,
              0,
              null
            ],
            [
              180469.7845999999,
              654792.3585999999,
              0,
              null
            ],
            [
              180441.97559999954,
              654894.6210999992,
              0,
              null
            ],
            [
              180372.98309999984,
              654983.1176999994,
              0,
              null
            ],
            [
              180215.10470000003,
              655109.2449999992,
              0,
              null
            ],
            [
              180071.5390999997,
              655139.6561999992,
              0,
              null
            ],
            [
              179779.90629999992,
              655202.0471999999,
              0,
              null
            ],
            [
              179445.57809999958,
              655299.6566000003,
              0,
              null
            ],
            [
              179225.04690000042,
              655383.6250999998,
              0,
              null
            ],
            [
              178720.53899999987,
              654686.8750999998,
              0,
              null
            ],
            [
              178713.45309999958,
              654644.3435999993,
              0,
              null
            ],
            [
              178734.82050000038,
              654594.8433999997,
              0,
              null
            ],
            [
              178770.42200000025,
              654538.3280999996,
              0,
              null
            ],
            [
              178834.45299999975,
              654496.1250999998,
              0,
              null
            ],
            [
              178703.25769999996,
              654338.4845000003,
              0,
              null
            ],
            [
              178397.03890000004,
              654521.4060999993,
              0,
              null
            ],
            [
              178105.09389999975,
              654661.8594000004,
              0,
              null
            ],
            [
              177813.15620000008,
              654766.8596000001,
              0,
              null
            ],
            [
              177729,
              654789.1558999997,
              0,
              null
            ],
            [
              177616.0650000004,
              654782.7367000002,
              0,
              null
            ],
            [
              177378.3537999997,
              654814.8133000005,
              0,
              null
            ],
            [
              177147.07679999992,
              654899.3398000002,
              0,
              null
            ],
            [
              176966.8797000004,
              655013.6103000008,
              0,
              null
            ],
            [
              176965.89070000034,
              655011.0625,
              0,
              null
            ],
            [
              176192.45320000034,
              655527.2971000001,
              0,
              null
            ],
            [
              176108.62799999956,
              655345.7115000002,
              0,
              null
            ],
            [
              176107.8574000001,
              655344.0421999991,
              0,
              null
            ],
            [
              176088.7039999999,
              655302.5513000004,
              0,
              null
            ],
            [
              176053.29690000042,
              655225.8509999998,
              0,
              null
            ],
            [
              176041.3524000002,
              655199.9763999991,
              0,
              null
            ],
            [
              175933.90409999993,
              654967.2177000009,
              0,
              null
            ],
            [
              175933.8958999999,
              654967.1998999994,
              0,
              null
            ],
            [
              175910.75739999954,
              654916.7777999993,
              0,
              null
            ],
            [
              175910.6347000003,
              654916.8104999997,
              0,
              null
            ],
            [
              175896.1015999997,
              654885.3285000008,
              0,
              null
            ],
            [
              175856.86610000022,
              654800.9888000004,
              0,
              null
            ],
            [
              175698.5390999997,
              654460.6559999995,
              0,
              null
            ],
            [
              175799.31269999966,
              654386.2659000009,
              0,
              null
            ],
            [
              175905.40629999992,
              654356.5627999995,
              0,
              null
            ],
            [
              176056.97670000046,
              654311.9840999991,
              0,
              null
            ],
            [
              176216.11730000004,
              654282.5469000004,
              0,
              null
            ],
            [
              176398.00769999996,
              654223.0155999996,
              0,
              null
            ],
            [
              176632.96109999996,
              654126,
              0,
              null
            ],
            [
              176765.03110000025,
              654098.9218000006,
              0,
              null
            ],
            [
              176985.5499999998,
              654069.8392999992,
              0,
              null
            ],
            [
              176999.08150000032,
              653900.9197000004,
              0,
              null
            ],
            [
              177027.1052000001,
              653745.9802999999,
              0,
              null
            ],
            [
              177047.49880000018,
              653608.8186000008,
              0,
              null
            ],
            [
              177060.26640000008,
              653481.8137999997,
              0,
              null
            ],
            [
              177090.81290000025,
              653359.8988000005,
              0,
              null
            ],
            [
              177160.5477,
              653261.4170999993,
              0,
              null
            ],
            [
              177484.33389999997,
              652978.2659000009,
              0,
              null
            ],
            [
              177651.2860000003,
              652872.0843000002,
              0,
              null
            ],
            [
              177828.35649999976,
              652735.5647999998,
              0,
              null
            ],
            [
              178430.22259999998,
              652303.5635000002,
              0,
              null
            ],
            [
              179001.1375000002,
              651849.8465,
              0,
              null
            ],
            [
              179366.8202999998,
              651965.8904999997,
              0,
              null
            ],
            [
              179708.3827999998,
              652166.0778000001,
              0,
              null
            ],
            [
              179843.53139999975,
              652329.8121000007,
              0,
              null
            ],
            [
              179957.32039999962,
              652493.4686999992,
              0,
              null
            ],
            [
              179925.39049999975,
              652333.7655999996,
              0,
              null
            ],
            [
              179911.32010000013,
              652081.9378999993,
              0,
              null
            ],
            [
              180016.71879999992,
              651926.2346999999,
              0,
              null
            ],
            [
              180127.0234000003,
              651820.4684999995,
              0,
              null
            ],
            [
              180301.35149999987,
              651697.2969000004,
              0,
              null
            ],
            [
              180450.75769999996,
              651609.4535000008,
              0,
              null
            ],
            [
              180692.6172000002,
              651529.1092000008,
              0,
              null
            ],
            [
              180973.59360000025,
              651477.2964999992,
              0,
              null
            ],
            [
              181279.4375,
              651439.7809999995,
              0,
              null
            ],
            [
              181424.4375,
              651443.7497000005,
              0,
              null
            ],
            [
              181410.34370000008,
              651206.1093000006,
              0,
              null
            ],
            [
              181382.04700000025,
              650936.4845000003,
              0,
              null
            ],
            [
              181325.28139999975,
              650645.4528999999,
              0,
              null
            ],
            [
              181837.95320000034,
              650442.2344000004,
              0,
              null
            ],
            [
              182072.96889999975,
              650280.2347999997,
              0,
              null
            ],
            [
              182400.60950000025,
              649998.1094000004,
              0,
              null
            ],
            [
              182434.03149999958,
              649965.9688000008,
              0,
              null
            ],
            [
              182642.79690000042,
              649765.2342000008,
              0,
              null
            ],
            [
              182714.03129999992,
              649684.0155999996,
              0,
              null
            ],
            [
              183005.70330000017,
              649969.0625,
              0,
              null
            ],
            [
              183112.43730000034,
              650054.6720000003,
              0,
              null
            ],
            [
              183261.87490000017,
              650119.2031999994,
              0,
              null
            ],
            [
              183281.06230000034,
              650122.8747000005,
              0,
              null
            ],
            [
              183375.76570000034,
              650141.0153999999,
              0,
              null
            ],
            [
              183503.90629999992,
              650148.7189000007,
              0,
              null
            ],
            [
              183710.34379999992,
              650142.5939000007,
              0,
              null
            ],
            [
              183852.70320000034,
              650150.3750999998,
              0,
              null
            ],
            [
              184064.48450000025,
              650418.5159000009,
              0,
              null
            ],
            [
              184185.20309999958,
              650702.5002999995,
              0,
              null
            ],
            [
              184263.31269999966,
              650887.0780999996,
              0,
              null
            ],
            [
              184270.29669999983,
              651085.5001999997,
              0,
              null
            ],
            [
              184284.37490000017,
              651312.2970000003,
              0,
              null
            ],
            [
              184248.73429999966,
              651446.7496000007,
              0,
              null
            ],
            [
              184240.2444000002,
              651460.7902000006,
              0,
              null
            ],
            [
              184251.8509999998,
              651495.5768999998,
              0,
              null
            ],
            [
              184560.86330000032,
              651395.0593999997,
              0,
              null
            ],
            [
              184231.24880000018,
              650597.6671999991,
              0,
              null
            ],
            [
              184370.12420000043,
              650380.6666000001,
              0,
              null
            ],
            [
              184856.43719999958,
              650602.2081000004,
              0,
              null
            ],
            [
              185234.99810000043,
              650752.4524000008,
              0,
              null
            ],
            [
              185514.99959999975,
              650846.4152000006,
              0,
              null
            ],
            [
              185803.6520999996,
              650933.9055000003,
              0,
              null
            ],
            [
              186020.95270000026,
              650972.7892000005,
              0,
              null
            ],
            [
              186228.52390000038,
              651008.4341000002,
              0,
              null
            ],
            [
              186072.84549999982,
              651108.8845000006,
              0,
              null
            ],
            [
              186144.19730000012,
              651267.6612,
              0,
              null
            ],
            [
              185969.05989999976,
              651351.9110000003,
              0,
              null
            ],
            [
              185998.29669999983,
              651462.1251999997,
              0,
              null
            ],
            [
              185905.8125,
              651511.2808999997,
              0,
              null
            ],
            [
              185791.98429999966,
              651567.4220000003,
              0,
              null
            ],
            [
              185699.51570000034,
              651581.1566000003,
              0,
              null
            ],
            [
              185607.04710000008,
              651601.9688000008,
              0,
              null
            ],
            [
              185543.01580000017,
              651630.0156999994,
              0,
              null
            ],
            [
              185514.51539999992,
              651693.6406999994,
              0,
              null
            ],
            [
              185796.6961000003,
              651900.2432000004,
              0,
              null
            ],
            [
              185702.5401999997,
              652053.8921000008,
              0,
              null
            ],
            [
              185579.29569999967,
              652138.1418999992,
              0,
              null
            ],
            [
              185501.45650000032,
              652076.5752000008,
              0,
              null
            ],
            [
              185280.91050000023,
              652177.0255999994,
              0,
              null
            ],
            [
              185232.26300000027,
              652283.9569000006,
              0,
              null
            ],
            [
              185014.9623999996,
              652345.5236000009,
              0,
              null
            ],
            [
              184878.74299999978,
              652270.9967999998,
              0,
              null
            ],
            [
              184849.55449999962,
              652280.7181000002,
              0,
              null
            ],
            [
              184856.03870000038,
              652345.5236000009,
              0,
              null
            ],
            [
              184636.37459999975,
              652416.1570999995,
              0,
              null
            ],
            [
              184618.14319999982,
              652489.7456,
              0,
              null
            ],
            [
              184560.82239999995,
              652721.1131999996,
              0,
              null
            ],
            [
              184745.71870000008,
              652766.9531999994,
              0,
              null
            ],
            [
              184900.16339999996,
              652805.8715000004,
              0,
              null
            ],
            [
              184895.24340000004,
              652851.0717999991,
              0,
              null
            ],
            [
              184862.86840000004,
              652949.1213000007,
              0,
              null
            ],
            [
              184517.78940000013,
              653187.9149999991,
              0,
              null
            ],
            [
              184399.36259999964,
              653126.0599000007,
              0,
              null
            ],
            [
              183958.78870000038,
              652895.9452999998,
              0,
              null
            ],
            [
              183786.6523000002,
              652806.0373999998,
              0,
              null
            ],
            [
              183733.30119999964,
              652912.7926000003,
              0,
              null
            ],
            [
              183613.95079999976,
              653073.3997000009,
              0,
              null
            ],
            [
              183594.40490000043,
              653083.6983000003,
              0,
              null
            ],
            [
              183278.7433000002,
              653247.0998999998,
              0,
              null
            ],
            [
              183110.31799999997,
              653334.5834999997,
              0,
              null
            ],
            [
              182928.7438000003,
              653411.7331000008,
              0,
              null
            ],
            [
              182747.17200000025,
              653488.8750999998,
              0,
              null
            ],
            [
              182634.57540000044,
              653531.7377000004,
              0,
              null
            ],
            [
              182543.48529999983,
              653366.4034000002,
              0,
              null
            ],
            [
              182494.95940000005,
              653373.3148999996,
              0,
              null
            ],
            [
              182355.65629999992,
              653400.4067000002,
              0,
              null
            ],
            [
              182135.12509999983,
              653470.2030999996,
              0,
              null
            ],
            [
              181928.06240000017,
              653512.0157999992,
              0,
              null
            ],
            [
              181978.24980000034,
              653662.5468000006,
              0,
              null
            ],
            [
              182035.09379999992,
              653825.9060999993,
              0,
              null
            ],
            [
              182184.26580000017,
              654308.8590999991,
              0,
              null
            ]
          ],
          [
            [
              178606.74299999978,
              653105.8236999996,
              0,
              null
            ],
            [
              178514.9815999996,
              653161.6369000003,
              0,
              null
            ],
            [
              178466.5072999997,
              653212.4493000004,
              0,
              null
            ],
            [
              178395.12189999968,
              653263.2137000002,
              0,
              null
            ],
            [
              178354.32189999986,
              653296.2223000005,
              0,
              null
            ],
            [
              178317.3063000003,
              653321.9089000002,
              0,
              null
            ],
            [
              178282.9046,
              653362.2608000003,
              0,
              null
            ],
            [
              178267.30869999994,
              653401.3286000006,
              0,
              null
            ],
            [
              178267.47620000038,
              653436.0535000004,
              0,
              null
            ],
            [
              178262.28899999987,
              653481.8650000002,
              0,
              null
            ],
            [
              178264.73890000023,
              653527.6923999991,
              0,
              null
            ],
            [
              178302.82290000003,
              653576.1401000004,
              0,
              null
            ],
            [
              178346.09399999958,
              653578.7763,
              0,
              null
            ],
            [
              178427.64609999955,
              653535.6700999998,
              0,
              null
            ],
            [
              178509.2407999998,
              653472.1985999998,
              0,
              null
            ],
            [
              178572.98379999958,
              653423.9638999999,
              0,
              null
            ],
            [
              178626.5388000002,
              653378.2534999996,
              0,
              null
            ],
            [
              178682.60219999962,
              653350.3682000004,
              0,
              null
            ],
            [
              178723.4447999997,
              653296.9942000005,
              0,
              null
            ],
            [
              178718.47049999982,
              653240.9787000008,
              0,
              null
            ],
            [
              178688.0449000001,
              653182.3642999995,
              0,
              null
            ],
            [
              178667.81259999983,
              653118.6798999999,
              0,
              null
            ],
            [
              178657.66179999989,
              653103.3845000006,
              0,
              null
            ],
            [
              178606.74299999978,
              653105.8236999996,
              0,
              null
            ]
          ]
        ]
      },
      "properties": {
        "OBJECTID": 197,
        "PLAN_NAME": "תממ/ 3/ 21",
        "NOTES": " ",
        "TYPE_NAME": "אזור פיתוח  עירוני",
        "Scale": 50000,
        "YEUD_COMP": "אזור פיתוח עירוני",
        "AREA_sqm": 25983520.4082,
        "AREA_dunam": 25983.5204082,
        "ET_ID": 516,
        "name": "ראשון לציון",
        "Shape_Length": 37826.504240565206,
        "Shape_Area": 25983516.877244852
      }
    },
    {
      "type": "Feature",
      "id": 349,
      "geometry": {
        "type": "Polygon",
        "coordinates": [
          [
            [
              188536.48290000018,
              654558.7655999996,
              0,
              null
            ],
            [
              188770.90620000008,
              654748.6403999999,
              0,
              null
            ],
            [
              188827.93740000017,
              654703.9060999993,
              0,
              null
            ],
            [
              188862.18740000017,
              654666.5941000003,
              0,
              null
            ],
            [
              188900.20320000034,
              654636.7659000009,
              0,
              null
            ],
            [
              188930.43769999966,
              654651.8434999995,
              0,
              null
            ],
            [
              188972.04710000008,
              654670.7029999997,
              0,
              null
            ],
            [
              189021.26570000034,
              654674.6251999997,
              0,
              null
            ],
            [
              189044.09389999975,
              654652.2345000003,
              0,
              null
            ],
            [
              189093.59379999992,
              654596.2497000005,
              0,
              null
            ],
            [
              189169.87509999983,
              654476.7030999996,
              0,
              null
            ],
            [
              189219.37509999983,
              654416.9691000003,
              0,
              null
            ],
            [
              189242.23460000008,
              654387.0936999992,
              0,
              null
            ],
            [
              189268.82799999975,
              654368.4689000007,
              0,
              null
            ],
            [
              189287.85950000025,
              654346.0621000007,
              0,
              null
            ],
            [
              189348.53100000042,
              654335.0470000003,
              0,
              null
            ],
            [
              189378.8125,
              654342.6406999994,
              0,
              null
            ],
            [
              189416.57789999992,
              654368.9840999991,
              0,
              null
            ],
            [
              189431.56259999983,
              654410.2030999996,
              0,
              null
            ],
            [
              189446.5625,
              654447.7034000009,
              0,
              null
            ],
            [
              189435.09360000025,
              654470.1247000005,
              0,
              null
            ],
            [
              189381.79669999983,
              654533.5933999997,
              0,
              null
            ],
            [
              189267.43730000034,
              654697.9375,
              0,
              null
            ],
            [
              189202.68759999983,
              654780.0781999994,
              0,
              null
            ],
            [
              189187.43730000034,
              654802.4842000008,
              0,
              null
            ],
            [
              189187.34370000008,
              654824.9535000008,
              0,
              null
            ],
            [
              189198.625,
              654843.7031999994,
              0,
              null
            ],
            [
              189213.70330000017,
              654862.4843000006,
              0,
              null
            ],
            [
              189228.79679999966,
              654877.5153000001,
              0,
              null
            ],
            [
              189224.89049999975,
              654903.7032999992,
              0,
              null
            ],
            [
              189186.84389999975,
              654941.0153000001,
              0,
              null
            ],
            [
              188996.3125,
              655198.7027000003,
              0,
              null
            ],
            [
              188912.68740000017,
              655269.5471999999,
              0,
              null
            ],
            [
              188889.93759999983,
              655269.4686999992,
              0,
              null
            ],
            [
              188878.57799999975,
              655269.4374000002,
              0,
              null
            ],
            [
              188859.65610000025,
              655265.625,
              0,
              null
            ],
            [
              188844.54690000042,
              655254.3278000001,
              0,
              null
            ],
            [
              188814.28149999958,
              655243.0001999997,
              0,
              null
            ],
            [
              188787.76559999958,
              655242.9065000005,
              0,
              null
            ],
            [
              188772.59370000008,
              655246.5939000007,
              0,
              null
            ],
            [
              188738.40629999992,
              655268.9374000002,
              0,
              null
            ],
            [
              188704.15629999992,
              655306.2654999997,
              0,
              null
            ],
            [
              188620.37490000017,
              655407.0623000003,
              0,
              null
            ],
            [
              188532.73429999966,
              655522.8284000009,
              0,
              null
            ],
            [
              188471.76549999975,
              655608.7344000004,
              0,
              null
            ],
            [
              188452.68730000034,
              655638.625,
              0,
              null
            ],
            [
              188417.2525000004,
              655683.7690999992,
              0,
              null
            ],
            [
              188414.59370000008,
              655687.1564000007,
              0,
              null
            ],
            [
              188372.79700000025,
              655716.9532999992,
              0,
              null
            ],
            [
              188289.6875,
              655660.5157999992,
              0,
              null
            ],
            [
              188233.07820000034,
              655607.9058999997,
              0,
              null
            ],
            [
              188225.62480000034,
              655581.6721999999,
              0,
              null
            ],
            [
              188221.96889999975,
              655547.9530999996,
              0,
              null
            ],
            [
              188233.53139999975,
              655503.0778999999,
              0,
              null
            ],
            [
              188237.39070000034,
              655484.3753999993,
              0,
              null
            ],
            [
              188290.65620000008,
              655432.1404999997,
              0,
              null
            ],
            [
              188530.43769999966,
              655174.6252999995,
              0,
              null
            ],
            [
              188579.93759999983,
              655114.8904999997,
              0,
              null
            ],
            [
              188583.85950000025,
              655081.2034000009,
              0,
              null
            ],
            [
              188587.87509999983,
              655028.8123000003,
              0,
              null
            ],
            [
              188591.73440000042,
              655010.0936999992,
              0,
              null
            ],
            [
              188599.375,
              654995.1564000007,
              0,
              null
            ],
            [
              188702.0625,
              654901.9059999995,
              0,
              null
            ],
            [
              188622.89059999958,
              654811.7814000007,
              0,
              null
            ],
            [
              188486.93740000017,
              654706.4846000001,
              0,
              null
            ],
            [
              188452.3058000002,
              654685.0314000007,
              0,
              null
            ],
            [
              188536.48290000018,
              654558.7655999996,
              0,
              null
            ]
          ]
        ]
      },
      "properties": {
        "OBJECTID": 349,
        "PLAN_NAME": "תממ/ 3/ 21",
        "NOTES": " ",
        "TYPE_NAME": "אזור פיתוח כפרי",
        "Scale": 50000,
        "YEUD_COMP": "אזור פתוח כפרי",
        "AREA_sqm": 1414462.84115,
        "AREA_dunam": 1414.46284115,
        "ET_ID": 190,
        "name": "יגל",
        "Shape_Length": 4612.489494371787,
        "Shape_Area": 529352.3165727458
      }
    }
  ]
}