{
  "type": "FeatureCollection",
  "name": "tmm_merkaz_מגבלות_פוליגון",
  "features": [
    {
      "type": "Feature",
      "id": 14,
      "geometry": {
        "type": "Polygon",
        "coordinates": [
          [
            [
              185247.98929999955,
              655994.9949999992
            ],
            [
              184983.7714999998,
              656071.8905999996
            ],
            [
              184826.88489999995,
              655683.5197000001
            ],
            [
              184751.81010000035,
              655450.1817000005
            ],
            [
              184727.28079999983,
              655248.2731999997
            ],
            [
              184708.46210000012,
              655035.4514000006
            ],
            [
              184663.3245000001,
              654719.7683000006
            ],
            [
              184801.75069999974,
              654588.7062999997
            ],
            [
              184842.2768000001,
              654639.9156999998
            ],
            [
              184844.00129999965,
              654642.0947999991
            ],
            [
              185343.4824000001,
              655273.2467999998
            ],
            [
              185452.8211000003,
              655935.3826000001
            ],
            [
              185247.98929999955,
              655994.9949999992
            ]
          ]
        ]
      },
      "properties": {
        "OBJECTID": 14,
        "Id": null,
        "TYPE_NAME": "שטח פתוח מיוחד",
        "PLAN_NAME": "תממ/ 3/ 21/ 42",
        "Shape_Length": 3623.1252551371367,
        "Shape_Area": 675903.1191049545
      }
    }
  ]
}