{
  "type": "FeatureCollection",
  "name": "tmm_merkaz_אזורים_לבירור",
  "features": [
    {
      "type": "Feature",
      "id": 8,
      "geometry": {
        "type": "Point",
        "coordinates": [
          187630.48460000008,
          654092.3270999994
        ]
      },
      "properties": {
        "OBJECTID": 8,
        "Id": 0,
        "NUMBER": 8,
        "הערות": 8,
        "שאלה": "קו בוקטור של תממ/ 3/ 21 שיעודו \"קו מתח ע''פ תמ''א 31\" \". האם אפשר להסיר?",
        "בדיקת": "להשאיר",
        "נימוק": " ",
        "סטטוס": "V",
        "יש_הפ": " ",
        "התייח": "מקובל.",
        "יש_הפ_": " ",
        "יש_הפ_1": " ",
        "אופן": " ",
        "הנמקה": " "
      }
    },
    {
      "type": "Feature",
      "id": 62,
      "geometry": {
        "type": "Point",
        "coordinates": [
          183971.1314000003,
          655319.5361000001
        ]
      },
      "properties": {
        "OBJECTID": 62,
        "Id": null,
        "NUMBER": 65,
        "הערות": 65,
        "שאלה": "האם לדייק את הייעוד אזור פיתוח עירוני כך שהתחבר לשטח המוסד?",
        "בדיקת": "בוצע דיוק בדיגיטציה של ייעוד שטח עירוני ליעודיים שסביבו הוחלט לדייק רק בקומפילצייה",
        "נימוק": null,
        "סטטוס": null,
        "יש_הפ": null,
        "התייח": null,
        "יש_הפ_": null,
        "יש_הפ_1": null,
        "אופן": "בוצע דיוק בדיגיטציה של ייעוד שטח עירוני ליעודיים שסביבו",
        "הנמקה": "בוצע דיוק בדיגיטציה של ייעוד שטח עירוני ליעודיים שסביבו"
      }
    },
    {
      "type": "Feature",
      "id": 63,
      "geometry": {
        "type": "Point",
        "coordinates": [
          183899.6936999997,
          655443.3614000008
        ]
      },
      "properties": {
        "OBJECTID": 63,
        "Id": null,
        "NUMBER": 65,
        "הערות": 65,
        "שאלה": "האם לדייק את הייעוד אזור פיתוח עירוני כך שהתחבר לשטח המוסד?",
        "בדיקת": "בוצע דיוק בדיגיטציה של ייעוד שטח עירוני ליעודיים שסביבו הוחלט לדייק רק בקומפילצייה",
        "נימוק": null,
        "סטטוס": null,
        "יש_הפ": null,
        "התייח": null,
        "יש_הפ_": null,
        "יש_הפ_1": null,
        "אופן": "בוצע דיוק בדיגיטציה של ייעוד שטח עירוני ליעודיים שסביבו",
        "הנמקה": "בוצע דיוק בדיגיטציה של ייעוד שטח עירוני ליעודיים שסביבו"
      }
    },
    {
      "type": "Feature",
      "id": 64,
      "geometry": {
        "type": "Point",
        "coordinates": [
          183853.65610000025,
          655522.7365000006
        ]
      },
      "properties": {
        "OBJECTID": 64,
        "Id": null,
        "NUMBER": 65,
        "הערות": 65,
        "שאלה": "האם לדייק את הייעוד אזור פיתוח עירוני כך שהתחבר לשטח המוסד?",
        "בדיקת": "בוצע דיוק בדיגיטציה של ייעוד שטח עירוני ליעודיים שסביבו הוחלט לדייק רק בקומפילצייה",
        "נימוק": null,
        "סטטוס": null,
        "יש_הפ": null,
        "התייח": null,
        "יש_הפ_": null,
        "יש_הפ_1": null,
        "אופן": "בוצע דיוק בדיגיטציה של ייעוד שטח עירוני ליעודיים שסביבו",
        "הנמקה": "בוצע דיוק בדיגיטציה של ייעוד שטח עירוני ליעודיים שסביבו"
      }
    }
  ]
}