{
  "type": "FeatureCollection",
  "name": "train_compilation",
  "description": "קומפילציית מסילות ברזל",
  "crs": {
    "type": "name",
    "properties": {
      "name": "urn:ogc:def:crs:EPSG::2039"
    }
  },
  "features": [
    {
      "type": "Feature",
      "properties": {
        "Tochnit_Nu": "מתא/ 7",
        "Tochnit_Na": "שלוחת ירושלים",
        "Tochnit_Ty": "תכנית מפורטת",
        "Tochnit__1": "מע\"צ",
        "App_Date": 218678400000,
        "YP_Resumot": 2568,
        "YP_Resum_1": 307929600000,
        "Status": "תכנית מאושרת",
        "Type_Code": 551,
        "Data_Sourc": 0,
        "Related": "תגפ/ 547; תמ\"א/ 23; תמ\"א/ 23/ 8",
        "Notes": " ",
        "OBJECTID": 12,
        "Shape_Length": 3021.707917191472
      },
      "geometry": {
        "type": "LineString",
        "coordinates": [
          [
            180047.59453285486,
            661544.5033868104
          ],
          [
            180081.2586195683,
            661463.8540475685
          ],
          [
            180121.4740491435,
            661367.4284152929
          ],
          [
            180186.0624663392,
            661216.2397264522
          ],
          [
            180216.0210522171,
            661147.8176579345
          ],
          [
            180244.43506702594,
            661082.9232174493
          ],
          [
            180282.23421332985,
            661019.4532399382
          ],
          [
            180308.73983736802,
            660983.3507520221
          ],
          [
            180381.51366148982,
            660903.0091193803
          ],
          [
            180481.0303786844,
            660784.9461048916
          ],
          [
            180587.453433224,
            660685.0764098056
          ],
          [
            180675.00992488395,
            660606.2084929757
          ],
          [
            180719.52636014298,
            660566.5676672924
          ],
          [
            180976.4497864889,
            660349.9210157059
          ],
          [
            181208.57119890768,
            660153.6247345172
          ],
          [
            181280.22146136966,
            660090.8777591065
          ],
          [
            181377.77721947897,
            660007.2585378699
          ],
          [
            181444.22515216935,
            659952.2889634091
          ],
          [
            181504.07553580962,
            659904.5446800999
          ],
          [
            181534.36316084582,
            659880.1344371494
          ],
          [
            181585.05305137392,
            659838.8299423344
          ],
          [
            181648.85994191095,
            659787.5300502758
          ],
          [
            181679.14243700355,
            659762.327910563
          ],
          [
            181694.64827531856,
            659750.4330208972
          ],
          [
            182111.08983942308,
            659401.4495443441
          ]
        ]
      }
    },
    {
      "type": "Feature",
      "properties": {
        "Tochnit_Nu": "תמ\"מ/ 3/ 6/ ב",
        "Tochnit_Na": "שינוי 6/ב -דרך 431 מזרח",
        "Tochnit_Ty": "תוכנית מתאר מחוזית",
        "Tochnit__1": "משרד הפנים",
        "App_Date": 1020124800000,
        "YP_Resumot": 0,
        "YP_Resum_1": -2209161600000,
        "Status": "תכנית מאושרת",
        "Type_Code": 551,
        "Data_Sourc": 1,
        "Related": "תמ\"א/ 23/ 10; תמ\"א/ 23/ 2",
        "Notes": " ",
        "OBJECTID": 97,
        "Shape_Length": 4724.55265271719
      },
      "geometry": {
        "type": "LineString",
        "coordinates": [
          [
            177217.78266240843,
            652757.5033507906
          ],
          [
            177671.7843323173,
            652620.6044468544
          ],
          [
            177794.8158283811,
            652568.2168420795
          ],
          [
            177866.25347125623,
            652532.4980206434
          ],
          [
            177976.58494191896,
            652465.0291357003
          ],
          [
            178198.04163483158,
            652293.578792803
          ],
          [
            178365.52321979497,
            652157.0535197556
          ],
          [
            178904.48054771125,
            651721.2838982139
          ],
          [
            178995.76198027376,
            651646.6712489873
          ],
          [
            179288.6563160615,
            651414.895785436
          ],
          [
            179380.7315002121,
            651356.9519195519
          ],
          [
            179498.20673516393,
            651301.3893084228
          ],
          [
            179539.21723385062,
            651285.2496928126
          ],
          [
            179790.0427355012,
            651209.0495404098
          ],
          [
            180244.0686435541,
            651088.3992991112
          ],
          [
            180337.20216315333,
            651062.9992483091
          ],
          [
            180769.00302675553,
            650938.1156652104
          ],
          [
            181056.870269157,
            650850.2738228571
          ],
          [
            181158.4704723563,
            650817.4654239081
          ],
          [
            181406.0867049992,
            650743.9561591875
          ]
        ]
      }
    },
    {
      "type": "Feature",
      "properties": {
        "Tochnit_Nu": "מח/ 142",
        "Tochnit_Na": "קטע ראשונים באר יעקב",
        "Tochnit_Ty": "תכנית מפורטת",
        "Tochnit__1": "רכבת ישראל",
        "App_Date": 1003708800000,
        "YP_Resumot": 5058,
        "YP_Resum_1": 1015459200000,
        "Status": "תכנית מאושרת",
        "Type_Code": 551,
        "Data_Sourc": 0,
        "Related": "תמ\"א/ 23; תמ\"א/ 23/ 16/; תמ\"א/ 23/ 10; תמ\"א/ 23/ 8",
        "Notes": " ",
        "OBJECTID": 98,
        "Shape_Length": 2981.047047573882
      },
      "geometry": {
        "type": "LineString",
        "coordinates": [
          [
            181406.0867049992,
            650743.9561591875
          ],
          [
            181558.19915878028,
            650691.5454135798
          ],
          [
            181734.1775619993,
            650632.409039598
          ],
          [
            181754.2076241523,
            650625.2554459721
          ],
          [
            182037.48993177153,
            650519.8591665365
          ],
          [
            182189.1461166581,
            650463.5842300057
          ],
          [
            182282.1428338075,
            650420.6626682486
          ],
          [
            182350.34042638075,
            650378.2180127259
          ],
          [
            182399.93867552746,
            650339.5886071436
          ],
          [
            182417.43841705006,
            650325.4837416038
          ],
          [
            182434.45788740553,
            650310.8029441461
          ],
          [
            182450.97814111132,
            650295.5625569206
          ],
          [
            182466.98078839108,
            650279.7795450017
          ],
          [
            182482.44801565073,
            650263.4714774843
          ],
          [
            182497.36260531284,
            650246.6565079503
          ],
          [
            182511.70795497298,
            650229.353354238
          ],
          [
            182525.4680958828,
            650211.5812776182
          ],
          [
            182538.62771073077,
            650193.3600613531
          ],
          [
            182551.17215069383,
            650174.709988663
          ],
          [
            182563.08745173085,
            650155.6518201698
          ],
          [
            182574.36035014782,
            650136.2067707591
          ],
          [
            182584.9782973379,
            650116.396485988
          ],
          [
            182610.2543281531,
            650062.9829869103
          ],
          [
            182637.91489017662,
            649992.4008631259
          ],
          [
            182647.4530150136,
            649956.632894991
          ],
          [
            182673.68285831064,
            649820.2377098408
          ],
          [
            182707.06629523542,
            649611.3527759388
          ],
          [
            182713.7429826185,
            649567.954307938
          ],
          [
            182760.60840989836,
            649350.095736837
          ],
          [
            182781.64883196913,
            649287.9795571044
          ],
          [
            182805.41841292102,
            649232.6245765854
          ],
          [
            182828.6211567968,
            649187.2599685192
          ],
          [
            182868.38843190484,
            649128.7650440298
          ],
          [
            182896.19448272046,
            649092.1116134077
          ],
          [
            182906.43086841423,
            649079.2090151161
          ],
          [
            182917.21697736066,
            649066.7623091862
          ],
          [
            182928.53252914548,
            649054.794898333
          ],
          [
            182940.35624788236,
            649043.3292840924
          ],
          [
            182952.66590221692,
            649032.3870245013
          ],
          [
            182965.43834711425,
            649021.9886935763
          ],
          [
            182978.649567388,
            649012.1538426057
          ],
          [
            182992.27472285274,
            649002.9009634182
          ],
          [
            183006.28819502704,
            648994.247453589
          ],
          [
            183020.66363529954,
            648986.2095837388
          ],
          [
            183035.3740144791,
            648978.8024669513
          ],
          [
            183050.39167361148,
            648972.0400303379
          ],
          [
            183067.38770957664,
            648965.2300280984
          ],
          [
            183084.64646780118,
            648959.1163848545
          ],
          [
            183102.1394306291,
            648953.709202541
          ],
          [
            183119.8376934221,
            648949.0174157545
          ],
          [
            183137.71201230586,
            648945.0487770047
          ],
          [
            183155.73285250738,
            648941.8098439146
          ],
          [
            183173.8704371415,
            648939.3059683554
          ],
          [
            183192.09479641728,
            648937.5412876271
          ],
          [
            183210.37581716664,
            648936.5187176187
          ],
          [
            183228.68329259753,
            648936.2399479747
          ],
          [
            183246.9869721979,
            648936.7054393273
          ],
          [
            183265.25661173277,
            648937.9144225195
          ],
          [
            183376.48081499618,
            648944.8659352232
          ]
        ]
      }
    },
    {
      "type": "Feature",
      "properties": {
        "Tochnit_Nu": "מח/ 120",
        "Tochnit_Na": "הרחבת פרוזדור מסילת ברזל לוד-רחובות",
        "Tochnit_Ty": "תכנית מפורטת",
        "Tochnit__1": "רכבת ישראל",
        "App_Date": 941241600000,
        "YP_Resumot": 4814,
        "YP_Resum_1": 941328000000,
        "Status": "תכנית מאושרת",
        "Type_Code": 551,
        "Data_Sourc": 0,
        "Related": "תמ\"א/ 23; תמ\"א/ 23/ א; תמ\"א/ 23/ 8; תמ\"א/ 23/ 12",
        "Notes": " ",
        "OBJECTID": 99,
        "Shape_Length": 9224.867284682048
      },
      "geometry": {
        "type": "MultiLineString",
        "coordinates": [
          [
            [
              183298.92889293563,
              648940.0189400967
            ],
            [
              183134.2607464455,
              648905.6440920159
            ],
            [
              182982.4968418358,
              648844.6086086407
            ],
            [
              182896.71724357828,
              648788.5219482426
            ],
            [
              182799.39039170928,
              648696.1439193524
            ],
            [
              182720.20922408812,
              648587.269813871
            ],
            [
              182687.217070912,
              648496.5413926374
            ],
            [
              182659.17374071386,
              648395.9153254516
            ],
            [
              182647.6264871005,
              648310.1357271951
            ],
            [
              182637.72884114832,
              648067.6434013527
            ],
            [
              182629.48080285545,
              647958.7692958694
            ],
            [
              182625.2728285091,
              647908.3393093422
            ],
            [
              182620.29521666095,
              647857.979464531
            ],
            [
              182614.54912821297,
              647807.70150657
            ],
            [
              182608.03590329085,
              647757.5171614978
            ],
            [
              182578.34296543244,
              647678.3359938785
            ],
            [
              182535.45316630322,
              647592.5563956182
            ],
            [
              182439.77592209354,
              647478.7334671635
            ],
            [
              182353.99632383604,
              647371.5089693405
            ],
            [
              182311.10652470775,
              647275.8317251317
            ],
            [
              182283.0631945096,
              647183.4536962397
            ],
            [
              182273.16554855555,
              647105.9221362751
            ],
            [
              182258.31907962635,
              646888.173925316
            ],
            [
              182250.0710413335,
              646771.0517815407
            ],
            [
              182235.2245724043,
              646701.7682598755
            ],
            [
              182193.98438093346,
              646604.4414080009
            ],
            [
              182142.84654351324,
              646526.9098480418
            ],
            [
              182083.2568309242,
              646460.4968538377
            ],
            [
              182017.4763614433,
              646414.7365272418
            ],
            [
              181933.3463708451,
              646358.6498668436
            ],
            [
              181334.53879070468,
              646008.9330431819
            ]
          ],
          [
            [
              188227.3493244648,
              650261.652453687
            ],
            [
              188050.07312742714,
              650123.8684787601
            ],
            [
              188032.55162375513,
              650110.7277802322
            ],
            [
              188014.58816139586,
              650098.1980129238
            ],
            [
              187996.20403238572,
              650086.2940283306
            ],
            [
              187977.4210273726,
              650075.0299362
            ],
            [
              187958.26140979584,
              650064.4190878347
            ],
            [
              187938.74788948894,
              650054.4740602318
            ],
            [
              187918.90359576698,
              650045.2066412028
            ],
            [
              187898.75205000676,
              650036.6278153975
            ],
            [
              187878.31713777222,
              650028.7477512658
            ],
            [
              187857.62308050133,
              650021.5757890195
            ],
            [
              187836.69440679625,
              650015.1204295643
            ],
            [
              187815.55592334364,
              650009.3893244267
            ],
            [
              187794.23268552404,
              650004.3892666586
            ],
            [
              187772.7499677064,
              650000.1261828113
            ],
            [
              187730.22765880916,
              649992.1720750462
            ],
            [
              187687.8078862913,
              649983.6881205402
            ],
            [
              187645.4972520126,
              649974.6756396703
            ],
            [
              187236.53335192055,
              649884.2823312804
            ],
            [
              186638.61833072826,
              649760.6001719739
            ],
            [
              186534.901456628,
              649738.3751275223
            ],
            [
              186511.88917698525,
              649733.8334342912
            ],
            [
              186488.74156197906,
              649730.0413489416
            ],
            [
              186465.4830228798,
              649727.0028705858
            ],
            [
              186442.13808793947,
              649724.7212035619
            ],
            [
              186418.73137652222,
              649723.1987541057
            ],
            [
              186395.2875731364,
              649722.4371277783
            ],
            [
              186371.83140141703,
              649722.4371277783
            ],
            [
              186348.387598034,
              649723.1987541057
            ],
            [
              186324.98088661302,
              649724.7212035619
            ],
            [
              186301.6359516736,
              649727.0028705858
            ],
            [
              186278.37741257623,
              649730.0413489416
            ],
            [
              186255.22979756817,
              649733.8334342912
            ],
            [
              186232.2175179273,
              649738.3751275223
            ],
            [
              186015.2587506771,
              649775.4168682732
            ],
            [
              185767.60825537518,
              649820.9252926223
            ],
            [
              185724.2165019242,
              649825.1586344242
            ],
            [
              185674.47473577317,
              649825.1586344242
            ],
            [
              185651.0898183221,
              649824.7627775948
            ],
            [
              185627.73169724084,
              649823.5756607093
            ],
            [
              185604.42713820096,
              649821.5986440647
            ],
            [
              185581.2028454896,
              649818.8339930922
            ],
            [
              185558.08543142397,
              649815.284875758
            ],
            [
              185535.1013858486,
              649810.9553589318
            ],
            [
              185512.2770457873,
              649805.8504037354
            ],
            [
              185489.63856525067,
              649799.9758598413
            ],
            [
              185467.21188528743,
              649793.338458797
            ],
            [
              185445.02270423807,
              649785.9458062779
            ],
            [
              185423.0964483004,
              649777.8063734043
            ],
            [
              185401.45824239682,
              649768.929487003
            ],
            [
              185380.13288136944,
              649759.3253189512
            ],
            [
              185359.1448015822,
              649749.0048744958
            ],
            [
              185338.51805291325,
              649737.9799796548
            ],
            [
              185318.27627119515,
              649726.2632676698
            ],
            [
              185298.44265113585,
              649713.8681645114
            ],
            [
              185279.03991973866,
              649700.808873523
            ],
            [
              185260.0903102588,
              649687.1003591064
            ],
            [
              185241.61553672142,
              649672.7583296206
            ],
            [
              185173.8820679225,
              649605.0248608254
            ],
            [
              185044.76514302287,
              649446.2745433208
            ],
            [
              184905.06486362126,
              649251.5408205204
            ],
            [
              184787.58962867036,
              649087.4988257699
            ],
            [
              184776.15598400123,
              649072.1699702684
            ],
            [
              184764.13643201254,
              649057.2960867342
            ],
            [
              184751.5490590213,
              649042.8995565064
            ],
            [
              184738.41280575842,
              649029.0020426419
            ],
            [
              184724.74743888713,
              649015.6244572941
            ],
            [
              184710.57352124713,
              649002.7869302705
            ],
            [
              184695.9123809114,
              648990.508778723
            ],
            [
              184680.7860790994,
              648978.8084780853
            ],
            [
              184665.2173769828,
              648967.7036342919
            ],
            [
              184649.2297014231,
              648957.2109572422
            ],
            [
              184632.84710973315,
              648947.3462357093
            ],
            [
              184616.0942534702,
              648938.1243135426
            ],
            [
              184598.99634134676,
              648929.5590673424
            ],
            [
              184581.57910129335,
              648921.6633855943
            ],
            [
              184563.86874174234,
              648914.4491492454
            ],
            [
              184545.891912207,
              648907.9272138625
            ],
            [
              184527.67566314992,
              648902.1073932629
            ],
            [
              184509.24740531854,
              648896.9984447695
            ],
            [
              184436.22225926816,
              648874.7734003235
            ],
            [
              184375.897138617,
              648865.2483812701
            ],
            [
              184319.80535976775,
              648865.2483812701
            ],
            [
              184242.54687191825,
              648869.481723072
            ],
            [
              183966.3213194674,
              648912.8734765202
            ],
            [
              183729.2541786665,
              648954.148559073
            ],
            [
              183654.11236171518,
              648959.4402363189
            ],
            [
              183427.62857541535,
              648947.7985463701
            ],
            [
              183376.48081499618,
              648944.8659352232
            ]
          ]
        ]
      }
    },
    {
      "type": "Feature",
      "properties": {
        "Tochnit_Nu": "תת\"ל/ 9",
        "Tochnit_Na": "מסילת לוד-ב\"ש , קטע לוד נען",
        "Tochnit_Ty": "תוכנית תשתית לאומית",
        "Tochnit__1": "רכבת ישראל",
        "App_Date": 1101513600000,
        "YP_Resumot": 5354,
        "YP_Resum_1": 1103414400000,
        "Status": "תכנית מאושרת",
        "Type_Code": 551,
        "Data_Sourc": 1,
        "Related": " תמ\"א/ 23/ 10; תמ\"א/ 23/ 8; תמ\"א/ 23/ 16/ א",
        "Notes": " ",
        "OBJECTID": 101,
        "Shape_Length": 12650.370385154562
      },
      "geometry": {
        "type": "MultiLineString",
        "coordinates": [
          [
            [
              188067.24729867838,
              642494.7967677657
            ],
            [
              187897.2435256224,
              642177.1581391562
            ],
            [
              187862.84762349632,
              642093.8142224681
            ],
            [
              187860.20178487338,
              642088.5225452203
            ]
          ],
          [
            [
              189204.25842856895,
              645485.4928322565
            ],
            [
              189111.17071150988,
              645407.8741355501
            ],
            [
              188999.42772314604,
              645360.6937626861
            ],
            [
              188850.43707199302,
              645314.7549785823
            ],
            [
              188676.61464564782,
              645258.883484399
            ],
            [
              188583.4954886753,
              645220.3942328505
            ],
            [
              188499.06745302211,
              645169.4890937097
            ],
            [
              188418.3641836485,
              645090.0274130926
            ],
            [
              188376.1501658205,
              645021.7400313113
            ],
            [
              188331.4529704759,
              644924.8961080648
            ],
            [
              188182.462319321,
              644563.5937790163
            ],
            [
              188124.1076476192,
              644412.1199503448
            ],
            [
              188006.1567154564,
              644125.3129468746
            ],
            [
              187960.21793135162,
              644009.8451922294
            ],
            [
              187926.695034842,
              643905.5517364237
            ],
            [
              187914.279147245,
              643826.0900558066
            ],
            [
              187911.79596972838,
              643765.2522065844
            ],
            [
              187911.79596972838,
              643668.4082833361
            ],
            [
              187905.5880259294,
              643513.2096883841
            ],
            [
              187910.55438096635,
              643441.197540326
            ],
            [
              187919.2455022838,
              643367.9438035116
            ],
            [
              187967.66746390983,
              643207.7788535208
            ],
            [
              188017.33101429418,
              643050.0970810503
            ],
            [
              188028.53548856266,
              643013.6372778341
            ],
            [
              188039.23027100228,
              642977.0247236677
            ],
            [
              188049.413280393,
              642940.2665434349
            ],
            [
              188059.08253508992,
              642903.3698903639
            ],
            [
              188068.23615343682,
              642866.3419446275
            ],
            [
              188076.9272747552,
              642721.0760597531
            ],
            [
              188067.24729867838,
              642494.7967677657
            ]
          ],
          [
            [
              189204.25842856895,
              645485.4928322565
            ],
            [
              189184.4440166913,
              645446.0917603578
            ],
            [
              189042.8916502511,
              645178.8620592318
            ],
            [
              188964.8394108126,
              645004.2367099822
            ],
            [
              188882.81841344014,
              644766.1112337299
            ],
            [
              188848.42251131404,
              644543.8607892301
            ],
            [
              188804.76617400162,
              644218.4226383548
            ],
            [
              188800.79741606396,
              644178.7350589801
            ],
            [
              188753.1723208148,
              643932.6720668525
            ],
            [
              188656.59921100084,
              643632.3693829123
            ],
            [
              188569.28653637413,
              643437.9002439752
            ],
            [
              188382.75491331145,
              643080.7120295968
            ],
            [
              188249.1400627494,
              642834.6490374729
            ],
            [
              188067.24729867838,
              642494.7967677657
            ]
          ],
          [
            [
              188093.45789290965,
              650157.5883212425
            ],
            [
              187998.050793075,
              650048.5050052665
            ],
            [
              187952.27860302757,
              649997.3478516862
            ],
            [
              187880.92783618812,
              649919.2658804264
            ],
            [
              187869.23553714808,
              649905.8940362558
            ],
            [
              187858.13981902413,
              649892.0231634397
            ],
            [
              187847.66195562016,
              649877.679856576
            ],
            [
              187837.82203612197,
              649862.8916160576
            ],
            [
              187828.63892658707,
              649847.6867953539
            ],
            [
              187820.13023377676,
              649832.0945466366
            ],
            [
              187812.3122713901,
              649816.1447648965
            ],
            [
              187805.20002879482,
              649799.8680306226
            ],
            [
              187798.80714228004,
              649783.2955511659
            ],
            [
              187790.4792453833,
              649759.1928353906
            ],
            [
              187782.80964752845,
              649734.8726371415
            ],
            [
              187775.80401758384,
              649710.3529323358
            ],
            [
              187769.46753366757,
              649685.6518443841
            ],
            [
              187763.8048793003,
              649660.7876307443
            ],
            [
              187760.04368863534,
              649641.2903832868
            ],
            [
              187757.0558451917,
              649621.659743838
            ],
            [
              187754.8460158324,
              649601.9263744373
            ],
            [
              187753.4176521916,
              649582.1210975889
            ],
            [
              187752.77298530284,
              649562.2748481147
            ],
            [
              187752.91302209906,
              649542.4186248239
            ],
            [
              187753.8375438517,
              649522.5834421106
            ],
            [
              187755.54510650598,
              649502.8002815098
            ],
            [
              187758.0330429403,
              649483.1000432856
            ],
            [
              187761.29746712092,
              649463.513498202
            ],
            [
              187765.33328018896,
              649444.0712394174
            ],
            [
              187770.134178414,
              649424.8036347441
            ],
            [
              187775.69266304,
              649405.7407791782
            ],
            [
              187782.00005200133,
              649386.9124479163
            ],
            [
              187789.04649348464,
              649368.3480498362
            ],
            [
              187796.82098131068,
              649350.0765815657
            ],
            [
              187805.31137213204,
              649332.1265821978
            ],
            [
              187814.5044043986,
              649314.526088696
            ],
            [
              187824.3857190702,
              649297.3025921285
            ],
            [
              187884.96655884013,
              649209.7969346866
            ],
            [
              188121.90495438222,
              648927.0863490961
            ],
            [
              188397.8843355514,
              648608.0272596423
            ],
            [
              188529.81594216172,
              648453.2095580138
            ],
            [
              188820.19141318556,
              648108.4536475856
            ],
            [
              188952.9331370024,
              647937.1488258075
            ],
            [
              189073.31879443955,
              647747.9713641182
            ],
            [
              189113.0063738143,
              647661.981608808
            ],
            [
              189176.5065008141,
              647509.8458878696
            ],
            [
              189258.52749819122,
              647237.3245094921
            ],
            [
              189430.50700881518,
              646709.4797038008
            ],
            [
              189455.64247575402,
              646549.4064669888
            ],
            [
              189468.871668878,
              646298.0517976116
            ],
            [
              189429.18408950325,
              646034.7908544242
            ],
            [
              189398.75694531575,
              645910.4364390485
            ],
            [
              189299.53799687792,
              645674.9568014219
            ],
            [
              189204.25842856895,
              645485.4928322565
            ]
          ]
        ]
      }
    },
    {
      "type": "Feature",
      "properties": {
        "Tochnit_Nu": "תמ\"א/ 23/ 16/ א/ 1",
        "Tochnit_Na": "מסילה לירושלים שער הגיא - נתבג- מערב",
        "Tochnit_Ty": "תכנית מתאר ארצית",
        "Tochnit__1": "משרד הפנים",
        "App_Date": 1074124800000,
        "YP_Resumot": 5272,
        "YP_Resum_1": 1076544000000,
        "Status": "תכנית מאושרת",
        "Type_Code": 551,
        "Data_Sourc": 1,
        "Related": "תמ\"א/ 23/ 12; תמ\"א/ 23/ 2; תמ\"א/ 23/ 8",
        "Notes": " ",
        "OBJECTID": 103,
        "Shape_Length": 1431.7021773526267
      },
      "geometry": {
        "type": "LineString",
        "coordinates": [
          [
            182111.08983942308,
            659401.4495443441
          ],
          [
            183194.82534022816,
            658465.8810065389
          ]
        ]
      }
    },
    {
      "type": "Feature",
      "properties": {
        "Tochnit_Nu": "מח/ 135",
        "Tochnit_Na": "מחלף שפירים- צפריה",
        "Tochnit_Ty": "תכנית מפורטת",
        "Tochnit__1": "רכבת ישראל",
        "App_Date": 939513600000,
        "YP_Resumot": 4921,
        "YP_Resum_1": 969321600000,
        "Status": "תכנית מאושרת",
        "Type_Code": 551,
        "Data_Sourc": 0,
        "Related": "תמ\"א/ 23; תמ\"א/ 23/ 16/ א; תמ\"א/ 23/ 12; תמ\"א/ 23/ 8",
        "Notes": " ",
        "OBJECTID": 104,
        "Shape_Length": 3937.609381396339
      },
      "geometry": {
        "type": "MultiLineString",
        "coordinates": [
          [
            [
              184260.40356211457,
              657560.6988450903
            ],
            [
              184304.21489233896,
              657522.8617871664
            ],
            [
              184625.94886914175,
              657251.927911967
            ]
          ],
          [
            [
              184260.40356211457,
              657560.6988450903
            ],
            [
              184662.99060989078,
              657376.8114950657
            ],
            [
              184991.0745993927,
              657297.4363363162
            ],
            [
              185218.61672114301,
              657286.852981817
            ],
            [
              185525.53400164377,
              657334.4780770671
            ],
            [
              185753.07612339407,
              657366.2281405665
            ],
            [
              185911.8264408959,
              657397.9782040678
            ],
            [
              186255.7854621485,
              657466.7700083181
            ]
          ],
          [
            [
              183194.82534022816,
              658465.8810065389
            ],
            [
              183711.54704033677,
              658028.7461322732
            ],
            [
              183931.68081393838,
              657844.5957639702
            ],
            [
              184260.40356211457,
              657560.6988450903
            ]
          ]
        ]
      }
    },
    {
      "type": "Feature",
      "properties": {
        "Tochnit_Nu": "תמ\"א/ 23",
        "Tochnit_Na": "תוכנית מתאר ארצית למסילות ברזל",
        "Tochnit_Ty": "תכנית מתאר ארצית",
        "Tochnit__1": "משרד הפנים",
        "App_Date": 519177600000,
        "YP_Resumot": 3366,
        "YP_Resum_1": 523152000000,
        "Status": "תכנית מאושרת",
        "Type_Code": 551,
        "Data_Sourc": 1,
        "Related": "תמ\"א/ 23/ 2; תמ\"א/ 23/ 8",
        "Notes": " ",
        "OBJECTID": 105,
        "Shape_Length": 8846.362501406
      },
      "geometry": {
        "type": "MultiLineString",
        "coordinates": [
          [
            [
              185713.59518932458,
              656207.7174217589
            ],
            [
              185774.08814799786,
              656143.2636146005
            ],
            [
              186003.75409312267,
              655895.9310583118
            ],
            [
              186563.6497699963,
              655240.9074751772
            ],
            [
              186785.16189458407,
              654974.5493376348
            ],
            [
              187505.41604201775,
              654106.1674504429
            ],
            [
              187718.77434607036,
              653849.322103532
            ],
            [
              188444.46437386144,
              652980.9402163401
            ],
            [
              189024.7446020767,
              652276.9937099814
            ],
            [
              189096.77001681924,
              652202.2503550574
            ],
            [
              189304.69244051445,
              652026.9432135131
            ]
          ],
          [
            [
              185713.59518932458,
              656207.7174217589
            ],
            [
              185963.7767859241,
              656129.3993368223
            ],
            [
              186069.6103309244,
              656065.8992098235
            ],
            [
              186254.81903467514,
              655930.9614399429
            ],
            [
              186387.1109659234,
              655814.5445404463
            ],
            [
              186519.40289717447,
              655650.5025456958
            ],
            [
              186535.79978760798,
              655630.7649698127
            ],
            [
              186552.76387353335,
              655611.5127048455
            ],
            [
              186570.28079802822,
              655592.7620442268
            ],
            [
              186588.33573630918,
              655574.5288568679
            ],
            [
              186606.91340825148,
              655556.8285737392
            ],
            [
              186625.99809134565,
              655539.6761748157
            ],
            [
              186645.57363398653,
              655523.0861763861
            ],
            [
              186665.62346914876,
              655507.0726187713
            ],
            [
              186686.13062840793,
              655491.6490544342
            ],
            [
              186707.07775630057,
              655476.8285365459
            ],
            [
              186728.44712501485,
              655462.6236078776
            ],
            [
              186750.22064938676,
              655449.0462902486
            ],
            [
              186772.37990221288,
              655436.1080743056
            ],
            [
              186794.9061298417,
              655423.8199098203
            ],
            [
              186817.78026804887,
              655412.192196425
            ],
            [
              186840.98295816965,
              655401.2347747944
            ],
            [
              186864.4945634734,
              655390.9569183215
            ],
            [
              186888.29518580064,
              655381.3673253004
            ],
            [
              186912.36468239222,
              655372.4741115104
            ],
            [
              186936.68268292956,
              655364.2848033905
            ],
            [
              186961.2286067903,
              655356.8063316606
            ],
            [
              186985.98168045282,
              655350.0450254362
            ],
            [
              187010.92095508426,
              655344.0066068973
            ],
            [
              187036.0253242664,
              655338.6961864326
            ],
            [
              187061.27354186215,
              655334.1182583161
            ],
            [
              187086.6442399919,
              655330.276696913
            ],
            [
              187166.81408080272,
              655325.1398190074
            ],
            [
              187237.2386649847,
              655328.7876214627
            ]
          ],
          [
            [
              184625.94886914175,
              657251.927911967
            ],
            [
              184916.5780215254,
              657008.9275616128
            ],
            [
              185161.19263763446,
              656803.7230780981
            ],
            [
              185356.88433052227,
              656593.0827142261
            ],
            [
              185545.7811729638,
              656386.5192606207
            ],
            [
              185713.59518932458,
              656207.7174217589
            ]
          ]
        ]
      }
    },
    {
      "type": "Feature",
      "properties": {
        "Tochnit_Nu": "מח/ 112",
        "Tochnit_Na": "מחלף בן גוריון- לוד",
        "Tochnit_Ty": "תכנית מפורטת",
        "Tochnit__1": "רכבת ישראל",
        "App_Date": 874195200000,
        "YP_Resumot": 5114,
        "YP_Resum_1": 1032393600000,
        "Status": "תכנית מאושרת",
        "Type_Code": 551,
        "Data_Sourc": 0,
        "Related": "תמ\"א/ 23; תמ\"א/ 23/ א; תמ\"א/ 23/ 8; תמ\"א/ 23/ 12",
        "Notes": " ",
        "OBJECTID": 106,
        "Shape_Length": 4400.027436295407
      },
      "geometry": {
        "type": "LineString",
        "coordinates": [
          [
            187237.2386649847,
            655328.7876214627
          ],
          [
            187315.13582536485,
            655340.4960903563
          ],
          [
            187397.57300429326,
            655362.4793380704
          ],
          [
            187459.69957392104,
            655385.8962758519
          ],
          [
            187507.48924286664,
            655409.3132136334
          ],
          [
            187565.07579394523,
            655439.8986017611
          ],
          [
            187583.47481648717,
            655452.5628640335
          ],
          [
            187659.46039010957,
            655508.9546733834
          ],
          [
            187735.9238604214,
            655574.9044165295
          ],
          [
            187847.0348407179,
            655667.1384775899
          ],
          [
            187905.57718517538,
            655715.8839399163
          ],
          [
            187966.98690976854,
            655760.3283320349
          ],
          [
            187999.2449363051,
            655781.1168380249
          ],
          [
            188073.31892317068,
            655819.8264698703
          ],
          [
            188116.32962522004,
            655837.7475957256
          ],
          [
            188162.20770740602,
            655853.0402897876
          ],
          [
            188184.190955122,
            655859.969791783
          ],
          [
            188233.65326248016,
            655872.1561573669
          ],
          [
            188291.23981355596,
            655881.7140911538
          ],
          [
            188344.76424277574,
            655885.7762130126
          ],
          [
            188374.1548891766,
            655886.9709547348
          ],
          [
            188442.0162190767,
            655884.3425229453
          ],
          [
            188479.77005754318,
            655880.5193494298
          ],
          [
            188502.9724153923,
            655877.7921473086
          ],
          [
            188526.0750753088,
            655874.3202392142
          ],
          [
            188549.0541414069,
            655870.1072162632
          ],
          [
            188571.88584563043,
            655865.1574361343
          ],
          [
            188594.54657234624,
            655859.4760185517
          ],
          [
            188617.0128827747,
            655853.068840012
          ],
          [
            188639.2615392208,
            655845.9425276853
          ],
          [
            188661.269529121,
            655838.1044525616
          ],
          [
            188683.0140888393,
            655829.5627218336
          ],
          [
            188704.472727214,
            655820.3261705227
          ],
          [
            188725.62324882578,
            655810.404352311
          ],
          [
            188746.44377694745,
            655799.8075296804
          ],
          [
            188766.91277617868,
            655788.5466633029
          ],
          [
            188787.00907471497,
            655776.6334006842
          ],
          [
            188806.71188624948,
            655764.0800641254
          ],
          [
            188826.0008314764,
            655750.8996379916
          ],
          [
            188844.85595916212,
            655737.1057552472
          ],
          [
            188863.25776678696,
            655722.712683402
          ],
          [
            188881.187220715,
            655707.7353097014
          ],
          [
            188898.62577588763,
            655692.1891257782
          ],
          [
            189070.07611878868,
            655485.813713029
          ],
          [
            189205.5430563884,
            655299.5466738306
          ],
          [
            189394.19325383194,
            655051.1195582673
          ],
          [
            189473.26385561842,
            654957.8870576564
          ],
          [
            189532.2717674002,
            654901.8295414634
          ],
          [
            189546.43366622739,
            654888.2577217519
          ],
          [
            189623.73403066117,
            654832.2002055645
          ],
          [
            189681.56178420596,
            654802.6962496694
          ],
          [
            189759.45222775638,
            654769.061739957
          ],
          [
            189912.87279838603,
            654707.1034325864
          ],
          [
            189956.53865310457,
            654689.401059052
          ],
          [
            190023.80767253228,
            654664.617736103
          ],
          [
            190118.2203313848,
            654624.4923560936
          ],
          [
            190186.6695090495,
            654587.9074507896
          ],
          [
            190248.03773730248,
            654550.1423872486
          ],
          [
            190318.84723143745,
            654504.7062951811
          ],
          [
            190711.94144288637,
            654199.7699039318
          ],
          [
            190817.35021888092,
            654116.8615308274
          ]
        ]
      }
    },
    {
      "type": "Feature",
      "properties": {
        "Tochnit_Nu": "תמ\"א/ 23/ 16/ א/ 1",
        "Tochnit_Na": "מסילה לירושלים שער הגיא - נתבג- מערב",
        "Tochnit_Ty": "תכנית מתאר ארצית",
        "Tochnit__1": "משרד הפנים",
        "App_Date": 1074124800000,
        "YP_Resumot": 5272,
        "YP_Resum_1": 1076544000000,
        "Status": "תכנית מאושרת",
        "Type_Code": 551,
        "Data_Sourc": 1,
        "Related": " תמ\"א/ 23/ 2; תמ\"א/ 23/ 8",
        "Notes": " ",
        "OBJECTID": 107,
        "Shape_Length": 4075.611608364463
      },
      "geometry": {
        "type": "LineString",
        "coordinates": [
          [
            188142.51838663872,
            653341.638973359
          ],
          [
            188132.7828932926,
            653351.4348941278
          ],
          [
            188122.5009506857,
            653360.6556072533
          ],
          [
            188111.70649078768,
            653369.2706829887
          ],
          [
            188100.43513695803,
            653377.2516902704
          ],
          [
            188088.72408637684,
            653384.572290564
          ],
          [
            188076.6119872909,
            653391.208324777
          ],
          [
            188064.13881146442,
            653397.1378929894
          ],
          [
            188051.34572227206,
            653402.3414267227
          ],
          [
            188038.27493885253,
            653406.8017535247
          ],
          [
            188024.96959677804,
            653410.5041536465
          ],
          [
            188011.4736056961,
            653413.4364085943
          ],
          [
            187997.83150442783,
            653415.5888414904
          ],
          [
            187984.08831398003,
            653416.9543489739
          ],
          [
            187970.28938896768,
            653417.5284246635
          ],
          [
            187956.48026794195,
            653417.3091740273
          ],
          [
            187942.7065230962,
            653416.2973206192
          ],
          [
            187929.01360988338,
            653414.496203715
          ],
          [
            187915.4467169959,
            653411.9117672686
          ],
          [
            187902.05061724037,
            653408.5525403135
          ],
          [
            187888.86951978225,
            653404.4296088126
          ],
          [
            187875.94692424405,
            653399.5565790646
          ],
          [
            187863.32547715306,
            653393.9495328069
          ],
          [
            187851.04683120456,
            653387.6269741431
          ],
          [
            187839.15150779486,
            653380.6097684819
          ],
          [
            187827.67876329552,
            653372.921073664
          ],
          [
            187816.66645950545,
            653364.5862635486
          ],
          [
            187806.1509387074,
            653355.6328442749
          ],
          [
            187796.1669037072,
            653346.0903634895
          ],
          [
            185433.14223016892,
            651714.0399830174
          ],
          [
            185422.29347128049,
            651707.1071306635
          ],
          [
            185411.0512346169,
            651700.8324094731
          ],
          [
            185399.4553971123,
            651695.2380762883
          ],
          [
            185387.5470899474,
            651690.343974568
          ],
          [
            185375.36855264846,
            651686.167464003
          ],
          [
            185362.9629832739,
            651682.7233589478
          ],
          [
            185350.37438516598,
            651680.0238758586
          ],
          [
            185337.64741089847,
            651678.0785899777
          ],
          [
            185324.82720385678,
            651676.8944013622
          ],
          [
            185311.9592381455,
            651676.4755103998
          ],
          [
            185299.08915726095,
            651676.8234029263
          ],
          [
            185286.26261220314,
            651677.936844945
          ],
          [
            185273.5250995541,
            651679.8118870016
          ],
          [
            185260.92180008814,
            651682.4418782089
          ],
          [
            185248.49741851073,
            651685.8174898159
          ],
          [
            185236.29602491017,
            651689.9267483111
          ],
          [
            185224.36089840438,
            651694.7550778855
          ],
          [
            185212.7343736561,
            651700.2853521537
          ],
          [
            185201.45769069344,
            651706.4979548752
          ],
          [
            185190.57084863354,
            651713.3708495479
          ],
          [
            185180.11246380582,
            651720.879657574
          ],
          [
            185170.11963276844,
            651728.9977447335
          ],
          [
            185160.62780073844,
            651737.6963156424
          ],
          [
            185151.67063585017,
            651746.9445159193
          ],
          [
            185143.27990973927,
            651756.7095416021
          ],
          [
            185135.48538485542,
            651766.9567555189
          ],
          [
            184811.37015329115,
            652124.1449698973
          ]
        ]
      }
    },
    {
      "type": "Feature",
      "properties": {
        "Tochnit_Nu": "תמ\"א/ 23/ 16",
        "Tochnit_Na": "מסילה לירושלים",
        "Tochnit_Ty": "תכנית מתאר ארצית",
        "Tochnit__1": "משרד הפנים",
        "App_Date": 980380800000,
        "YP_Resumot": 4967,
        "YP_Resum_1": 983404800000,
        "Status": "תכנית מאושרת",
        "Type_Code": 551,
        "Data_Sourc": 1,
        "Related": "תמ\"א/ 23/ 12; תמ\"א/ 23/ 2; תמ\"א/ 23/ 8",
        "Notes": " ",
        "OBJECTID": 138,
        "Shape_Length": 3277.2568969651707
      },
      "geometry": {
        "type": "LineString",
        "coordinates": [
          [
            186255.7854621485,
            657466.7700083181
          ],
          [
            186361.63786939904,
            657481.7270766981
          ],
          [
            186361.01929632574,
            657481.5570415892
          ],
          [
            186368.91002654005,
            657482.8099939004
          ],
          [
            186374.30002654064,
            657483.6199939027
          ],
          [
            186431.00002654083,
            657492.4999938998
          ],
          [
            186498.0000265399,
            657501.1899939012
          ],
          [
            186548.5302970009,
            657503.2112047207
          ],
          [
            186553.15819915198,
            657503.3963208068
          ],
          [
            186563.50002654083,
            657503.8099939004
          ],
          [
            186621.8000265397,
            657499.8799939007
          ],
          [
            186678.91002654005,
            657490.6899939012
          ],
          [
            186703.41002653912,
            657485.1899938993
          ],
          [
            186733.09002653975,
            657477.6199938972
          ],
          [
            186756.5900265416,
            657470.1899938993
          ],
          [
            186784.8000265397,
            657460.6899939012
          ],
          [
            186809.0000265399,
            657451.189993903
          ],
          [
            186829.30002654064,
            657442.8099939004
          ],
          [
            186861.2000265401,
            657428.119993899
          ],
          [
            186886.0000265399,
            657413.8099939022
          ],
          [
            186901.7000265401,
            657404.6199939009
          ],
          [
            186920.8000265397,
            657392.6199939009
          ],
          [
            186942.7000265401,
            657377.8799938988
          ],
          [
            186965.50002654083,
            657359.8799938988
          ],
          [
            186984.20002653915,
            657345.9999938998
          ],
          [
            186991.55192208197,
            657339.7618914638
          ],
          [
            187012.30002654158,
            657322.1899938993
          ],
          [
            187031.59002653882,
            657304.1899938993
          ],
          [
            187043.5900265416,
            657291.4999939017
          ],
          [
            187082.00002654083,
            657249.8099939004
          ],
          [
            187126.20002653915,
            657188.8099938985
          ],
          [
            187180.70002653915,
            657111.119993899
          ],
          [
            187245.3000265397,
            657009.9999939017
          ],
          [
            187281.41002654005,
            656955.619993899
          ],
          [
            187291.09462654032,
            656940.260793902
          ],
          [
            187302.8000265397,
            656922.3799939025
          ],
          [
            187306.30002654064,
            656916.6899939012
          ],
          [
            187348.5000265399,
            656855.119993899
          ],
          [
            187401.09002654068,
            656780.8799939007
          ],
          [
            187410.6622686116,
            656768.9449194446
          ],
          [
            187411.02204155922,
            656768.4963393845
          ],
          [
            187420.09002653975,
            656757.1899938993
          ],
          [
            187435.8000265397,
            656733.1199938972
          ],
          [
            187437.80002654064,
            656731.119993899
          ],
          [
            187462.8000265397,
            656704.8799938988
          ],
          [
            187522.20002653915,
            656653.1199939009
          ],
          [
            187571.00002654083,
            656618.6899939012
          ],
          [
            187643.2000265401,
            656574.6899938993
          ],
          [
            187810.59002654068,
            656471.119993899
          ],
          [
            187837.59002654068,
            656454.3099939004
          ],
          [
            187972.8377457792,
            656367.6613010708
          ],
          [
            187973.4444047995,
            656367.2726349123
          ],
          [
            187980.41002654005,
            656362.8099939022
          ],
          [
            188089.00002654083,
            656297.619993899
          ],
          [
            188222.20002654102,
            656214.1899938993
          ],
          [
            188415.50002654083,
            656097.3799939007
          ],
          [
            188418.70002653915,
            656095.4999939017
          ],
          [
            188444.3000265397,
            656081.8799938988
          ],
          [
            188471.91002653912,
            656068.4999939017
          ],
          [
            188482.09002653975,
            656063.1899939012
          ],
          [
            188497.41002654098,
            656055.3799939025
          ],
          [
            188518.09035077132,
            656046.8035861216
          ],
          [
            188516.70315024722,
            656045.6448295433
          ],
          [
            188532.59002654068,
            656037.619993899
          ],
          [
            188540.2000265401,
            656033.8099939022
          ],
          [
            188573.59002653882,
            656017.3799938988
          ],
          [
            188610.3000265397,
            655999.6199939009
          ],
          [
            188619.70002653915,
            655994.6899938993
          ],
          [
            188622.50002654083,
            655993.1899938993
          ],
          [
            188638.80002654158,
            655985.619993899
          ],
          [
            188677.20002653915,
            655967.619993899
          ],
          [
            188766.5000265399,
            655924.119993899
          ],
          [
            188823.00002654083,
            655890.8799939025
          ],
          [
            188900.09002653975,
            655839.8799938988
          ],
          [
            188917.36640517414,
            655825.9404769521
          ]
        ]
      }
    },
    {
      "type": "Feature",
      "properties": {
        "Tochnit_Nu": "תמ\"א/ 23/ 16/ א/ 1",
        "Tochnit_Na": "מסילה לירושלים שער הגיא - נתבג- מערב",
        "Tochnit_Ty": "תכנית מתאר ארצית",
        "Tochnit__1": "משרד הפנים",
        "App_Date": 1074124800000,
        "YP_Resumot": 5272,
        "YP_Resum_1": 1076544000000,
        "Status": "תכנית מאושרת",
        "Type_Code": 551,
        "Data_Sourc": 1,
        "Related": "תמ\"א/ 23/ 6; תמ\"א/ 23/ 13; תמ\"א/ 23/ 8",
        "Notes": " ",
        "OBJECTID": 139,
        "Shape_Length": 13304.929081343029
      },
      "geometry": {
        "type": "LineString",
        "coordinates": [
          [
            188917.36640517414,
            655825.9404769521
          ],
          [
            188960.2000265401,
            655791.3799939007
          ],
          [
            189013.30002654158,
            655740.8099939022
          ],
          [
            189033.59002654068,
            655718.1899938993
          ],
          [
            189051.8000265397,
            655697.8799938988
          ],
          [
            189100.5900265416,
            655638.1199939009
          ],
          [
            189158.09002653882,
            655565.119993899
          ],
          [
            189216.91002653912,
            655489.119993899
          ],
          [
            189314.09002653975,
            655367.6199939009
          ],
          [
            189399.00002654176,
            655259.8799938988
          ],
          [
            189463.59002653975,
            655182.619993899
          ],
          [
            189509.70002653915,
            655131.619993899
          ],
          [
            189559.3000265397,
            655085.3799939007
          ],
          [
            189621.00002654176,
            655035.6199939009
          ],
          [
            189655.59002653975,
            655013.8099939041
          ],
          [
            189681.3000265397,
            654999.9999938998
          ],
          [
            189706.2000265401,
            654986.619993899
          ],
          [
            189718.59002653975,
            654979.4999938998
          ],
          [
            189747.09002653882,
            654961.1899939012
          ],
          [
            189947.20002653915,
            654851.9999938998
          ],
          [
            190000.00002654176,
            654819.3799939007
          ],
          [
            190041.0000265399,
            654796.3099939004
          ],
          [
            190077.09002654068,
            654776.1899938993
          ],
          [
            190083.00002654176,
            654772.8799939007
          ],
          [
            190100.20002653915,
            654763.1899938993
          ],
          [
            190122.91002653912,
            654750.3799939025
          ],
          [
            190125.20002654102,
            654749.119993899
          ],
          [
            190150.09002654068,
            654735.4999938998
          ],
          [
            190176.70002653915,
            654719.4999938998
          ],
          [
            190207.41002653912,
            654699.4999938998
          ],
          [
            190239.80002654158,
            654676.3799938988
          ],
          [
            190279.70002653915,
            654644.3799939007
          ],
          [
            190302.09002654068,
            654624.1199939009
          ],
          [
            190336.41002654005,
            654590.3799939025
          ],
          [
            190343.5000265399,
            654583.3799939007
          ],
          [
            190383.70002653915,
            654536.4999939017
          ],
          [
            190418.80002654064,
            654490.3099939004
          ],
          [
            190431.8000265397,
            654470.6899939012
          ],
          [
            190437.8000265397,
            654461.6199939009
          ],
          [
            190461.20002653915,
            654420.9999939017
          ],
          [
            190484.59002653975,
            654374.8799938988
          ],
          [
            190486.49865855463,
            654371.1574846543
          ],
          [
            190487.41002654005,
            654369.3799939007
          ],
          [
            190514.91002654005,
            654304.4999939017
          ],
          [
            190528.41002654005,
            654269.1899939012
          ],
          [
            190529.50002654083,
            654266.1899939012
          ],
          [
            190546.70002653915,
            654223.6199939009
          ],
          [
            190569.3000265397,
            654164.8799939007
          ],
          [
            190621.7000265401,
            654037.8099939022
          ],
          [
            190675.91002653912,
            653904.3799939007
          ],
          [
            190707.5900265416,
            653815.3799938988
          ],
          [
            190724.91002654005,
            653761.8799938988
          ],
          [
            190736.50002654083,
            653725.1899938993
          ],
          [
            190751.80002653878,
            653681.1199939009
          ],
          [
            190770.00002654083,
            653626.619993899
          ],
          [
            190773.80002654064,
            653614.619993899
          ],
          [
            190782.59002654068,
            653587.8099939022
          ],
          [
            190794.00002654083,
            653552.3099939022
          ],
          [
            190802.3000265397,
            653525.6199939009
          ],
          [
            190805.91002653912,
            653513.9999939017
          ],
          [
            190816.59002653975,
            653477.1899938993
          ],
          [
            190849.7000265401,
            653374.9999938998
          ],
          [
            190874.65698940307,
            653297.8526255954
          ],
          [
            190874.74507510941,
            653297.5803336315
          ],
          [
            190879.3000265397,
            653283.4999939017
          ],
          [
            190882.5000265399,
            653273.8799939007
          ],
          [
            190899.09002654068,
            653221.4999938998
          ],
          [
            190906.20002653915,
            653199.1899938993
          ],
          [
            190918.09002653975,
            653161.6899938993
          ],
          [
            190931.70002654102,
            653118.9999939017
          ],
          [
            190935.91002654005,
            653105.6899939012
          ],
          [
            190940.0000265399,
            653092.8099939041
          ],
          [
            190960.00002654083,
            653033.3099939022
          ],
          [
            190978.00002654083,
            652975.4999939017
          ],
          [
            190997.30002654064,
            652912.1199938972
          ],
          [
            191010.20002654102,
            652872.1899938993
          ],
          [
            191026.09002654068,
            652827.1199939027
          ],
          [
            191049.50002654083,
            652748.8799939007
          ],
          [
            191103.59002653975,
            652562.9999939017
          ],
          [
            191146.41002654098,
            652418.1899939012
          ],
          [
            191212.41002654005,
            652201.3799938969
          ],
          [
            191216.5900265416,
            652186.4999939017
          ],
          [
            191250.40184209403,
            652069.0289241876
          ],
          [
            191250.58337670285,
            652068.398225585
          ],
          [
            191304.2000265401,
            651882.119993899
          ],
          [
            191360.09002653882,
            651727.8099939004
          ],
          [
            191394.91002653912,
            651640.6899939012
          ],
          [
            191402.0000265399,
            651626.1899939012
          ],
          [
            191430.09002653975,
            651575.619993899
          ],
          [
            191457.20002654102,
            651526.6899938993
          ],
          [
            191486.20002653915,
            651478.8799938988
          ],
          [
            191535.2000265401,
            651402.3799939007
          ],
          [
            191590.20002654102,
            651321.119993899
          ],
          [
            191624.3039265396,
            651269.1711939014
          ],
          [
            191630.2000265401,
            651260.1899938993
          ],
          [
            191638.72032654006,
            651247.6632939018
          ],
          [
            191666.80002654064,
            651206.3799939007
          ],
          [
            191700.2000265401,
            651158.6199938972
          ],
          [
            191744.00002654083,
            651098.1899939012
          ],
          [
            191779.20002653915,
            651055.1899939012
          ],
          [
            191850.5000265399,
            650973.119993899
          ],
          [
            191900.41002653912,
            650917.999993898
          ],
          [
            191961.0000265399,
            650850.619993899
          ],
          [
            192019.91002653912,
            650783.8099939022
          ],
          [
            192087.91002653912,
            650706.3799938988
          ],
          [
            192130.0000265399,
            650659.119993899
          ],
          [
            192144.2000265401,
            650642.8799939007
          ],
          [
            192148.80002654158,
            650638.6199939009
          ],
          [
            192156.41002654005,
            650631.1199939027
          ],
          [
            192184.30002654064,
            650598.8099939004
          ],
          [
            192230.09002653975,
            650547.689993903
          ],
          [
            192231.97162218764,
            650545.5701911375
          ],
          [
            192234.20489438623,
            650543.054190103
          ],
          [
            192237.91002654005,
            650538.8799938988
          ],
          [
            192252.09002654068,
            650523.119993899
          ],
          [
            192262.00002654083,
            650511.8799938988
          ],
          [
            192378.30002654158,
            650380.8799939007
          ],
          [
            192412.5000265399,
            650339.6199939027
          ],
          [
            192453.41002653912,
            650289.619993899
          ],
          [
            192492.41002653912,
            650237.8799939007
          ],
          [
            192513.5000265399,
            650206.8799938988
          ],
          [
            192547.70002654102,
            650156.1899939012
          ],
          [
            192584.7000265401,
            650097.1899938993
          ],
          [
            192641.2000265401,
            649999.9999938998
          ],
          [
            192664.09002653975,
            649949.1899938993
          ],
          [
            192683.30002654158,
            649910.8799938988
          ],
          [
            192708.20002653915,
            649851.6899939012
          ],
          [
            192730.00002654083,
            649802.8799938988
          ],
          [
            192747.59002654068,
            649757.1199939009
          ],
          [
            192766.2000265401,
            649705.3799939007
          ],
          [
            192789.91002653912,
            649628.1899938993
          ],
          [
            192813.2000265401,
            649544.8799938988
          ],
          [
            192838.52112654038,
            649437.2460939009
          ],
          [
            192839.80002654064,
            649431.8099939041
          ],
          [
            192840.33362654038,
            649429.5613939036
          ],
          [
            192850.7000265401,
            649385.8799938988
          ],
          [
            192881.50002654083,
            649251.8799938988
          ],
          [
            192916.70002653915,
            649100.689993903
          ],
          [
            192930.51672653947,
            649031.3703939021
          ],
          [
            192931.91002653912,
            649024.3799938988
          ],
          [
            192932.75692653935,
            649020.1362938993
          ],
          [
            192949.41002654005,
            648936.6899939012
          ],
          [
            192978.41002654098,
            648774.1899938993
          ],
          [
            192999.09002653975,
            648668.689993903
          ],
          [
            193002.00002654083,
            648652.8099939004
          ],
          [
            193002.41002654005,
            648650.8099939004
          ],
          [
            193034.59002654068,
            648477.3799938988
          ],
          [
            193046.3000265397,
            648419.3099939004
          ],
          [
            193054.20002653915,
            648376.6199938972
          ],
          [
            193062.30002654064,
            648331.3799939007
          ],
          [
            193065.91002654005,
            648308.8099939004
          ],
          [
            193068.2000265401,
            648294.6199939009
          ],
          [
            193072.5900265416,
            648268.619993899
          ],
          [
            193078.09002654068,
            648236.8099939004
          ],
          [
            193084.5000265399,
            648201.3099939004
          ],
          [
            193085.2000265401,
            648197.119993899
          ],
          [
            193100.50002654083,
            648120.3799939025
          ],
          [
            193100.8000265397,
            648119.1899939012
          ],
          [
            193107.50002654083,
            648089.6199939027
          ],
          [
            193112.2000265401,
            648069.189993903
          ],
          [
            193116.5000265399,
            648051.1199939009
          ],
          [
            193119.41002653912,
            648040.119993899
          ],
          [
            193123.20002653822,
            648025.3799939007
          ],
          [
            193131.30002654064,
            647995.6199939009
          ],
          [
            193139.50002654083,
            647970.6899939012
          ],
          [
            193141.7968392726,
            647963.7041496448
          ],
          [
            193142.2613781849,
            647960.9147013146
          ],
          [
            193142.86248888914,
            647960.4629353508
          ],
          [
            193158.44735959359,
            647913.0609516818
          ],
          [
            193177.6536635859,
            647857.6601439007
          ],
          [
            193206.22725180257,
            647789.7978718895
          ],
          [
            193214.66944831982,
            647769.3417803235
          ],
          [
            193213.8140481459,
            647771.0699019544
          ],
          [
            193245.01992654055,
            647697.5659939013
          ],
          [
            193247.09002653975,
            647692.6899939012
          ],
          [
            193249.77282654028,
            647686.3101939019
          ],
          [
            193255.0000265399,
            647673.8799939007
          ],
          [
            193312.80002654064,
            647538.8799939025
          ],
          [
            193317.80002653878,
            647527.6199939027
          ],
          [
            193318.4100265382,
            647526.1899938993
          ],
          [
            193320.50002654083,
            647521.3799939007
          ],
          [
            193356.20002653915,
            647440.1199939009
          ],
          [
            193411.59002653975,
            647312.1899938993
          ],
          [
            193427.47052653972,
            647275.3700939007
          ],
          [
            193451.3000265397,
            647220.1199939009
          ],
          [
            193468.91002654005,
            647177.3799939007
          ],
          [
            193495.20002653915,
            647113.499993898
          ],
          [
            193517.50002654176,
            647059.6899938993
          ],
          [
            193530.50002654083,
            647029.1899939012
          ],
          [
            193540.09002653975,
            647006.3799938988
          ],
          [
            193556.64313207846,
            646967.7611245811
          ],
          [
            193556.9854044458,
            646966.9625933468
          ],
          [
            193572.91002654005,
            646929.8099939022
          ],
          [
            193617.3000265397,
            646831.8799939007
          ],
          [
            193650.3000265397,
            646767.8799939007
          ],
          [
            193692.44618189335,
            646694.7568803504
          ],
          [
            193709.09002653975,
            646665.8799939025
          ],
          [
            193799.50002654083,
            646514.8099939004
          ],
          [
            193844.59002653975,
            646435.6899939012
          ],
          [
            193868.30002654064,
            646394.6199939009
          ],
          [
            193912.09002654068,
            646318.8099939004
          ],
          [
            193970.09002653975,
            646220.6899939012
          ],
          [
            193971.30002654064,
            646218.6899939012
          ],
          [
            193972.3000265397,
            646217.1899939012
          ],
          [
            194054.20002653915,
            646076.6199939009
          ],
          [
            194060.50002654083,
            646065.6199939027
          ],
          [
            194081.80002654158,
            646023.8099939022
          ],
          [
            194125.59002653975,
            645948.3799939007
          ],
          [
            194153.3000265397,
            645906.8799939007
          ],
          [
            194170.7000265401,
            645881.6899938993
          ],
          [
            194176.3000265397,
            645873.6899939012
          ],
          [
            194181.50002654083,
            645864.9999938998
          ],
          [
            194272.50002654083,
            645714.8799938988
          ],
          [
            194377.09002654068,
            645535.8799939007
          ],
          [
            194435.09002653975,
            645435.8799939007
          ],
          [
            194445.5000265399,
            645416.119993899
          ],
          [
            194541.00002654083,
            645234.119993899
          ],
          [
            194553.00002654083,
            645209.1899938993
          ],
          [
            194564.59002654068,
            645187.3099939004
          ],
          [
            194591.00002654083,
            645135.8799938988
          ],
          [
            194610.6492861174,
            645088.8257768862
          ],
          [
            194686.36976129934,
            644998.5436718632
          ],
          [
            194805.77512601018,
            644919.9108707104
          ],
          [
            194864.02164537925,
            644887.8752850555
          ],
          [
            195035.84887752403,
            644803.4178319685
          ],
          [
            195198.9391317619,
            644736.4343346916
          ],
          [
            195341.10591058992,
            644700.4173440542
          ]
        ]
      }
    },
    {
      "type": "Feature",
      "properties": {
        "Tochnit_Nu": "תמ\"א/ 23/ 8",
        "Tochnit_Na": "מערכת מסילות במחוז המרכז",
        "Tochnit_Ty": "תכנית מתאר ארצית",
        "Tochnit__1": "משרד הפנים",
        "App_Date": 914457600000,
        "YP_Resumot": 4724,
        "YP_Resum_1": 917308800000,
        "Status": "תכנית מאושרת",
        "Type_Code": 551,
        "Data_Sourc": 1,
        "Related": "תמ\"א/ 23",
        "Notes": " ",
        "OBJECTID": 160,
        "Shape_Length": 26702.453119213966
      },
      "geometry": {
        "type": "MultiLineString",
        "coordinates": [
          [
            [
              194971.85122200102,
              643908.468321044
            ],
            [
              194985.62019895762,
              644103.1202468127
            ],
            [
              194981.23337185476,
              644109.9014046695
            ],
            [
              195005.21809500083,
              644353.9417950008
            ],
            [
              195147.50105299987,
              644548.4770000037
            ],
            [
              195306.5060270019,
              644690.3669850025
            ],
            [
              195309.77530766,
              644691.3166253213
            ],
            [
              195341.10591058992,
              644700.4173440542
            ],
            [
              195468.2211641604,
              644592.07122471
            ],
            [
              195476.56277337484,
              644595.5394122377
            ],
            [
              195966.12333037797,
              644314.4106980022
            ],
            [
              196463.38217537664,
              644148.4789900035
            ],
            [
              196968.756123377,
              644042.2453099992
            ],
            [
              197540.34803737793,
              643944.051868001
            ],
            [
              197921.23629237618,
              643941.1953389999
            ],
            [
              198293.7502633771,
              643972.5495360028
            ],
            [
              198297.0066344496,
              643973.6910637785
            ],
            [
              199104.40637537744,
              644256.7267530002
            ],
            [
              199666.91649637744,
              644448.8584860023
            ],
            [
              199972.76435037795,
              644634.3780360017
            ],
            [
              200204.1380183762,
              644803.3822089992
            ],
            [
              200311.30875137728,
              644973.3177550007
            ],
            [
              200393.403259377,
              645228.8112189993
            ],
            [
              200558.0638303766,
              645569.0550050009
            ],
            [
              200747.8477813769,
              645806.6668230016
            ],
            [
              200904.7467383761,
              645959.1556220017
            ],
            [
              201137.71108737774,
              646116.4551420007
            ],
            [
              201484.65352637786,
              646412.6471090019
            ],
            [
              201567.00721437763,
              646574.2318200041
            ],
            [
              201591.47059237864,
              646710.6399320029
            ],
            [
              201582.78962237667,
              646855.8334630001
            ],
            [
              201499.6105373772,
              646993.0487500019
            ],
            [
              201358.39950237703,
              647156.3102240022
            ],
            [
              201084.61124637537,
              647354.7137960047
            ],
            [
              200669.96544537786,
              647588.3216710016
            ],
            [
              200197.2171353763,
              647873.5870180018
            ],
            [
              199937.3427991839,
              648058.6804981995
            ]
          ],
          [
            [
              199937.3427991839,
              648058.6804981995
            ],
            [
              199936.22648209613,
              648076.2803762127
            ],
            [
              199961.98810800072,
              648221.069031002
            ],
            [
              200019.79619400017,
              648329.8865830004
            ],
            [
              200091.37434699945,
              648403.358624002
            ],
            [
              200183.8305070009,
              648483.5785719994
            ],
            [
              200353.5133198034,
              648591.4359196406
            ]
          ],
          [
            [
              199937.3427991839,
              648058.6804981995
            ],
            [
              199921.83050837647,
              648069.729007002
            ],
            [
              199822.4586273767,
              648158.5800720043
            ],
            [
              199715.83483437635,
              648286.9717420042
            ],
            [
              199615.8596753776,
              648509.6827440001
            ],
            [
              199557.26185737643,
              648740.6203840021
            ],
            [
              199488.9680933915,
              649158.3789102565
            ]
          ],
          [
            [
              200353.5133198034,
              648591.4359196406
            ],
            [
              200527.0264470009,
              648502.8111220021
            ],
            [
              201310.45267899986,
              648286.8480549995
            ],
            [
              202093.6460160017,
              648138.89487
            ],
            [
              202928.0576690007,
              647940.2647870015
            ]
          ],
          [
            [
              199488.9680933915,
              649158.3789102565
            ],
            [
              199521.0136160003,
              649125.400181001
            ],
            [
              200066.81852100044,
              648737.8701920025
            ],
            [
              200353.5133198034,
              648591.4359196406
            ]
          ],
          [
            [
              190907.5490693692,
              654410.2139517646
            ],
            [
              191952.38189985137,
              653897.4654183891
            ],
            [
              192720.6815274451,
              653303.152295528
            ],
            [
              193673.93859487586,
              652938.6716520991
            ],
            [
              194024.19288599957,
              652427.8415019996
            ],
            [
              194502.6381649999,
              651835.8415340036
            ],
            [
              194775.97712100018,
              651514.5581950024
            ],
            [
              195253.1997100003,
              651279.6093150005
            ],
            [
              196002.88790399954,
              650978.4137820024
            ],
            [
              196888.7509360006,
              650661.0972370021
            ],
            [
              197638.6138009997,
              650308.8943450041
            ],
            [
              198780.33551100083,
              649806.2038250044
            ],
            [
              198930.0027331449,
              649691.0227967296
            ],
            [
              199001.98340319842,
              649635.6278513726
            ],
            [
              199094.13616300095,
              649564.7088520024
            ],
            [
              199488.9680933915,
              649158.3789102565
            ]
          ]
        ]
      }
    },
    {
      "type": "Feature",
      "properties": {
        "Tochnit_Nu": "תת\"ל 22",
        "Tochnit_Na": "מסילה מזרחית קטע חדרה-לוד",
        "Tochnit_Ty": "תוכנית תשתית לאומית",
        "Tochnit__1": "משרד התחבורה ורכבת ישראל",
        "App_Date": 1353196800000,
        "YP_Resumot": 65,
        "YP_Resum_1": 1355184000000,
        "Status": "תכנית מאושרת",
        "Type_Code": 551,
        "Data_Sourc": 1,
        "Related": "תמ\"א/ 23/ 10; תמ\"א/ 23/ 2; תמ\"א/ 23/ 8, תמ\"א/ 23/ 16/ א/ 1",
        "Notes": " ",
        "OBJECTID": 188,
        "Shape_Length": 2865.2952729078593
      },
      "geometry": {
        "type": "LineString",
        "coordinates": [
          [
            188898.09069448244,
            650807.3851730395
          ],
          [
            189168.8030570997,
            651028.1108659953
          ],
          [
            189559.06184214354,
            651343.1782813556
          ],
          [
            189859.26090755966,
            651588.1520470008
          ],
          [
            190141.0515397219,
            651816.8414293826
          ],
          [
            190278.40677248593,
            651928.0000455864
          ],
          [
            190330.80000559893,
            651978.9772453737
          ],
          [
            190363.3687721314,
            652015.794111887
          ],
          [
            190397.3535719905,
            652065.3552783523
          ],
          [
            190438.41853848565,
            652137.5729780458
          ],
          [
            190475.235404999,
            652219.7029110417
          ],
          [
            190502.81066603772,
            652314.1756635774
          ],
          [
            190709.98995084316,
            652912.8519554604
          ]
        ]
      }
    },
    {
      "type": "Feature",
      "properties": {
        "Tochnit_Nu": "תמ\"א/ 23/ 16/ א/ 1",
        "Tochnit_Na": "מסילה לירושלים שער הגיא - נתבג- מערב",
        "Tochnit_Ty": "תכנית מתאר ארצית",
        "Tochnit__1": "משרד הפנים",
        "App_Date": 1074124800000,
        "YP_Resumot": 5272,
        "YP_Resum_1": 1076544000000,
        "Status": "תכנית מאושרת",
        "Type_Code": 551,
        "Data_Sourc": 1,
        "Related": "תמ\"א/ 23/ 10; תמ\"א/ 23/ 2; תמ\"א/ 23/ 8",
        "Notes": " ",
        "OBJECTID": 189,
        "Shape_Length": 864.7069945507446
      },
      "geometry": {
        "type": "LineString",
        "coordinates": [
          [
            188227.3493244648,
            650261.652453687
          ],
          [
            188898.09069448244,
            650807.3851730395
          ]
        ]
      }
    },
    {
      "type": "Feature",
      "properties": {
        "Tochnit_Nu": "תמ\"א/ 23/ 16/ א/ 1",
        "Tochnit_Na": "מסילה לירושלים שער הגיא - נתבג- מערב",
        "Tochnit_Ty": "תכנית מתאר ארצית",
        "Tochnit__1": "משרד הפנים",
        "App_Date": 1074124800000,
        "YP_Resumot": 5272,
        "YP_Resum_1": 1076544000000,
        "Status": "תכנית מאושרת",
        "Type_Code": 551,
        "Data_Sourc": 1,
        "Related": "תמ\"א/ 23/ 10; תמ\"א/ 23/ 2; תמ\"א/ 23/ 8",
        "Notes": " ",
        "OBJECTID": 190,
        "Shape_Length": 1230.7434737337855
      },
      "geometry": {
        "type": "LineString",
        "coordinates": [
          [
            189304.69244051445,
            652026.9432135131
          ],
          [
            189438.43538096081,
            651909.8578484803
          ],
          [
            189470.18544446025,
            651872.2869400047
          ],
          [
            189480.02796414495,
            651858.4756623823
          ],
          [
            189487.96548002027,
            651845.7756369803
          ],
          [
            189496.6967474837,
            651831.1706077717
          ],
          [
            189505.11051431112,
            651814.6605747491
          ],
          [
            189510.66677542217,
            651803.071801573
          ],
          [
            189517.49303907622,
            651784.0217634719
          ],
          [
            189524.3193027284,
            651766.4004782308
          ],
          [
            189530.15187224653,
            651749.4204771072
          ],
          [
            189534.32057273109,
            651727.8241510782
          ],
          [
            189540.19433447812,
            651697.185339801
          ],
          [
            189542.4168389244,
            651673.6902928092
          ],
          [
            189543.05184019264,
            651644.63898471
          ],
          [
            189541.62308733538,
            651621.1439377163
          ],
          [
            189539.40058289096,
            651600.3476461247
          ],
          [
            189536.38432685845,
            651578.757602945
          ],
          [
            189530.48410672508,
            651556.3208914064
          ],
          [
            189527.30910037458,
            651541.5041951034
          ],
          [
            189522.54659084976,
            651525.3645794932
          ],
          [
            189481.66838409286,
            651429.5852212664
          ],
          [
            189430.5151952291,
            651329.491052065
          ],
          [
            189393.29737401847,
            651273.8776181843
          ],
          [
            189369.74941025488,
            651243.3181820642
          ],
          [
            189341.96810469218,
            651211.1712427698
          ],
          [
            189293.70700081997,
            651160.6184370928
          ],
          [
            189151.17081823573,
            651013.7343960628
          ]
        ]
      }
    },
    {
      "type": "Feature",
      "properties": {
        "Tochnit_Nu": "תת\"ל 22",
        "Tochnit_Na": "מסילה מזרחית קטע חדרה-לוד",
        "Tochnit_Ty": "תוכנית תשתית לאומית",
        "Tochnit__1": "משרד התחבורה ורכבת ישראל",
        "App_Date": 1353196800000,
        "YP_Resumot": 65,
        "YP_Resum_1": 1355184000000,
        "Status": "תכנית מאושרת",
        "Type_Code": 551,
        "Data_Sourc": 1,
        "Related": "תמ\"א/ 23/ 12; תמ\"א/ 23/ 2; תמ\"א/ 23/ 8; תמ\"א/ 23/ 16/ א/ 1, תמ\"א/ 23",
        "Notes": " ",
        "OBJECTID": 195,
        "Shape_Length": 7466.124266699976
      },
      "geometry": {
        "type": "LineString",
        "coordinates": [
          [
            190709.98995084316,
            652912.8519554604
          ],
          [
            190774.15608570352,
            653130.8661052007
          ],
          [
            190790.87503932696,
            653235.9566708412
          ],
          [
            190798.0709251985,
            653616.3033868261
          ],
          [
            190808.95019585826,
            653986.7425528709
          ],
          [
            190812.21397705842,
            654051.4742133077
          ],
          [
            190817.35021888092,
            654116.8615308274
          ],
          [
            190826.35702891927,
            654183.1133883186
          ],
          [
            190839.73169753887,
            654234.9007285982
          ],
          [
            190867.69825743418,
            654316.38445393
          ],
          [
            190907.5490693692,
            654410.2139517646
          ],
          [
            191030.88731736597,
            654691.1753282379
          ],
          [
            191206.04357502516,
            655090.9885250665
          ],
          [
            191330.0672605727,
            655374.9374893494
          ],
          [
            191361.61714549176,
            655454.35616518
          ],
          [
            191404.0463010734,
            655583.8194860574
          ],
          [
            191492.16839343682,
            655866.1365597378
          ],
          [
            191583.68054847326,
            656162.7773908433
          ],
          [
            191657.53330750018,
            656357.33563013
          ],
          [
            191874.03079367615,
            656849.6226275899
          ],
          [
            192100.3196234461,
            657369.6517652348
          ],
          [
            192223.51866103988,
            657639.2201060541
          ],
          [
            192304.8499118928,
            657775.4485609308
          ],
          [
            192362.51004640106,
            657863.5706532914
          ],
          [
            192411.4667643793,
            657932.1100584622
          ],
          [
            192498.500929676,
            658038.1829474214
          ],
          [
            192606.20570923015,
            658153.5032164343
          ],
          [
            192892.3305276418,
            658436.9082171824
          ],
          [
            192984.80432827026,
            658538.0854343381
          ],
          [
            193085.98154542875,
            658673.5323540829
          ],
          [
            193146.90546113532,
            658764.9182276428
          ],
          [
            193189.33461671695,
            658835.6334869489
          ],
          [
            193246.99475122616,
            658947.1460112315
          ],
          [
            193309.00659399852,
            659086.4006757047
          ],
          [
            193359.0512390444,
            659245.7819909044
          ],
          [
            193488.4643046325,
            659690.041328622
          ]
        ]
      }
    }
  ]
}