{"type": "FeatureCollection", "features": [{"type": "Feature", "properties": {"OBJECTID": 28494629, "LAYER_ID": 7496448, "GROUP_ID": 447382, "SCENARIO": "", "DEFQ": 0, "PLAN_NAME": "", "DATA_DATE": null, "MAVAT_CODE": 30001, "MAVAT_NAME": "׳¢׳‘׳¨׳™׳× ENTITY", "BLOCKNAME": "DIM", "ROTATION": 290.41467896, "TYPE_CODE": 0, "TYPE_NAME": "DIM", "SOURCE_COD": 0, "STATUS": "", "PL_CHANGE": "", "PLACE_NO": 0, "REMARKS": "", "VALUE1": "", "TAGNAME1": "205073.844035507", "TAGNAME2": "627918.87000757", "VALUE2": "", "TAGNAME3": "", "VALUE3": "1", "DATE_DEC": "", "STAGE": "", "NAME": "DIM", "LABEL": "3", "FONT_SIZE": 1.0, "AGAM_ID": 4005388384.0}, "geometry": {"type": "Point", "coordinates": [34.85160539092869, 31.993524633895845]}}, {"type": "Feature", "properties": {"OBJECTID": 28494630, "LAYER_ID": 7496448, "GROUP_ID": 447382, "SCENARIO": "", "DEFQ": 0, "PLAN_NAME": "", "DATA_DATE": null, "MAVAT_CODE": 30001, "MAVAT_NAME": "׳¢׳‘׳¨׳™׳× ENTITY", "BLOCKNAME": "DIM", "ROTATION": 32.69125363, "TYPE_CODE": 0, "TYPE_NAME": "DIM", "SOURCE_COD": 0, "STATUS": "", "PL_CHANGE": "", "PLACE_NO": 0, "REMARKS": "", "VALUE1": "", "TAGNAME1": "205073.844035507", "TAGNAME2": "627918.87000757", "VALUE2": "", "TAGNAME3": "", "VALUE3": "1", "DATE_DEC": "", "STAGE": "", "NAME": "DIM", "LABEL": "3", "FONT_SIZE": 1.0, "AGAM_ID": 4005388384.0}, "geometry": {"type": "Point", "coordinates": [34.851483258535886, 31.993552051775072]}}, {"type": "Feature", "properties": {"OBJECTID": 28494631, "LAYER_ID": 7496448, "GROUP_ID": 447382, "SCENARIO": "", "DEFQ": 0, "PLAN_NAME": "", "DATA_DATE": null, "MAVAT_CODE": 30001, "MAVAT_NAME": "׳¢׳‘׳¨׳™׳× ENTITY", "BLOCKNAME": "DIM", "ROTATION": 31.98360949, "TYPE_CODE": 0, "TYPE_NAME": "DIM", "SOURCE_COD": 0, "STATUS": "", "PL_CHANGE": "", "PLACE_NO": 0, "REMARKS": "", "VALUE1": "", "TAGNAME1": "205073.844035507", "TAGNAME2": "627918.87000757", "VALUE2": "", "TAGNAME3": "", "VALUE3": "1", "DATE_DEC": "", "STAGE": "", "NAME": "DIM", "LABEL": "3", "FONT_SIZE": 1.0, "AGAM_ID": 4005388384.0}, "geometry": {"type": "Point", "coordinates": [34.85142087944143, 31.99363032430009]}}, {"type": "Feature", "properties": {"OBJECTID": 28494632, "LAYER_ID": 7496448, "GROUP_ID": 447382, "SCENARIO": "", "DEFQ": 0, "PLAN_NAME": "", "DATA_DATE": null, "MAVAT_CODE": 30001, "MAVAT_NAME": "׳¢׳‘׳¨׳™׳× ENTITY", "BLOCKNAME": "DIM", "ROTATION": 32.57876037, "TYPE_CODE": 0, "TYPE_NAME": "DIM", "SOURCE_COD": 0, "STATUS": "", "PL_CHANGE": "", "PLACE_NO": 0, "REMARKS": "", "VALUE1": "", "TAGNAME1": "205073.844035507", "TAGNAME2": "627918.87000757", "VALUE2": "", "TAGNAME3": "", "VALUE3": "1", "DATE_DEC": "", "STAGE": "", "NAME": "DIM", "LABEL": "3", "FONT_SIZE": 1.0, "AGAM_ID": 4005388384.0}, "geometry": {"type": "Point", "coordinates": [34.85135846968085, 31.99371104961144]}}, {"type": "Feature", "properties": {"OBJECTID": 28494633, "LAYER_ID": 7496448, "GROUP_ID": 447382, "SCENARIO": "", "DEFQ": 0, "PLAN_NAME": "", "DATA_DATE": null, "MAVAT_CODE": 30001, "MAVAT_NAME": "׳¢׳‘׳¨׳™׳× ENTITY", "BLOCKNAME": "DIM", "ROTATION": 326.46092702, "TYPE_CODE": 0, "TYPE_NAME": "DIM", "SOURCE_COD": 0, "STATUS": "", "PL_CHANGE": "", "PLACE_NO": 0, "REMARKS": "", "VALUE1": "", "TAGNAME1": "205073.844035507", "TAGNAME2": "627918.87000757", "VALUE2": "", "TAGNAME3": "", "VALUE3": "1", "DATE_DEC": "", "STAGE": "", "NAME": "DIM", "LABEL": "3", "FONT_SIZE": 1.0, "AGAM_ID": 4005388384.0}, "geometry": {"type": "Point", "coordinates": [34.85136080104006, 31.993798016945743]}}, {"type": "Feature", "properties": {"OBJECTID": 28494634, "LAYER_ID": 7496448, "GROUP_ID": 447382, "SCENARIO": "", "DEFQ": 0, "PLAN_NAME": "", "DATA_DATE": null, "MAVAT_CODE": 30001, "MAVAT_NAME": "׳¢׳‘׳¨׳™׳× ENTITY", "BLOCKNAME": "DIM", "ROTATION": 25.59747544, "TYPE_CODE": 0, "TYPE_NAME": "DIM", "SOURCE_COD": 0, "STATUS": "", "PL_CHANGE": "", "PLACE_NO": 0, "REMARKS": "", "VALUE1": "", "TAGNAME1": "2.7", "TAGNAME2": "627918.87000757", "VALUE2": "", "TAGNAME3": "", "VALUE3": "1", "DATE_DEC": "", "STAGE": "", "NAME": "DIM", "LABEL": "2.7", "FONT_SIZE": 1.0, "AGAM_ID": 4005388384.0}, "geometry": {"type": "Point", "coordinates": [34.85158535473359, 31.993705007300658]}}, {"type": "Feature", "properties": {"OBJECTID": 28494635, "LAYER_ID": 7496448, "GROUP_ID": 447382, "SCENARIO": "", "DEFQ": 0, "PLAN_NAME": "", "DATA_DATE": null, "MAVAT_CODE": 30001, "MAVAT_NAME": "׳¢׳‘׳¨׳™׳× ENTITY", "BLOCKNAME": "DIM", "ROTATION": 301.29759465, "TYPE_CODE": 0, "TYPE_NAME": "DIM", "SOURCE_COD": 0, "STATUS": "", "PL_CHANGE": "", "PLACE_NO": 0, "REMARKS": "", "VALUE1": "", "TAGNAME1": "205073.844035507", "TAGNAME2": "627918.87000757", "VALUE2": "", "TAGNAME3": "", "VALUE3": "1", "DATE_DEC": "", "STAGE": "", "NAME": "DIM", "LABEL": "2.7", "FONT_SIZE": 1.0, "AGAM_ID": 4005388384.0}, "geometry": {"type": "Point", "coordinates": [34.851516618934475, 31.993718932992067]}}, {"type": "Feature", "properties": {"OBJECTID": 28494636, "LAYER_ID": 7496448, "GROUP_ID": 447382, "SCENARIO": "", "DEFQ": 0, "PLAN_NAME": "", "DATA_DATE": null, "MAVAT_CODE": 30001, "MAVAT_NAME": "׳¢׳‘׳¨׳™׳× ENTITY", "BLOCKNAME": "DIM", "ROTATION": 301.29759465, "TYPE_CODE": 0, "TYPE_NAME": "DIM", "SOURCE_COD": 0, "STATUS": "", "PL_CHANGE": "", "PLACE_NO": 0, "REMARKS": "", "VALUE1": "", "TAGNAME1": "205073.844035507", "TAGNAME2": "627918.87000757", "VALUE2": "", "TAGNAME3": "", "VALUE3": "1", "DATE_DEC": "", "STAGE": "", "NAME": "DIM", "LABEL": "2.7", "FONT_SIZE": 1.0, "AGAM_ID": 4005388384.0}, "geometry": {"type": "Point", "coordinates": [34.8514700586329, 31.993715118736297]}}, {"type": "Feature", "properties": {"OBJECTID": 28494637, "LAYER_ID": 7496448, "GROUP_ID": 447382, "SCENARIO": "", "DEFQ": 0, "PLAN_NAME": "", "DATA_DATE": null, "MAVAT_CODE": 30001, "MAVAT_NAME": "׳¢׳‘׳¨׳™׳× ENTITY", "BLOCKNAME": "DIM", "ROTATION": 301.29759465, "TYPE_CODE": 0, "TYPE_NAME": "DIM", "SOURCE_COD": 0, "STATUS": "", "PL_CHANGE": "", "PLACE_NO": 0, "REMARKS": "", "VALUE1": "", "TAGNAME1": "205073.844035507", "TAGNAME2": "627918.87000757", "VALUE2": "", "TAGNAME3": "", "VALUE3": "1", "DATE_DEC": "", "STAGE": "", "NAME": "DIM", "LABEL": "2.7", "FONT_SIZE": 1.0, "AGAM_ID": 4005388384.0}, "geometry": {"type": "Point", "coordinates": [34.8515636649899, 31.993631801762774]}}, {"type": "Feature", "properties": {"OBJECTID": 28494638, "LAYER_ID": 7496448, "GROUP_ID": 447382, "SCENARIO": "", "DEFQ": 0, "PLAN_NAME": "", "DATA_DATE": null, "MAVAT_CODE": 30001, "MAVAT_NAME": "׳¢׳‘׳¨׳™׳× ENTITY", "BLOCKNAME": "DIM", "ROTATION": 301.29759465, "TYPE_CODE": 0, "TYPE_NAME": "DIM", "SOURCE_COD": 0, "STATUS": "", "PL_CHANGE": "", "PLACE_NO": 0, "REMARKS": "", "VALUE1": "", "TAGNAME1": "205073.844035507", "TAGNAME2": "627918.87000757", "VALUE2": "", "TAGNAME3": "", "VALUE3": "1", "DATE_DEC": "", "STAGE": "", "NAME": "DIM", "LABEL": "2.7", "FONT_SIZE": 1.0, "AGAM_ID": 4005388384.0}, "geometry": {"type": "Point", "coordinates": [34.851545599127576, 31.993604863374077]}}, {"type": "Feature", "properties": {"OBJECTID": 28494639, "LAYER_ID": 7496448, "GROUP_ID": 447382, "SCENARIO": "", "DEFQ": 0, "PLAN_NAME": "", "DATA_DATE": null, "MAVAT_CODE": 30001, "MAVAT_NAME": "׳¢׳‘׳¨׳™׳× ENTITY", "BLOCKNAME": "DIM", "ROTATION": 25.59747544, "TYPE_CODE": 0, "TYPE_NAME": "DIM", "SOURCE_COD": 0, "STATUS": "", "PL_CHANGE": "", "PLACE_NO": 0, "REMARKS": "", "VALUE1": "", "TAGNAME1": "2.7", "TAGNAME2": "627918.87000757", "VALUE2": "", "TAGNAME3": "", "VALUE3": "1", "DATE_DEC": "", "STAGE": "", "NAME": "DIM", "LABEL": "2.7", "FONT_SIZE": 1.0, "AGAM_ID": 4005388384.0}, "geometry": {"type": "Point", "coordinates": [34.851640283058515, 31.993598263905735]}}, {"type": "Feature", "properties": {"OBJECTID": 28494640, "LAYER_ID": 7496448, "GROUP_ID": 447382, "SCENARIO": "", "DEFQ": 0, "PLAN_NAME": "", "DATA_DATE": null, "MAVAT_CODE": 30001, "MAVAT_NAME": "׳¢׳‘׳¨׳™׳× ENTITY", "BLOCKNAME": "DIM", "ROTATION": 63.89135939, "TYPE_CODE": 0, "TYPE_NAME": "DIM", "SOURCE_COD": 0, "STATUS": "", "PL_CHANGE": "", "PLACE_NO": 0, "REMARKS": "", "VALUE1": "", "TAGNAME1": "2.7", "TAGNAME2": "627918.87000757", "VALUE2": "", "TAGNAME3": "", "VALUE3": "1", "DATE_DEC": "", "STAGE": "", "NAME": "DIM", "LABEL": "2.7", "FONT_SIZE": 1.0, "AGAM_ID": 4005388384.0}, "geometry": {"type": "Point", "coordinates": [34.85145328161494, 31.99379705497014]}}]}