{"type": "FeatureCollection", "features": [{"type": "Feature", "properties": {"OBJECTID": 20945826, "LAYER_ID": 6263479, "GROUP_ID": 398083, "SCENARIO": "", "DEFQ": 0, "PLAN_NAME": "", "DATA_DATE": null, "MAVAT_CODE": 30001, "MAVAT_NAME": "׳¢׳‘׳¨׳™׳× ENTITY", "BLOCKNAME": "dim", "ROTATION": 327.96516996, "TYPE_CODE": 0, "TYPE_NAME": "0", "SOURCE_COD": 0, "STATUS": "", "PL_CHANGE": "", "PLACE_NO": 0, "REMARKS": "", "VALUE1": "", "TAGNAME1": "0", "TAGNAME2": "0", "VALUE2": "", "TAGNAME3": "0", "VALUE3": "0.7", "DATE_DEC": "", "STAGE": "", "NAME": "NUMBER", "LABEL": "3", "FONT_SIZE": 2.0, "AGAM_ID": 4000979965.0}, "geometry": {"type": "Point", "coordinates": [34.85333356002126, 31.988477502987788]}}, {"type": "Feature", "properties": {"OBJECTID": 20945827, "LAYER_ID": 6263479, "GROUP_ID": 398083, "SCENARIO": "", "DEFQ": 0, "PLAN_NAME": "", "DATA_DATE": null, "MAVAT_CODE": 30001, "MAVAT_NAME": "׳¢׳‘׳¨׳™׳× ENTITY", "BLOCKNAME": "dim", "ROTATION": 327.54427923, "TYPE_CODE": 0, "TYPE_NAME": "0", "SOURCE_COD": 0, "STATUS": "", "PL_CHANGE": "", "PLACE_NO": 0, "REMARKS": "", "VALUE1": "", "TAGNAME1": "0", "TAGNAME2": "0", "VALUE2": "", "TAGNAME3": "0", "VALUE3": "0.7", "DATE_DEC": "", "STAGE": "", "NAME": "NUMBER", "LABEL": "3", "FONT_SIZE": 2.0, "AGAM_ID": 4000979965.0}, "geometry": {"type": "Point", "coordinates": [34.85359935485544, 31.988307775451393]}}, {"type": "Feature", "properties": {"OBJECTID": 20945828, "LAYER_ID": 6263479, "GROUP_ID": 398083, "SCENARIO": "", "DEFQ": 0, "PLAN_NAME": "", "DATA_DATE": null, "MAVAT_CODE": 30001, "MAVAT_NAME": "׳¢׳‘׳¨׳™׳× ENTITY", "BLOCKNAME": "dim", "ROTATION": 36.42578926, "TYPE_CODE": 0, "TYPE_NAME": "0", "SOURCE_COD": 0, "STATUS": "", "PL_CHANGE": "", "PLACE_NO": 0, "REMARKS": "", "VALUE1": "", "TAGNAME1": "0", "TAGNAME2": "0", "VALUE2": "", "TAGNAME3": "0", "VALUE3": "0.7", "DATE_DEC": "", "STAGE": "", "NAME": "NUMBER", "LABEL": "65", "FONT_SIZE": 2.0, "AGAM_ID": 4000979965.0}, "geometry": {"type": "Point", "coordinates": [34.853267642808866, 31.98828258873914]}}, {"type": "Feature", "properties": {"OBJECTID": 20945825, "LAYER_ID": 6263479, "GROUP_ID": 398083, "SCENARIO": "", "DEFQ": 0, "PLAN_NAME": "", "DATA_DATE": null, "MAVAT_CODE": 30001, "MAVAT_NAME": "׳¢׳‘׳¨׳™׳× ENTITY", "BLOCKNAME": "dim", "ROTATION": 36.42578926, "TYPE_CODE": 0, "TYPE_NAME": "0", "SOURCE_COD": 0, "STATUS": "", "PL_CHANGE": "", "PLACE_NO": 0, "REMARKS": "", "VALUE1": "", "TAGNAME1": "0", "TAGNAME2": "0", "VALUE2": "", "TAGNAME3": "0", "VALUE3": "0.7", "DATE_DEC": "", "STAGE": "", "NAME": "NUMBER", "LABEL": "5", "FONT_SIZE": 2.0, "AGAM_ID": 4000979965.0}, "geometry": {"type": "Point", "coordinates": [34.853267642808866, 31.98828258873914]}}]}