{"type": "FeatureCollection", "features": [{"type": "Feature", "properties": {"OBJECTID": 17148529, "LAYER_ID": 6263475, "GROUP_ID": 398083, "SCENARIO": "", "DEFQ": 0, "PLAN_NAME": "", "DATA_DATE": null, "MAVAT_CODE": 660, "MAVAT_NAME": "", "NAME": "", "LABEL": "", "NUM": "601", "LEGAL_AREA": 0.0, "TYPE_CODE": 0, "TYPE_NAME": "", "SOURCE_COD": 0, "HASAVA": 0, "STATUS": "", "PL_CHANGE": "", "ADDRESS": "", "PLACE_NO": 0, "CALC_AREA": 0.0, "OLD_MIG": "", "AGAM_ID": 4000979965.0, "FONT_SIZE": 3.0, "ROTATION": 0.0}, "geometry": {"type": "Point", "coordinates": [34.853993472056715, 31.9890496923925]}}, {"type": "Feature", "properties": {"OBJECTID": 17148530, "LAYER_ID": 6263475, "GROUP_ID": 398083, "SCENARIO": "", "DEFQ": 0, "PLAN_NAME": "", "DATA_DATE": null, "MAVAT_CODE": 160, "MAVAT_NAME": "", "NAME": "", "LABEL": "", "NUM": "101", "LEGAL_AREA": 0.0, "TYPE_CODE": 0, "TYPE_NAME": "", "SOURCE_COD": 0, "HASAVA": 0, "STATUS": "", "PL_CHANGE": "", "ADDRESS": "", "PLACE_NO": 0, "CALC_AREA": 0.0, "OLD_MIG": "", "AGAM_ID": 4000979965.0, "FONT_SIZE": 4.5, "ROTATION": 0.0}, "geometry": {"type": "Point", "coordinates": [34.85352098370681, 31.988500212915795]}}]}