{"type": "FeatureCollection", "features": [{"type": "Feature", "properties": {"OBJECTID": 11586113, "GROUP_ID": 421487, "LAYER_ID": 6851200, "DEFQ": "", "MAVAT_CODE": 0, "MAVAT_NAME": "", "LABEL": "", "ROZETA_NUM": 1, "TAGNAME": "KBR", "ROTATION": 27.68587372, "STAGE": "", "AGAM_ID": 4005042224.0, "SHAPE_AREA": 122.595247785, "SHAPE_LEN": 44.6304160797}, "geometry": {"type": "Polygon", "coordinates": [[[34.83161565637849, 31.992007146693737], [34.8314892430583, 31.992040322762055], [34.83152817248006, 31.992148055977154], [34.831549532398576, 31.992140658268408], [34.83156906047412, 31.9921302119209], [34.831586163355134, 31.992117034342435], [34.83160032137913, 31.992101525927968], [34.83161110436248, 31.992084157893725], [34.83161818467121, 31.99206545795928], [34.83162134717585, 31.99204599431315], [34.831620495787774, 31.992026358348436], [34.83161565637849, 31.992007146693737]]]}}, {"type": "Feature", "properties": {"OBJECTID": 11586114, "GROUP_ID": 421487, "LAYER_ID": 6851200, "DEFQ": "", "MAVAT_CODE": 0, "MAVAT_NAME": "", "LABEL": "17.5", "ROZETA_NUM": 1, "TAGNAME": "WIDTH", "ROTATION": 27.68587372, "STAGE": "", "AGAM_ID": 4005042224.0, "SHAPE_AREA": 122.594670436, "SHAPE_LEN": 44.6303237047}, "geometry": {"type": "Polygon", "coordinates": [[[34.83161565637849, 31.992007146693737], [34.83160801023911, 31.991990702002088], [34.83159743968177, 31.99197547914455], [34.83158420498953, 31.99196185295769], [34.831568632044835, 31.991950158962727], [34.83155110430504, 31.991940685103838], [34.83153205336048, 31.99193366465815], [34.83151194830741, 31.991929270491763], [34.8314912841973, 31.991927610803256], [34.83147056984734, 31.991928726459506], [34.83145031531173, 31.991932589989435], [34.8314892430583, 31.992040322762055], [34.83161565637849, 31.992007146693737]]]}}, {"type": "Feature", "properties": {"OBJECTID": 11586115, "GROUP_ID": 421487, "LAYER_ID": 6851200, "DEFQ": "", "MAVAT_CODE": 0, "MAVAT_NAME": "", "LABEL": "3", "ROZETA_NUM": 1, "TAGNAME": "ROADNO", "ROTATION": 27.68587372, "STAGE": "", "AGAM_ID": 4005042224.0, "SHAPE_AREA": 122.59331141, "SHAPE_LEN": 44.6300830151}, "geometry": {"type": "Polygon", "coordinates": [[[34.83152817248006, 31.992148055977154], [34.8314892430583, 31.992040322762055], [34.83136283229, 31.992073499613138], [34.83137056557278, 31.99209009562894], [34.83138127694535, 31.99210544268672], [34.83139469762069, 31.992119155671432], [34.8314104908249, 31.992130890472847], [34.83142826024788, 31.992140352620677], [34.83144755998842, 31.99214730467395], [34.83146790574339, 31.992151572179417], [34.831488786960996, 31.992153048049214], [34.83150870140637, 31.992151822321294], [34.83152817248006, 31.992148055977154]]]}}, {"type": "Feature", "properties": {"OBJECTID": 11586116, "GROUP_ID": 421487, "LAYER_ID": 6851200, "DEFQ": "", "MAVAT_CODE": 0, "MAVAT_NAME": "", "LABEL": "", "ROZETA_NUM": 1, "TAGNAME": "KBL", "ROTATION": 27.68587372, "STAGE": "", "AGAM_ID": 4005042224.0, "SHAPE_AREA": 122.593287556, "SHAPE_LEN": 44.6301070702}, "geometry": {"type": "Polygon", "coordinates": [[[34.8314892430583, 31.992040322762055], [34.83145031531173, 31.991932589989435], [34.831431019371635, 31.99193910636171], [34.83141315712629, 31.99194811501604], [34.831397168402745, 31.991959394130028], [34.831383446896204, 31.991972665975155], [34.831372330476036, 31.99198760375513], [34.831364092866266, 31.992003839652856], [34.831358936905566, 31.992020973887083], [34.83135698955239, 31.992038584556315], [34.831358298758936, 31.99205623802742], [34.83136283229, 31.992073499613138], [34.8314892430583, 31.992040322762055]]]}}, {"type": "Feature", "properties": {"OBJECTID": 11586117, "GROUP_ID": 421487, "LAYER_ID": 6851200, "DEFQ": "", "MAVAT_CODE": 0, "MAVAT_NAME": "", "LABEL": "4", "ROZETA_NUM": 2, "TAGNAME": "ROADNO", "ROTATION": 296.70549502, "STAGE": "", "AGAM_ID": 4005042224.0, "SHAPE_AREA": 122.590755848, "SHAPE_LEN": 44.6296062676}, "geometry": {"type": "Polygon", "coordinates": [[[34.832818350224095, 31.99406578737841], [34.83269262177915, 31.99410080269812], [34.83273371028914, 31.994207950261575], [34.832754918520685, 31.994200242031567], [34.83277423390722, 31.99418951239946], [34.83279106955966, 31.99417608738054], [34.83280491393524, 31.994160374888125], [34.83281534638044, 31.994142852339216], [34.83282204991229, 31.994124052148226], [34.83282482084954, 31.994104545549877], [34.832823575001136, 31.99408492524235], [34.832818350224095, 31.99406578737841]]]}}, {"type": "Feature", "properties": {"OBJECTID": 11586118, "GROUP_ID": 421487, "LAYER_ID": 6851200, "DEFQ": "", "MAVAT_CODE": 0, "MAVAT_NAME": "", "LABEL": "", "ROZETA_NUM": 2, "TAGNAME": "KBR", "ROTATION": 296.70549502, "STAGE": "", "AGAM_ID": 4005042224.0, "SHAPE_AREA": 122.589966257, "SHAPE_LEN": 44.6294799321}, "geometry": {"type": "Polygon", "coordinates": [[[34.832818350224095, 31.99406578737841], [34.832810374717006, 31.994049456985188], [34.83279949975953, 31.994034390905615], [34.8327859931301, 31.994020960115847], [34.83277018740703, 31.994009495325752], [34.83275247177941, 31.99400027883576], [34.83273328246394, 31.99399353758569], [34.83271309196399, 31.993989437566995], [34.83269239743496, 31.99398807973535], [34.83267170844306, 31.993989497524936], [34.83265153441809, 31.99399365602521], [34.83269262177915, 31.99410080269812], [34.832818350224095, 31.99406578737841]]]}}, {"type": "Feature", "properties": {"OBJECTID": 11586119, "GROUP_ID": 421487, "LAYER_ID": 6851200, "DEFQ": "", "MAVAT_CODE": 0, "MAVAT_NAME": "", "LABEL": "", "ROZETA_NUM": 2, "TAGNAME": "KBL", "ROTATION": 296.70549502, "STAGE": "", "AGAM_ID": 4005042224.0, "SHAPE_AREA": 122.590901624, "SHAPE_LEN": 44.6295872042}, "geometry": {"type": "Polygon", "coordinates": [[[34.83273371028914, 31.994207950261575], [34.83269262177915, 31.99410080269812], [34.83256689429438, 31.994135818797247], [34.832574831014355, 31.994152084771407], [34.83258564452992, 31.99416709831945], [34.83259907074662, 31.994180492769257], [34.83261478176022, 31.994191940991364], [34.832632393865, 31.994201163388468], [34.83265147692492, 31.99420793472398], [34.832671564878765, 31.99421208962306], [34.83269216712275, 31.994213526611418], [34.83271320042374, 31.994212154486195], [34.83273371028914, 31.994207950261575]]]}}, {"type": "Feature", "properties": {"OBJECTID": 11586120, "GROUP_ID": 421487, "LAYER_ID": 6851200, "DEFQ": "", "MAVAT_CODE": 0, "MAVAT_NAME": "", "LABEL": "17.5", "ROZETA_NUM": 2, "TAGNAME": "WIDTH", "ROTATION": 296.70549502, "STAGE": "", "AGAM_ID": 4005042224.0, "SHAPE_AREA": 122.589569037, "SHAPE_LEN": 44.6294163763}, "geometry": {"type": "Polygon", "coordinates": [[[34.83269262177915, 31.99410080269812], [34.83265153441809, 31.99399365602521], [34.83263237210804, 31.99400045283853], [34.83261469335301, 31.99400972060788], [34.832598933461924, 31.99402123113062], [34.83258548049546, 31.99403470098014], [34.83257466571067, 31.994049798484703], [34.83256675540444, 31.99406615189419], [34.83256194435607, 31.994083358533786], [34.83256035103128, 31.99410099471916], [34.83256201466485, 31.994118626188826], [34.83256689429438, 31.994135818797247], [34.83269262177915, 31.99410080269812]]]}}, {"type": "Feature", "properties": {"OBJECTID": 11586121, "GROUP_ID": 421487, "LAYER_ID": 6851200, "DEFQ": "", "MAVAT_CODE": 0, "MAVAT_NAME": "", "LABEL": "1", "ROZETA_NUM": 3, "TAGNAME": "ROADNO", "ROTATION": 293.26645228, "STAGE": "", "AGAM_ID": 4005042224.0, "SHAPE_AREA": 122.590783556, "SHAPE_LEN": 44.6296301581}, "geometry": {"type": "Polygon", "coordinates": [[[34.83380653182748, 31.99018715780795], [34.83368350076474, 31.99022853929139], [34.8337320563033, 31.990333393029246], [34.83375268282279, 31.990324614209683], [34.83377120726593, 31.99031291620749], [34.833787066776324, 31.990298654461345], [34.83379977947107, 31.990282262308167], [34.83380895908248, 31.990264237815996], [34.83381432669452, 31.990245128650514], [34.833815719217334, 31.99022551543435], [34.83381309434234, 31.990205994105064], [34.83380653182748, 31.99018715780795]]]}}, {"type": "Feature", "properties": {"OBJECTID": 11586122, "GROUP_ID": 421487, "LAYER_ID": 6851200, "DEFQ": "", "MAVAT_CODE": 0, "MAVAT_NAME": "", "LABEL": "", "ROZETA_NUM": 3, "TAGNAME": "KBR", "ROTATION": 293.26645228, "STAGE": "", "AGAM_ID": 4005042224.0, "SHAPE_AREA": 122.590345523, "SHAPE_LEN": 44.6295393757}, "geometry": {"type": "Polygon", "coordinates": [[[34.83380653182748, 31.99018715780795], [34.83379742134312, 31.990171264620823], [34.83378550576117, 31.99015678172655], [34.833771078483515, 31.990144065741337], [34.83375449475765, 31.990133429774154], [34.83373616292943, 31.99012513571704], [34.83371653438832, 31.99011938779661], [34.83369609245268, 31.990116327545184], [34.83367534046908, 31.990116030316077], [34.83365478941835, 31.990118503428008], [34.83363494533378, 31.990123685984933], [34.83368350076474, 31.99022853929139], [34.83380653182748, 31.99018715780795]]]}}, {"type": "Feature", "properties": {"OBJECTID": 11586123, "GROUP_ID": 421487, "LAYER_ID": 6851200, "DEFQ": "", "MAVAT_CODE": 0, "MAVAT_NAME": "", "LABEL": "", "ROZETA_NUM": 3, "TAGNAME": "KBL", "ROTATION": 293.26645228, "STAGE": "", "AGAM_ID": 4005042224.0, "SHAPE_AREA": 122.591602614, "SHAPE_LEN": 44.6297387263}, "geometry": {"type": "Polygon", "coordinates": [[[34.8337320563033, 31.990333393029246], [34.83368350076474, 31.99022853929139], [34.8335604690635, 31.990269920652914], [34.83357047174685, 31.990287083910644], [34.83358374119079, 31.990302555130267], [34.833599893885555, 31.990315887165114], [34.833618462989556, 31.99032669469478], [34.8336389118219, 31.99033466536153], [34.833660649373506, 31.99033956879819], [34.833683047388554, 31.990341263286222], [34.83369973024422, 31.990340411973257], [34.833716153955756, 31.990337774517815], [34.8337320563033, 31.990333393029246]]]}}, {"type": "Feature", "properties": {"OBJECTID": 11586124, "GROUP_ID": 421487, "LAYER_ID": 6851200, "DEFQ": "", "MAVAT_CODE": 0, "MAVAT_NAME": "", "LABEL": "16", "ROZETA_NUM": 3, "TAGNAME": "WIDTH", "ROTATION": 293.26645228, "STAGE": "", "AGAM_ID": 4005042224.0, "SHAPE_AREA": 122.590564094, "SHAPE_LEN": 44.6295940571}, "geometry": {"type": "Polygon", "coordinates": [[[34.83368350076474, 31.99022853929139], [34.83363494533378, 31.990123685984933], [34.83361629679467, 31.990131450341224], [34.83359930302866, 31.990141605353706], [34.83358438247815, 31.990153900972995], [34.83357190253666, 31.99016803444075], [34.83356217050238, 31.99018365774475], [34.83355542601142, 31.990200386187894], [34.83355183513702, 31.990217807860713], [34.833551486300216, 31.990235493783967], [34.83355438809236, 31.990253008471402], [34.8335604690635, 31.990269920652914], [34.83368350076474, 31.99022853929139]]]}}, {"type": "Feature", "properties": {"OBJECTID": 11586125, "GROUP_ID": 421487, "LAYER_ID": 6851200, "DEFQ": "", "MAVAT_CODE": 0, "MAVAT_NAME": "", "LABEL": "1", "ROZETA_NUM": 3, "TAGNAME": "ROADNO", "ROTATION": 293.26645228, "STAGE": "", "AGAM_ID": 4005042224.0, "SHAPE_AREA": 122.590783556, "SHAPE_LEN": 44.6296301581}, "geometry": {"type": "Polygon", "coordinates": [[[34.83380653182748, 31.99018715780795], [34.83368350076474, 31.99022853929139], [34.8337320563033, 31.990333393029246], [34.83375268282279, 31.990324614209683], [34.83377120726593, 31.99031291620749], [34.833787066776324, 31.990298654461345], [34.83379977947107, 31.990282262308167], [34.83380895908248, 31.990264237815996], [34.83381432669452, 31.990245128650514], [34.833815719217334, 31.99022551543435], [34.83381309434234, 31.990205994105064], [34.83380653182748, 31.99018715780795]]]}}, {"type": "Feature", "properties": {"OBJECTID": 11586126, "GROUP_ID": 421487, "LAYER_ID": 6851200, "DEFQ": "", "MAVAT_CODE": 0, "MAVAT_NAME": "", "LABEL": "", "ROZETA_NUM": 3, "TAGNAME": "KBR", "ROTATION": 293.26645228, "STAGE": "", "AGAM_ID": 4005042224.0, "SHAPE_AREA": 122.590345523, "SHAPE_LEN": 44.6295393757}, "geometry": {"type": "Polygon", "coordinates": [[[34.83380653182748, 31.99018715780795], [34.83379742134312, 31.990171264620823], [34.83378550576117, 31.99015678172655], [34.833771078483515, 31.990144065741337], [34.83375449475765, 31.990133429774154], [34.83373616292943, 31.99012513571704], [34.83371653438832, 31.99011938779661], [34.83369609245268, 31.990116327545184], [34.83367534046908, 31.990116030316077], [34.83365478941835, 31.990118503428008], [34.83363494533378, 31.990123685984933], [34.83368350076474, 31.99022853929139], [34.83380653182748, 31.99018715780795]]]}}, {"type": "Feature", "properties": {"OBJECTID": 11586127, "GROUP_ID": 421487, "LAYER_ID": 6851200, "DEFQ": "", "MAVAT_CODE": 0, "MAVAT_NAME": "", "LABEL": "", "ROZETA_NUM": 3, "TAGNAME": "KBL", "ROTATION": 293.26645228, "STAGE": "", "AGAM_ID": 4005042224.0, "SHAPE_AREA": 122.591602614, "SHAPE_LEN": 44.6297387263}, "geometry": {"type": "Polygon", "coordinates": [[[34.8337320563033, 31.990333393029246], [34.83368350076474, 31.99022853929139], [34.8335604690635, 31.990269920652914], [34.83357047174685, 31.990287083910644], [34.83358374119079, 31.990302555130267], [34.833599893885555, 31.990315887165114], [34.833618462989556, 31.99032669469478], [34.8336389118219, 31.99033466536153], [34.833660649373506, 31.99033956879819], [34.833683047388554, 31.990341263286222], [34.83369973024422, 31.990340411973257], [34.833716153955756, 31.990337774517815], [34.8337320563033, 31.990333393029246]]]}}, {"type": "Feature", "properties": {"OBJECTID": 11586128, "GROUP_ID": 421487, "LAYER_ID": 6851200, "DEFQ": "", "MAVAT_CODE": 0, "MAVAT_NAME": "", "LABEL": "16", "ROZETA_NUM": 3, "TAGNAME": "WIDTH", "ROTATION": 293.26645228, "STAGE": "", "AGAM_ID": 4005042224.0, "SHAPE_AREA": 122.590564094, "SHAPE_LEN": 44.6295940571}, "geometry": {"type": "Polygon", "coordinates": [[[34.83368350076474, 31.99022853929139], [34.83363494533378, 31.990123685984933], [34.83361629679467, 31.990131450341224], [34.83359930302866, 31.990141605353706], [34.83358438247815, 31.990153900972995], [34.83357190253666, 31.99016803444075], [34.83356217050238, 31.99018365774475], [34.83355542601142, 31.990200386187894], [34.83355183513702, 31.990217807860713], [34.833551486300216, 31.990235493783967], [34.83355438809236, 31.990253008471402], [34.8335604690635, 31.990269920652914], [34.83368350076474, 31.99022853929139]]]}}, {"type": "Feature", "properties": {"OBJECTID": 11586129, "GROUP_ID": 421487, "LAYER_ID": 6851200, "DEFQ": "", "MAVAT_CODE": 0, "MAVAT_NAME": "", "LABEL": "", "ROZETA_NUM": 4, "TAGNAME": "KBR", "ROTATION": 24.15360272, "STAGE": "", "AGAM_ID": 4005042224.0, "SHAPE_AREA": 122.593067506, "SHAPE_LEN": 44.6300187701}, "geometry": {"type": "Polygon", "coordinates": [[[34.83372986241355, 31.991618806827386], [34.83360609047969, 31.991658559201937], [34.83365273732967, 31.991764042241357], [34.83367352128854, 31.991755536645623], [34.833692256422076, 31.991744084465058], [34.8337083734721, 31.991730033669196], [34.83372138273043, 31.9917138111853], [34.833730888918346, 31.991695909926133], [34.833736603196925, 31.99167687381305], [34.83373835194298, 31.99165728124899], [34.833736082024245, 31.99163772754412], [34.83372986241355, 31.991618806827386]]]}}, {"type": "Feature", "properties": {"OBJECTID": 11586130, "GROUP_ID": 421487, "LAYER_ID": 6851200, "DEFQ": "", "MAVAT_CODE": 0, "MAVAT_NAME": "", "LABEL": "16", "ROZETA_NUM": 4, "TAGNAME": "WIDTH", "ROTATION": 24.15360272, "STAGE": "", "AGAM_ID": 4005042224.0, "SHAPE_AREA": 122.591904974, "SHAPE_LEN": 44.6298379281}, "geometry": {"type": "Polygon", "coordinates": [[[34.83372986241355, 31.991618806827386], [34.83372104152614, 31.991602795187607], [34.83370939018668, 31.991588156671188], [34.833695195290545, 31.991575251726307], [34.83367880636339, 31.99156439811482], [34.8336606269546, 31.99155586308795], [34.833641104700625, 31.991549856805708], [34.83362072030282, 31.99154652716224], [34.833599975691044, 31.991545956144133], [34.833579381664734, 31.99154815781167], [34.8335594453154, 31.991553077952677], [34.83360609047969, 31.991658559201937], [34.83372986241355, 31.991618806827386]]]}}, {"type": "Feature", "properties": {"OBJECTID": 11586131, "GROUP_ID": 421487, "LAYER_ID": 6851200, "DEFQ": "", "MAVAT_CODE": 0, "MAVAT_NAME": "", "LABEL": "1", "ROZETA_NUM": 4, "TAGNAME": "ROADNO", "ROTATION": 24.15360272, "STAGE": "", "AGAM_ID": 4005042224.0, "SHAPE_AREA": 122.603913659, "SHAPE_LEN": 44.630418658}, "geometry": {"type": "Polygon", "coordinates": [[[34.83365273732967, 31.991764042241357], [34.83360609047969, 31.991658559201937], [34.833482320020124, 31.991698313262948], [34.83349215824366, 31.991715821195914], [34.83350537523168, 31.991731630997336], [34.8335215790225, 31.99174527381139], [34.83354028907713, 31.991756345046262], [34.83356095053005, 31.991764516372918], [34.83358295064443, 31.991769545461928], [34.83360563698365, 31.99177128317037], [34.833621642792195, 31.991770502193983], [34.83363742016719, 31.99176807667353], [34.83365273732967, 31.991764042241357]]]}}, {"type": "Feature", "properties": {"OBJECTID": 11586132, "GROUP_ID": 421487, "LAYER_ID": 6851200, "DEFQ": "", "MAVAT_CODE": 0, "MAVAT_NAME": "", "LABEL": "", "ROZETA_NUM": 4, "TAGNAME": "KBL", "ROTATION": 24.15360272, "STAGE": "", "AGAM_ID": 4005042224.0, "SHAPE_AREA": 122.591134416, "SHAPE_LEN": 44.6297094749}, "geometry": {"type": "Polygon", "coordinates": [[[34.83360609047969, 31.991658559201937], [34.8335594453154, 31.991553077952677], [34.833540657576805, 31.991560595376548], [34.83352348102131, 31.991570525015657], [34.833508338592154, 31.991582622369933], [34.833495603146176, 31.99159658956307], [34.833485588272914, 31.991612082677005], [34.83347854057282, 31.99162872022042], [34.83347463358517, 31.991646092522128], [34.833473963514706, 31.99166377181853], [34.83347654686263, 31.991681322786608], [34.833482320020124, 31.991698313262948], [34.83360609047969, 31.991658559201937]]]}}, {"type": "Feature", "properties": {"OBJECTID": 11586133, "GROUP_ID": 421487, "LAYER_ID": 6851200, "DEFQ": "", "MAVAT_CODE": 0, "MAVAT_NAME": "", "LABEL": "", "ROZETA_NUM": 5, "TAGNAME": "KBR", "ROTATION": 24.15360272, "STAGE": "", "AGAM_ID": 4005042224.0, "SHAPE_AREA": 122.593470756, "SHAPE_LEN": 44.6300832907}, "geometry": {"type": "Polygon", "coordinates": [[[34.83177560593341, 31.995274493388916], [34.83165182772107, 31.995314243789263], [34.83169847466263, 31.995419727485015], [34.83171925962652, 31.995411222221886], [34.83173799574783, 31.995399770343887], [34.83175411373839, 31.99538571981144], [34.831767123861404, 31.995369497543745], [34.831776630811895, 31.995351596447016], [34.831782345727774, 31.99533256043769], [34.83178409496649, 31.99531296791551], [34.83178182538081, 31.995293414189344], [34.83177560593341, 31.995274493388916]]]}}, {"type": "Feature", "properties": {"OBJECTID": 11586134, "GROUP_ID": 421487, "LAYER_ID": 6851200, "DEFQ": "", "MAVAT_CODE": 0, "MAVAT_NAME": "", "LABEL": "16.5", "ROZETA_NUM": 5, "TAGNAME": "WIDTH", "ROTATION": 24.15360272, "STAGE": "", "AGAM_ID": 4005042224.0, "SHAPE_AREA": 122.591635341, "SHAPE_LEN": 44.6297896238}, "geometry": {"type": "Polygon", "coordinates": [[[34.83177560593341, 31.995274493388916], [34.831766785088156, 31.99525848165503], [34.8317551336548, 31.995243842992732], [34.83174093853102, 31.99523093785379], [34.831724549248044, 31.995220084004792], [34.83170636936404, 31.99521154870286], [34.83168684652718, 31.995205542114775], [34.83166646145314, 31.995202212142175], [34.831645716088445, 31.995201640779793], [34.83162512125106, 31.995203842096362], [34.8316051840525, 31.995208761888353], [34.83165182772107, 31.995314243789263], [34.83177560593341, 31.995274493388916]]]}}, {"type": "Feature", "properties": {"OBJECTID": 11586135, "GROUP_ID": 421487, "LAYER_ID": 6851200, "DEFQ": "", "MAVAT_CODE": 0, "MAVAT_NAME": "", "LABEL": "1", "ROZETA_NUM": 5, "TAGNAME": "ROADNO", "ROTATION": 24.15360272, "STAGE": "", "AGAM_ID": 4005042224.0, "SHAPE_AREA": 122.603332645, "SHAPE_LEN": 44.630302057}, "geometry": {"type": "Polygon", "coordinates": [[[34.83169847466263, 31.995419727485015], [34.83165182772107, 31.995314243789263], [34.831528052570285, 31.995353995880738], [34.83153789066474, 31.995371503887224], [34.83155110768222, 31.995387313837835], [34.831567311660216, 31.99540095687234], [34.831586022054125, 31.99541202839238], [34.83160668398841, 31.995420200060426], [34.83162868471198, 31.99542522953698], [34.83165137177009, 31.995426967667584], [34.831667378403765, 31.995426186961897], [34.83168315663177, 31.99542376169148], [34.83169847466263, 31.995419727485015]]]}}, {"type": "Feature", "properties": {"OBJECTID": 11586136, "GROUP_ID": 421487, "LAYER_ID": 6851200, "DEFQ": "", "MAVAT_CODE": 0, "MAVAT_NAME": "", "LABEL": "", "ROZETA_NUM": 5, "TAGNAME": "KBL", "ROTATION": 24.15360272, "STAGE": "", "AGAM_ID": 4005042224.0, "SHAPE_AREA": 122.590327916, "SHAPE_LEN": 44.6295804354}, "geometry": {"type": "Polygon", "coordinates": [[[34.83165182772107, 31.995314243789263], [34.8316051840525, 31.995208761888353], [34.83158639540913, 31.9952162790117], [34.83156921796034, 31.995226208373808], [34.831554074671395, 31.995238305481408], [34.83154133842033, 31.99525227246429], [34.83153132281644, 31.99526776540958], [34.83152427447822, 31.995284402830105], [34.83152036696064, 31.995301775057655], [34.83151969648147, 31.995319454330527], [34.831522279552026, 31.995337005326274], [34.831528052570285, 31.995353995880738], [34.83165182772107, 31.995314243789263]]]}}, {"type": "Feature", "properties": {"OBJECTID": 11586137, "GROUP_ID": 421487, "LAYER_ID": 6851200, "DEFQ": "", "MAVAT_CODE": 0, "MAVAT_NAME": "", "LABEL": "1", "ROZETA_NUM": 6, "TAGNAME": "ROADNO", "ROTATION": 347.28643139, "STAGE": "", "AGAM_ID": 4005042224.0, "SHAPE_AREA": 122.606248448, "SHAPE_LEN": 44.6307624602}, "geometry": {"type": "Polygon", "coordinates": [[[34.83119531115846, 31.99714761366976], [34.831083729849695, 31.99708707214828], [34.8310126870938, 31.99718216007949], [34.83102905818157, 31.997189719037156], [34.83104651254418, 31.99719524421236], [34.83106470435229, 31.997198626132832], [34.83108327316506, 31.99719979779135], [34.831105382372726, 31.997198277902328], [34.831126882726736, 31.997193631130152], [34.831147169673855, 31.997185988134145], [34.83116567278011, 31.997175563822246], [34.831181871770504, 31.997162651308255], [34.83119531115846, 31.99714761366976]]]}}, {"type": "Feature", "properties": {"OBJECTID": 11586138, "GROUP_ID": 421487, "LAYER_ID": 6851200, "DEFQ": "", "MAVAT_CODE": 0, "MAVAT_NAME": "", "LABEL": "", "ROZETA_NUM": 6, "TAGNAME": "KBL", "ROTATION": 347.28643139, "STAGE": "", "AGAM_ID": 4005042224.0, "SHAPE_AREA": 122.59256091, "SHAPE_LEN": 44.6299161107}, "geometry": {"type": "Polygon", "coordinates": [[[34.831083729849695, 31.99708707214828], [34.83097214868085, 31.99702653233281], [34.830962409046165, 31.997042152572316], [34.83095565670178, 31.997058878903797], [34.8309520579143, 31.997076299469946], [34.83095170129953, 31.997093985318894], [34.83095459564036, 31.99711150096639], [34.83096066967033, 31.99712841511884], [34.83096977382818, 31.997144311293265], [34.830981683940486, 31.997158798072494], [34.8309961067414, 31.997171518743205], [34.8310126870938, 31.99718216007949], [34.831083729849695, 31.99708707214828]]]}}, {"type": "Feature", "properties": {"OBJECTID": 11586139, "GROUP_ID": 421487, "LAYER_ID": 6851200, "DEFQ": "", "MAVAT_CODE": 0, "MAVAT_NAME": "", "LABEL": "", "ROZETA_NUM": 6, "TAGNAME": "KBR", "ROTATION": 347.28643139, "STAGE": "", "AGAM_ID": 4005042224.0, "SHAPE_AREA": 122.594149442, "SHAPE_LEN": 44.6302347236}, "geometry": {"type": "Polygon", "coordinates": [[[34.83115477245835, 31.996991984174777], [34.831083729849695, 31.99708707214828], [34.83119531115846, 31.99714761366976], [34.83120595240517, 31.997130182047844], [34.83121287997617, 31.997111440554516], [34.83121588338279, 31.99709195864117], [34.83121487137047, 31.997072328256206], [34.83120987469124, 31.997053145858878], [34.831201045168974, 31.997034994296133], [34.83118865108604, 31.997018425093337], [34.83117306903147, 31.997003941696327], [34.83115477245835, 31.996991984174777]]]}}, {"type": "Feature", "properties": {"OBJECTID": 11586140, "GROUP_ID": 421487, "LAYER_ID": 6851200, "DEFQ": "", "MAVAT_CODE": 0, "MAVAT_NAME": "", "LABEL": "16", "ROZETA_NUM": 6, "TAGNAME": "WIDTH", "ROTATION": 347.28643139, "STAGE": "", "AGAM_ID": 4005042224.0, "SHAPE_AREA": 122.593672258, "SHAPE_LEN": 44.6301742941}, "geometry": {"type": "Polygon", "coordinates": [[[34.83115477245835, 31.996991984174777], [34.831136442515565, 31.99698368423564], [34.83111681464177, 31.996977930070127], [34.83109637213909, 31.996974863364443], [34.83107561836819, 31.996974559630836], [34.83105506435413, 31.996977026348162], [34.83103521620331, 31.996982202777854], [34.831016562641686, 31.996989961459413], [34.83099956298087, 31.997000111348886], [34.830984635808406, 31.99701240252295], [34.83097214868085, 31.99702653233281], [34.831083729849695, 31.99708707214828], [34.83115477245835, 31.996991984174777]]]}}, {"type": "Feature", "properties": {"OBJECTID": 11586141, "GROUP_ID": 421487, "LAYER_ID": 6851200, "DEFQ": "", "MAVAT_CODE": 0, "MAVAT_NAME": "", "LABEL": "2", "ROZETA_NUM": 7, "TAGNAME": "ROADNO", "ROTATION": 294.15646662, "STAGE": "", "AGAM_ID": 4005042224.0, "SHAPE_AREA": 122.592203028, "SHAPE_LEN": 44.6298641047}, "geometry": {"type": "Polygon", "coordinates": [[[34.83117152173241, 31.99136347663273], [34.83104774643989, 31.99140322154009], [34.83109438387329, 31.99150870638414], [34.83111516847404, 31.99150020220032], [34.831133904532265, 31.99148875130653], [34.83115002276167, 31.99147470163329], [34.83116303341824, 31.991458480073735], [34.83117254118081, 31.991440579512528], [34.831178257162556, 31.991421543849786], [34.83118000768857, 31.991401951474828], [34.8311777395725, 31.991382397692018], [34.83117152173241, 31.99136347663273]]]}}, {"type": "Feature", "properties": {"OBJECTID": 11586142, "GROUP_ID": 421487, "LAYER_ID": 6851200, "DEFQ": "", "MAVAT_CODE": 0, "MAVAT_NAME": "", "LABEL": "", "ROZETA_NUM": 7, "TAGNAME": "KBR", "ROTATION": 294.15646662, "STAGE": "", "AGAM_ID": 4005042224.0, "SHAPE_AREA": 122.59180814, "SHAPE_LEN": 44.6298236792}, "geometry": {"type": "Polygon", "coordinates": [[[34.83117152173241, 31.99136347663273], [34.83116270228303, 31.991347464472693], [34.831151052276844, 31.9913328252539], [34.831136858576386, 31.991319919441796], [34.83112047067777, 31.991309064819532], [34.83110229210504, 31.991300528663142], [34.831082770474, 31.991294521160484], [34.83106238647055, 31.991291190235717], [34.83104164201484, 31.991290617906923], [34.83102104790233, 31.99129281826671], [34.83100111122664, 31.991297737135064], [34.83104774643989, 31.99140322154009], [34.83117152173241, 31.99136347663273]]]}}, {"type": "Feature", "properties": {"OBJECTID": 11586143, "GROUP_ID": 421487, "LAYER_ID": 6851200, "DEFQ": "", "MAVAT_CODE": 0, "MAVAT_NAME": "", "LABEL": "", "ROZETA_NUM": 7, "TAGNAME": "KBL", "ROTATION": 294.15646662, "STAGE": "", "AGAM_ID": 4005042224.0, "SHAPE_AREA": 122.60319749, "SHAPE_LEN": 44.6301824681}, "geometry": {"type": "Polygon", "coordinates": [[[34.83109438387329, 31.99150870638414], [34.83104774643989, 31.99140322154009], [34.83092397368343, 31.991442967235244], [34.83093381069101, 31.99146047650529], [34.830947026873, 31.991476287717223], [34.83096323025922, 31.99148993193459], [34.830981940282896, 31.99150100449048], [34.83100260203355, 31.991509176989467], [34.831024602714876, 31.99151420704738], [34.8310472898194, 31.991515945480206], [34.83106329341127, 31.991515164677683], [34.83107906865757, 31.99151273977445], [34.83109438387329, 31.99150870638414]]]}}, {"type": "Feature", "properties": {"OBJECTID": 11586144, "GROUP_ID": 421487, "LAYER_ID": 6851200, "DEFQ": "", "MAVAT_CODE": 0, "MAVAT_NAME": "", "LABEL": "16.5", "ROZETA_NUM": 7, "TAGNAME": "WIDTH", "ROTATION": 294.15646662, "STAGE": "", "AGAM_ID": 4005042224.0, "SHAPE_AREA": 122.590435419, "SHAPE_LEN": 44.6295825396}, "geometry": {"type": "Polygon", "coordinates": [[[34.83104774643989, 31.99140322154009], [34.83100111122664, 31.991297737135064], [34.83098232292972, 31.991305253353854], [34.83096514559767, 31.991315181884183], [34.83095000219288, 31.9913272782533], [34.83093726559622, 31.99134124460914], [34.83092724942553, 31.991356737054282], [34.83092020031324, 31.991373374113856], [34.83091629183337, 31.991390746128577], [34.83091562022742, 31.991408425341955], [34.830918202034404, 31.991425976433003], [34.83092397368343, 31.991442967235244], [34.83104774643989, 31.99140322154009]]]}}, {"type": "Feature", "properties": {"OBJECTID": 11586145, "GROUP_ID": 421487, "LAYER_ID": 6851200, "DEFQ": "", "MAVAT_CODE": 0, "MAVAT_NAME": "", "LABEL": "2", "ROZETA_NUM": 8, "TAGNAME": "ROADNO", "ROTATION": 294.15646662, "STAGE": "", "AGAM_ID": 4005042224.0, "SHAPE_AREA": 122.592590944, "SHAPE_LEN": 44.6299274252}, "geometry": {"type": "Polygon", "coordinates": [[[34.83415945036327, 31.992516317164792], [34.83403567530644, 31.992556064528138], [34.83408231673714, 31.992661549186888], [34.834103101320636, 31.992653044436757], [34.83412183722449, 31.992641593026867], [34.8341379551671, 31.99262754290337], [34.83415096541317, 31.992611320973133], [34.834160472654, 31.992593420132025], [34.834166188018614, 31.992574384288734], [34.834167937850864, 31.992554791838035], [34.83416566898548, 31.992535238086578], [34.83415945036327, 31.992516317164792]]]}}, {"type": "Feature", "properties": {"OBJECTID": 11586146, "GROUP_ID": 421487, "LAYER_ID": 6851200, "DEFQ": "", "MAVAT_CODE": 0, "MAVAT_NAME": "", "LABEL": "", "ROZETA_NUM": 8, "TAGNAME": "KBR", "ROTATION": 294.15646662, "STAGE": "", "AGAM_ID": 4005042224.0, "SHAPE_AREA": 122.590977984, "SHAPE_LEN": 44.6296693507}, "geometry": {"type": "Polygon", "coordinates": [[[34.83415945036327, 31.992516317164792], [34.834150630328885, 31.992500305243208], [34.83413897975137, 31.992485666323013], [34.83412478550731, 31.992472760862256], [34.83410839710625, 31.992461906635487], [34.834090218084555, 31.992453370908983], [34.83407069606909, 31.992447363860013], [34.83405031175526, 31.992444033401565], [34.83402956707081, 31.992443461540255], [34.83400897281686, 31.992445662357177], [34.8339890360905, 31.99245058166103], [34.83403567530644, 31.992556064528138], [34.83415945036327, 31.992516317164792]]]}}, {"type": "Feature", "properties": {"OBJECTID": 11586147, "GROUP_ID": 421487, "LAYER_ID": 6851200, "DEFQ": "", "MAVAT_CODE": 0, "MAVAT_NAME": "", "LABEL": "", "ROZETA_NUM": 8, "TAGNAME": "KBL", "ROTATION": 294.15646662, "STAGE": "", "AGAM_ID": 4005042224.0, "SHAPE_AREA": 122.603006744, "SHAPE_LEN": 44.6302372589}, "geometry": {"type": "Polygon", "coordinates": [[[34.83408231673714, 31.992661549186888], [34.83403567530644, 31.992556064528138], [34.83391190225298, 31.992595813579452], [34.83392173999133, 31.99261332256058], [34.83393495687982, 31.992629133399273], [34.8339511609273, 31.99264277717011], [34.833969871547424, 31.9926538492195], [34.83399053381199, 31.992662021166996], [34.83401253490945, 31.99266705064482], [34.83403522231999, 31.99266878848608], [34.834051226046675, 31.99266800760792], [34.83406700141466, 31.992665582636658], [34.83408231673714, 31.992661549186888]]]}}, {"type": "Feature", "properties": {"OBJECTID": 11586148, "GROUP_ID": 421487, "LAYER_ID": 6851200, "DEFQ": "", "MAVAT_CODE": 0, "MAVAT_NAME": "", "LABEL": "16.5", "ROZETA_NUM": 8, "TAGNAME": "WIDTH", "ROTATION": 294.15646662, "STAGE": "", "AGAM_ID": 4005042224.0, "SHAPE_AREA": 122.590254564, "SHAPE_LEN": 44.629553603}, "geometry": {"type": "Polygon", "coordinates": [[[34.83403567530644, 31.992556064528138], [34.8339890360905, 31.99245058166103], [34.83397024779665, 31.99245809832092], [34.83395307056613, 31.992468027254723], [34.83393792735878, 31.992480123979767], [34.83392519105066, 31.992494090635187], [34.83391517525248, 31.99250958331621], [34.833908126587495, 31.99252622054215], [34.83390421861871, 31.99254359264965], [34.83390354757507, 31.992561271879904], [34.8339061299817, 31.992578822911494], [34.83391190225298, 31.992595813579452], [34.83403567530644, 31.992556064528138]]]}}, {"type": "Feature", "properties": {"OBJECTID": 11586149, "GROUP_ID": 421487, "LAYER_ID": 6851200, "DEFQ": "", "MAVAT_CODE": 0, "MAVAT_NAME": "", "LABEL": "", "ROZETA_NUM": 9, "TAGNAME": "KBR", "ROTATION": 24.14556281, "STAGE": "", "AGAM_ID": 4005042224.0, "SHAPE_AREA": 122.589707684, "SHAPE_LEN": 44.6294079792}, "geometry": {"type": "Polygon", "coordinates": [[[34.834557663322016, 31.993605211010664], [34.834433897469445, 31.993644978165293], [34.834480563209816, 31.993750454168026], [34.83449934979557, 31.993742934435804], [34.83451652474869, 31.993733002726312], [34.83453166516413, 31.99372090359193], [34.83454439823447, 31.99370693495426], [34.834554410429696, 31.993691440768313], [34.83456145521733, 31.99367480255298], [34.83456535913271, 31.99365742999691], [34.834566026050226, 31.993639750870344], [34.83456343954998, 31.99362220049214], [34.834557663322016, 31.993605211010664]]]}}, {"type": "Feature", "properties": {"OBJECTID": 11586150, "GROUP_ID": 421487, "LAYER_ID": 6851200, "DEFQ": "", "MAVAT_CODE": 0, "MAVAT_NAME": "", "LABEL": "16", "ROZETA_NUM": 9, "TAGNAME": "WIDTH", "ROTATION": 24.14556281, "STAGE": "", "AGAM_ID": 4005042224.0, "SHAPE_AREA": 122.5892, "SHAPE_LEN": 44.6293429679}, "geometry": {"type": "Polygon", "coordinates": [[[34.834557663322016, 31.993605211010664], [34.83454883975091, 31.99358920061121], [34.83453718592438, 31.993574563651798], [34.834522988799044, 31.993561660542237], [34.834506597955354, 31.99355080899914], [34.83448841698983, 31.99354227622272], [34.83446889357722, 31.993536272317616], [34.834448508447316, 31.993532945119373], [34.83442776354796, 31.993532376554366], [34.83440716968556, 31.993534580622494], [34.83438723394755, 31.99353950305244], [34.834433897469445, 31.993644978165293], [34.834557663322016, 31.993605211010664]]]}}, {"type": "Feature", "properties": {"OBJECTID": 11586151, "GROUP_ID": 421487, "LAYER_ID": 6851200, "DEFQ": "", "MAVAT_CODE": 0, "MAVAT_NAME": "", "LABEL": "2", "ROZETA_NUM": 9, "TAGNAME": "ROADNO", "ROTATION": 24.14556281, "STAGE": "", "AGAM_ID": 4005042224.0, "SHAPE_AREA": 122.603399585, "SHAPE_LEN": 44.6302258994}, "geometry": {"type": "Polygon", "coordinates": [[[34.834480563209816, 31.993750454168026], [34.834433897469445, 31.993644978165293], [34.83431013150209, 31.993684747452622], [34.834319971558, 31.99370225222619], [34.834333189421145, 31.993718058903944], [34.83434939319463, 31.993731698831247], [34.83436810245121, 31.99374276759554], [34.83438876247748, 31.993750937016983], [34.83441076072075, 31.993755964878833], [34.83443344495092, 31.993757702108958], [34.834449457160744, 31.993756920021763], [34.834465240596145, 31.993754492143292], [34.834480563209816, 31.993750454168026]]]}}, {"type": "Feature", "properties": {"OBJECTID": 11586152, "GROUP_ID": 421487, "LAYER_ID": 6851200, "DEFQ": "", "MAVAT_CODE": 0, "MAVAT_NAME": "", "LABEL": "", "ROZETA_NUM": 9, "TAGNAME": "KBL", "ROTATION": 24.14556281, "STAGE": "", "AGAM_ID": 4005042224.0, "SHAPE_AREA": 122.590411843, "SHAPE_LEN": 44.6295813151}, "geometry": {"type": "Polygon", "coordinates": [[[34.834433897469445, 31.993644978165293], [34.83438723394755, 31.99353950305244], [34.834368447101575, 31.993547022751837], [34.83435127187524, 31.993556954464285], [34.834336131178894, 31.99356905363873], [34.83432339782664, 31.993583022354144], [34.83431338535627, 31.993598516655133], [34.83430634030902, 31.993615155021267], [34.83430243615876, 31.993632527761264], [34.83430176904035, 31.993650207100888], [34.83430435538231, 31.993667757716203], [34.83431013150209, 31.993684747452622], [34.834433897469445, 31.993644978165293]]]}}, {"type": "Feature", "properties": {"OBJECTID": 11586153, "GROUP_ID": 421487, "LAYER_ID": 6851200, "DEFQ": "", "MAVAT_CODE": 0, "MAVAT_NAME": "", "LABEL": "", "ROZETA_NUM": 10, "TAGNAME": "KBR", "ROTATION": 24.14556281, "STAGE": "", "AGAM_ID": 4005042224.0, "SHAPE_AREA": 122.594877979, "SHAPE_LEN": 44.6303604367}, "geometry": {"type": "Polygon", "coordinates": [[[34.83350490340037, 31.99558515160619], [34.83338113231248, 31.99562491949549], [34.83342779781571, 31.995730397654555], [34.83344858151168, 31.99572188951081], [34.83346731579144, 31.99571043499409], [34.83348343142276, 31.995696382145024], [34.833496438740525, 31.99568015795319], [34.833505942525036, 31.995662255383266], [34.833511654010366, 31.99564321839643], [34.83351339965819, 31.99562362542217], [34.83351112643041, 31.9956040717831], [34.83350490340037, 31.99558515160619]]]}}, {"type": "Feature", "properties": {"OBJECTID": 11586154, "GROUP_ID": 421487, "LAYER_ID": 6851200, "DEFQ": "", "MAVAT_CODE": 0, "MAVAT_NAME": "", "LABEL": "2", "ROZETA_NUM": 10, "TAGNAME": "ROADNO", "ROTATION": 24.14556281, "STAGE": "", "AGAM_ID": 4005042224.0, "SHAPE_AREA": 122.605494985, "SHAPE_LEN": 44.6308175044}, "geometry": {"type": "Polygon", "coordinates": [[[34.83342779781571, 31.995730397654555], [34.83338113231248, 31.99562491949549], [34.8332573605861, 31.995664688163238], [34.83326720103874, 31.995682193122548], [34.83328041940628, 31.995697999957088], [34.833296623777045, 31.995711640007688], [34.83331533370626, 31.995722708858313], [34.83333599446082, 31.99573087832672], [34.833357993466684, 31.99573590619484], [34.83338067847135, 31.99573764339047], [34.83339669094441, 31.995736862036583], [34.833412474743234, 31.995734434896736], [34.83342779781571, 31.995730397654555]]]}}, {"type": "Feature", "properties": {"OBJECTID": 11586155, "GROUP_ID": 421487, "LAYER_ID": 6851200, "DEFQ": "", "MAVAT_CODE": 0, "MAVAT_NAME": "", "LABEL": "16", "ROZETA_NUM": 10, "TAGNAME": "WIDTH", "ROTATION": 24.14556281, "STAGE": "", "AGAM_ID": 4005042224.0, "SHAPE_AREA": 122.594552768, "SHAPE_LEN": 44.6303288931}, "geometry": {"type": "Polygon", "coordinates": [[[34.83350490340037, 31.99558515160619], [34.833496079427114, 31.995569140844278], [34.83348442507261, 31.99555450355491], [34.833470227306485, 31.995541600156148], [34.833453835725045, 31.995530748371703], [34.833435653943035, 31.995522215407814], [34.833416129655355, 31.99551621137376], [34.83339574361343, 31.99551288410824], [34.83337499778759, 31.99551231553934], [34.83335440300718, 31.99551451966703], [34.83333446638227, 31.99551944221855], [34.83338113231248, 31.99562491949549], [34.83350490340037, 31.99558515160619]]]}}, {"type": "Feature", "properties": {"OBJECTID": 11586156, "GROUP_ID": 421487, "LAYER_ID": 6851200, "DEFQ": "", "MAVAT_CODE": 0, "MAVAT_NAME": "", "LABEL": "", "ROZETA_NUM": 10, "TAGNAME": "KBL", "ROTATION": 24.14556281, "STAGE": "", "AGAM_ID": 4005042224.0, "SHAPE_AREA": 122.594919699, "SHAPE_LEN": 44.6303671119}, "geometry": {"type": "Polygon", "coordinates": [[[34.83338113231248, 31.99562491949549], [34.83333446638227, 31.99551944221855], [34.83331567885344, 31.99552696194397], [34.833298502987816, 31.995536893718914], [34.8332833617117, 31.9955489929908], [34.833270627853544, 31.995562961836068], [34.83326061496376, 31.995578456296002], [34.83325356959401, 31.99559509484609], [34.83324966522612, 31.99561246779041], [34.83324899800039, 31.995630147349512], [34.83325158434794, 31.99564769819392], [34.8332573605861, 31.995664688163238], [34.83338113231248, 31.99562491949549]]]}}, {"type": "Feature", "properties": {"OBJECTID": 11586157, "GROUP_ID": 421487, "LAYER_ID": 6851200, "DEFQ": "", "MAVAT_CODE": 0, "MAVAT_NAME": "", "LABEL": "16", "ROZETA_NUM": 11, "TAGNAME": "WIDTH", "ROTATION": 115.55855632, "STAGE": "", "AGAM_ID": 4005042224.0, "SHAPE_AREA": 122.593197532, "SHAPE_LEN": 44.6300316464}, "geometry": {"type": "Polygon", "coordinates": [[[34.83227298718278, 31.996031982552918], [34.832148101715774, 31.99606913479651], [34.83219169973117, 31.9961755612098], [34.832212723330116, 31.996167492826228], [34.83223178346795, 31.996156435902435], [34.83224830101122, 31.996142726398315], [34.832261774082866, 31.996126780871148], [34.83227179331134, 31.996109083818517], [34.83227805426914, 31.99609017295708], [34.832280366722436, 31.99607062288415], [34.83227866041102, 31.9960510276188], [34.83227298718278, 31.996031982552918]]]}}, {"type": "Feature", "properties": {"OBJECTID": 11586158, "GROUP_ID": 421487, "LAYER_ID": 6851200, "DEFQ": "", "MAVAT_CODE": 0, "MAVAT_NAME": "", "LABEL": "", "ROZETA_NUM": 11, "TAGNAME": "KBR", "ROTATION": 115.55855632, "STAGE": "", "AGAM_ID": 4005042224.0, "SHAPE_AREA": 122.603249586, "SHAPE_LEN": 44.6304212309}, "geometry": {"type": "Polygon", "coordinates": [[[34.83219169973117, 31.9961755612098], [34.832148101715774, 31.99606913479651], [34.83202321773103, 31.99610628827356], [34.83203137907371, 31.996122166944488], [34.83204230081938, 31.996136791453306], [34.83205572467831, 31.99614981594149], [34.832071333187294, 31.99616093238967], [34.8320887572174, 31.99616987790207], [34.832107584703536, 31.996176440923897], [34.8321273703896, 31.99618046624445], [34.832147646358514, 31.996181858667782], [34.83216998722885, 31.99618030609287], [34.83219169973117, 31.9961755612098]]]}}, {"type": "Feature", "properties": {"OBJECTID": 11586159, "GROUP_ID": 421487, "LAYER_ID": 6851200, "DEFQ": "", "MAVAT_CODE": 0, "MAVAT_NAME": "", "LABEL": "", "ROZETA_NUM": 11, "TAGNAME": "KBL", "ROTATION": 115.55855632, "STAGE": "", "AGAM_ID": 4005042224.0, "SHAPE_AREA": 122.592453758, "SHAPE_LEN": 44.6299389132}, "geometry": {"type": "Polygon", "coordinates": [[[34.83227298718278, 31.996031982552918], [34.832264629610414, 31.99601579124901], [34.83225340275867, 31.99600091345756], [34.8322395830707, 31.99598771551848], [34.83222351083338, 31.995976522408082], [34.83220558179823, 31.995967609737217], [34.83218623743675, 31.995961196964714], [34.83216595407003, 31.995957441993827], [34.83214523114024, 31.995956437284054], [34.83212457891293, 31.9959582075746], [34.83210450591273, 31.9959627092752], [34.832148101715774, 31.99606913479651], [34.83227298718278, 31.996031982552918]]]}}, {"type": "Feature", "properties": {"OBJECTID": 11586160, "GROUP_ID": 421487, "LAYER_ID": 6851200, "DEFQ": "", "MAVAT_CODE": 0, "MAVAT_NAME": "", "LABEL": "2", "ROZETA_NUM": 11, "TAGNAME": "ROADNO", "ROTATION": 115.55855632, "STAGE": "", "AGAM_ID": 4005042224.0, "SHAPE_AREA": 122.591930355, "SHAPE_LEN": 44.6298512833}, "geometry": {"type": "Polygon", "coordinates": [[[34.832148101715774, 31.99606913479651], [34.83210450591273, 31.9959627092752], [34.83208550639992, 31.99596983153652], [34.83206804820606, 31.995979398988776], [34.8320525612092, 31.995991176050126], [34.8320394267505, 31.996004872730932], [34.832028968244394, 31.99602015177403], [34.832021443215034, 31.996036636959317], [34.832017036955, 31.996053922367135], [34.83201585796279, 31.996071582373563], [34.83201793527093, 31.99608918213063], [34.83202321773103, 31.99610628827356], [34.832148101715774, 31.99606913479651]]]}}, {"type": "Feature", "properties": {"OBJECTID": 11586161, "GROUP_ID": 421487, "LAYER_ID": 6851200, "DEFQ": "", "MAVAT_CODE": 0, "MAVAT_NAME": "", "LABEL": "6", "ROZETA_NUM": 12, "TAGNAME": "ROADNO", "ROTATION": 256.22716412, "STAGE": "", "AGAM_ID": 4005042224.0, "SHAPE_AREA": 122.592585794, "SHAPE_LEN": 44.6299522078}, "geometry": {"type": "Polygon", "coordinates": [[[34.83278824614108, 31.99817272775083], [34.83271928032808, 31.998268919298972], [34.83283215809857, 31.99832769023751], [34.83284241901623, 31.998310093881035], [34.83284893842215, 31.99829124645687], [34.83285151822961, 31.99827172063505], [34.832850080054904, 31.99825210969806], [34.832844667598785, 31.998233009514152], [34.83283544531825, 31.998215000432303], [34.83282269342938, 31.998198629648577], [34.83280679939284, 31.998184394579983], [34.83278824614108, 31.99817272775083]]]}}, {"type": "Feature", "properties": {"OBJECTID": 11586162, "GROUP_ID": 421487, "LAYER_ID": 6851200, "DEFQ": "", "MAVAT_CODE": 0, "MAVAT_NAME": "", "LABEL": "", "ROZETA_NUM": 12, "TAGNAME": "KBL", "ROTATION": 256.22716412, "STAGE": "", "AGAM_ID": 4005042224.0, "SHAPE_AREA": 122.592426914, "SHAPE_LEN": 44.6299401011}, "geometry": {"type": "Polygon", "coordinates": [[[34.83283215809857, 31.99832769023751], [34.83271928032808, 31.998268919298972], [34.83265031437045, 31.998365110807065], [34.832666286061134, 31.998372202293805], [34.83268324007818, 31.99837737927578], [34.832700862152336, 31.99838054578943], [34.832718825630664, 31.99838164313844], [34.83274133696622, 31.99838006569952], [34.832763205188336, 31.998375247522215], [34.83278379267655, 31.998367329092027], [34.832802499153665, 31.998356541289755], [34.83281877918834, 31.998343198659544], [34.83283215809857, 31.99832769023751]]]}}, {"type": "Feature", "properties": {"OBJECTID": 11586163, "GROUP_ID": 421487, "LAYER_ID": 6851200, "DEFQ": "", "MAVAT_CODE": 0, "MAVAT_NAME": "", "LABEL": "16", "ROZETA_NUM": 12, "TAGNAME": "WIDTH", "ROTATION": 256.22716412, "STAGE": "", "AGAM_ID": 4005042224.0, "SHAPE_AREA": 122.592856221, "SHAPE_LEN": 44.6300036448}, "geometry": {"type": "Polygon", "coordinates": [[[34.83271928032808, 31.998268919298972], [34.832606402173134, 31.99821014825901], [34.83259700327329, 31.99822591952157], [34.832590615229655, 31.99824274957667], [34.83258739533852, 31.99826022401293], [34.83258742288608, 31.998277912552034], [34.832590697195876, 31.99829537964343], [34.83259713764529, 31.99831219518911], [34.832606585650595, 31.99832794513414], [34.83261880857165, 31.998342241661927], [34.83263350544017, 31.998354732743795], [34.83265031437045, 31.998365110807065], [34.83271928032808, 31.998268919298972]]]}}, {"type": "Feature", "properties": {"OBJECTID": 11586164, "GROUP_ID": 421487, "LAYER_ID": 6851200, "DEFQ": "", "MAVAT_CODE": 0, "MAVAT_NAME": "", "LABEL": "", "ROZETA_NUM": 12, "TAGNAME": "KBR", "ROTATION": 256.22716412, "STAGE": "", "AGAM_ID": 4005042224.0, "SHAPE_AREA": 122.59308865, "SHAPE_LEN": 44.6300481946}, "geometry": {"type": "Polygon", "coordinates": [[[34.83278824614108, 31.99817272775083], [34.832769739064496, 31.998164718196097], [34.83274998952406, 31.998159274421266], [34.83272948381748, 31.998156530469696], [34.83270872686155, 31.9981565539063], [34.83268822975955, 31.99815934415403], [34.83266849721643, 31.998164832507896], [34.832650015111334, 31.998172883826918], [34.832633238533965, 31.99818329986146], [34.83261858057874, 31.998195824134942], [34.832606402173134, 31.99821014825901], [34.83271928032808, 31.998268919298972], [34.83278824614108, 31.99817272775083]]]}}, {"type": "Feature", "properties": {"OBJECTID": 11586165, "GROUP_ID": 421487, "LAYER_ID": 6851200, "DEFQ": "", "MAVAT_CODE": 0, "MAVAT_NAME": "", "LABEL": "6", "ROZETA_NUM": 13, "TAGNAME": "ROADNO", "ROTATION": 338.04459005, "STAGE": "", "AGAM_ID": 4005042224.0, "SHAPE_AREA": 122.602701716, "SHAPE_LEN": 44.630412925}, "geometry": {"type": "Polygon", "coordinates": [[[34.83677073871365, 31.999197201741286], [34.836649190423095, 31.999152722560716], [34.83659699700105, 31.999256301884795], [34.83661371193465, 31.999261317356865], [34.83663106357913, 31.999264383885507], [34.83664874051791, 31.99926544643461], [34.83667072733395, 31.999263943191405], [34.836692115354104, 31.999259347464026], [34.83671230988516, 31.99925178703656], [34.83673074941921, 31.99924147212641], [34.8367469212464, 31.999228689539166], [34.83676037571094, 31.99921379469406], [34.83677073871365, 31.999197201741286]]]}}, {"type": "Feature", "properties": {"OBJECTID": 11586166, "GROUP_ID": 421487, "LAYER_ID": 6851200, "DEFQ": "", "MAVAT_CODE": 0, "MAVAT_NAME": "", "LABEL": "", "ROZETA_NUM": 13, "TAGNAME": "KBR", "ROTATION": 338.04459005, "STAGE": "", "AGAM_ID": 4005042224.0, "SHAPE_AREA": 122.59488047, "SHAPE_LEN": 44.6303685521}, "geometry": {"type": "Polygon", "coordinates": [[[34.83670138584325, 31.99904914321874], [34.836649190423095, 31.999152722560716], [34.83677073871365, 31.999197201741286], [34.83677795574904, 31.99917853963261], [34.83678126031213, 31.999159093087155], [34.83678055199786, 31.99913945297858], [34.83677585233055, 31.999120216061517], [34.836767304109536, 31.999101966839465], [34.83675516706998, 31.999085259805], [34.83673980999078, 31.999070602591903], [34.83672169948929, 31.99905844055101], [34.83670138584325, 31.99904914321874]]]}}, {"type": "Feature", "properties": {"OBJECTID": 11586167, "GROUP_ID": 421487, "LAYER_ID": 6851200, "DEFQ": "", "MAVAT_CODE": 0, "MAVAT_NAME": "", "LABEL": "", "ROZETA_NUM": 13, "TAGNAME": "KBL", "ROTATION": 338.04459005, "STAGE": "", "AGAM_ID": 4005042224.0, "SHAPE_AREA": 122.59334632, "SHAPE_LEN": 44.6300891474}, "geometry": {"type": "Polygon", "coordinates": [[[34.836649190423095, 31.999152722560716], [34.83652764224363, 31.99910824506783], [34.83652097384223, 31.99912499603023], [34.83651746255594, 31.99914242971334], [34.83651719484602, 31.999160116842212], [34.83652017730622, 31.999177621901016], [34.83652633650026, 31.999194513856796], [34.83653552076987, 31.9992103767731], [34.836547503968944, 31.999224820051566], [34.83656199103195, 31.999237488050003], [34.836578625239305, 31.999248068839382], [34.83659699700105, 31.999256301884795], [34.836649190423095, 31.999152722560716]]]}}, {"type": "Feature", "properties": {"OBJECTID": 11586168, "GROUP_ID": 421487, "LAYER_ID": 6851200, "DEFQ": "", "MAVAT_CODE": 0, "MAVAT_NAME": "", "LABEL": "16", "ROZETA_NUM": 13, "TAGNAME": "WIDTH", "ROTATION": 338.04459005, "STAGE": "", "AGAM_ID": 4005042224.0, "SHAPE_AREA": 122.594757538, "SHAPE_LEN": 44.6303725102}, "geometry": {"type": "Polygon", "coordinates": [[[34.83670138584325, 31.99904914321874], [34.83668172876465, 31.999043460522298], [34.83666127051242, 31.999040468239585], [34.83664051483504, 31.999040240050242], [34.83661997280452, 31.99904278157303], [34.83660015023222, 31.999048030227414], [34.836581535214286, 31.99905585677453], [34.83656458611325, 31.99906606849927], [34.83654972027177, 31.999078413955775], [34.83653730373625, 31.9990925891586], [34.83652764224363, 31.99910824506783], [34.836649190423095, 31.999152722560716], [34.83670138584325, 31.99904914321874]]]}}, {"type": "Feature", "properties": {"OBJECTID": 11586169, "GROUP_ID": 421487, "LAYER_ID": 6851200, "DEFQ": "", "MAVAT_CODE": 0, "MAVAT_NAME": "", "LABEL": "4", "ROZETA_NUM": 14, "TAGNAME": "ROADNO", "ROTATION": 296.70549502, "STAGE": "", "AGAM_ID": 4005042224.0, "SHAPE_AREA": 122.592198141, "SHAPE_LEN": 44.6298954165}, "geometry": {"type": "Polygon", "coordinates": [[[34.83461628236031, 31.994755968980886], [34.83449055363027, 31.99479098742903], [34.83453164453436, 31.994898134867583], [34.83455285294644, 31.994890426168162], [34.83457216840317, 31.994879696070907], [34.834589004013345, 31.99486627060523], [34.834602848235484, 31.994850557698037], [34.83461328042074, 31.99483303477891], [34.834619983594024, 31.994814234273555], [34.83462275408499, 31.99479472742619], [34.83462150771615, 31.994775106942598], [34.83461628236031, 31.994755968980886]]]}}, {"type": "Feature", "properties": {"OBJECTID": 11586170, "GROUP_ID": 421487, "LAYER_ID": 6851200, "DEFQ": "", "MAVAT_CODE": 0, "MAVAT_NAME": "", "LABEL": "", "ROZETA_NUM": 14, "TAGNAME": "KBL", "ROTATION": 296.70549502, "STAGE": "", "AGAM_ID": 4005042224.0, "SHAPE_AREA": 122.592242308, "SHAPE_LEN": 44.6298920776}, "geometry": {"type": "Polygon", "coordinates": [[[34.83453164453436, 31.994898134867583], [34.83449055363027, 31.99479098742903], [34.834364824276726, 31.99482600575017], [34.83437276159086, 31.99484227165611], [34.83438357570342, 31.99485728506589], [34.83439700250538, 31.994870679310797], [34.834412714078226, 31.99488212726637], [34.83443032670258, 31.994891349341785], [34.834449410229745, 31.99489812030836], [34.834469498587055, 31.994902274800207], [34.83449010116089, 31.994903711353036], [34.83451113457304, 31.994902339152336], [34.83453164453436, 31.994898134867583]]]}}, {"type": "Feature", "properties": {"OBJECTID": 11586171, "GROUP_ID": 421487, "LAYER_ID": 6851200, "DEFQ": "", "MAVAT_CODE": 0, "MAVAT_NAME": "", "LABEL": "", "ROZETA_NUM": 14, "TAGNAME": "KBR", "ROTATION": 296.70549502, "STAGE": "", "AGAM_ID": 4005042224.0, "SHAPE_AREA": 122.591959651, "SHAPE_LEN": 44.6298525546}, "geometry": {"type": "Polygon", "coordinates": [[[34.83461628236031, 31.994755968980886], [34.83460830634217, 31.99473963860124], [34.8345974308595, 31.99472457259518], [34.83458392370364, 31.994711141937167], [34.83456811746597, 31.99469967733382], [34.834550401348245, 31.994690461081], [34.83453121157935, 31.994683720112764], [34.83451102067379, 31.994679620413585], [34.834490325797105, 31.994678262931323], [34.834469636524084, 31.99467968109154], [34.83444946229149, 31.99468383997457], [34.83449055363027, 31.99479098742903], [34.83461628236031, 31.994755968980886]]]}}, {"type": "Feature", "properties": {"OBJECTID": 11586172, "GROUP_ID": 421487, "LAYER_ID": 6851200, "DEFQ": "", "MAVAT_CODE": 0, "MAVAT_NAME": "", "LABEL": "17.5", "ROZETA_NUM": 14, "TAGNAME": "WIDTH", "ROTATION": 296.70549502, "STAGE": "", "AGAM_ID": 4005042224.0, "SHAPE_AREA": 122.592592941, "SHAPE_LEN": 44.6299585843}, "geometry": {"type": "Polygon", "coordinates": [[[34.83449055363027, 31.99479098742903], [34.83444946229149, 31.99468383997457], [34.834430299814066, 31.99469063721032], [34.83441262098075, 31.99469990539979], [34.834396861102384, 31.994711416330038], [34.834383408239326, 31.994724886564356], [34.83437259364612, 31.994739984421578], [34.834364683614865, 31.994756338142874], [34.83435987291818, 31.994773545045792], [34.834358280013056, 31.994791181439457], [34.83435994412394, 31.994808813057347], [34.834364824276726, 31.99482600575017], [34.83449055363027, 31.99479098742903]]]}}, {"type": "Feature", "properties": {"OBJECTID": 11586173, "GROUP_ID": 421487, "LAYER_ID": 6851200, "DEFQ": "", "MAVAT_CODE": 0, "MAVAT_NAME": "", "LABEL": "", "ROZETA_NUM": 15, "TAGNAME": "KBR", "ROTATION": 33.41933764, "STAGE": "", "AGAM_ID": 4005042224.0, "SHAPE_AREA": 122.594263845, "SHAPE_LEN": 44.6302607639}, "geometry": {"type": "Polygon", "coordinates": [[[34.829671844691916, 31.992057049625622], [34.82954217571161, 31.992079296469058], [34.82956827984654, 31.992189805108094], [34.829590400119805, 31.992184263079434], [34.82961105510587, 31.992175531696894], [34.82962961721187, 31.992163876259987], [34.82964552243683, 31.992149650914236], [34.829658287508636, 31.992133287890674], [34.829667524568016, 31.99211528437244], [34.82967295295327, 31.992096187388167], [34.82967440772795, 31.99207657719054], [34.829671844691916, 31.992057049625622]]]}}, {"type": "Feature", "properties": {"OBJECTID": 11586174, "GROUP_ID": 421487, "LAYER_ID": 6851200, "DEFQ": "", "MAVAT_CODE": 0, "MAVAT_NAME": "", "LABEL": "", "ROZETA_NUM": 15, "TAGNAME": "WIDTH", "ROTATION": 33.41933764, "STAGE": "", "AGAM_ID": 4005042224.0, "SHAPE_AREA": 122.592907929, "SHAPE_LEN": 44.6300102848}, "geometry": {"type": "Polygon", "coordinates": [[[34.829671844691916, 31.992057049625622], [34.82966534168988, 31.99203819814915], [34.82965509637285, 31.99202059543934], [34.82964142004114, 31.992004776344746], [34.82962472824396, 31.991991221519545], [34.829605528152996, 31.991980342819183], [34.829584403152374, 31.991972470786454], [34.82956199511278, 31.991967844608336], [34.829538984889, 31.99196660484836], [34.82951607163246, 31.99196878917589], [34.82954217571161, 31.992079296469058], [34.829671844691916, 31.992057049625622]]]}}, {"type": "Feature", "properties": {"OBJECTID": 11586175, "GROUP_ID": 421487, "LAYER_ID": 6851200, "DEFQ": "", "MAVAT_CODE": 0, "MAVAT_NAME": "", "LABEL": "5", "ROZETA_NUM": 15, "TAGNAME": "ROADNO", "ROTATION": 33.41933764, "STAGE": "", "AGAM_ID": 4005042224.0, "SHAPE_AREA": 122.604691494, "SHAPE_LEN": 44.630692084}, "geometry": {"type": "Polygon", "coordinates": [[[34.82956827984654, 31.992189805108094], [34.82954217571161, 31.992079296469058], [34.829412506140976, 31.992101543177863], [34.829418843506495, 31.99212003246671], [34.82942878197271, 31.99213733231369], [34.82944203135203, 31.992152937587132], [34.8294582047822, 31.9921663926343], [34.82947683002207, 31.992177304586004], [34.829497363240286, 31.992185354827804], [34.829519204894595, 31.992190308303368], [34.82954171723772, 31.99219202037771], [34.82955506427109, 31.992191485164344], [34.82956827984654, 31.992189805108094]]]}}, {"type": "Feature", "properties": {"OBJECTID": 11586176, "GROUP_ID": 421487, "LAYER_ID": 6851200, "DEFQ": "", "MAVAT_CODE": 0, "MAVAT_NAME": "", "LABEL": "", "ROZETA_NUM": 15, "TAGNAME": "KBL", "ROTATION": 33.41933764, "STAGE": "", "AGAM_ID": 4005042224.0, "SHAPE_AREA": 122.593195861, "SHAPE_LEN": 44.6300572066}, "geometry": {"type": "Polygon", "coordinates": [[[34.82954217571161, 31.992079296469058], [34.82951607163246, 31.99196878917589], [34.82949395148318, 31.99197433102892], [34.829473296573546, 31.99198306222086], [34.82945473449104, 31.991994717459708], [34.82943882923434, 31.992008942607928], [34.82942606407671, 31.992025305442667], [34.82941682688199, 31.992043308788425], [34.829411398319365, 31.992062405623496], [34.8294099433352, 31.99208201570068], [34.829412506140976, 31.992101543177863], [34.82954217571161, 31.992079296469058]]]}}, {"type": "Feature", "properties": {"OBJECTID": 11586177, "GROUP_ID": 421487, "LAYER_ID": 6851200, "DEFQ": "", "MAVAT_CODE": 0, "MAVAT_NAME": "", "LABEL": "", "ROZETA_NUM": 16, "TAGNAME": "KBR", "ROTATION": 33.7523614, "STAGE": "", "AGAM_ID": 4005042224.0, "SHAPE_AREA": 122.59320064, "SHAPE_LEN": 44.630048182}, "geometry": {"type": "Polygon", "coordinates": [[[34.83101403896131, 31.990302748093026], [34.83088422300152, 31.99032435200765], [34.83090957382964, 31.990434987597794], [34.83093173090093, 31.990429555209786], [34.830952444487785, 31.990420926293794], [34.83097108521698, 31.990409363035752], [34.83098708669882, 31.990395216780282], [34.83099996273663, 31.990378917355137], [34.83100932209961, 31.990360960010882], [34.831014880410024, 31.99034189037294], [34.83101646878371, 31.99032228786289], [34.83101403896131, 31.990302748093026]]]}}, {"type": "Feature", "properties": {"OBJECTID": 11586178, "GROUP_ID": 421487, "LAYER_ID": 6851200, "DEFQ": "", "MAVAT_CODE": 0, "MAVAT_NAME": "", "LABEL": "", "ROZETA_NUM": 16, "TAGNAME": "WIDTH", "ROTATION": 33.7523614, "STAGE": "", "AGAM_ID": 4005042224.0, "SHAPE_AREA": 122.591653188, "SHAPE_LEN": 44.6297920094}, "geometry": {"type": "Polygon", "coordinates": [[[34.83101403896131, 31.990302748093026], [34.83100847504587, 31.99028570701017], [34.830999851662476, 31.990269617518734], [34.830988381148664, 31.990254875794864], [34.83097434594728, 31.990241844827974], [34.83095809165176, 31.990230845482984], [34.83094001849639, 31.99022214859946], [34.8309205715013, 31.990215968322907], [34.83090022951466, 31.9902124568317], [34.83087949342197, 31.99021170059012], [34.830858873812815, 31.99021371821923], [34.83088422300152, 31.99032435200765], [34.83101403896131, 31.990302748093026]]]}}, {"type": "Feature", "properties": {"OBJECTID": 11586179, "GROUP_ID": 421487, "LAYER_ID": 6851200, "DEFQ": "", "MAVAT_CODE": 0, "MAVAT_NAME": "", "LABEL": "5", "ROZETA_NUM": 16, "TAGNAME": "ROADNO", "ROTATION": 33.7523614, "STAGE": "", "AGAM_ID": 4005042224.0, "SHAPE_AREA": 122.604132568, "SHAPE_LEN": 44.6303610089}, "geometry": {"type": "Polygon", "coordinates": [[[34.83090957382964, 31.990434987597794], [34.83088422300152, 31.99032435200765], [34.83075440909116, 31.990345957598766], [34.83076065423037, 31.990364554455848], [34.830770538080685, 31.99038196754939], [34.83078376959909, 31.990397684124265], [34.83079995916472, 31.99041124138178], [34.83081863005189, 31.990422240107428], [34.83083923246789, 31.99043035642651], [34.830861159742575, 31.990435351341215], [34.83088376619286, 31.990437077768423], [34.830896730241065, 31.990436572827353], [34.83090957382964, 31.990434987597794]]]}}, {"type": "Feature", "properties": {"OBJECTID": 11586180, "GROUP_ID": 421487, "LAYER_ID": 6851200, "DEFQ": "", "MAVAT_CODE": 0, "MAVAT_NAME": "", "LABEL": "", "ROZETA_NUM": 16, "TAGNAME": "KBL", "ROTATION": 33.7523614, "STAGE": "", "AGAM_ID": 4005042224.0, "SHAPE_AREA": 122.590671008, "SHAPE_LEN": 44.6296348604}, "geometry": {"type": "Polygon", "coordinates": [[[34.83088422300152, 31.99032435200765], [34.830858873812815, 31.99021371821923], [34.830838878407036, 31.990218460036374], [34.83081999955771, 31.99022580928546], [34.83080270212372, 31.990235585004047], [34.8307874120247, 31.99024754648216], [34.83077450575362, 31.990261399189155], [34.8307643011062, 31.990276802026045], [34.830757049355825, 31.990293375724402], [34.830752929066065, 31.990310712185135], [34.83075204169387, 31.990328384527192], [34.83075440909116, 31.990345957598766], [34.83088422300152, 31.99032435200765]]]}}, {"type": "Feature", "properties": {"OBJECTID": 11586181, "GROUP_ID": 421487, "LAYER_ID": 6851200, "DEFQ": "", "MAVAT_CODE": 0, "MAVAT_NAME": "", "LABEL": "15", "ROZETA_NUM": 17, "TAGNAME": "WIDTH", "ROTATION": 61.68105913, "STAGE": "", "AGAM_ID": 4005042224.0, "SHAPE_AREA": 122.591705738, "SHAPE_LEN": 44.6297854474}, "geometry": {"type": "Polygon", "coordinates": [[[34.83759391292965, 32.00098922874047], [34.83755551070592, 32.0010970975861], [34.83768209746039, 32.001129821955764], [34.83768684261424, 32.0011105934226], [34.837687597344996, 32.001090954854824], [34.83768433872305, 32.00107150296039], [34.83767716576244, 32.001052828774924], [34.83766629641195, 32.001035499703434], [34.83765206093272, 32.001020042280025], [34.83763489186312, 32.00100692616962], [34.837615310876366, 32.00099654989754], [34.83759391292965, 32.00098922874047]]]}}, {"type": "Feature", "properties": {"OBJECTID": 11586182, "GROUP_ID": 421487, "LAYER_ID": 6851200, "DEFQ": "", "MAVAT_CODE": 0, "MAVAT_NAME": "", "LABEL": "", "ROZETA_NUM": 17, "TAGNAME": "KBL", "ROTATION": 61.68105913, "STAGE": "", "AGAM_ID": 4005042224.0, "SHAPE_AREA": 122.590149537, "SHAPE_LEN": 44.6295364544}, "geometry": {"type": "Polygon", "coordinates": [[[34.83759391292965, 32.00098922874047], [34.837573637810756, 32.000985437713084], [34.83755291637002, 32.00098439614138], [34.83753225883624, 32.000986129672214], [34.83751217386462, 32.00099059562044], [34.83749315601221, 32.000997684019936], [34.83747567356035, 32.001007220331374], [34.837460156984264, 32.00101896973982], [34.83744698835332, 32.001032642936586], [34.83743649192323, 32.001047903243006], [34.83742892615187, 32.00106437490033], [34.83755551070592, 32.0010970975861], [34.83759391292965, 32.00098922874047]]]}}, {"type": "Feature", "properties": {"OBJECTID": 11586183, "GROUP_ID": 421487, "LAYER_ID": 6851200, "DEFQ": "", "MAVAT_CODE": 0, "MAVAT_NAME": "", "LABEL": "", "ROZETA_NUM": 17, "TAGNAME": "KBR", "ROTATION": 61.68105913, "STAGE": "", "AGAM_ID": 4005042224.0, "SHAPE_AREA": 122.591492333, "SHAPE_LEN": 44.6298553451}, "geometry": {"type": "Polygon", "coordinates": [[[34.83768209746039, 32.001129821955764], [34.83755551070592, 32.0010970975861], [34.83751711050042, 32.001204968227256], [34.8375358785576, 32.00120857384384], [34.837555061875634, 32.00120982143689], [34.837576136880415, 32.001208443508006], [34.837596685292304, 32.0012042227302], [34.837616182472296, 32.001197266867756], [34.837634130621616, 32.00118775351665], [34.83765007149146, 32.00117592557029], [34.83766359808299, 32.00116208501784], [34.83767436503877, 32.00114658523378], [34.83768209746039, 32.001129821955764]]]}}, {"type": "Feature", "properties": {"OBJECTID": 11586184, "GROUP_ID": 421487, "LAYER_ID": 6851200, "DEFQ": "", "MAVAT_CODE": 0, "MAVAT_NAME": "", "LABEL": "", "ROZETA_NUM": 17, "TAGNAME": "ROADNO", "ROTATION": 61.68105913, "STAGE": "", "AGAM_ID": 4005042224.0, "SHAPE_AREA": 122.590988118, "SHAPE_LEN": 44.6296706278}, "geometry": {"type": "Polygon", "coordinates": [[[34.83755551070592, 32.0010970975861], [34.83742892615187, 32.00106437490033], [34.8374244773341, 32.00108165232229], [34.837423255017335, 32.00109931008183], [34.83742528930089, 32.00111691338636], [34.837430530095745, 32.00113402878392], [34.83743884835779, 32.001150234836224], [34.83745003926502, 32.00116513249585], [34.83746382726096, 32.00117835493222], [34.837479872839545, 32.001189576564265], [34.837497780905025, 32.001198521077406], [34.83751711050042, 32.001204968227256], [34.83755551070592, 32.0010970975861]]]}}, {"type": "Feature", "properties": {"OBJECTID": 11586185, "GROUP_ID": 421487, "LAYER_ID": 6851200, "DEFQ": "", "MAVAT_CODE": 0, "MAVAT_NAME": "", "LABEL": "", "ROZETA_NUM": 18, "TAGNAME": "KBR", "ROTATION": 348.80258052, "STAGE": "", "AGAM_ID": 4005042224.0, "SHAPE_AREA": 122.593024883, "SHAPE_LEN": 44.6300162811}, "geometry": {"type": "Polygon", "coordinates": [[[34.834358070817395, 31.99826392827519], [34.83428410363927, 31.998357382653456], [34.83439376953449, 31.998420415573182], [34.83440494772656, 31.99840322977182], [34.83441245412706, 31.998384650930294], [34.834416060659805, 31.998365243557842], [34.83441565774457, 31.99834559733789], [34.83441125762626, 31.998326309210743], [34.834402994002566, 31.99830796523587], [34.834391117961374, 31.998291122784842], [34.8343759903513, 31.998276293605954], [34.834358070817395, 31.99826392827519]]]}}, {"type": "Feature", "properties": {"OBJECTID": 11586186, "GROUP_ID": 421487, "LAYER_ID": 6851200, "DEFQ": "", "MAVAT_CODE": 0, "MAVAT_NAME": "", "LABEL": "8", "ROZETA_NUM": 18, "TAGNAME": "ROADNO", "ROTATION": 348.80258052, "STAGE": "", "AGAM_ID": 4005042224.0, "SHAPE_AREA": 122.604340898, "SHAPE_LEN": 44.6304545072}, "geometry": {"type": "Polygon", "coordinates": [[[34.83439376953449, 31.998420415573182], [34.83428410363927, 31.998357382653456], [34.834210136310574, 31.998450836986123], [34.83422705568913, 31.998459085459846], [34.83424521382443, 31.998465125509007], [34.834264216423136, 31.99846882597736], [34.83428365085464, 31.998470106511395], [34.83430518442567, 31.998468666552807], [34.83432615591725, 31.99846425937281], [34.83434600615378, 31.998457002482652], [34.8343642058567, 31.998447089377237], [34.834380269757055, 31.99843478437559], [34.83439376953449, 31.998420415573182]]]}}, {"type": "Feature", "properties": {"OBJECTID": 11586187, "GROUP_ID": 421487, "LAYER_ID": 6851200, "DEFQ": "", "MAVAT_CODE": 0, "MAVAT_NAME": "", "LABEL": "", "ROZETA_NUM": 18, "TAGNAME": "KBL", "ROTATION": 348.80258052, "STAGE": "", "AGAM_ID": 4005042224.0, "SHAPE_AREA": 122.593024883, "SHAPE_LEN": 44.6300162811}, "geometry": {"type": "Polygon", "coordinates": [[[34.83428410363927, 31.998357382653456], [34.83417443789462, 31.99829434963947], [34.83416421702066, 31.998309745152454], [34.83415694814881, 31.99832631365987], [34.83415281026425, 31.99834364719045], [34.83415190525715, 31.99836131893539], [34.83415425541363, 31.99837889375769], [34.83415980286686, 31.998395938906622], [34.83416841102167, 31.998412034673567], [34.83417986791792, 31.99842678472667], [34.83419389144949, 31.998439825869877], [34.834210136310574, 31.998450836986123], [34.83428410363927, 31.998357382653456]]]}}, {"type": "Feature", "properties": {"OBJECTID": 11586188, "GROUP_ID": 421487, "LAYER_ID": 6851200, "DEFQ": "", "MAVAT_CODE": 0, "MAVAT_NAME": "", "LABEL": "16", "ROZETA_NUM": 18, "TAGNAME": "WIDTH", "ROTATION": 348.80258052, "STAGE": "", "AGAM_ID": 4005042224.0, "SHAPE_AREA": 122.593024883, "SHAPE_LEN": 44.6300162811}, "geometry": {"type": "Polygon", "coordinates": [[[34.834358070817395, 31.99826392827519], [34.83434000465728, 31.998255218332087], [34.8343205620326, 31.998249024011525], [34.83430022168407, 31.998245497837793], [34.834279484457014, 31.998244726636663], [34.834258860969136, 31.99824672939763], [34.83423885903746, 31.998251456806173], [34.834219971174555, 31.998258792458195], [34.83420266246113, 31.998268555726085], [34.83418735909462, 31.998280506206434], [34.83417443789462, 31.99829434963947], [34.83428410363927, 31.998357382653456], [34.834358070817395, 31.99826392827519]]]}}, {"type": "Feature", "properties": {"OBJECTID": 11586189, "GROUP_ID": 421487, "LAYER_ID": 6851200, "DEFQ": "", "MAVAT_CODE": 0, "MAVAT_NAME": "", "LABEL": "", "ROZETA_NUM": 19, "TAGNAME": "KBR", "ROTATION": 26.14819624, "STAGE": "", "AGAM_ID": 4005042224.0, "SHAPE_AREA": 122.594664171, "SHAPE_LEN": 44.6303006837}, "geometry": {"type": "Polygon", "coordinates": [[[34.8288056728481, 31.991468990678833], [34.82868035014752, 31.991505043476305], [34.8287226558998, 31.991611848314463], [34.82874377510023, 31.991603965065195], [34.8287629671915, 31.991593076158257], [34.82877964903063, 31.9915795124485], [34.82879331374824, 31.9915636860635], [34.82880354614952, 31.991546077880916], [34.82881003532967, 31.99152722291739], [34.82881258412035, 31.99150769407201], [34.828811115080306, 31.9914880847191], [34.8288056728481, 31.991468990678833]]]}}, {"type": "Feature", "properties": {"OBJECTID": 11586190, "GROUP_ID": 421487, "LAYER_ID": 6851200, "DEFQ": "", "MAVAT_CODE": 0, "MAVAT_NAME": "", "LABEL": "", "ROZETA_NUM": 19, "TAGNAME": "WIDTH", "ROTATION": 26.14819624, "STAGE": "", "AGAM_ID": 4005042224.0, "SHAPE_AREA": 122.593077311, "SHAPE_LEN": 44.6300467872}, "geometry": {"type": "Polygon", "coordinates": [[[34.8288056728481, 31.991468990678833], [34.82879751200724, 31.991452726749174], [34.82878646628337, 31.99143775105383], [34.828772807659675, 31.99142443234345], [34.828756872457085, 31.991413098568117], [34.828739053052836, 31.991404028802187], [34.82871978821894, 31.991397446372755], [34.82869955231823, 31.991393513360475], [34.82867884362406, 31.991392326608874], [34.82865817205139, 31.991393915339547], [34.82863804660109, 31.99139824043283], [34.82868035014752, 31.991505043476305], [34.8288056728481, 31.991468990678833]]]}}, {"type": "Feature", "properties": {"OBJECTID": 11586191, "GROUP_ID": 421487, "LAYER_ID": 6851200, "DEFQ": "", "MAVAT_CODE": 0, "MAVAT_NAME": "", "LABEL": "9", "ROZETA_NUM": 19, "TAGNAME": "ROADNO", "ROTATION": 26.14819624, "STAGE": "", "AGAM_ID": 4005042224.0, "SHAPE_AREA": 122.604748316, "SHAPE_LEN": 44.6306366344}, "geometry": {"type": "Polygon", "coordinates": [[[34.8287226558998, 31.991611848314463], [34.82868035014752, 31.991505043476305], [34.82855502945901, 31.991541097958915], [34.82856307615106, 31.99155717620091], [34.8285739427499, 31.99157200094773], [34.82858736796548, 31.991585215732954], [34.82860302898452, 31.99159650280211], [34.82862054923253, 31.991605590753306], [34.82863950742876, 31.99161226106315], [34.82865944771613, 31.991616353341392], [34.828679890622446, 31.99161776918759], [34.828701559643584, 31.9916163111056], [34.8287226558998, 31.991611848314463]]]}}, {"type": "Feature", "properties": {"OBJECTID": 11586192, "GROUP_ID": 421487, "LAYER_ID": 6851200, "DEFQ": "", "MAVAT_CODE": 0, "MAVAT_NAME": "", "LABEL": "", "ROZETA_NUM": 19, "TAGNAME": "KBL", "ROTATION": 26.14819624, "STAGE": "", "AGAM_ID": 4005042224.0, "SHAPE_AREA": 122.592298271, "SHAPE_LEN": 44.6299221414}, "geometry": {"type": "Polygon", "coordinates": [[[34.82868035014752, 31.991505043476305], [34.82863804660109, 31.99139824043283], [34.82861896282694, 31.991405195390918], [34.82860139063346, 31.991414608960216], [34.82858576270558, 31.991426249348088], [34.82857246385447, 31.991439829930343], [34.82856182154231, 31.991455016308716], [34.82855409781901, 31.99147143454489], [34.82854948286957, 31.991488680367922], [34.82854809033107, 31.991506329128814], [34.82854995449422, 31.99152394625655], [34.82855502945901, 31.991541097958915], [34.82868035014752, 31.991505043476305]]]}}, {"type": "Feature", "properties": {"OBJECTID": 11586193, "GROUP_ID": 421487, "LAYER_ID": 6851200, "DEFQ": "", "MAVAT_CODE": 0, "MAVAT_NAME": "", "LABEL": "", "ROZETA_NUM": 20, "TAGNAME": "KBL", "ROTATION": 296.32365429, "STAGE": "", "AGAM_ID": 4005042224.0, "SHAPE_AREA": 122.604088751, "SHAPE_LEN": 44.6306245788}, "geometry": {"type": "Polygon", "coordinates": [[[34.83220868063841, 31.989740500870415], [34.83216675727735, 31.9896335868973], [34.83204131058943, 31.9896693157752], [34.83204932320044, 31.989685453259433], [34.83206017350032, 31.989700337466253], [34.83207359930516, 31.989713608735723], [34.832089276196584, 31.98972494638253], [34.832106825360725, 31.989734076445114], [34.83212582274197, 31.989740778305602], [34.83214580928978, 31.989744890020933], [34.832166302051284, 31.98974631223595], [34.83218776979683, 31.989744881434206], [34.83220868063841, 31.989740500870415]]]}}, {"type": "Feature", "properties": {"OBJECTID": 11586194, "GROUP_ID": 421487, "LAYER_ID": 6851200, "DEFQ": "", "MAVAT_CODE": 0, "MAVAT_NAME": "", "LABEL": "17.5", "ROZETA_NUM": 20, "TAGNAME": "WIDTH", "ROTATION": 296.32365429, "STAGE": "", "AGAM_ID": 4005042224.0, "SHAPE_AREA": 122.593540733, "SHAPE_LEN": 44.630126101}, "geometry": {"type": "Polygon", "coordinates": [[[34.83216675727735, 31.9896335868973], [34.832124834010585, 31.98952667336014], [34.83210368731654, 31.98953450198085], [34.83208445697338, 31.989545341223312], [34.83206772728431, 31.989558861743564], [34.83205400657236, 31.98957465272853], [34.8320437117351, 31.98959223437815], [34.83203715557749, 31.98961107248376], [34.83203453730714, 31.989630594659634], [34.83203593648133, 31.989650207734595], [34.83204131058943, 31.9896693157752], [34.83216675727735, 31.9896335868973]]]}}, {"type": "Feature", "properties": {"OBJECTID": 11586195, "GROUP_ID": 421487, "LAYER_ID": 6851200, "DEFQ": "", "MAVAT_CODE": 0, "MAVAT_NAME": "", "LABEL": "1", "ROZETA_NUM": 20, "TAGNAME": "ROADNO", "ROTATION": 296.32365429, "STAGE": "", "AGAM_ID": 4005042224.0, "SHAPE_AREA": 122.594791831, "SHAPE_LEN": 44.6303610716}, "geometry": {"type": "Polygon", "coordinates": [[[34.832292203872825, 31.98959785699263], [34.83216675727735, 31.9896335868973], [34.83220868063841, 31.989740500870415], [34.832229827497436, 31.989732672105397], [34.83224905796145, 31.989721832697317], [34.832265787721525, 31.989708311997045], [34.8322795084522, 31.98969252082527], [34.83228980325675, 31.98967493898982], [34.83229635933425, 31.9896561007067], [34.8322989774837, 31.989636578368213], [34.83229757815644, 31.98961696515101], [34.832292203872825, 31.98959785699263]]]}}, {"type": "Feature", "properties": {"OBJECTID": 11586196, "GROUP_ID": 421487, "LAYER_ID": 6851200, "DEFQ": "", "MAVAT_CODE": 0, "MAVAT_NAME": "", "LABEL": "", "ROZETA_NUM": 20, "TAGNAME": "KBR", "ROTATION": 296.32365429, "STAGE": "", "AGAM_ID": 4005042224.0, "SHAPE_AREA": 122.593772974, "SHAPE_LEN": 44.6301446678}, "geometry": {"type": "Polygon", "coordinates": [[[34.832292203872825, 31.98959785699263], [34.83228410118587, 31.989581572030055], [34.832273109100555, 31.989566567830014], [34.83225949827937, 31.989553213845124], [34.83224360386622, 31.98954183889408], [34.83222581723405, 31.989532723065146], [34.83220657634797, 31.989526090819673], [34.83218635498122, 31.989522105464992], [34.83216565104933, 31.98952086513343], [34.832144974350044, 31.989522400365946], [34.832124834010585, 31.98952667336014], [34.83216675727735, 31.9896335868973], [34.832292203872825, 31.98959785699263]]]}}, {"type": "Feature", "properties": {"OBJECTID": 11586197, "GROUP_ID": 421487, "LAYER_ID": 6851200, "DEFQ": "", "MAVAT_CODE": 0, "MAVAT_NAME": "", "LABEL": "1", "ROZETA_NUM": 21, "TAGNAME": "ROADNO", "ROTATION": 293.26645228, "STAGE": "", "AGAM_ID": 4005042224.0, "SHAPE_AREA": 122.590783556, "SHAPE_LEN": 44.6296301581}, "geometry": {"type": "Polygon", "coordinates": [[[34.83380653182748, 31.99018715780795], [34.83368350076474, 31.99022853929139], [34.8337320563033, 31.990333393029246], [34.83375268282279, 31.990324614209683], [34.83377120726593, 31.99031291620749], [34.833787066776324, 31.990298654461345], [34.83379977947107, 31.990282262308167], [34.83380895908248, 31.990264237815996], [34.83381432669452, 31.990245128650514], [34.833815719217334, 31.99022551543435], [34.83381309434234, 31.990205994105064], [34.83380653182748, 31.99018715780795]]]}}, {"type": "Feature", "properties": {"OBJECTID": 11586198, "GROUP_ID": 421487, "LAYER_ID": 6851200, "DEFQ": "", "MAVAT_CODE": 0, "MAVAT_NAME": "", "LABEL": "", "ROZETA_NUM": 21, "TAGNAME": "KBR", "ROTATION": 293.26645228, "STAGE": "", "AGAM_ID": 4005042224.0, "SHAPE_AREA": 122.590345523, "SHAPE_LEN": 44.6295393757}, "geometry": {"type": "Polygon", "coordinates": [[[34.83380653182748, 31.99018715780795], [34.83379742134312, 31.990171264620823], [34.83378550576117, 31.99015678172655], [34.833771078483515, 31.990144065741337], [34.83375449475765, 31.990133429774154], [34.83373616292943, 31.99012513571704], [34.83371653438832, 31.99011938779661], [34.83369609245268, 31.990116327545184], [34.83367534046908, 31.990116030316077], [34.83365478941835, 31.990118503428008], [34.83363494533378, 31.990123685984933], [34.83368350076474, 31.99022853929139], [34.83380653182748, 31.99018715780795]]]}}, {"type": "Feature", "properties": {"OBJECTID": 11586199, "GROUP_ID": 421487, "LAYER_ID": 6851200, "DEFQ": "", "MAVAT_CODE": 0, "MAVAT_NAME": "", "LABEL": "", "ROZETA_NUM": 21, "TAGNAME": "KBL", "ROTATION": 293.26645228, "STAGE": "", "AGAM_ID": 4005042224.0, "SHAPE_AREA": 122.591602614, "SHAPE_LEN": 44.6297387263}, "geometry": {"type": "Polygon", "coordinates": [[[34.8337320563033, 31.990333393029246], [34.83368350076474, 31.99022853929139], [34.8335604690635, 31.990269920652914], [34.83357047174685, 31.990287083910644], [34.83358374119079, 31.990302555130267], [34.833599893885555, 31.990315887165114], [34.833618462989556, 31.99032669469478], [34.8336389118219, 31.99033466536153], [34.833660649373506, 31.99033956879819], [34.833683047388554, 31.990341263286222], [34.83369973024422, 31.990340411973257], [34.833716153955756, 31.990337774517815], [34.8337320563033, 31.990333393029246]]]}}, {"type": "Feature", "properties": {"OBJECTID": 11586200, "GROUP_ID": 421487, "LAYER_ID": 6851200, "DEFQ": "", "MAVAT_CODE": 0, "MAVAT_NAME": "", "LABEL": "16", "ROZETA_NUM": 21, "TAGNAME": "WIDTH", "ROTATION": 293.26645228, "STAGE": "", "AGAM_ID": 4005042224.0, "SHAPE_AREA": 122.590564094, "SHAPE_LEN": 44.6295940571}, "geometry": {"type": "Polygon", "coordinates": [[[34.83368350076474, 31.99022853929139], [34.83363494533378, 31.990123685984933], [34.83361629679467, 31.990131450341224], [34.83359930302866, 31.990141605353706], [34.83358438247815, 31.990153900972995], [34.83357190253666, 31.99016803444075], [34.83356217050238, 31.99018365774475], [34.83355542601142, 31.990200386187894], [34.83355183513702, 31.990217807860713], [34.833551486300216, 31.990235493783967], [34.83355438809236, 31.990253008471402], [34.8335604690635, 31.990269920652914], [34.83368350076474, 31.99022853929139]]]}}, {"type": "Feature", "properties": {"OBJECTID": 11586201, "GROUP_ID": 421487, "LAYER_ID": 6851200, "DEFQ": "", "MAVAT_CODE": 0, "MAVAT_NAME": "", "LABEL": "1", "ROZETA_NUM": 21, "TAGNAME": "ROADNO", "ROTATION": 293.26645228, "STAGE": "", "AGAM_ID": 4005042224.0, "SHAPE_AREA": 122.590783556, "SHAPE_LEN": 44.6296301581}, "geometry": {"type": "Polygon", "coordinates": [[[34.83380653182748, 31.99018715780795], [34.83368350076474, 31.99022853929139], [34.8337320563033, 31.990333393029246], [34.83375268282279, 31.990324614209683], [34.83377120726593, 31.99031291620749], [34.833787066776324, 31.990298654461345], [34.83379977947107, 31.990282262308167], [34.83380895908248, 31.990264237815996], [34.83381432669452, 31.990245128650514], [34.833815719217334, 31.99022551543435], [34.83381309434234, 31.990205994105064], [34.83380653182748, 31.99018715780795]]]}}, {"type": "Feature", "properties": {"OBJECTID": 11586202, "GROUP_ID": 421487, "LAYER_ID": 6851200, "DEFQ": "", "MAVAT_CODE": 0, "MAVAT_NAME": "", "LABEL": "", "ROZETA_NUM": 21, "TAGNAME": "KBR", "ROTATION": 293.26645228, "STAGE": "", "AGAM_ID": 4005042224.0, "SHAPE_AREA": 122.590345523, "SHAPE_LEN": 44.6295393757}, "geometry": {"type": "Polygon", "coordinates": [[[34.83380653182748, 31.99018715780795], [34.83379742134312, 31.990171264620823], [34.83378550576117, 31.99015678172655], [34.833771078483515, 31.990144065741337], [34.83375449475765, 31.990133429774154], [34.83373616292943, 31.99012513571704], [34.83371653438832, 31.99011938779661], [34.83369609245268, 31.990116327545184], [34.83367534046908, 31.990116030316077], [34.83365478941835, 31.990118503428008], [34.83363494533378, 31.990123685984933], [34.83368350076474, 31.99022853929139], [34.83380653182748, 31.99018715780795]]]}}, {"type": "Feature", "properties": {"OBJECTID": 11586203, "GROUP_ID": 421487, "LAYER_ID": 6851200, "DEFQ": "", "MAVAT_CODE": 0, "MAVAT_NAME": "", "LABEL": "", "ROZETA_NUM": 21, "TAGNAME": "KBL", "ROTATION": 293.26645228, "STAGE": "", "AGAM_ID": 4005042224.0, "SHAPE_AREA": 122.591602614, "SHAPE_LEN": 44.6297387263}, "geometry": {"type": "Polygon", "coordinates": [[[34.8337320563033, 31.990333393029246], [34.83368350076474, 31.99022853929139], [34.8335604690635, 31.990269920652914], [34.83357047174685, 31.990287083910644], [34.83358374119079, 31.990302555130267], [34.833599893885555, 31.990315887165114], [34.833618462989556, 31.99032669469478], [34.8336389118219, 31.99033466536153], [34.833660649373506, 31.99033956879819], [34.833683047388554, 31.990341263286222], [34.83369973024422, 31.990340411973257], [34.833716153955756, 31.990337774517815], [34.8337320563033, 31.990333393029246]]]}}, {"type": "Feature", "properties": {"OBJECTID": 11586204, "GROUP_ID": 421487, "LAYER_ID": 6851200, "DEFQ": "", "MAVAT_CODE": 0, "MAVAT_NAME": "", "LABEL": "16", "ROZETA_NUM": 21, "TAGNAME": "WIDTH", "ROTATION": 293.26645228, "STAGE": "", "AGAM_ID": 4005042224.0, "SHAPE_AREA": 122.590564094, "SHAPE_LEN": 44.6295940571}, "geometry": {"type": "Polygon", "coordinates": [[[34.83368350076474, 31.99022853929139], [34.83363494533378, 31.990123685984933], [34.83361629679467, 31.990131450341224], [34.83359930302866, 31.990141605353706], [34.83358438247815, 31.990153900972995], [34.83357190253666, 31.99016803444075], [34.83356217050238, 31.99018365774475], [34.83355542601142, 31.990200386187894], [34.83355183513702, 31.990217807860713], [34.833551486300216, 31.990235493783967], [34.83355438809236, 31.990253008471402], [34.8335604690635, 31.990269920652914], [34.83368350076474, 31.99022853929139]]]}}, {"type": "Feature", "properties": {"OBJECTID": 11586205, "GROUP_ID": 421487, "LAYER_ID": 6851200, "DEFQ": "", "MAVAT_CODE": 0, "MAVAT_NAME": "", "LABEL": "", "ROZETA_NUM": 22, "TAGNAME": "KBR", "ROTATION": 27.68587372, "STAGE": "", "AGAM_ID": 4005042224.0, "SHAPE_AREA": 122.5932086, "SHAPE_LEN": 44.6300647269}, "geometry": {"type": "Polygon", "coordinates": [[[34.83222773493747, 31.990914553886082], [34.832101325975636, 31.99094773149242], [34.83214025619756, 31.991055464090845], [34.832161615557105, 31.991048066017836], [34.832181143026105, 31.9910376193563], [34.832198245271385, 31.9910244415236], [34.83221240264979, 31.991008932922398], [34.83222318499732, 31.990991564774575], [34.832230264699305, 31.990972864803222], [34.83223342664471, 31.99095340119788], [34.832232574761925, 31.990933765350505], [34.83222773493747, 31.990914553886082]]]}}, {"type": "Feature", "properties": {"OBJECTID": 11586206, "GROUP_ID": 421487, "LAYER_ID": 6851200, "DEFQ": "", "MAVAT_CODE": 0, "MAVAT_NAME": "", "LABEL": "17.5", "ROZETA_NUM": 22, "TAGNAME": "WIDTH", "ROTATION": 27.68587372, "STAGE": "", "AGAM_ID": 4005042224.0, "SHAPE_AREA": 122.591721998, "SHAPE_LEN": 44.6297891698}, "geometry": {"type": "Polygon", "coordinates": [[[34.83222773493747, 31.990914553886082], [34.832219054416946, 31.99089635060021], [34.832206796783176, 31.99087970849751], [34.83219133447931, 31.990865133238938], [34.8321731373199, 31.990853067685258], [34.832152758215805, 31.990843878441204], [34.83213081637438, 31.990837844716378], [34.83210797848537, 31.990835149841843], [34.83208493846399, 31.990835875699673], [34.83206239636714, 31.990840000235142], [34.832101325975636, 31.99094773149242], [34.83222773493747, 31.990914553886082]]]}}, {"type": "Feature", "properties": {"OBJECTID": 11586207, "GROUP_ID": 421487, "LAYER_ID": 6851200, "DEFQ": "", "MAVAT_CODE": 0, "MAVAT_NAME": "", "LABEL": "3", "ROZETA_NUM": 22, "TAGNAME": "ROADNO", "ROTATION": 27.68587372, "STAGE": "", "AGAM_ID": 4005042224.0, "SHAPE_AREA": 122.59239183, "SHAPE_LEN": 44.6300450379}, "geometry": {"type": "Polygon", "coordinates": [[[34.83214025619756, 31.991055464090845], [34.832101325975636, 31.99094773149242], [34.831974916391275, 31.99098090987222], [34.83198264994236, 31.990997505630123], [34.83199336149507, 31.99101285238461], [34.83200678225793, 31.991026565028225], [34.832022575454765, 31.99103829945935], [34.832040344775734, 31.99104776121694], [34.83205964432212, 31.991054712869893], [34.832079989795695, 31.991058979974888], [34.83210087065176, 31.991060455454196], [34.83212078507637, 31.99105923009678], [34.83214025619756, 31.991055464090845]]]}}, {"type": "Feature", "properties": {"OBJECTID": 11586208, "GROUP_ID": 421487, "LAYER_ID": 6851200, "DEFQ": "", "MAVAT_CODE": 0, "MAVAT_NAME": "", "LABEL": "", "ROZETA_NUM": 22, "TAGNAME": "KBL", "ROTATION": 27.68587372, "STAGE": "", "AGAM_ID": 4005042224.0, "SHAPE_AREA": 122.592763501, "SHAPE_LEN": 44.6299903763}, "geometry": {"type": "Polygon", "coordinates": [[[34.832101325975636, 31.99094773149242], [34.83206239636714, 31.990840000235142], [34.83204310082619, 31.990846516730997], [34.83202523898339, 31.990855525485085], [34.83200925065584, 31.990866804672596], [34.83199552952902, 31.99088007656316], [34.83198441346295, 31.99089501435943], [34.83197617617294, 31.99091125024386], [34.83197102048974, 31.99092838443551], [34.83196907336506, 31.99094599503397], [34.831970382745396, 31.990963648407842], [34.831974916391275, 31.99098090987222], [34.832101325975636, 31.99094773149242]]]}}, {"type": "Feature", "properties": {"OBJECTID": 11586209, "GROUP_ID": 421487, "LAYER_ID": 6851200, "DEFQ": "", "MAVAT_CODE": 0, "MAVAT_NAME": "", "LABEL": "", "ROZETA_NUM": 23, "TAGNAME": "KBR", "ROTATION": 24.15360272, "STAGE": "", "AGAM_ID": 4005042224.0, "SHAPE_AREA": 122.592703679, "SHAPE_LEN": 44.6299518171}, "geometry": {"type": "Polygon", "coordinates": [[[34.832867614669404, 31.993246299988613], [34.83274384070844, 31.993286051494184], [34.83279048737261, 31.993391534822294], [34.832811271728374, 31.993383029337487], [34.83283000724433, 31.99337157726249], [34.832846124650665, 31.993357526563702], [34.83285913422837, 31.993341304165412], [34.83286864068905, 31.99332340297779], [34.832874355185474, 31.993304366919965], [34.83287610408783, 31.993284774393278], [34.83287383425911, 31.99326522070667], [34.832867614669404, 31.993246299988613]]]}}, {"type": "Feature", "properties": {"OBJECTID": 11586210, "GROUP_ID": 421487, "LAYER_ID": 6851200, "DEFQ": "", "MAVAT_CODE": 0, "MAVAT_NAME": "", "LABEL": "16.5", "ROZETA_NUM": 23, "TAGNAME": "WIDTH", "ROTATION": 24.15360272, "STAGE": "", "AGAM_ID": 4005042224.0, "SHAPE_AREA": 122.590544721, "SHAPE_LEN": 44.6295910411}, "geometry": {"type": "Polygon", "coordinates": [[[34.832867614669404, 31.993246299988613], [34.83285879391311, 31.99323028839083], [34.832847142658224, 31.99321564987732], [34.832832947798, 31.993202744896234], [34.83281655885723, 31.99319189121028], [34.83279837938563, 31.99318335607252], [34.83277885702122, 31.99317734964573], [34.83275847246802, 31.993174019827585], [34.83273772765978, 31.993173448608978], [34.832717133400706, 31.99317565005512], [34.83269719678811, 31.993180569959296], [34.83274384070844, 31.993286051494184], [34.832867614669404, 31.993246299988613]]]}}, {"type": "Feature", "properties": {"OBJECTID": 11586211, "GROUP_ID": 421487, "LAYER_ID": 6851200, "DEFQ": "", "MAVAT_CODE": 0, "MAVAT_NAME": "", "LABEL": "1", "ROZETA_NUM": 23, "TAGNAME": "ROADNO", "ROTATION": 24.15360272, "STAGE": "", "AGAM_ID": 4005042224.0, "SHAPE_AREA": 122.603913659, "SHAPE_LEN": 44.630418658}, "geometry": {"type": "Polygon", "coordinates": [[[34.83279048737261, 31.993391534822294], [34.83274384070844, 31.993286051494184], [34.83262006769266, 31.993325804684634], [34.83262990592221, 31.993343312680047], [34.8326431229919, 31.993359122567878], [34.832659326937566, 31.993372765489752], [34.83267803721566, 31.993383836850647], [34.83269869895403, 31.993392008317766], [34.8327206994074, 31.99339703755756], [34.83274338612907, 31.993398775422605], [34.8327593922266, 31.993397994557373], [34.83277516990223, 31.99339556914704], [34.83279048737261, 31.993391534822294]]]}}, {"type": "Feature", "properties": {"OBJECTID": 11586212, "GROUP_ID": 421487, "LAYER_ID": 6851200, "DEFQ": "", "MAVAT_CODE": 0, "MAVAT_NAME": "", "LABEL": "", "ROZETA_NUM": 23, "TAGNAME": "KBL", "ROTATION": 24.15360272, "STAGE": "", "AGAM_ID": 4005042224.0, "SHAPE_AREA": 122.591160811, "SHAPE_LEN": 44.6297227641}, "geometry": {"type": "Polygon", "coordinates": [[[34.83274384070844, 31.993286051494184], [34.83269719678811, 31.993180569959296], [34.832678408558344, 31.993188087185306], [34.832661231506094, 31.993198016649576], [34.832646088586884, 31.99321011385638], [34.832633352669596, 31.993224080933025], [34.832623337355365, 31.99323957396432], [34.83261628925553, 31.99325621146096], [34.83261238191916, 31.99327358375293], [34.83261171155963, 31.993291263076912], [34.832614294685236, 31.99330881410914], [34.83262006769266, 31.993325804684634], [34.83274384070844, 31.993286051494184]]]}}, {"type": "Feature", "properties": {"OBJECTID": 11586213, "GROUP_ID": 421487, "LAYER_ID": 6851200, "DEFQ": "", "MAVAT_CODE": 0, "MAVAT_NAME": "", "LABEL": "16.5", "ROZETA_NUM": 24, "TAGNAME": "WIDTH", "ROTATION": 115.55855632, "STAGE": "", "AGAM_ID": 4005042224.0, "SHAPE_AREA": 122.593148696, "SHAPE_LEN": 44.6300207877}, "geometry": {"type": "Polygon", "coordinates": [[[34.83124744279723, 31.995666047933096], [34.83112255742476, 31.99570319917007], [34.8311661546124, 31.99580962593315], [34.83118717816575, 31.995801557683215], [34.831206238292495, 31.995790500885253], [34.83122275585958, 31.995776791495317], [34.831236228989205, 31.995760846067217], [34.831246248308055, 31.99574314909556], [34.83125250938588, 31.99572423829448], [34.831254821985205, 31.995704688259526], [34.83125311584139, 31.995685093008593], [34.83124744279723, 31.995666047933096]]]}}, {"type": "Feature", "properties": {"OBJECTID": 11586214, "GROUP_ID": 421487, "LAYER_ID": 6851200, "DEFQ": "", "MAVAT_CODE": 0, "MAVAT_NAME": "", "LABEL": "", "ROZETA_NUM": 24, "TAGNAME": "KBR", "ROTATION": 115.55855632, "STAGE": "", "AGAM_ID": 4005042224.0, "SHAPE_AREA": 122.603176968, "SHAPE_LEN": 44.6304001677}, "geometry": {"type": "Polygon", "coordinates": [[[34.8311661546124, 31.99580962593315], [34.83112255742476, 31.99570319917007], [34.83099767406364, 31.99574035164207], [34.83100583513682, 31.99575623034733], [34.831016756610836, 31.99577085492096], [34.83103018020241, 31.995783879502973], [34.831045788454624, 31.99579499607169], [34.83106321224463, 31.995803941728578], [34.83108203951302, 31.995810504915386], [34.83110182500883, 31.995814530417487], [34.831122100819485, 31.99581592303465], [34.831144441880895, 31.99581437065964], [34.8311661546124, 31.99580962593315]]]}}, {"type": "Feature", "properties": {"OBJECTID": 11586215, "GROUP_ID": 421487, "LAYER_ID": 6851200, "DEFQ": "", "MAVAT_CODE": 0, "MAVAT_NAME": "", "LABEL": "", "ROZETA_NUM": 24, "TAGNAME": "KBL", "ROTATION": 115.55855632, "STAGE": "", "AGAM_ID": 4005042224.0, "SHAPE_AREA": 122.592453758, "SHAPE_LEN": 44.6299389132}, "geometry": {"type": "Polygon", "coordinates": [[[34.83124744279723, 31.995666047933096], [34.83123908543829, 31.99564985656235], [34.83122785879703, 31.99563497868088], [34.83121403931144, 31.995621780630877], [34.83119796726341, 31.99561058739137], [34.83118003839978, 31.995601674576353], [34.83116069418786, 31.995595261648273], [34.831140410945025, 31.995591506514145], [34.831119688110434, 31.995590501637523], [34.831099035947254, 31.995592271761765], [34.83107896297853, 31.99559677330058], [34.83112255742476, 31.99570319917007], [34.83124744279723, 31.995666047933096]]]}}, {"type": "Feature", "properties": {"OBJECTID": 11586216, "GROUP_ID": 421487, "LAYER_ID": 6851200, "DEFQ": "", "MAVAT_CODE": 0, "MAVAT_NAME": "", "LABEL": "2", "ROZETA_NUM": 24, "TAGNAME": "ROADNO", "ROTATION": 115.55855632, "STAGE": "", "AGAM_ID": 4005042224.0, "SHAPE_AREA": 122.591456905, "SHAPE_LEN": 44.6297745537}, "geometry": {"type": "Polygon", "coordinates": [[[34.83112255742476, 31.99570319917007], [34.83107896297853, 31.99559677330058], [34.83105996350833, 31.995603895441334], [34.83104250532914, 31.99561346277904], [34.831027018318665, 31.995625239734675], [34.83101388381839, 31.995638936321182], [34.83100342524382, 31.995654215283793], [34.83099590012072, 31.99567070040427], [34.830991493744044, 31.995687985764643], [34.83099031461512, 31.995705645742124], [34.830992391769854, 31.995723245489426], [34.83099767406364, 31.99574035164207], [34.83112255742476, 31.99570319917007]]]}}]}