<?xml version="1.0" encoding="UTF-8"?>
<kml xmlns="http://www.opengis.net/kml/2.2"
 xmlns:gx="http://www.google.com/kml/ext/2.2">
<Document>
  <Style id="Plan">
	<LabelStyle>		
<color>00000000</color>
			
<scale>0</scale>
		
</LabelStyle>
		
<LineStyle>
			
<color>ffff0000</color>
			
<width>3</width>
		
</LineStyle>
		
<PolyStyle>
			
<fill>0</fill>
		
</PolyStyle>

   <BalloonStyle>
    <text>


<![CDATA[<?xml version="1.0"?>
<table border="0"  width="560" cellpadding="2" cellspacing="2" dir="rtl" xmlns:fo="http://www.w3.org/1999/XSL/Format">
<tr>
<td align="center" colspan="2" height="20" style="border-bottom: Solid 1px #b4b5b4">
<font face="Arial" size="3" color="#b50027">
<b>פרטי גבול תכנית</b>
</font>
</td>
</tr>


<tr>
<td  align="right"><font face="Arial" size="3">מספר תכנית</font>
</td>
<td align="right" bgcolor="#efefef" height="20">
<font face="Arial" size="3" color="#202520">
<b>$[PL_NUMBER]</b>
</font>
</td>
</tr>

<tr>
<td  align="right"><font face="Arial" size="3">שם תכנית</font>
</td>
<td align="right" bgcolor="#efefef" height="20">
<font face="Arial" size="3" color="#202520">
<b>$[PL_NAME]</b>
</font>
</td>
</tr>

<tr>
<td  align="right"><font face="Arial" size="3">שטח התכנית</font>
</td>
<td align="right" bgcolor="#efefef" height="20">
<font face="Arial" size="3" color="#202520">
<b>$[PL_AREA]</b>
</font>
</td>
</tr>

<tr>
<td  align="right"><font face="Arial" size="3">קישור לתכנית</font>
</td>
<td align="right" bgcolor="#efefef" height="20">
<font face="Arial" size="3" color="#202520">
<b>$[PL_URL]</b>
</font>
</td>
</tr>


<tr>
<td  align="right"><font face="Arial" size="3">תאריך יצור הקובץ</font>
</td>
<td align="right" bgcolor="#efefef" height="20">
<font face="Arial" size="3" color="#202520">
<b>$[CREATE_DATE]</b>
</font>
</td>
</tr>

</table>]]> 

</text>
     </BalloonStyle>
  </Style>

  <Placemark>
   <name name="name"><value>גבול תכנית</value></name>
   <description/>   
   <styleUrl>#Plan</styleUrl>
<MultiGeometry>
<Polygon><outerBoundaryIs><LinearRing><coordinates>34.8382062203307,32.0052846763249,0 34.8393457908756,32.0062393879682,0 34.8400715478141,32.0056782307767,0 34.8410345741252,32.0049731322443,0 34.8415362393516,32.0046054141074,0 34.8418236963201,32.0043745277722,0 34.8422016946339,32.0040622224541,0 34.8425737375713,32.0037447668497,0 34.8429397284973,32.0034222446029,0 34.843153938103,32.0032285602875,0 34.8439786910071,32.0024659592521,0 34.8445076031584,32.0019765247175,0 34.8452649430421,32.0013164776131,0 34.8457757995375,32.000872654596,0 34.8458472606615,32.0008167763621,0 34.8459557641503,32.0007402379171,0 34.8460400179824,32.0006869216678,0 34.8462625315455,32.0005550242532,0 34.8467356040618,32.0002810881196,0 34.846854668822,32.0002135065003,0 34.8470546054483,32.0001200355892,0 34.8472125785209,32.0000508696608,0 34.8472856990538,32.0000284313394,0 34.8473646626037,31.9999968768878,0 34.8474396159368,31.9999588794582,0 34.8475098380104,31.9999148049635,0 34.8475746530702,31.9998650762584,0 34.8476334348806,31.9998101740531,0 34.8476856194688,31.9997506252248,0 34.847730702998,31.9996870055173,0 34.8477682524018,31.9996199260432,0 34.8477950657854,31.9995577663578,0 34.8477987684149,31.99954715626,0 34.8478242817804,31.9994892115366,0 34.8478576580276,31.9994342450129,0 34.8478984285296,31.9993830282091,0 34.8479460211623,31.9993362791471,0 34.8479997687949,31.9992946560631,0 34.8480589156994,31.999258742095,0 34.848091037306,31.999242723465,0 34.8499609872377,31.9984145118695,0 34.8492911552618,31.9973567312116,0 34.8488568637546,31.9975284963165,0 34.8476985838289,31.9979476786076,0 34.8467193105725,31.9982684059575,0 34.8454227181853,31.9986491203387,0 34.8451097958559,31.9987281546292,0 34.8450912293485,31.9987305053352,0 34.8450486789513,31.9987303847933,0 34.8450070892088,31.9987227288066,0 34.8449682758353,31.9987078698748,0 34.8449339358292,31.9986864603029,0 34.844905569314,31.9986594332008,0 34.8448913102055,31.9986400040702,0 34.8448602922918,31.9985775972096,0 34.8447571853608,31.9983917765281,0 34.8447536058219,31.9983865034693,0 34.8447089336574,31.9983287003245,0 34.84465730349,31.9982752710036,0 34.8445993023992,31.9982268204681,0 34.8445355864594,31.9981838988657,0 34.8444668776036,31.9981469916017,0 34.844393954107,31.9981165175089,0 34.8443176432115,31.9980928207111,0 34.8442388084274,31.9980761705871,0 34.8441689551621,31.9980675737527,0 34.8441388354829,31.9980649198808,0 34.8440575277934,31.998062843838,0 34.8439764208826,31.9980681441424,0 34.8438964345703,31.9980807611842,0 34.8438184752488,31.9981005514505,0 34.8437434252843,31.9981272920035,0 34.8436721366748,31.9981606786589,0 34.8436054162083,31.9982003331579,0 34.8435440201578,31.9982458067587,0 34.8434886426233,31.9982965847119,0 34.8434645795796,31.9983224565401,0 34.8434413395444,31.9983492117649,0 34.8434003073282,31.9984056712641,0 34.8433803866893,31.9984392427163,0 34.8430829089557,31.9991348410016,0 34.8430433156562,31.9992244095748,0 34.842980638236,31.9993486163517,0 34.8429102283197,31.9994697773199,0 34.8428322872649,31.999587543142,0 34.8427470407336,31.999701574469,0 34.8426547334052,31.9998115410232,0 34.842557327825,31.9999154166315,0 34.8425466170221,31.9999273186995,0 34.8424400470638,32.0000391778614,0 34.8423270166832,32.0001463318319,0 34.8422078116046,32.0002485117717,0 34.8421471911444,32.0002967193426,0 34.8419542110248,32.0004715276327,0 34.8417321763621,32.0006824066256,0 34.8415165318374,32.000898048774,0 34.8413074198224,32.0011183138368,0 34.8412258397845,32.001207454989,0 34.8411042357023,32.0013422189555,0 34.84097155702,32.0015004339457,0 34.8408459129174,32.0016627667349,0 34.8407815544307,32.00175135004,0 34.8400508161169,32.0027339807738,0 34.8390572090818,32.0041154484351,0 34.8388888352232,32.0043404511122,0 34.8386119244425,32.004699510518,0 34.8386756465381,32.004762628174,0 34.8383766774645,32.0050982127066,0 34.8382062203307,32.0052846763249,0 </coordinates></LinearRing></outerBoundaryIs></Polygon>
</MultiGeometry>

   <ExtendedData>
  
    <Data name="PL_NUMBER"><value>מח/ 150/ 1</value></Data>
	 <Data name="PL_NAME"><value>חניון "חנה וסע" מחלף שפירים.</value></Data>
	  <Data name="PL_AREA"><value>324.03</value></Data>
	   <Data name="PL_URL"><value>http://mavat.moin.gov.il/MavatPS/Forms/SV3.aspx?tid=3&amp;tnumb=%D7%9E%D7%97/%20150/%201</value></Data>
	    <Data name="CREATE_DATE"><value>07/10/2019 03:55:56</value></Data>
   </ExtendedData>
  </Placemark>

</Document>
</kml>