<?xml version="1.0" encoding="UTF-8"?>
<kml xmlns="http://www.opengis.net/kml/2.2"
 xmlns:gx="http://www.google.com/kml/ext/2.2">
<Document>
  <Style id="Plan">
	<LabelStyle>		
<color>00000000</color>
			
<scale>0</scale>
		
</LabelStyle>
		
<LineStyle>
			
<color>ffff0000</color>
			
<width>3</width>
		
</LineStyle>
		
<PolyStyle>
			
<fill>0</fill>
		
</PolyStyle>

   <BalloonStyle>
    <text>


<![CDATA[<?xml version="1.0"?>
<table border="0"  width="560" cellpadding="2" cellspacing="2" dir="rtl" xmlns:fo="http://www.w3.org/1999/XSL/Format">
<tr>
<td align="center" colspan="2" height="20" style="border-bottom: Solid 1px #b4b5b4">
<font face="Arial" size="3" color="#b50027">
<b>פרטי גבול תכנית</b>
</font>
</td>
</tr>


<tr>
<td  align="right"><font face="Arial" size="3">מספר תכנית</font>
</td>
<td align="right" bgcolor="#efefef" height="20">
<font face="Arial" size="3" color="#202520">
<b>$[PL_NUMBER]</b>
</font>
</td>
</tr>

<tr>
<td  align="right"><font face="Arial" size="3">שם תכנית</font>
</td>
<td align="right" bgcolor="#efefef" height="20">
<font face="Arial" size="3" color="#202520">
<b>$[PL_NAME]</b>
</font>
</td>
</tr>

<tr>
<td  align="right"><font face="Arial" size="3">שטח התכנית</font>
</td>
<td align="right" bgcolor="#efefef" height="20">
<font face="Arial" size="3" color="#202520">
<b>$[PL_AREA]</b>
</font>
</td>
</tr>

<tr>
<td  align="right"><font face="Arial" size="3">קישור לתכנית</font>
</td>
<td align="right" bgcolor="#efefef" height="20">
<font face="Arial" size="3" color="#202520">
<b>$[PL_URL]</b>
</font>
</td>
</tr>


<tr>
<td  align="right"><font face="Arial" size="3">תאריך יצור הקובץ</font>
</td>
<td align="right" bgcolor="#efefef" height="20">
<font face="Arial" size="3" color="#202520">
<b>$[CREATE_DATE]</b>
</font>
</td>
</tr>

</table>]]> 

</text>
     </BalloonStyle>
  </Style>

  <Placemark>
   <name name="name"><value>גבול תכנית</value></name>
   <description/>   
   <styleUrl>#Plan</styleUrl>
<MultiGeometry>
<Polygon><outerBoundaryIs><LinearRing><coordinates>34.9280218400836,32.0507240356255,0 34.9281034033661,32.050724213493,0 34.928305816014,32.0506446202278,0 34.9286292531457,32.0504813102661,0 34.9286749530835,32.050413774966,0 34.9289032308333,32.0498731934658,0 34.9289607359991,32.049785956916,0 34.9290466976176,32.0496982185526,0 34.9291549601598,32.0496218010298,0 34.929330962977,32.0495207310625,0 34.9296990543117,32.0493050983049,0 34.929938686087,32.0491703480199,0 34.9301987289997,32.0489589887099,0 34.9309967574324,32.0483672178667,0 34.9312519065876,32.0462378359456,0 34.9318705520881,32.0461551879938,0 34.9324289691181,32.0460199908031,0 34.9330066067136,32.0458177611249,0 34.9338917520808,32.0461330282268,0 34.9354572169495,32.0466616571722,0 34.9355930459448,32.0466033285327,0 34.9356798464354,32.0465651862329,0 34.9358070461381,32.0465158570378,0 34.9359130452379,32.0464749371501,0 34.9359856345597,32.0459210491036,0 34.9359954859502,32.0458331447118,0 34.936003016867,32.0458038522425,0 34.9360501897566,32.0455689211583,0 34.9360663593222,32.0454703212884,0 34.9360783093778,32.0454004572788,0 34.9360891011141,32.0453305908148,0 34.9361052738839,32.0452308636957,0 34.9361321511221,32.0450911419638,0 34.9361429625144,32.0450145120509,0 34.93615260737,32.0449406977846,0 34.9361548235143,32.0449181575342,0 34.9361689049739,32.0447981355258,0 34.9361755889705,32.0447186787527,0 34.9361864627633,32.0446206312681,0 34.9361984371137,32.0444853869546,0 34.9362351676685,32.0442571971321,0 34.9362788817396,32.0441299106914,0 34.936304583891,32.0440527486319,0 34.9363155905816,32.0439090478928,0 34.9363264805569,32.0438053641808,0 34.9363385170314,32.0436487022683,0 34.9363430504582,32.0435692409222,0 34.9363517462476,32.0434802067765,0 34.9363649255355,32.0433291835071,0 34.9363612169912,32.0431257075124,0 34.9363655827745,32.0431037354218,0 34.9363058591605,32.0428775959879,0 34.9362954080961,32.0428307931103,0 34.9362557257252,32.0426537313051,0 34.9362223824521,32.0424580833133,0 34.9362213304579,32.0424220091669,0 34.9362145513706,32.0422506531975,0 34.936210423971,32.0421909003433,0 34.9361741408575,32.0419259203773,0 34.936137764217,32.0416930667503,0 34.9361035084367,32.0414703628238,0 34.9360763648733,32.0413051635721,0 34.9360300545159,32.0408485301799,0 34.936006317416,32.0406495206767,0 34.9359959654604,32.0405689005343,0 34.9359816130745,32.0404420547557,0 34.935981762794,32.0403907652951,0 34.9359681764343,32.0402847752199,0 34.935936954639,32.0400998404331,0 34.9358089830038,32.039340367782,0 34.9355344396888,32.0383579525546,0 34.9352120652284,32.0374988687176,0 34.9348888384479,32.0368759407059,0 34.9345812937537,32.0363223709935,0 34.9339731829623,32.0357709776988,0 34.9336460486317,32.0354129414999,0 34.9330410743868,32.034811387826,0 34.9329534983891,32.0347232749038,0 34.932706474065,32.0345192772422,0 34.9319346027991,32.0338080172532,0 34.931472227855,32.0333764134254,0 34.931289613388,32.0332086236207,0 34.9308127352099,32.0326501706031,0 34.930575823828,32.0322196135213,0 34.9303653112921,32.0318122216568,0 34.9301846223961,32.0313333136172,0 34.930144479503,32.0309832158726,0 34.9298257383552,32.0309825258477,0 34.9296871109212,32.0309872981127,0 34.928227020681,32.0310511967365,0 34.9272507909009,32.0311014831431,0 34.9259061499904,32.0311661710232,0 34.9258459414424,32.0311660387297,0 34.9211101674983,32.0313088493279,0 34.9209758142913,32.0313220759848,0 34.9216975051786,32.0337946166299,0 34.9218611270579,32.0343242245759,0 34.9216300271568,32.0347593907067,0 34.9218386131933,32.0357833972168,0 34.9218360295777,32.0366243184801,0 34.917090077953,32.0369151881948,0 34.9171847856349,32.0391118445872,0 34.9172984781455,32.0413750507381,0 34.9175046769786,32.0414566794465,0 34.9181098398016,32.041606844478,0 34.9185564042273,32.0416895778341,0 34.9186031222085,32.0419872763678,0 34.9192869817278,32.0423145909789,0 34.9217853543691,32.0427789762767,0 34.9217923960345,32.0422102959189,0 34.9218855304742,32.042211067186,0 34.922189409158,32.0422156895734,0 34.9223245767362,32.0423196972049,0 34.9222718811814,32.043265340031,0 34.9221911981929,32.0447052179899,0 34.9224002265515,32.044946914039,0 34.9223783345676,32.0462048722777,0 34.922678953379,32.0461982138176,0 34.9231715471692,32.0464929555644,0 34.9235361557502,32.0467141408028,0 34.9236258276038,32.046820864277,0 34.9249222917919,32.0466258983502,0 34.9250551041413,32.0468544585503,0 34.9250820362271,32.0470292410822,0 34.9251077903287,32.0472648923024,0 34.9251698627675,32.0474172073235,0 34.9253564024244,32.0477146475723,0 34.9253379770932,32.0478436766784,0 34.925076768388,32.0487629339365,0 34.9250935332268,32.0488537141848,0 34.9252095184646,32.0490134750671,0 34.9255895592436,32.0493879937973,0 34.9256369310234,32.0494788413043,0 34.9256493131138,32.0495419943075,0 34.9256688332869,32.049760722928,0 34.9257064005036,32.0510120482364,0 34.9273816037594,32.0506031495783,0 34.9274896378223,32.0506033857053,0 34.9276176234055,32.0506262102345,0 34.9280218400836,32.0507240356255,0 </coordinates></LinearRing></outerBoundaryIs></Polygon>
</MultiGeometry>

   <ExtendedData>
  
    <Data name="PL_NUMBER"><value>משמ/ 115/ גז</value></Data>
	 <Data name="PL_NAME"><value>תכנית מפורטת מס' משמ/115(גז)</value></Data>
	  <Data name="PL_AREA"><value>2493</value></Data>
	   <Data name="PL_URL"><value>http://mavat.moin.gov.il/MavatPS/Forms/SV3.aspx?tid=3&amp;tnumb=%D7%9E%D7%A9%D7%9E/%20115/%20%D7%92%D7%96</value></Data>
	    <Data name="CREATE_DATE"><value>07/10/2019 05:36:06</value></Data>
   </ExtendedData>
  </Placemark>

</Document>
</kml>