{"type": "FeatureCollection", "features": [{"type": "Feature", "properties": {"OBJECTID": 27935038, "LAYER_ID": 7408284, "GROUP_ID": 443912, "SCENARIO": "", "DEFQ": 0, "PLAN_NAME": "", "DATA_DATE": null, "MAVAT_CODE": 30001, "MAVAT_NAME": "׳¢׳‘׳¨׳™׳× ENTITY", "BLOCKNAME": "dim", "ROTATION": 340.68859966, "TYPE_CODE": 0, "TYPE_NAME": "", "SOURCE_COD": 0, "STATUS": "", "PL_CHANGE": "", "PLACE_NO": 0, "REMARKS": "", "VALUE1": "", "TAGNAME1": "", "TAGNAME2": "", "VALUE2": "", "TAGNAME3": "0", "VALUE3": "0.7", "DATE_DEC": "", "STAGE": "", "NAME": "NUMBER", "LABEL": "3", "FONT_SIZE": 2.0, "AGAM_ID": 4005360672.0}, "geometry": {"type": "Point", "coordinates": [34.85819764528546, 31.984916388144793]}}, {"type": "Feature", "properties": {"OBJECTID": 27935039, "LAYER_ID": 7408284, "GROUP_ID": 443912, "SCENARIO": "", "DEFQ": 0, "PLAN_NAME": "", "DATA_DATE": null, "MAVAT_CODE": 30001, "MAVAT_NAME": "׳¢׳‘׳¨׳™׳× ENTITY", "BLOCKNAME": "dim", "ROTATION": 70.70995378, "TYPE_CODE": 0, "TYPE_NAME": "", "SOURCE_COD": 0, "STATUS": "", "PL_CHANGE": "", "PLACE_NO": 0, "REMARKS": "", "VALUE1": "", "TAGNAME1": "", "TAGNAME2": "", "VALUE2": "", "TAGNAME3": "0", "VALUE3": "0.7", "DATE_DEC": "", "STAGE": "", "NAME": "NUMBER", "LABEL": "3", "FONT_SIZE": 2.0, "AGAM_ID": 4005360672.0}, "geometry": {"type": "Point", "coordinates": [34.858184032914714, 31.985008555098343]}}, {"type": "Feature", "properties": {"OBJECTID": 27935040, "LAYER_ID": 7408284, "GROUP_ID": 443912, "SCENARIO": "", "DEFQ": 0, "PLAN_NAME": "", "DATA_DATE": null, "MAVAT_CODE": 30001, "MAVAT_NAME": "׳¢׳‘׳¨׳™׳× ENTITY", "BLOCKNAME": "dim", "ROTATION": 70.85881034, "TYPE_CODE": 0, "TYPE_NAME": "", "SOURCE_COD": 0, "STATUS": "", "PL_CHANGE": "", "PLACE_NO": 0, "REMARKS": "", "VALUE1": "", "TAGNAME1": "", "TAGNAME2": "", "VALUE2": "", "TAGNAME3": "0", "VALUE3": "0.7", "DATE_DEC": "", "STAGE": "", "NAME": "NUMBER", "LABEL": "3", "FONT_SIZE": 2.0, "AGAM_ID": 4005360672.0}, "geometry": {"type": "Point", "coordinates": [34.858080915473984, 31.98477159880074]}}]}