{"type": "FeatureCollection", "features": [{"type": "Feature", "properties": {"OBJECTID": 23028637, "LAYER_ID": 7408280, "GROUP_ID": 443912, "SCENARIO": "", "DEFQ": 0, "PLAN_NAME": "", "DATA_DATE": null, "MAVAT_CODE": 60, "MAVAT_NAME": "", "NAME": "", "LABEL": "", "NUM": "225", "LEGAL_AREA": 0.0, "TYPE_CODE": 0, "TYPE_NAME": "", "SOURCE_COD": 0, "HASAVA": 0, "STATUS": "", "PL_CHANGE": "", "ADDRESS": "", "PLACE_NO": 0, "CALC_AREA": 0.0, "OLD_MIG": "", "AGAM_ID": 4005360672.0, "FONT_SIZE": 3.0, "ROTATION": 0.0}, "geometry": {"type": "Point", "coordinates": [34.85808255621441, 31.98492576313143]}}]}