{"type": "FeatureCollection", "features": [{"type": "Feature", "properties": {"OBJECTID": 6145739, "LAYER_ID": 2086343, "GROUP_ID": 232648, "SCENARIO": "", "DEFQ": 0, "PLAN_NAME": "425-0541870", "DATA_DATE": null, "MAVAT_CODE": 20010, "MAVAT_NAME": "גבול תכנית אמיתי", "NAME": "", "LABEL": "", "TYPE_CODE": 0, "TYPE_NAME": "", "SOURCE_COD": 0, "LEGAL_AREA": 0.0, "IS_ANALITY": 0, "HASAVA": 0, "STATUS": "", "PL_CHANGE": "", "ADDRESS": "", "PLACE_NO": 0, "REMARKS": "", "AGAM_ID": 4000883137.0, "VER_ID": 4000229615.0, "SHAPE_AREA": 923.20128976, "SHAPE_LEN": 125.644212568}, "geometry": {"type": "Polygon", "coordinates": [[[34.851653376537726, 31.99306756764563], [34.85179034297287, 31.99286392621245], [34.851381019935765, 31.99274737540964], [34.85129591352854, 31.99292958057459], [34.851653376537726, 31.99306756764563]]]}}]}