{"type": "FeatureCollection", "features": [{"type": "Feature", "properties": {"OBJECTID": 14222835, "LAYER_ID": 2086358, "GROUP_ID": 232648, "SCENARIO": "", "DEFQ": 0, "PLAN_NAME": "", "DATA_DATE": null, "MAVAT_CODE": 30001, "MAVAT_NAME": "עברית ENTITY", "BLOCKNAME": "dim", "ROTATION": 288.28836718, "TYPE_CODE": 0, "TYPE_NAME": "", "SOURCE_COD": 0, "STATUS": "", "PL_CHANGE": "", "PLACE_NO": 0, "REMARKS": "", "VALUE1": "", "TAGNAME1": "", "TAGNAME2": "", "VALUE2": "", "TAGNAME3": "0", "VALUE3": "0.7", "DATE_DEC": "", "STAGE": "", "NAME": "NUMBER", "LABEL": "3", "FONT_SIZE": 2.0, "AGAM_ID": 4000883137.0}, "geometry": {"type": "Point", "coordinates": [34.851546093051695, 31.99281529480154]}}, {"type": "Feature", "properties": {"OBJECTID": 14222836, "LAYER_ID": 2086358, "GROUP_ID": 232648, "SCENARIO": "", "DEFQ": 0, "PLAN_NAME": "", "DATA_DATE": null, "MAVAT_CODE": 30001, "MAVAT_NAME": "עברית ENTITY", "BLOCKNAME": "dim", "ROTATION": 29.63432025, "TYPE_CODE": 0, "TYPE_NAME": "", "SOURCE_COD": 0, "STATUS": "", "PL_CHANGE": "", "PLACE_NO": 0, "REMARKS": "", "VALUE1": "", "TAGNAME1": "", "TAGNAME2": "", "VALUE2": "", "TAGNAME3": "0", "VALUE3": "0.7", "DATE_DEC": "", "STAGE": "", "NAME": "NUMBER", "LABEL": "5", "FONT_SIZE": 2.0, "AGAM_ID": 4000883137.0}, "geometry": {"type": "Point", "coordinates": [34.85164460067452, 31.99302261001599]}}, {"type": "Feature", "properties": {"OBJECTID": 14222837, "LAYER_ID": 2086358, "GROUP_ID": 232648, "SCENARIO": "", "DEFQ": 0, "PLAN_NAME": "", "DATA_DATE": null, "MAVAT_CODE": 30001, "MAVAT_NAME": "עברית ENTITY", "BLOCKNAME": "dim", "ROTATION": 294.18127555, "TYPE_CODE": 0, "TYPE_NAME": "", "SOURCE_COD": 0, "STATUS": "", "PL_CHANGE": "", "PLACE_NO": 0, "REMARKS": "", "VALUE1": "", "TAGNAME1": "", "TAGNAME2": "", "VALUE2": "", "TAGNAME3": "0", "VALUE3": "0.7", "DATE_DEC": "", "STAGE": "", "NAME": "NUMBER", "LABEL": "3", "FONT_SIZE": 2.0, "AGAM_ID": 4000883137.0}, "geometry": {"type": "Point", "coordinates": [34.85158842287237, 31.99303457406747]}}]}