{"type": "FeatureCollection", "features": [{"type": "Feature", "properties": {"OBJECTID": 6172401, "GROUP_ID": 232648, "LAYER_ID": 2715244, "DEFQ": "", "MAVAT_CODE": 0, "MAVAT_NAME": "", "LABEL": "14", "ROZETA_NUM": 1, "TAGNAME": "WIDTH", "ROTATION": 32.39836808, "STAGE": "", "AGAM_ID": 4000883137.0, "SHAPE_AREA": 3.95302018375, "SHAPE_LEN": 8.02856233625}, "geometry": {"type": "Polygon", "coordinates": [[[34.85180647498277, 31.9929561316954], [34.85180562248985, 31.992953617037486], [34.851803880995305, 31.99295040699548], [34.85180151188418, 31.9929475034402], [34.85179858714075, 31.99294499459465], [34.85179519563185, 31.99294295668884], [34.851791440406764, 31.99294145164342], [34.851787435566045, 31.992940525188448], [34.85178330279466, 31.992940205473747], [34.85177916766472, 31.992940502213703], [34.851778106754935, 31.99294067983279], [34.85178322447015, 31.99296049358915], [34.85180647498277, 31.9929561316954]]]}}, {"type": "Feature", "properties": {"OBJECTID": 6172402, "GROUP_ID": 232648, "LAYER_ID": 2715244, "DEFQ": "", "MAVAT_CODE": 0, "MAVAT_NAME": "", "LABEL": "5", "ROZETA_NUM": 1, "TAGNAME": "KBL", "ROTATION": 32.39836808, "STAGE": "", "AGAM_ID": 4000883137.0, "SHAPE_AREA": 3.9559565275, "SHAPE_LEN": 8.0291340123}, "geometry": {"type": "Polygon", "coordinates": [[[34.85178322447015, 31.99296049358915], [34.851778106754935, 31.99294067983279], [34.851775152216625, 31.99294140707431], [34.85177138541325, 31.992942891273792], [34.85176797825446, 31.992944910363818], [34.85176503426497, 31.992947402995394], [34.851763163596694, 31.992949566156895], [34.8517626466018, 31.992950288490174], [34.85176088053694, 31.99295348886569], [34.8517597934068, 31.992956901975415], [34.85175941824332, 31.99296042411371], [34.85175976644576, 31.992963948262233], [34.85175997554434, 31.992964855032138], [34.85178322447015, 31.99296049358915]]]}}, {"type": "Feature", "properties": {"OBJECTID": 6172403, "GROUP_ID": 232648, "LAYER_ID": 2715244, "DEFQ": "", "MAVAT_CODE": 0, "MAVAT_NAME": "", "LABEL": "5", "ROZETA_NUM": 1, "TAGNAME": "KBR", "ROTATION": 32.39836808, "STAGE": "", "AGAM_ID": 4000883137.0, "SHAPE_AREA": 3.95292227375, "SHAPE_LEN": 8.02889517469}, "geometry": {"type": "Polygon", "coordinates": [[[34.85180647498277, 31.9929561316954], [34.85178322447015, 31.99296049358915], [34.85178834323879, 31.992980309151793], [34.85179129529933, 31.992979582367184], [34.85179506227063, 31.992978098101425], [34.85179846958091, 31.992976078921316], [34.851801413700734, 31.99297358617864], [34.85180328587747, 31.992971421019735], [34.851803803601456, 31.99297069771263], [34.851805569718586, 31.99296749723969], [34.851806656880086, 31.992964084026294], [34.85180703205312, 31.992960561781285], [34.85180668383835, 31.992957037526235], [34.85180647498277, 31.9929561316954]]]}}, {"type": "Feature", "properties": {"OBJECTID": 6172404, "GROUP_ID": 232648, "LAYER_ID": 2715244, "DEFQ": "", "MAVAT_CODE": 0, "MAVAT_NAME": "", "LABEL": "0", "ROZETA_NUM": 1, "TAGNAME": "ROADNO", "ROTATION": 32.39836808, "STAGE": "", "AGAM_ID": 4000883137.0, "SHAPE_AREA": 3.95288031, "SHAPE_LEN": 8.02866777168}, "geometry": {"type": "Polygon", "coordinates": [[[34.85178834323879, 31.992980309151793], [34.85178322447015, 31.99296049358915], [34.85175997554434, 31.992964855032138], [34.85176082850654, 31.992967371500736], [34.8517625700243, 31.992970581588285], [34.851764939167964, 31.992973485184955], [34.851767863952325, 31.992975994066395], [34.85177125550932, 31.992978032001485], [34.85177501078816, 31.992979537068585], [34.85177901568654, 31.99298046353693], [34.851783148517605, 31.992980783256236], [34.85178728370726, 31.992980486512018], [34.85178834323879, 31.992980309151793]]]}}]}