{"type": "FeatureCollection", "features": [{"type": "Feature", "properties": {"OBJECTID": 5846770, "LAYER_ID": 2086351, "GROUP_ID": 232648, "DEFQ": 0, "MAVAT_CODE": 22340, "MAVAT_NAME": "מלבן הדפסה", "PAGE_SIZE": 2, "SCALE": 250, "PAGE": 1, "PAGES": 1, "PLAN_NAME": "", "VER_ID": 4000229615.0, "AGAM_ID": 4000883137.0, "SHAPE_AREA": 9000.0, "SHAPE_LEN": 380.0}, "geometry": {"type": "Polygon", "coordinates": [[[34.85213127486586, 31.99261799371349], [34.8511789308265, 31.992615346404197], [34.851175474601256, 31.993517139715568], [34.8521278279589, 31.993519787117226], [34.85213127486586, 31.99261799371349]]]}}]}