{"type": "FeatureCollection", "features": [{"type": "Feature", "properties": {"OBJECTID": 12125831, "LAYER_ID": 2086348, "GROUP_ID": 232648, "SCENARIO": "", "DEFQ": 0, "PLAN_NAME": "", "DATA_DATE": null, "MAVAT_CODE": 23505, "MAVAT_NAME": "בלוק מידות - מספר", "BLOCKNAME": "", "ROTATION": 29.63432025, "TYPE_CODE": 0, "TYPE_NAME": "", "SOURCE_COD": 0, "STATUS": "", "PL_CHANGE": "", "PLACE_NO": 0, "ADDRESS": "", "RADIUS": 0.0, "LENGTH": 0.0, "WIDTH": 0.0, "REMARKS": "", "DATE_DEC": "", "TAG1": "", "TAG2": "", "TAG3": "", "STAGE": "", "NAME": "5", "LABEL": "", "AGAM_ID": 4000883137.0}, "geometry": {"type": "Point", "coordinates": [34.85164460067452, 31.99302261001599]}}, {"type": "Feature", "properties": {"OBJECTID": 12125832, "LAYER_ID": 2086348, "GROUP_ID": 232648, "SCENARIO": "", "DEFQ": 0, "PLAN_NAME": "", "DATA_DATE": null, "MAVAT_CODE": 23505, "MAVAT_NAME": "בלוק מידות - מספר", "BLOCKNAME": "", "ROTATION": 294.18127555, "TYPE_CODE": 0, "TYPE_NAME": "", "SOURCE_COD": 0, "STATUS": "", "PL_CHANGE": "", "PLACE_NO": 0, "ADDRESS": "", "RADIUS": 0.0, "LENGTH": 0.0, "WIDTH": 0.0, "REMARKS": "", "DATE_DEC": "", "TAG1": "", "TAG2": "", "TAG3": "", "STAGE": "", "NAME": "3", "LABEL": "", "AGAM_ID": 4000883137.0}, "geometry": {"type": "Point", "coordinates": [34.85158842287237, 31.99303457406747]}}, {"type": "Feature", "properties": {"OBJECTID": 12125833, "LAYER_ID": 2086348, "GROUP_ID": 232648, "SCENARIO": "", "DEFQ": 0, "PLAN_NAME": "", "DATA_DATE": null, "MAVAT_CODE": 23505, "MAVAT_NAME": "בלוק מידות - מספר", "BLOCKNAME": "", "ROTATION": 288.28836718, "TYPE_CODE": 0, "TYPE_NAME": "", "SOURCE_COD": 0, "STATUS": "", "PL_CHANGE": "", "PLACE_NO": 0, "ADDRESS": "", "RADIUS": 0.0, "LENGTH": 0.0, "WIDTH": 0.0, "REMARKS": "", "DATE_DEC": "", "TAG1": "", "TAG2": "", "TAG3": "", "STAGE": "", "NAME": "3", "LABEL": "", "AGAM_ID": 4000883137.0}, "geometry": {"type": "Point", "coordinates": [34.851546093051695, 31.99281529480154]}}]}