{"type": "FeatureCollection", "features": [{"type": "Feature", "properties": {"OBJECTID": 12168898, "LAYER_ID": 2086352, "GROUP_ID": 232648, "SCENARIO": "", "DEFQ": 0, "PLAN_NAME": "", "DATA_DATE": null, "MAVAT_CODE": 20, "MAVAT_NAME": "", "NAME": "", "LABEL": "", "NUM": "101", "LEGAL_AREA": 0.0, "TYPE_CODE": 0, "TYPE_NAME": "", "SOURCE_COD": 0, "HASAVA": 0, "STATUS": "", "PL_CHANGE": "", "ADDRESS": "", "PLACE_NO": 0, "CALC_AREA": 0.0, "OLD_MIG": "", "AGAM_ID": 4000883137.0, "FONT_SIZE": 0.75, "ROTATION": 0.0}, "geometry": {"type": "Point", "coordinates": [34.85147854375787, 31.99283677727814]}}]}