{"type": "FeatureCollection", "features": [{"type": "Feature", "properties": {"OBJECTID": 21914773, "LAYER_ID": 2086346, "GROUP_ID": 232648, "SCENARIO": "", "DEFQ": 0, "PLAN_NAME": "", "DATA_DATE": null, "MAVAT_CODE": 21010, "MAVAT_NAME": "קו בנין", "NAME": "", "LABEL": "", "TYPE_CODE": 0, "TYPE_NAME": "", "SOURCE_COD": 0, "PL_CHANGE": "", "PLACE_NO": 0, "ADDRESS": "", "LENGTH": 0.0, "WIDTH": 0.0, "REMARKS": "", "DATE_DEC": "", "STATUS": "", "STAGE": "", "AGAM_ID": 4000883137.0, "SHAPE_LEN": 121.13086653}, "geometry": {"type": "LineString", "coordinates": [[34.85169175658819, 31.992919852654165], [34.85170682805741, 31.992924652366863], [34.85173366881478, 31.992855755314434], [34.85159574002325, 31.99281542046099], [34.851588114188466, 31.992834866975954], [34.85145250465976, 31.99279625350937], [34.851464694182326, 31.992771563762304], [34.8513808952222, 31.992747339098784], [34.85129586441065, 31.992929685155286], [34.85131530563304, 31.992936711946857], [34.85138863391513, 31.992965861805693], [34.85140210123127, 31.99294060378692], [34.85162084710174, 31.993025310821274], [34.85169175658819, 31.992919852654165]]}}, {"type": "Feature", "properties": {"OBJECTID": 21914774, "LAYER_ID": 2086346, "GROUP_ID": 232648, "SCENARIO": "", "DEFQ": 0, "PLAN_NAME": "", "DATA_DATE": null, "MAVAT_CODE": 23500, "MAVAT_NAME": "מידות - קו", "NAME": "", "LABEL": "", "TYPE_CODE": 0, "TYPE_NAME": "", "SOURCE_COD": 0, "PL_CHANGE": "", "PLACE_NO": 0, "ADDRESS": "", "LENGTH": 0.0, "WIDTH": 0.0, "REMARKS": "", "DATE_DEC": "", "STATUS": "", "STAGE": "", "AGAM_ID": 4000883137.0, "SHAPE_LEN": 4.99729799861}, "geometry": {"type": "LineString", "coordinates": [[34.851682515290825, 31.993024241051778], [34.851636637822715, 31.993001829926907]]}}, {"type": "Feature", "properties": {"OBJECTID": 21914775, "LAYER_ID": 2086346, "GROUP_ID": 232648, "SCENARIO": "", "DEFQ": 0, "PLAN_NAME": "", "DATA_DATE": null, "MAVAT_CODE": 23500, "MAVAT_NAME": "מידות - קו", "NAME": "", "LABEL": "", "TYPE_CODE": 0, "TYPE_NAME": "", "SOURCE_COD": 0, "PL_CHANGE": "", "PLACE_NO": 0, "ADDRESS": "", "LENGTH": 0.0, "WIDTH": 0.0, "REMARKS": "", "DATE_DEC": "", "STATUS": "", "STAGE": "", "AGAM_ID": 4000883137.0, "SHAPE_LEN": 3.00000124697}, "geometry": {"type": "LineString", "coordinates": [[34.85156926814903, 31.993035099694985], [34.851582364937144, 31.993010455431076]]}}, {"type": "Feature", "properties": {"OBJECTID": 21914776, "LAYER_ID": 2086346, "GROUP_ID": 232648, "SCENARIO": "", "DEFQ": 0, "PLAN_NAME": "", "DATA_DATE": null, "MAVAT_CODE": 23500, "MAVAT_NAME": "מידות - קו", "NAME": "", "LABEL": "", "TYPE_CODE": 0, "TYPE_NAME": "", "SOURCE_COD": 0, "PL_CHANGE": "", "PLACE_NO": 0, "ADDRESS": "", "LENGTH": 0.0, "WIDTH": 0.0, "REMARKS": "", "DATE_DEC": "", "STATUS": "", "STAGE": "", "AGAM_ID": 4000883137.0, "SHAPE_LEN": 3.00008024125}, "geometry": {"type": "LineString", "coordinates": [[34.85153716058148, 31.992791834060494], [34.85152710127156, 31.992817494577235]]}}, {"type": "Feature", "properties": {"OBJECTID": 21914777, "LAYER_ID": 2086346, "GROUP_ID": 232648, "SCENARIO": "", "DEFQ": 0, "PLAN_NAME": "", "DATA_DATE": null, "MAVAT_CODE": 23500, "MAVAT_NAME": "מידות - קו", "NAME": "", "LABEL": "", "TYPE_CODE": 0, "TYPE_NAME": "", "SOURCE_COD": 0, "PL_CHANGE": "", "PLACE_NO": 0, "ADDRESS": "", "LENGTH": 0.0, "WIDTH": 0.0, "REMARKS": "", "DATE_DEC": "", "STATUS": "", "STAGE": "", "AGAM_ID": 4000883137.0, "SHAPE_LEN": 3.00008024125}, "geometry": {"type": "LineString", "coordinates": [[34.85153716058148, 31.992791834060494], [34.85152710127156, 31.992817494577235]]}}, {"type": "Feature", "properties": {"OBJECTID": 21914778, "LAYER_ID": 2086346, "GROUP_ID": 232648, "SCENARIO": "", "DEFQ": 0, "PLAN_NAME": "", "DATA_DATE": null, "MAVAT_CODE": 23500, "MAVAT_NAME": "מידות - קו", "NAME": "", "LABEL": "", "TYPE_CODE": 0, "TYPE_NAME": "", "SOURCE_COD": 0, "PL_CHANGE": "", "PLACE_NO": 0, "ADDRESS": "", "LENGTH": 0.0, "WIDTH": 0.0, "REMARKS": "", "DATE_DEC": "", "STATUS": "", "STAGE": "", "AGAM_ID": 4000883137.0, "SHAPE_LEN": 4.99729799861}, "geometry": {"type": "LineString", "coordinates": [[34.851682515290825, 31.993024241051778], [34.851636637822715, 31.993001829926907]]}}, {"type": "Feature", "properties": {"OBJECTID": 21914779, "LAYER_ID": 2086346, "GROUP_ID": 232648, "SCENARIO": "", "DEFQ": 0, "PLAN_NAME": "", "DATA_DATE": null, "MAVAT_CODE": 23500, "MAVAT_NAME": "מידות - קו", "NAME": "", "LABEL": "", "TYPE_CODE": 0, "TYPE_NAME": "", "SOURCE_COD": 0, "PL_CHANGE": "", "PLACE_NO": 0, "ADDRESS": "", "LENGTH": 0.0, "WIDTH": 0.0, "REMARKS": "", "DATE_DEC": "", "STATUS": "", "STAGE": "", "AGAM_ID": 4000883137.0, "SHAPE_LEN": 3.00000124697}, "geometry": {"type": "LineString", "coordinates": [[34.85156926814903, 31.993035099694985], [34.851582364937144, 31.993010455431076]]}}, {"type": "Feature", "properties": {"OBJECTID": 21914780, "LAYER_ID": 2086346, "GROUP_ID": 232648, "SCENARIO": "", "DEFQ": 0, "PLAN_NAME": "", "DATA_DATE": null, "MAVAT_CODE": 23500, "MAVAT_NAME": "מידות - קו", "NAME": "", "LABEL": "", "TYPE_CODE": 0, "TYPE_NAME": "", "SOURCE_COD": 0, "PL_CHANGE": "", "PLACE_NO": 0, "ADDRESS": "", "LENGTH": 0.0, "WIDTH": 0.0, "REMARKS": "", "DATE_DEC": "", "STATUS": "", "STAGE": "", "AGAM_ID": 4000883137.0, "SHAPE_LEN": 3.00008024125}, "geometry": {"type": "LineString", "coordinates": [[34.85153716058148, 31.992791834060494], [34.85152710127156, 31.992817494577235]]}}, {"type": "Feature", "properties": {"OBJECTID": 21914781, "LAYER_ID": 2086346, "GROUP_ID": 232648, "SCENARIO": "", "DEFQ": 0, "PLAN_NAME": "", "DATA_DATE": null, "MAVAT_CODE": 23500, "MAVAT_NAME": "מידות - קו", "NAME": "", "LABEL": "", "TYPE_CODE": 0, "TYPE_NAME": "", "SOURCE_COD": 0, "PL_CHANGE": "", "PLACE_NO": 0, "ADDRESS": "", "LENGTH": 0.0, "WIDTH": 0.0, "REMARKS": "", "DATE_DEC": "", "STATUS": "", "STAGE": "", "AGAM_ID": 4000883137.0, "SHAPE_LEN": 4.99729799861}, "geometry": {"type": "LineString", "coordinates": [[34.851682515290825, 31.993024241051778], [34.851636637822715, 31.993001829926907]]}}, {"type": "Feature", "properties": {"OBJECTID": 21914782, "LAYER_ID": 2086346, "GROUP_ID": 232648, "SCENARIO": "", "DEFQ": 0, "PLAN_NAME": "", "DATA_DATE": null, "MAVAT_CODE": 23500, "MAVAT_NAME": "מידות - קו", "NAME": "", "LABEL": "", "TYPE_CODE": 0, "TYPE_NAME": "", "SOURCE_COD": 0, "PL_CHANGE": "", "PLACE_NO": 0, "ADDRESS": "", "LENGTH": 0.0, "WIDTH": 0.0, "REMARKS": "", "DATE_DEC": "", "STATUS": "", "STAGE": "", "AGAM_ID": 4000883137.0, "SHAPE_LEN": 3.00000124697}, "geometry": {"type": "LineString", "coordinates": [[34.85156926814903, 31.993035099694985], [34.851582364937144, 31.993010455431076]]}}]}