{"type": "FeatureCollection", "features": [{"type": "Feature", "properties": {"OBJECTID": 12618295, "LAYER_ID": 2086344, "GROUP_ID": 232648, "SCENARIO": "", "DEFQ": 0, "PLAN_NAME": "", "DATA_DATE": null, "MAVAT_CODE": 20, "MAVAT_NAME": "מגורים א'", "NAME": "", "LABEL": "", "NUM": "101", "LEGAL_AREA": 0.0, "TYPE_CODE": 0, "TYPE_NAME": "", "SOURCE_COD": 0, "HASAVA": 0, "STATUS": "", "PL_CHANGE": "", "ADDRESS": "", "PLACE_NO": 0, "CALC_AREA": 0.0, "OLD_MIG": "", "AGAM_ID": 4000883137.0, "SHAPE_AREA": 923.20128976, "SHAPE_LEN": 125.644212568}, "geometry": {"type": "Polygon", "coordinates": [[[34.851653376537726, 31.99306756764563], [34.85179034297287, 31.99286392621245], [34.851381019935765, 31.992747375409646], [34.85129591352855, 31.99292958057459], [34.851653376537726, 31.99306756764563]]]}}]}