<?xml version="1.0" encoding="UTF-8"?>
<kml xmlns="http://www.opengis.net/kml/2.2"
 xmlns:gx="http://www.google.com/kml/ext/2.2">
<Document>
  <Style id="Plan">
	<LabelStyle>		
<color>00000000</color>
			
<scale>0</scale>
		
</LabelStyle>
		
<LineStyle>
			
<color>ffff0000</color>
			
<width>3</width>
		
</LineStyle>
		
<PolyStyle>
			
<fill>0</fill>
		
</PolyStyle>

   <BalloonStyle>
    <text>


<![CDATA[<?xml version="1.0"?>
<table border="0"  width="560" cellpadding="2" cellspacing="2" dir="rtl" xmlns:fo="http://www.w3.org/1999/XSL/Format">
<tr>
<td align="center" colspan="2" height="20" style="border-bottom: Solid 1px #b4b5b4">
<font face="Arial" size="3" color="#b50027">
<b>פרטי גבול תכנית</b>
</font>
</td>
</tr>


<tr>
<td  align="right"><font face="Arial" size="3">מספר תכנית</font>
</td>
<td align="right" bgcolor="#efefef" height="20">
<font face="Arial" size="3" color="#202520">
<b>$[PL_NUMBER]</b>
</font>
</td>
</tr>

<tr>
<td  align="right"><font face="Arial" size="3">שם תכנית</font>
</td>
<td align="right" bgcolor="#efefef" height="20">
<font face="Arial" size="3" color="#202520">
<b>$[PL_NAME]</b>
</font>
</td>
</tr>

<tr>
<td  align="right"><font face="Arial" size="3">שטח התכנית</font>
</td>
<td align="right" bgcolor="#efefef" height="20">
<font face="Arial" size="3" color="#202520">
<b>$[PL_AREA]</b>
</font>
</td>
</tr>

<tr>
<td  align="right"><font face="Arial" size="3">קישור לתכנית</font>
</td>
<td align="right" bgcolor="#efefef" height="20">
<font face="Arial" size="3" color="#202520">
<b>$[PL_URL]</b>
</font>
</td>
</tr>


<tr>
<td  align="right"><font face="Arial" size="3">תאריך יצור הקובץ</font>
</td>
<td align="right" bgcolor="#efefef" height="20">
<font face="Arial" size="3" color="#202520">
<b>$[CREATE_DATE]</b>
</font>
</td>
</tr>

</table>]]> 

</text>
     </BalloonStyle>
  </Style>

  <Placemark>
   <name name="name"><value>גבול תכנית</value></name>
   <description/>   
   <styleUrl>#Plan</styleUrl>
<MultiGeometry>
<Polygon><outerBoundaryIs><LinearRing><coordinates>34.8518419259471,31.9861450006802,0 34.8519146484784,31.9849999835139,0 34.851491754752,31.984987351502,0 34.8514182320406,31.986155446785,0 34.8518419259471,31.9861450006802,0 </coordinates></LinearRing></outerBoundaryIs></Polygon>
</MultiGeometry>

   <ExtendedData>
  
    <Data name="PL_NUMBER"><value>425-0736678</value></Data>
	 <Data name="PL_NAME"><value>תוספת יח"ד שלישית בנחלה 22 כפר חב"ד</value></Data>
	  <Data name="PL_AREA"><value>5131</value></Data>
	   <Data name="PL_URL"><value>http://mavat.moin.gov.il/MavatPS/Forms/SV3.aspx?tid=3&amp;tnumb=425-0736678</value></Data>
	    <Data name="CREATE_DATE"><value>07/08/2019 09:23:35</value></Data>
   </ExtendedData>
  </Placemark>

</Document>
</kml>