<?xml version="1.0" encoding="UTF-8"?>
<kml xmlns="http://www.opengis.net/kml/2.2"
 xmlns:gx="http://www.google.com/kml/ext/2.2">
<Document>
  <Style id="Plan">
	<LabelStyle>		
<color>00000000</color>
			
<scale>0</scale>
		
</LabelStyle>
		
<LineStyle>
			
<color>ffff0000</color>
			
<width>3</width>
		
</LineStyle>
		
<PolyStyle>
			
<fill>0</fill>
		
</PolyStyle>

   <BalloonStyle>
    <text>


<![CDATA[<?xml version="1.0"?>
<table border="0"  width="560" cellpadding="2" cellspacing="2" dir="rtl" xmlns:fo="http://www.w3.org/1999/XSL/Format">
<tr>
<td align="center" colspan="2" height="20" style="border-bottom: Solid 1px #b4b5b4">
<font face="Arial" size="3" color="#b50027">
<b>פרטי גבול תכנית</b>
</font>
</td>
</tr>


<tr>
<td  align="right"><font face="Arial" size="3">מספר תכנית</font>
</td>
<td align="right" bgcolor="#efefef" height="20">
<font face="Arial" size="3" color="#202520">
<b>$[PL_NUMBER]</b>
</font>
</td>
</tr>

<tr>
<td  align="right"><font face="Arial" size="3">שם תכנית</font>
</td>
<td align="right" bgcolor="#efefef" height="20">
<font face="Arial" size="3" color="#202520">
<b>$[PL_NAME]</b>
</font>
</td>
</tr>

<tr>
<td  align="right"><font face="Arial" size="3">שטח התכנית</font>
</td>
<td align="right" bgcolor="#efefef" height="20">
<font face="Arial" size="3" color="#202520">
<b>$[PL_AREA]</b>
</font>
</td>
</tr>

<tr>
<td  align="right"><font face="Arial" size="3">קישור לתכנית</font>
</td>
<td align="right" bgcolor="#efefef" height="20">
<font face="Arial" size="3" color="#202520">
<b>$[PL_URL]</b>
</font>
</td>
</tr>


<tr>
<td  align="right"><font face="Arial" size="3">תאריך יצור הקובץ</font>
</td>
<td align="right" bgcolor="#efefef" height="20">
<font face="Arial" size="3" color="#202520">
<b>$[CREATE_DATE]</b>
</font>
</td>
</tr>

</table>]]> 

</text>
     </BalloonStyle>
  </Style>

  <Placemark>
   <name name="name"><value>גבול תכנית</value></name>
   <description/>   
   <styleUrl>#Plan</styleUrl>
<MultiGeometry>
<Polygon><outerBoundaryIs><LinearRing><coordinates>34.8499642267382,31.9957805029944,0 34.8502303583841,31.9955417053404,0 34.8504750828876,31.995322574293,0 34.8507684210232,31.9950596154728,0 34.8510038546215,31.9948483482396,0 34.8512623476238,31.9946168542193,0 34.8512601122553,31.9945959938339,0 34.8513545453809,31.9945038220282,0 34.8514622584701,31.9943981600753,0 34.851498648578,31.9943943159374,0 34.8515692883292,31.9943409679674,0 34.8515674510242,31.9943026362861,0 34.8517602699947,31.9941222485019,0 34.8519052966904,31.9939868177056,0 34.8522886073309,31.9936282888239,0 34.8518612448095,31.9930116220939,0 34.8517984301412,31.9929212673216,0 34.851776396149,31.9928896430079,0 34.8515039336076,31.9924966015027,0 34.8514763102008,31.9924565071933,0 34.8511589588401,31.9919990866473,0 34.8508260691965,31.9911110114972,0 34.8507764786132,31.9909789847121,0 34.8512692003446,31.9903699499112,0 34.8510713619149,31.990050386502,0 34.8498357296295,31.9905023490838,0 34.8493556359329,31.9904057534792,0 34.8492068935552,31.9901331055783,0 34.8491668347357,31.9900597219852,0 34.8491211289224,31.9900787572867,0 34.8488475506321,31.9901940978396,0 34.8485595656161,31.9903150336505,0 34.8482687650838,31.9904370881508,0 34.8481349553328,31.9904936386896,0 34.8482266385891,31.9905992942528,0 34.8492185372851,31.9921734652392,0 34.8490027434489,31.9927804498267,0 34.8490020777488,31.9927815752139,0 34.8489870913252,31.9928091509056,0 34.8488963451675,31.9929740390699,0 34.8487461564486,31.9932464130981,0 34.8489119782697,31.993507273139,0 34.8490260350517,31.9936862621734,0 34.8490460768951,31.9939343137675,0 34.8490770053505,31.9943176660797,0 34.8490839434046,31.9944050475395,0 34.8491463315204,31.994605309494,0 34.8491557672317,31.9947738600765,0 34.8491667417354,31.9949722871371,0 34.8492070612488,31.9949785999287,0 34.8493171164747,31.9949952532024,0 34.8493654636431,31.9950635872662,0 34.8494189888358,31.9950327376406,0 34.8494564870249,31.9950846961571,0 34.8495020476748,31.9951468224863,0 34.8497696494072,31.9955139277427,0 34.8499642267382,31.9957805029944,0 </coordinates></LinearRing></outerBoundaryIs></Polygon>
</MultiGeometry>

   <ExtendedData>
  
    <Data name="PL_NUMBER"><value>גז/ 45</value></Data>
	 <Data name="PL_NAME"><value>תכנית מס' גז/45</value></Data>
	  <Data name="PL_AREA"><value>133</value></Data>
	   <Data name="PL_URL"><value>http://mavat.moin.gov.il/MavatPS/Forms/SV3.aspx?tid=3&amp;tnumb=%D7%92%D7%96/%2045</value></Data>
	    <Data name="CREATE_DATE"><value>07/10/2019 05:48:32</value></Data>
   </ExtendedData>
  </Placemark>

</Document>
</kml>