{"type": "FeatureCollection", "features": [{"type": "Feature", "properties": {"OBJECTID": 5991292, "LAYER_ID": 2660133, "GROUP_ID": 255925, "SCENARIO": "", "DEFQ": 0, "PLAN_NAME": "תמא/ 4/ 2/ א/ 2", "DATA_DATE": null, "MAVAT_CODE": 20010, "MAVAT_NAME": "גבול תכנית אמיתי", "NAME": "", "LABEL": "", "TYPE_CODE": 0, "TYPE_NAME": "", "SOURCE_COD": 0, "LEGAL_AREA": 0.0, "IS_ANALITY": 0, "HASAVA": 0, "STATUS": "", "PL_CHANGE": "", "ADDRESS": "", "PLACE_NO": 0, "REMARKS": "", "AGAM_ID": 99000395267.0, "VER_ID": 99000946055.0, "SHAPE_AREA": 532674.255811, "SHAPE_LEN": 4641.76810358}, "geometry": {"type": "Polygon", "coordinates": [[[34.859335384178486, 31.994000638188325], [34.859293832072986, 31.993949704436915], [34.85918126153331, 31.993803071172106], [34.85913888070444, 31.993744208016636], [34.85911290681022, 31.993705948458405], [34.85906001777428, 31.993617588213326], [34.85901483827297, 31.993526173553217], [34.85897760933919, 31.99343219222291], [34.85894852958347, 31.99333614566031], [34.85892775413481, 31.993238546320768], [34.85891539381351, 31.99313991494284], [34.85891151454042, 31.99304077776984], [34.858916136985776, 31.99294166374206], [34.85892923645958, 31.992843101674612], [34.85895074304382, 31.99274561743604], [34.85898054196614, 31.99264973114255], [34.85901847421271, 31.99255595438315], [34.85906433737714, 31.992464787490224], [34.85911788674091, 31.992376716870055], [34.859159807226476, 31.99231714323122], [34.85923705982074, 31.992223554480816], [34.85926300784676, 31.992191225592933], [34.859317448109685, 31.99213696720459], [34.85939830011051, 31.99206595311324], [34.85948501878631, 31.99200015812985], [34.85957714145879, 31.991939933287764], [34.85967417662094, 31.9918855999016], [34.859692056799005, 31.99187650267777], [34.8598184887617, 31.99181483184706], [34.86002063529524, 31.99172306740418], [34.860226644034995, 31.991637769565248], [34.86043623029211, 31.991559056201954], [34.860649104436334, 31.991487036086717], [34.860864972296106, 31.99142180874253], [34.86108353556491, 31.991363464305472], [34.86130449221329, 31.99131208340014], [34.861527536906095, 31.991267737028352], [34.86175236142417, 31.991230486471096], [34.861978655090105, 31.991200383203807], [34.862206105197316, 31.991177468825395], [34.862373021610125, 31.991165279188806], [34.862478825540194, 31.991159013196253], [34.862901653403526, 31.991138497583663], [34.86332487815576, 31.99112519487042], [34.86342951523032, 31.991123019494275], [34.863541883283276, 31.990102535375637], [34.86336946219254, 31.990090252018184], [34.86309705010275, 31.990076804292], [34.862824277983655, 31.990070618716985], [34.862551412292305, 31.990071701335122], [34.8622787195771, 31.990080051088377], [34.862006466217544, 31.990095659819822], [34.86173491816425, 31.990118512281608], [34.86146434067932, 31.990148586149804], [34.86119499807738, 31.990185852046174], [34.86116430608122, 31.990190567450547], [34.8610263828211, 31.990212766691712], [34.860730768091706, 31.990265727808186], [34.86043701215353, 31.99032573331481], [34.86014534605477, 31.990392736015483], [34.85985599920125, 31.990466683210574], [34.85956919917623, 31.990547516738303], [34.85928517156153, 31.990635173020458], [34.85900413976019, 31.990729583112426], [34.8589379480845, 31.990752958300035], [34.85879265538117, 31.99075754552875], [34.85853687986809, 31.990771283991858], [34.8582817770893, 31.990792221696573], [34.85824723056194, 31.99079561615647], [34.85821431666414, 31.99079897918449], [34.85795977549525, 31.990829126319618], [34.85770655054354, 31.990866466706603], [34.8574549215869, 31.990910959089284], [34.85720516664095, 31.990962554309515], [34.856957561652074, 31.991021195361466], [34.856712380192725, 31.991086817454505], [34.8564698931593, 31.991159348084864], [34.856230368473035, 31.991238707115578], [34.85599407078409, 31.99132480686498], [34.855761261179374, 31.99141755220368], [34.8555321968941, 31.991516840659376], [34.855307131027786, 31.991622562530175], [34.85508631226467, 31.991734601005696], [34.854869984599034, 31.991852832296036], [34.85465838706572, 31.991977125768457], [34.854451753476106, 31.992107344091718], [34.85430861397541, 31.99220302160507], [34.854189519035266, 31.992324542825347], [34.852689247998875, 31.993794810755833], [34.85238046665686, 31.99356787074477], [34.852241677581056, 31.993704675123666], [34.852200198392744, 31.993690407108904], [34.85201573689369, 31.993872226909453], [34.85209498343093, 31.993930616843564], [34.852297807930704, 31.993730698198874], [34.85254928258064, 31.993918245684227], [34.851471545945124, 31.994961443150995], [34.849130034724396, 31.99710191480755], [34.850143761903915, 31.998713645376693], [34.852835757957415, 31.997583814054288], [34.85404970539447, 31.99707429144148], [34.85420575442295, 31.99700624697777], [34.8543988574589, 31.996914735730986], [34.854529410181904, 31.996848036172498], [34.85453036024083, 31.99684753738991], [34.85453584022763, 31.9968540887647], [34.85509492430555, 31.99738032845401], [34.857689420541305, 31.99589625582377], [34.85925430079072, 31.996130106599587], [34.85981531350041, 31.996227595795375], [34.860277461080194, 31.996319279164315], [34.86118994720457, 31.995291684142966], [34.86013493148486, 31.994558737261833], [34.86018092338047, 31.994537666747515], [34.860322580050045, 31.99447827246353], [34.860467801978345, 31.99442550083679], [34.86061616323051, 31.99437950664438], [34.86076722866629, 31.994340424785303], [34.86092055521602, 31.994308369884884], [34.861075693179764, 31.994283435958614], [34.861232187546115, 31.994265696136555], [34.86138957932627, 31.99425520244877], [34.86153739260038, 31.994251973274544], [34.86228685731124, 31.994255633772593], [34.86229143468272, 31.993991765856332], [34.86136189140898, 31.99394217684189], [34.86120117787697, 31.993943642673116], [34.86103193106147, 31.993952257572577], [34.86086340587401, 31.993968108342017], [34.86069602798468, 31.993991154944442], [34.86053022016648, 31.99402133916711], [34.86036640122767, 31.994058584768677], [34.860204984954215, 31.994102797671683], [34.86004637906489, 31.994153866200033], [34.859890984181746, 31.994211661361124], [34.85973919281821, 31.99427603717148], [34.85973242445724, 31.994279099268386], [34.859388154972294, 31.994039918130966], [34.859335384178486, 31.994000638188325]]]}}]}