{"type": "FeatureCollection", "features": [{"type": "Feature", "properties": {"OBJECTID": 21409190, "LAYER_ID": 2660137, "GROUP_ID": 255925, "SCENARIO": "", "DEFQ": 0, "PLAN_NAME": "", "DATA_DATE": null, "MAVAT_CODE": 21480, "MAVAT_NAME": "קו חשמל מתח עליון", "NAME": "", "LABEL": "", "TYPE_CODE": 0, "TYPE_NAME": "", "SOURCE_COD": 0, "PL_CHANGE": "", "PLACE_NO": 0, "ADDRESS": "", "LENGTH": 0.0, "WIDTH": 0.0, "REMARKS": "", "DATE_DEC": "", "STATUS": "", "STAGE": "", "AGAM_ID": 99000395267.0, "SHAPE_LEN": 2199.17671222}, "geometry": {"type": "LineString", "coordinates": [[34.85704493030161, 31.995183962536302], [34.85710131663979, 31.995173383660934], [34.85716787145566, 31.995162648941083], [34.85465787637887, 31.992128880595402], [34.8550008924646, 31.991780254020775], [34.855086262533916, 31.991734626827242], [34.85510179087959, 31.991726468729997], [34.85867341187726, 31.99604330302136], [34.85775263619547, 31.995905702650255], [34.85774288767766, 31.99589392354349], [34.85513257868291, 31.995326978962453], [34.85220398583856, 31.994599912840368], [34.85245686098982, 31.99436700771994], [34.85266859703846, 31.99415169270031], [34.85529981776909, 31.994804927452385], [34.85704493030161, 31.995183962536302]]}}]}