{"type": "FeatureCollection", "features": [{"type": "Feature", "properties": {"OBJECTID": 7526124, "LAYER_ID": 2660138, "GROUP_ID": 255925, "SCENARIO": "", "DEFQ": 0, "PLAN_NAME": "", "DATA_DATE": null, "MAVAT_CODE": 20320, "MAVAT_NAME": "דרך /מסילה לביטול", "NAME": "", "LABEL": "", "TYPE_CODE": 0, "TYPE_NAME": "", "SOURCE_COD": 0, "PL_CHANGE": "", "PLACE_NO": 0, "ADDRESS": "", "RADIUS": 0.0, "PERIMETER": 0.0, "WIDTH": 0.0, "REMARKS": "", "DATE_DEC": "", "POL_AREA": 0.0, "STATUS": "", "STAGE": "", "AGAM_ID": 99000395267.0, "SHAPE_AREA": 21673.5058094, "SHAPE_LEN": 980.01001437}, "geometry": {"type": "MultiPolygon", "coordinates": [[[[34.85893794596822, 31.990752958294266], [34.8589379480845, 31.990752958300035], [34.85893801166076, 31.99075293502621], [34.85893794596822, 31.990752958294266]]], [[[34.85628489374412, 31.99121995215504], [34.85604791439816, 31.991724775256742], [34.85601695775282, 31.991784445722825], [34.85597111957286, 31.99185648337811], [34.85596595514675, 31.991863720137236], [34.85596472275643, 31.991865422790426], [34.855920113586016, 31.991919876107872], [34.85590984964451, 31.991930777471744], [34.85585430613419, 31.991985284028075], [34.855773753014184, 31.9920547651952], [34.855713956161374, 31.99210024370021], [34.855315948277855, 31.99240310762905], [34.855179905253095, 31.992516224792833], [34.85471839614537, 31.992969230443773], [34.8547955948166, 31.993016511864298], [34.85616113131348, 31.992318496014285], [34.857298745692326, 31.99159159940214], [34.85808525482365, 31.991170836713795], [34.85811815034332, 31.99115328442721], [34.85843718195463, 31.990987757592723], [34.85849182009272, 31.990960249021242], [34.85861267720031, 31.990897437721788], [34.85875008599924, 31.990832176087412], [34.85887681464952, 31.990774938354132], [34.85893794596822, 31.990752958294266], [34.85879265624252, 31.990757545453594], [34.8585368805575, 31.99077128392592], [34.85828177760727, 31.990792221644725], [34.85824723056194, 31.99079561615647], [34.858214314129114, 31.99079897943879], [34.857959773000516, 31.990829126569153], [34.857706548088885, 31.990866466950227], [34.85745491917207, 31.990910959325856], [34.85720516426564, 31.990962554537923], [34.856957559315966, 31.991021195580576], [34.85671237789541, 31.991086817663245], [34.85646989090037, 31.991159348282114], [34.85628489374412, 31.99121995215504]]]]}}, {"type": "Feature", "properties": {"OBJECTID": 7526125, "LAYER_ID": 2660138, "GROUP_ID": 255925, "SCENARIO": "", "DEFQ": 0, "PLAN_NAME": "", "DATA_DATE": null, "MAVAT_CODE": 20320, "MAVAT_NAME": "דרך /מסילה לביטול", "NAME": "", "LABEL": "", "TYPE_CODE": 0, "TYPE_NAME": "", "SOURCE_COD": 0, "PL_CHANGE": "", "PLACE_NO": 0, "ADDRESS": "", "RADIUS": 0.0, "PERIMETER": 0.0, "WIDTH": 0.0, "REMARKS": "", "DATE_DEC": "", "POL_AREA": 0.0, "STATUS": "", "STAGE": "", "AGAM_ID": 99000395267.0, "SHAPE_AREA": 13212.0110602, "SHAPE_LEN": 661.157147086}, "geometry": {"type": "Polygon", "coordinates": [[[34.85520483695312, 31.996465781147567], [34.85649147131497, 31.995717224574708], [34.857057143758546, 31.995801765389817], [34.857951105576895, 31.99529039452455], [34.85795769269357, 31.99528618832373], [34.85796750623222, 31.99527787861321], [34.85797547746036, 31.995268242903833], [34.85798136417651, 31.9952575739721], [34.85798498751639, 31.995246195988415], [34.85798623738741, 31.99523445466723], [34.8579850758138, 31.995222706762792], [34.85798153809027, 31.99521130922908], [34.85797573170955, 31.995200608374294], [34.85796783309619, 31.995190929338158], [34.857958082245865, 31.995182566212918], [34.85794677543327, 31.995175773107526], [34.85793425620985, 31.995170756426713], [34.857921629494896, 31.995167782473917], [34.85790229841264, 31.99516474416077], [34.85776942990573, 31.995148093428732], [34.857635589735935, 31.99513865763794], [34.857501316799194, 31.995136474780573], [34.85736715173353, 31.99514155364548], [34.85723363474274, 31.99515387378287], [34.85710130342162, 31.995173385586487], [34.85697069059174, 31.99520001049346], [34.85684232215649, 31.9952336413005], [34.85671671498388, 31.9952741425955], [34.85663055416983, 31.995306555095024], [34.85663056105318, 31.995306553761193], [34.85524851730627, 31.995858077331977], [34.8551545696132, 31.995946989040302], [34.85520483695312, 31.996465781147567]]]}}, {"type": "Feature", "properties": {"OBJECTID": 7526126, "LAYER_ID": 2660138, "GROUP_ID": 255925, "SCENARIO": "", "DEFQ": 0, "PLAN_NAME": "", "DATA_DATE": null, "MAVAT_CODE": 20320, "MAVAT_NAME": "דרך /מסילה לביטול", "NAME": "", "LABEL": "", "TYPE_CODE": 0, "TYPE_NAME": "", "SOURCE_COD": 0, "PL_CHANGE": "", "PLACE_NO": 0, "ADDRESS": "", "RADIUS": 0.0, "PERIMETER": 0.0, "WIDTH": 0.0, "REMARKS": "", "DATE_DEC": "", "POL_AREA": 0.0, "STATUS": "", "STAGE": "", "AGAM_ID": 99000395267.0, "SHAPE_AREA": 11103.2117028, "SHAPE_LEN": 1006.44809915}, "geometry": {"type": "Polygon", "coordinates": [[[34.85252767502599, 31.997520865568337], [34.85228006196861, 31.99766167144861], [34.851859500338016, 31.99785643643433], [34.851825170542774, 31.997872278028872], [34.85152982387874, 31.998003957845885], [34.851230626463064, 31.998129166241004], [34.85092777351919, 31.998247821511526], [34.850621462658246, 31.998359846230592], [34.850575816056335, 31.998375868919016], [34.85055353590934, 31.998383091870856], [34.850494641566236, 31.998397155925083], [34.85000064429657, 31.998486107016422], [34.850143761903915, 31.998713645376693], [34.8528357579557, 31.997583814505173], [34.85404970539447, 31.99707429144148], [34.854205767942176, 31.99700624130336], [34.85439887097652, 31.996914730057306], [34.85453036024083, 31.99684753738991], [34.85420274646161, 31.996455882584044], [34.853662238372095, 31.996825844410008], [34.85344037313257, 31.996976841527424], [34.853095000832354, 31.997197938405375], [34.852892806956106, 31.997319188499013], [34.85270858177897, 31.997420888298155], [34.85252767502599, 31.997520865568337]]]}}, {"type": "Feature", "properties": {"OBJECTID": 7526127, "LAYER_ID": 2660138, "GROUP_ID": 255925, "SCENARIO": "", "DEFQ": 0, "PLAN_NAME": "", "DATA_DATE": null, "MAVAT_CODE": 20320, "MAVAT_NAME": "דרך /מסילה לביטול", "NAME": "", "LABEL": "", "TYPE_CODE": 0, "TYPE_NAME": "", "SOURCE_COD": 0, "PL_CHANGE": "", "PLACE_NO": 0, "ADDRESS": "", "RADIUS": 0.0, "PERIMETER": 0.0, "WIDTH": 0.0, "REMARKS": "", "DATE_DEC": "", "POL_AREA": 0.0, "STATUS": "", "STAGE": "", "AGAM_ID": 99000395267.0, "SHAPE_AREA": 8486.47390126, "SHAPE_LEN": 512.697556898}, "geometry": {"type": "Polygon", "coordinates": [[[34.85858817955075, 31.99538213405698], [34.857870357182634, 31.99579275372984], [34.85798808681876, 31.995940890591744], [34.85925430079072, 31.996130106599587], [34.85981531350041, 31.996227595795375], [34.860277461080194, 31.996319279164315], [34.858599879781906, 31.995382079369698], [34.85859939828835, 31.99538182578904], [34.85859772905273, 31.99538115690799], [34.85859594888262, 31.99538074520775], [34.85859411186757, 31.995380603197578], [34.85859227382431, 31.99538073519238], [34.85859049060084, 31.995381137181585], [34.858588816379516, 31.995381796950944], [34.85858817955075, 31.99538213405698]]]}}, {"type": "Feature", "properties": {"OBJECTID": 7526128, "LAYER_ID": 2660138, "GROUP_ID": 255925, "SCENARIO": "", "DEFQ": 0, "PLAN_NAME": "", "DATA_DATE": null, "MAVAT_CODE": 20390, "MAVAT_NAME": "גשר/מעבר עילי", "NAME": "", "LABEL": "", "TYPE_CODE": 0, "TYPE_NAME": "", "SOURCE_COD": 0, "PL_CHANGE": "", "PLACE_NO": 0, "ADDRESS": "", "RADIUS": 0.0, "PERIMETER": 0.0, "WIDTH": 0.0, "REMARKS": "", "DATE_DEC": "", "POL_AREA": 0.0, "STATUS": "", "STAGE": "", "AGAM_ID": 99000395267.0, "SHAPE_AREA": 2080.4794476, "SHAPE_LEN": 307.954420411}, "geometry": {"type": "Polygon", "coordinates": [[[34.854418288136976, 31.995864461428315], [34.8545364404553, 31.995766731093777], [34.85384144984635, 31.994686300155706], [34.85370226137721, 31.994751323307934], [34.854418288136976, 31.995864461428315]]]}}, {"type": "Feature", "properties": {"OBJECTID": 7526129, "LAYER_ID": 2660138, "GROUP_ID": 255925, "SCENARIO": "", "DEFQ": 0, "PLAN_NAME": "", "DATA_DATE": null, "MAVAT_CODE": 20400, "MAVAT_NAME": "מנהרה/מעבר תחתי", "NAME": "", "LABEL": "", "TYPE_CODE": 0, "TYPE_NAME": "", "SOURCE_COD": 0, "PL_CHANGE": "", "PLACE_NO": 0, "ADDRESS": "", "RADIUS": 0.0, "PERIMETER": 0.0, "WIDTH": 0.0, "REMARKS": "", "DATE_DEC": "", "POL_AREA": 0.0, "STATUS": "", "STAGE": "", "AGAM_ID": 99000395267.0, "SHAPE_AREA": 2645.07193882, "SHAPE_LEN": 312.199922906}, "geometry": {"type": "Polygon", "coordinates": [[[34.85700715235684, 31.99323459586591], [34.85703454939678, 31.99304852651706], [34.8569643067167, 31.993042137041382], [34.856836690204375, 31.993036271039035], [34.85670890015558, 31.993037760504606], [34.856581519616476, 31.993046598642206], [34.85645512976507, 31.99306274512727], [34.85633030725996, 31.993086126290642], [34.8562076216098, 31.993116635454655], [34.856087632575175, 31.99315413341967], [34.85597088761506, 31.993198449099186], [34.855857919389344, 31.993249380300366], [34.85574924332869, 31.993306694646247], [34.85564535528321, 31.993370130636016], [34.85560782060873, 31.993395376036176], [34.855595994097996, 31.993403699635763], [34.855698046405905, 31.993513527541932], [34.85576491426248, 31.99347570092878], [34.85587464509134, 31.993420718424883], [34.8559884400024, 31.993372104702456], [34.856105790778095, 31.99333007687221], [34.856226173322526, 31.99329482263181], [34.85634905000185, 31.99326649942765], [34.85647387204499, 31.993245233751917], [34.856600081994145, 31.993231120577605], [34.8567271161941, 31.993224222934536], [34.8567824477051, 31.993223483519458], [34.85685441377657, 31.993224571618303], [34.856981392969864, 31.99323216506988], [34.85700715235684, 31.99323459586591]]]}}, {"type": "Feature", "properties": {"OBJECTID": 7526130, "LAYER_ID": 2660138, "GROUP_ID": 255925, "SCENARIO": "", "DEFQ": 0, "PLAN_NAME": "", "DATA_DATE": null, "MAVAT_CODE": 20320, "MAVAT_NAME": "דרך /מסילה לביטול", "NAME": "", "LABEL": "", "TYPE_CODE": 0, "TYPE_NAME": "", "SOURCE_COD": 0, "PL_CHANGE": "", "PLACE_NO": 0, "ADDRESS": "", "RADIUS": 0.0, "PERIMETER": 0.0, "WIDTH": 0.0, "REMARKS": "", "DATE_DEC": "", "POL_AREA": 0.0, "STATUS": "", "STAGE": "", "AGAM_ID": 99000395267.0, "SHAPE_AREA": 6959.49177479, "SHAPE_LEN": 668.203834587}, "geometry": {"type": "Polygon", "coordinates": [[[34.85484283552534, 31.991868287643495], [34.854658398573015, 31.991977117339847], [34.85446017783587, 31.9921018551332], [34.85445176578463, 31.992107335158174], [34.85430861397714, 31.99220302115418], [34.854189519035266, 31.992324542825347], [34.852689247998875, 31.993794810755833], [34.852760701556036, 31.993847325975715], [34.85284341236279, 31.993908114822123], [34.85285590258457, 31.993895513363366], [34.85290638054195, 31.993844921372904], [34.85346979452858, 31.993414165450734], [34.85447929145558, 31.992367611525577], [34.854576329145864, 31.992265594750545], [34.854812103483276, 31.992020840398453], [34.85483424147884, 31.991998206603622], [34.85510335614323, 31.991725647599925], [34.855086302278416, 31.991734604833432], [34.854869976554, 31.99185283506279], [34.85484283552534, 31.991868287643495]]]}}, {"type": "Feature", "properties": {"OBJECTID": 7526131, "LAYER_ID": 2660138, "GROUP_ID": 255925, "SCENARIO": "", "DEFQ": 0, "PLAN_NAME": "", "DATA_DATE": null, "MAVAT_CODE": 20390, "MAVAT_NAME": "גשר/מעבר עילי", "NAME": "", "LABEL": "", "TYPE_CODE": 0, "TYPE_NAME": "", "SOURCE_COD": 0, "PL_CHANGE": "", "PLACE_NO": 0, "ADDRESS": "", "RADIUS": 0.0, "PERIMETER": 0.0, "WIDTH": 0.0, "REMARKS": "", "DATE_DEC": "", "POL_AREA": 0.0, "STATUS": "", "STAGE": "", "AGAM_ID": 99000395267.0, "SHAPE_AREA": 2080.4794476, "SHAPE_LEN": 307.954420411}, "geometry": {"type": "Polygon", "coordinates": [[[34.854418288136976, 31.995864461428315], [34.8545364404553, 31.995766731093777], [34.85384144984635, 31.994686300155706], [34.85370226137721, 31.994751323307934], [34.854418288136976, 31.995864461428315]]]}}, {"type": "Feature", "properties": {"OBJECTID": 7526132, "LAYER_ID": 2660138, "GROUP_ID": 255925, "SCENARIO": "", "DEFQ": 0, "PLAN_NAME": "", "DATA_DATE": null, "MAVAT_CODE": 20320, "MAVAT_NAME": "דרך /מסילה לביטול", "NAME": "", "LABEL": "", "TYPE_CODE": 0, "TYPE_NAME": "", "SOURCE_COD": 0, "PL_CHANGE": "", "PLACE_NO": 0, "ADDRESS": "", "RADIUS": 0.0, "PERIMETER": 0.0, "WIDTH": 0.0, "REMARKS": "", "DATE_DEC": "", "POL_AREA": 0.0, "STATUS": "", "STAGE": "", "AGAM_ID": 99000395267.0, "SHAPE_AREA": 4463.91771757, "SHAPE_LEN": 1250.59060911}, "geometry": {"type": "Polygon", "coordinates": [[[34.86313294664365, 31.991130331309847], [34.863150611344686, 31.99112979624841], [34.862901850835364, 31.99113592485377], [34.86237288870419, 31.99116245663599], [34.86199181548809, 31.991179922714263], [34.86194485039746, 31.991182304193078], [34.86175769800436, 31.991196359296058], [34.86157149010957, 31.991217659091003], [34.86138661261434, 31.991246159435466], [34.861203448663645, 31.991281801264396], [34.8610223778525, 31.99132451071249], [34.860843775439406, 31.991374199267263], [34.86069503819708, 31.99142155612481], [34.860152010180244, 31.991604672541044], [34.86013736728971, 31.99161035746609], [34.86007563413177, 31.991631342679113], [34.86000364620342, 31.991661135451306], [34.859991088879575, 31.99166655155769], [34.85983963013821, 31.991736311880615], [34.8596924395982, 31.991812419349948], [34.85954988317928, 31.991894684765672], [34.85941231528358, 31.991982903618837], [34.85928007791494, 31.99207685659994], [34.85915349982856, 31.99217631014392], [34.85903289571387, 31.992281017010715], [34.858968959703404, 31.992341001411685], [34.858959867649396, 31.99234898771842], [34.85890753674396, 31.99240115385709], [34.85886213065666, 31.992457836066173], [34.858824181739294, 31.992518369806223], [34.85879413491883, 31.992582045381365], [34.85878413965864, 31.992609020487954], [34.8587752128303, 31.992632021282443], [34.85874523961784, 31.99272382513238], [34.858723600362964, 31.99281731497869], [34.85871042207785, 31.992911942190183], [34.858705782123636, 31.99300715145949], [34.85870737635724, 31.993069386227667], [34.8587232661057, 31.993147528349986], [34.85874827762306, 31.993229292741784], [34.85878144428738, 31.993308922075826], [34.85882252056258, 31.99338582679829], [34.85887120234978, 31.993459437526244], [34.85889884316757, 31.99349553220353], [34.85891558386376, 31.99351635127052], [34.85918501149825, 31.993851478561663], [34.85920023118502, 31.99386993579452], [34.85925890330644, 31.993933047649428], [34.85932397765914, 31.99399142332028], [34.859335384178486, 31.994000638188325], [34.859293832072986, 31.993949704436915], [34.85918126153331, 31.993803071172106], [34.85913888070444, 31.993744208016636], [34.859112907067875, 31.99370594882409], [34.859060018031954, 31.99361758857902], [34.85901483853064, 31.993526173918905], [34.858977609596856, 31.993432192588607], [34.858948529841136, 31.993336146026007], [34.85892775439248, 31.993238546686435], [34.85891539407118, 31.99313991530852], [34.85891151479808, 31.993040778135526], [34.85891613724344, 31.992941664107757], [34.858929236717266, 31.992843102040315], [34.858950743301506, 31.992745617801727], [34.85898054222381, 31.992649731508227], [34.85901847447038, 31.99255595474884], [34.859064337634805, 31.992464787855905], [34.85911788699857, 31.992376717235736], [34.85915980775556, 31.99231714323267], [34.85923705060404, 31.992223566046963], [34.85926300784676, 31.992191225592933], [34.859317448109685, 31.99213696720459], [34.85939830011051, 31.99206595311324], [34.85948501878631, 31.99200015812985], [34.85957714145879, 31.991939933287764], [34.85967417662094, 31.9918855999016], [34.859692056799005, 31.99187650267777], [34.8598184887617, 31.99181483184706], [34.86002063529524, 31.99172306740418], [34.860226644034995, 31.991637769565248], [34.86043623029211, 31.991559056201954], [34.860649104436334, 31.991487036086717], [34.860864972296106, 31.99142180874253], [34.86108353556491, 31.991363464305472], [34.86130449221329, 31.99131208340014], [34.861527536906095, 31.991267737028352], [34.86175236142417, 31.991230486471096], [34.861978655090105, 31.991200383203807], [34.862206105197316, 31.991177468825395], [34.862373021610125, 31.991165279188806], [34.86247885520457, 31.991159011375874], [34.8629016832838, 31.99113849575272], [34.86313294664365, 31.991130331309847]]]}}, {"type": "Feature", "properties": {"OBJECTID": 7526133, "LAYER_ID": 2660138, "GROUP_ID": 255925, "SCENARIO": "", "DEFQ": 0, "PLAN_NAME": "", "DATA_DATE": null, "MAVAT_CODE": 20390, "MAVAT_NAME": "גשר/מעבר עילי", "NAME": "", "LABEL": "", "TYPE_CODE": 0, "TYPE_NAME": "", "SOURCE_COD": 0, "PL_CHANGE": "", "PLACE_NO": 0, "ADDRESS": "", "RADIUS": 0.0, "PERIMETER": 0.0, "WIDTH": 0.0, "REMARKS": "", "DATE_DEC": "", "POL_AREA": 0.0, "STATUS": "", "STAGE": "", "AGAM_ID": 99000395267.0, "SHAPE_AREA": 744.940113255, "SHAPE_LEN": 248.209424704}, "geometry": {"type": "MultiPolygon", "coordinates": [[[[34.852353106428126, 31.993594845321578], [34.85204775628384, 31.993895818609218], [34.85209498343093, 31.993930616843564], [34.8523219901335, 31.99370686391286], [34.852878699537655, 31.994117059302845], [34.852881986464276, 31.99411381831079], [34.852918209539176, 31.994140673337373], [34.85295731215516, 31.994102130822053], [34.852921089087225, 31.994075274904706], [34.85292437547317, 31.994072036164518], [34.852367665611546, 31.993661839167455], [34.852400331965036, 31.99362963983205], [34.852353106428126, 31.993594845321578]]], [[[34.85235310643502, 31.993594843517986], [34.8523531027383, 31.993594841704123], [34.852353106428126, 31.993594845321578], [34.85235310643502, 31.993594843517986]]]]}}, {"type": "Feature", "properties": {"OBJECTID": 7526134, "LAYER_ID": 2660138, "GROUP_ID": 255925, "SCENARIO": "", "DEFQ": 0, "PLAN_NAME": "", "DATA_DATE": null, "MAVAT_CODE": 20320, "MAVAT_NAME": "דרך /מסילה לביטול", "NAME": "", "LABEL": "", "TYPE_CODE": 0, "TYPE_NAME": "", "SOURCE_COD": 0, "PL_CHANGE": "", "PLACE_NO": 0, "ADDRESS": "", "RADIUS": 0.0, "PERIMETER": 0.0, "WIDTH": 0.0, "REMARKS": "", "DATE_DEC": "", "POL_AREA": 0.0, "STATUS": "", "STAGE": "", "AGAM_ID": 99000395267.0, "SHAPE_AREA": 45475.0720631, "SHAPE_LEN": 1134.53609125}, "geometry": {"type": "Polygon", "coordinates": [[[34.84972262339117, 31.997168080331637], [34.849754140319654, 31.997152982967542], [34.849758595019736, 31.9971510412211], [34.85009623273255, 31.997095876114194], [34.85035964555341, 31.997034584046194], [34.850491414514345, 31.997002289711556], [34.85061123935821, 31.9969658303298], [34.8507355584256, 31.99691639785762], [34.85089950711633, 31.99685318746695], [34.851044863652774, 31.9967817182362], [34.85117394931758, 31.99670335029638], [34.85133763160429, 31.996599016401827], [34.8513517517649, 31.996590080952135], [34.85143681325531, 31.996524354353525], [34.85148014801857, 31.996490294773142], [34.85154813349635, 31.99642427666513], [34.85156398660033, 31.99640894186005], [34.85168304792322, 31.996286470823517], [34.85178372097453, 31.996158866014028], [34.85185807432152, 31.996070023222906], [34.851896701067865, 31.996011947588226], [34.85189740405643, 31.996010891275866], [34.85275202490059, 31.99538800673], [34.852787359501704, 31.995359793276222], [34.85280517017799, 31.99534343901482], [34.85320044393242, 31.994962160269832], [34.852621246833344, 31.99447902027626], [34.85257912741913, 31.99435335992833], [34.85256755195804, 31.994318826661917], [34.852534378849604, 31.99421985200025], [34.85271261439233, 31.994040057684316], [34.85254928258064, 31.993918245684227], [34.852461703450246, 31.99400301937773], [34.852459876610055, 31.994004789059016], [34.852020598820864, 31.99442999282646], [34.851974281741036, 31.994474822671332], [34.85147154594684, 31.994961442700088], [34.849130034724396, 31.99710191480755], [34.8491304927731, 31.997102642942657], [34.84925872393476, 31.99730652244948], [34.84928256726939, 31.99734443241158], [34.84930492867633, 31.99737998271444], [34.84930715003589, 31.99738351542861], [34.84972262339117, 31.997168080331637]]]}}, {"type": "Feature", "properties": {"OBJECTID": 7526135, "LAYER_ID": 2660138, "GROUP_ID": 255925, "SCENARIO": "", "DEFQ": 0, "PLAN_NAME": "", "DATA_DATE": null, "MAVAT_CODE": 20400, "MAVAT_NAME": "מנהרה/מעבר תחתי", "NAME": "", "LABEL": "", "TYPE_CODE": 0, "TYPE_NAME": "", "SOURCE_COD": 0, "PL_CHANGE": "", "PLACE_NO": 0, "ADDRESS": "", "RADIUS": 0.0, "PERIMETER": 0.0, "WIDTH": 0.0, "REMARKS": "", "DATE_DEC": "", "POL_AREA": 0.0, "STATUS": "", "STAGE": "", "AGAM_ID": 99000395267.0, "SHAPE_AREA": 2103.17224732, "SHAPE_LEN": 314.964277082}, "geometry": {"type": "Polygon", "coordinates": [[[34.85522075170732, 31.99511668298632], [34.85525762788499, 31.995085814744424], [34.85525169807614, 31.99508654078562], [34.85516089794581, 31.995093677632802], [34.8550697129095, 31.9950934266342], [34.85497896877485, 31.995085790063115], [34.854889487356246, 31.99507083707951], [34.85480207903141, 31.99504870310346], [34.85471753540188, 31.995019588588868], [34.85463662212347, 31.994983757207773], [34.854560071971775, 31.994941533462285], [34.85448857820558, 31.994893299745662], [34.8544227882884, 31.99483949287885], [34.85436329802457, 31.994780600154375], [34.85431064616374, 31.994717154922867], [34.85426530952183, 31.99464973176283], [34.854227698663294, 31.99457894127667], [34.85419815418333, 31.994505424560792], [34.85417694362393, 31.994429847399434], [34.85417464332854, 31.994419103406194], [34.85404034271298, 31.994541895486975], [34.85406312912956, 31.994601935171122], [34.85410028317972, 31.994679082372752], [34.854145185792504, 31.99475317637797], [34.854197495245444, 31.994823653278846], [34.85425681344209, 31.994889976694928], [34.85432268894146, 31.994951641855646], [34.85439462039358, 31.99500817944226], [34.85447206035498, 31.995059159159922], [34.85455441945517, 31.995104193012768], [34.85464107088221, 31.99514293825709], [34.854731355153454, 31.995175100010123], [34.85482458513499, 31.9952004334945], [34.85492005127165, 31.995218745901347], [34.855017026987696, 31.99522989785788], [34.85508033533021, 31.99523325898141], [34.85522075170732, 31.99511668298632]]]}}, {"type": "Feature", "properties": {"OBJECTID": 7526136, "LAYER_ID": 2660138, "GROUP_ID": 255925, "SCENARIO": "", "DEFQ": 0, "PLAN_NAME": "", "DATA_DATE": null, "MAVAT_CODE": 20390, "MAVAT_NAME": "גשר/מעבר עילי", "NAME": "", "LABEL": "", "TYPE_CODE": 0, "TYPE_NAME": "", "SOURCE_COD": 0, "PL_CHANGE": "", "PLACE_NO": 0, "ADDRESS": "", "RADIUS": 0.0, "PERIMETER": 0.0, "WIDTH": 0.0, "REMARKS": "", "DATE_DEC": "", "POL_AREA": 0.0, "STATUS": "", "STAGE": "", "AGAM_ID": 99000395267.0, "SHAPE_AREA": 1367.46109256, "SHAPE_LEN": 213.994432336}, "geometry": {"type": "Polygon", "coordinates": [[[34.85961649831852, 31.99467487429011], [34.85951960583343, 31.994567393812904], [34.85869172300476, 31.995041985586052], [34.85884349273887, 31.99511800975138], [34.85961649831852, 31.99467487429011]]]}}]}