{"type": "FeatureCollection", "features": [{"type": "Feature", "properties": {"OBJECTID": 13799060, "LAYER_ID": 2660135, "GROUP_ID": 255925, "SCENARIO": "", "DEFQ": 0, "PLAN_NAME": "", "DATA_DATE": null, "MAVAT_CODE": 30001, "MAVAT_NAME": "עברית ENTITY", "BLOCKNAME": "TXT1", "ROTATION": 53.75722722, "TYPE_CODE": 0, "TYPE_NAME": "", "SOURCE_COD": 0, "STATUS": "", "PL_CHANGE": "", "PLACE_NO": 0, "REMARKS": "", "VALUE1": "", "TAGNAME1": "", "TAGNAME2": "", "VALUE2": "", "TAGNAME3": "0", "VALUE3": "1.0000", "DATE_DEC": "", "STAGE": "", "NAME": "333", "LABEL": "רצועה עבור קו חשמל במתח עליון", "FONT_SIZE": 9.68, "AGAM_ID": 99000395267.0}, "geometry": {"type": "Point", "coordinates": [34.856391195489216, 31.993621754783817]}}, {"type": "Feature", "properties": {"OBJECTID": 13799061, "LAYER_ID": 2660135, "GROUP_ID": 255925, "SCENARIO": "", "DEFQ": 0, "PLAN_NAME": "", "DATA_DATE": null, "MAVAT_CODE": 30001, "MAVAT_NAME": "עברית ENTITY", "BLOCKNAME": "TXT1", "ROTATION": 15.02366389, "TYPE_CODE": 0, "TYPE_NAME": "", "SOURCE_COD": 0, "STATUS": "", "PL_CHANGE": "", "PLACE_NO": 0, "REMARKS": "", "VALUE1": "", "TAGNAME1": "", "TAGNAME2": "", "VALUE2": "", "TAGNAME3": "0", "VALUE3": "1.0000", "DATE_DEC": "", "STAGE": "", "NAME": "333", "LABEL": "רצועה עבור קו חשמל במתח עליון", "FONT_SIZE": 9.68, "AGAM_ID": 99000395267.0}, "geometry": {"type": "Point", "coordinates": [34.85488250833425, 31.99489675435465]}}]}