{"type": "FeatureCollection", "features": [{"type": "Feature", "properties": {"OBJECTID": 12281639, "LAYER_ID": 2660144, "GROUP_ID": 255925, "SCENARIO": "", "DEFQ": 0, "PLAN_NAME": "", "DATA_DATE": null, "MAVAT_CODE": 830, "MAVAT_NAME": "דרך מוצעת", "NAME": "", "LABEL": "", "NUM": "17", "LEGAL_AREA": 0.0, "TYPE_CODE": 0, "TYPE_NAME": "", "SOURCE_COD": 0, "HASAVA": 0, "STATUS": "", "PL_CHANGE": "", "ADDRESS": "", "PLACE_NO": 0, "CALC_AREA": 0.0, "OLD_MIG": "", "AGAM_ID": 99000395267.0, "SHAPE_AREA": 34.07269704, "SHAPE_LEN": 58.390319143}, "geometry": {"type": "Polygon", "coordinates": [[[34.85204775628384, 31.993895818609218], [34.852058926775456, 31.99390404881792], [34.85217276524099, 31.993790844109512], [34.85219039493483, 31.993771374422646], [34.852248627061584, 31.993707066151366], [34.852241677581056, 31.993704675123666], [34.85204775628384, 31.993895818609218]]]}}, {"type": "Feature", "properties": {"OBJECTID": 12281640, "LAYER_ID": 2660144, "GROUP_ID": 255925, "SCENARIO": "", "DEFQ": 0, "PLAN_NAME": "", "DATA_DATE": null, "MAVAT_CODE": 830, "MAVAT_NAME": "דרך מוצעת", "NAME": "", "LABEL": "", "NUM": "11", "LEGAL_AREA": 0.0, "TYPE_CODE": 0, "TYPE_NAME": "", "SOURCE_COD": 0, "HASAVA": 0, "STATUS": "", "PL_CHANGE": "", "ADDRESS": "", "PLACE_NO": 0, "CALC_AREA": 0.0, "OLD_MIG": "", "AGAM_ID": 99000395267.0, "SHAPE_AREA": 5541.20481965, "SHAPE_LEN": 600.157606081}, "geometry": {"type": "Polygon", "coordinates": [[[34.85732748600316, 31.995842166412718], [34.857057143229454, 31.995801765388347], [34.85536086424696, 31.996772049576695], [34.85535736648072, 31.996773900761013], [34.85534815798156, 31.996777529261518], [34.85533835001004, 31.996779739953006], [34.855328240576846, 31.996780465664653], [34.85531813685248, 31.996779684346013], [34.85530834583397, 31.996777419737118], [34.85529916501687, 31.99677374064707], [34.85529087335599, 31.9967687588633], [34.85528450203385, 31.996763405840888], [34.855228339335184, 31.996708345955298], [34.85520483695312, 31.996465781147567], [34.85486104072511, 31.99666579585596], [34.85507282699412, 31.997000542028637], [34.85507708715687, 31.9970074914799], [34.855088842642424, 31.99702189730164], [34.85510335498222, 31.997034344680753], [34.85512018322614, 31.99704445540913], [34.85513881605589, 31.997051922276547], [34.85515868732109, 31.997056518405394], [34.855179193241625, 31.997058104144156], [34.85519971075353, 31.997056631310794], [34.855219616440564, 31.99705214465676], [34.85523830547676, 31.997044780507125], [34.85523891561943, 31.99704448048226], [34.85524162779289, 31.99704309736594], [34.85710586914851, 31.995969765740607], [34.85732748600316, 31.995842166412718]]]}}, {"type": "Feature", "properties": {"OBJECTID": 12281641, "LAYER_ID": 2660144, "GROUP_ID": 255925, "SCENARIO": "", "DEFQ": 0, "PLAN_NAME": "", "DATA_DATE": null, "MAVAT_CODE": 830, "MAVAT_NAME": "דרך מוצעת", "NAME": "", "LABEL": "", "NUM": "14", "LEGAL_AREA": 0.0, "TYPE_CODE": 0, "TYPE_NAME": "", "SOURCE_COD": 0, "HASAVA": 0, "STATUS": "", "PL_CHANGE": "", "ADDRESS": "", "PLACE_NO": 0, "CALC_AREA": 0.0, "OLD_MIG": "", "AGAM_ID": 99000395267.0, "SHAPE_AREA": 1630.67193083, "SHAPE_LEN": 499.376396974}, "geometry": {"type": "Polygon", "coordinates": [[[34.85973242445724, 31.994279099268386], [34.859871205520605, 31.994375514575488], [34.85989005222626, 31.994364447317032], [34.86001206651776, 31.99429789372378], [34.860138453555, 31.994237557173392], [34.86026877767378, 31.994183645646412], [34.86040258964116, 31.994136344975885], [34.86053942820393, 31.994095818207104], [34.86067882167809, 31.994062205035476], [34.860706564069815, 31.994056404322738], [34.86088681943481, 31.99402958551777], [34.861076609494496, 31.99400851093147], [34.86126730758582, 31.993994611070256], [34.86145854045261, 31.99398791314091], [34.86154588634635, 31.993987253852115], [34.861644632449995, 31.993988317809688], [34.862275873940895, 31.993990935727197], [34.861361891408976, 31.993942176841877], [34.86120117787697, 31.993943642673116], [34.86103193106147, 31.993952257572577], [34.86086340587401, 31.993968108342017], [34.86069602798469, 31.99399115494443], [34.860530220166495, 31.99402133916711], [34.86036640122767, 31.994058584768677], [34.86020498495422, 31.994102797671683], [34.86004637906491, 31.994153866200033], [34.85989098418176, 31.994211661361117], [34.85973919281821, 31.99427603717148], [34.85973242445724, 31.994279099268386]]]}}, {"type": "Feature", "properties": {"OBJECTID": 12281642, "LAYER_ID": 2660144, "GROUP_ID": 255925, "SCENARIO": "", "DEFQ": 0, "PLAN_NAME": "", "DATA_DATE": null, "MAVAT_CODE": 660, "MAVAT_NAME": "קרקע חקלאית", "NAME": "", "LABEL": "", "NUM": "46", "LEGAL_AREA": 0.0, "TYPE_CODE": 0, "TYPE_NAME": "", "SOURCE_COD": 0, "HASAVA": 0, "STATUS": "", "PL_CHANGE": "", "ADDRESS": "", "PLACE_NO": 0, "CALC_AREA": 0.0, "OLD_MIG": "", "AGAM_ID": 99000395267.0, "SHAPE_AREA": 22597.7411319, "SHAPE_LEN": 841.700664974}, "geometry": {"type": "Polygon", "coordinates": [[[34.851953288765344, 31.99495419876896], [34.851974281741036, 31.994474822671332], [34.851471545945124, 31.994961443150995], [34.849130034724396, 31.99710191480755], [34.8493768805579, 31.997014970367175], [34.849494300725105, 31.99699466741508], [34.849689807243024, 31.99693910937076], [34.84991109713523, 31.99689591101668], [34.85012453543482, 31.99685695948599], [34.85032386430954, 31.996818835757924], [34.850496449734585, 31.996769683836437], [34.85066038737272, 31.996702848476406], [34.850815229548594, 31.99663293946564], [34.85095800367863, 31.996550315503853], [34.85110107252709, 31.996456444919673], [34.851233885317924, 31.996358592124434], [34.85135263096311, 31.996251081423306], [34.851465613571115, 31.99612913475647], [34.85157384871073, 31.996000564572174], [34.85161926096988, 31.995936927986214], [34.85178979981754, 31.995653198927048], [34.85185912345687, 31.995375335141816], [34.851953288765344, 31.99495419876896]]]}}, {"type": "Feature", "properties": {"OBJECTID": 12281643, "LAYER_ID": 2660144, "GROUP_ID": 255925, "SCENARIO": "", "DEFQ": 0, "PLAN_NAME": "", "DATA_DATE": null, "MAVAT_CODE": 660, "MAVAT_NAME": "קרקע חקלאית", "NAME": "", "LABEL": "", "NUM": "43", "LEGAL_AREA": 0.0, "TYPE_CODE": 0, "TYPE_NAME": "", "SOURCE_COD": 0, "HASAVA": 0, "STATUS": "", "PL_CHANGE": "", "ADDRESS": "", "PLACE_NO": 0, "CALC_AREA": 0.0, "OLD_MIG": "", "AGAM_ID": 99000395267.0, "SHAPE_AREA": 4472.55118823, "SHAPE_LEN": 1250.47258593}, "geometry": {"type": "Polygon", "coordinates": [[[34.86313294664364, 31.991130331309847], [34.863150611344686, 31.99112979624841], [34.8629018503063, 31.99113592485235], [34.86237288817678, 31.991162456183666], [34.86199181548809, 31.99117992271427], [34.86194485039745, 31.991182304193085], [34.861757698004354, 31.991196359296058], [34.86157149010956, 31.99121765909102], [34.86138661261433, 31.99124615943548], [34.861203448663645, 31.991281801264414], [34.8610223778525, 31.9913245107125], [34.860843775439406, 31.991374199267263], [34.860695038197086, 31.991421556124806], [34.860152010180244, 31.99160467254103], [34.86013736728971, 31.99161035746609], [34.86007563413177, 31.991631342679106], [34.86000364620173, 31.9916611359022], [34.859991088038846, 31.991666552368642], [34.85983962929747, 31.991736312691565], [34.859692438757484, 31.991812420160908], [34.859549882338534, 31.991894685576618], [34.85941231444284, 31.9919829044298], [34.85928007707419, 31.992076857410876], [34.85915349898781, 31.99217631095487], [34.85903289487312, 31.99228101782166], [34.858968959703404, 31.992341001411685], [34.858959868617006, 31.992348986883275], [34.85890753771158, 31.992401153021948], [34.85886213162429, 31.99245783523104], [34.85882418270692, 31.9925183689711], [34.85879413588646, 31.992582044546214], [34.85878414018603, 31.992609020940293], [34.85877521291584, 31.992632022837128], [34.858745239703374, 31.992723826687094], [34.8587236004485, 31.992817316533397], [34.8587104221634, 31.992911943744865], [34.85870578220917, 31.993007153014165], [34.85870737635724, 31.993069386227674], [34.858723266018806, 31.993147527788786], [34.85874827753615, 31.99322929218059], [34.85878144420048, 31.993308921514622], [34.858822520475684, 31.993385826237088], [34.85887120226289, 31.993459436965043], [34.85889884316926, 31.99349553175263], [34.85891558386376, 31.99351635127052], [34.85918501149825, 31.993851478561663], [34.859200231185, 31.99386993579452], [34.85925890330642, 31.99393304764941], [34.85932397765912, 31.993991423320278], [34.859335384178486, 31.994000638188325], [34.85929383207299, 31.993949704436922], [34.859181261533294, 31.9938030711721], [34.85913888070444, 31.993744208016636], [34.85911290681022, 31.993705948458405], [34.85906001777428, 31.993617588213326], [34.85901483827298, 31.993526173553217], [34.85897760933919, 31.99343219222291], [34.85894852958347, 31.99333614566031], [34.85892775413481, 31.993238546320754], [34.85891539381351, 31.99313991494284], [34.85891151454042, 31.993040777769824], [34.858916136985776, 31.992941663742066], [34.858929236459595, 31.992843101674612], [34.85895074304383, 31.99274561743604], [34.85898054196614, 31.992649731142542], [34.85901847421271, 31.99255595438315], [34.85906433737714, 31.992464787490206], [34.85911788674091, 31.992376716870048], [34.859159807226476, 31.99231714323121], [34.85923705982074, 31.992223554480816], [34.85926300784675, 31.99219122559294], [34.859317448109685, 31.99213696720459], [34.8593983001105, 31.992065953113244], [34.859485018786295, 31.992000158129873], [34.85957714145878, 31.991939933287764], [34.859674176620935, 31.9918855999016], [34.859692056799005, 31.991876502677783], [34.8598184887617, 31.99181483184706], [34.860020635295236, 31.991723067404187], [34.860226644034995, 31.991637769565248], [34.86043623029211, 31.991559056201954], [34.86064910443633, 31.991487036086717], [34.8608649722961, 31.991421808742537], [34.86108353556491, 31.991363464305472], [34.86130449221329, 31.99131208340014], [34.86152753690609, 31.991267737028362], [34.861752361424166, 31.991230486471103], [34.86197865509009, 31.991200383203815], [34.86220610519731, 31.991177468825395], [34.862373021610125, 31.99116527918882], [34.86247885520504, 31.991159011375863], [34.86290168328423, 31.991138495752686], [34.86313294664364, 31.991130331309847]]]}}, {"type": "Feature", "properties": {"OBJECTID": 12281644, "LAYER_ID": 2660144, "GROUP_ID": 255925, "SCENARIO": "", "DEFQ": 0, "PLAN_NAME": "", "DATA_DATE": null, "MAVAT_CODE": 660, "MAVAT_NAME": "קרקע חקלאית", "NAME": "", "LABEL": "", "NUM": "44", "LEGAL_AREA": 0.0, "TYPE_CODE": 0, "TYPE_NAME": "", "SOURCE_COD": 0, "HASAVA": 0, "STATUS": "", "PL_CHANGE": "", "ADDRESS": "", "PLACE_NO": 0, "CALC_AREA": 0.0, "OLD_MIG": "", "AGAM_ID": 99000395267.0, "SHAPE_AREA": 21664.4638638, "SHAPE_LEN": 979.98810356}, "geometry": {"type": "MultiPolygon", "coordinates": [[[[34.85893794596822, 31.99075295829426], [34.858937948084495, 31.99075295830002], [34.858938011660754, 31.99075293502621], [34.85893794596822, 31.99075295829426]]], [[[34.85628489374412, 31.99121995215504], [34.85604791439816, 31.991724775256742], [34.85601695775282, 31.991784445722807], [34.85597111957286, 31.99185648337811], [34.85596595514675, 31.991863720137236], [34.85596472275643, 31.991865422790426], [34.855920113586, 31.99191987610789], [34.85590984964451, 31.991930777471744], [34.85585430613419, 31.991985284028075], [34.855773753014184, 31.992054765195185], [34.855713956161374, 31.99210024370021], [34.85531594827785, 31.992403107629066], [34.8551799047223, 31.992516225242277], [34.854718396145365, 31.992969230443773], [34.854795594816615, 31.993016511864283], [34.85616113131348, 31.992318496014285], [34.85729874569232, 31.991591599402145], [34.85808525482365, 31.991170836713795], [34.85811815034321, 31.99115328442726], [34.85843718195464, 31.99098775759271], [34.85849182009273, 31.99096024902125], [34.85861267667125, 31.99089743772034], [34.858750080437126, 31.9908321785388], [34.85887681464952, 31.990774938354132], [34.85893794596822, 31.99075295829426], [34.858792656242656, 31.99075754545358], [34.85853688055765, 31.990771283925906], [34.85828177760741, 31.990792221644696], [34.85824723056196, 31.990795616156475], [34.8582143141291, 31.990798979438793], [34.8579597730005, 31.990829126569164], [34.85770654808887, 31.990866466950227], [34.857454919172056, 31.990910959325863], [34.85720516426562, 31.990962554537923], [34.856957559315944, 31.99102119558059], [34.85671237789541, 31.991086817663245], [34.856469890900364, 31.991159348282114], [34.85628489374412, 31.99121995215504]]]]}}, {"type": "Feature", "properties": {"OBJECTID": 12281645, "LAYER_ID": 2660144, "GROUP_ID": 255925, "SCENARIO": "", "DEFQ": 0, "PLAN_NAME": "", "DATA_DATE": null, "MAVAT_CODE": 830, "MAVAT_NAME": "דרך מוצעת", "NAME": "", "LABEL": "", "NUM": "10", "LEGAL_AREA": 0.0, "TYPE_CODE": 0, "TYPE_NAME": "", "SOURCE_COD": 0, "HASAVA": 0, "STATUS": "", "PL_CHANGE": "", "ADDRESS": "", "PLACE_NO": 0, "CALC_AREA": 0.0, "OLD_MIG": "", "AGAM_ID": 99000395267.0, "SHAPE_AREA": 1054.70805968, "SHAPE_LEN": 183.626358556}, "geometry": {"type": "Polygon", "coordinates": [[[34.85513154425279, 31.997359381189508], [34.85474003549767, 31.996740568189516], [34.85453742401507, 31.9968555793022], [34.85509492430555, 31.99738032845401], [34.85513154425279, 31.997359381189508]]]}}, {"type": "Feature", "properties": {"OBJECTID": 12281646, "LAYER_ID": 2660144, "GROUP_ID": 255925, "SCENARIO": "", "DEFQ": 0, "PLAN_NAME": "", "DATA_DATE": null, "MAVAT_CODE": 740, "MAVAT_NAME": "נחל/ תעלה/מאגר מים", "NAME": "", "LABEL": "", "NUM": "50", "LEGAL_AREA": 0.0, "TYPE_CODE": 0, "TYPE_NAME": "", "SOURCE_COD": 0, "HASAVA": 0, "STATUS": "", "PL_CHANGE": "", "ADDRESS": "", "PLACE_NO": 0, "CALC_AREA": 0.0, "OLD_MIG": "", "AGAM_ID": 99000395267.0, "SHAPE_AREA": 13285.655484, "SHAPE_LEN": 1124.9563944}, "geometry": {"type": "Polygon", "coordinates": [[[34.85189743345882, 31.996011365705677], [34.851848719773244, 31.995989246225673], [34.851990973114674, 31.99571411905582], [34.8520666023952, 31.995410973498597], [34.852164181802756, 31.994974557284266], [34.852168448238615, 31.994877160005696], [34.85226325634891, 31.994715987828243], [34.852393748455896, 31.99449388596754], [34.85242097040267, 31.99444818777385], [34.85243454235199, 31.994427148563595], [34.85246315731613, 31.994395073900538], [34.8524708646033, 31.99438822100586], [34.85249005471419, 31.994372476445495], [34.85251425335307, 31.994354761805184], [34.852541513262636, 31.99433623320458], [34.85256755195803, 31.994318826661917], [34.852534378849604, 31.99421985200025], [34.85271261439233, 31.994040057684305], [34.85254928258064, 31.993918245684227], [34.85246170292117, 31.994003019376265], [34.852459876080964, 31.994004789057545], [34.852020598820886, 31.99442999282646], [34.85197428174104, 31.99447482267134], [34.851953288765344, 31.994954198768948], [34.85185912345688, 31.995375335141823], [34.851789799817546, 31.995653198927048], [34.85161926096989, 31.99593692798622], [34.85157384871073, 31.996000564572174], [34.851465613571115, 31.99612913475647], [34.851352630963106, 31.996251081423317], [34.851233885317924, 31.996358592124434], [34.85110107252711, 31.996456444919673], [34.85095800367861, 31.99655031550386], [34.850815229548594, 31.99663293946564], [34.85066038737272, 31.996702848476403], [34.85049644973458, 31.996769683836455], [34.850323864309544, 31.996818835757917], [34.85012453543481, 31.99685695948599], [34.84991109713523, 31.99689591101669], [34.849689807243024, 31.996939109370768], [34.849494300725105, 31.99699466741508], [34.8493768805579, 31.997014970367175], [34.84913003472439, 31.99710191480755], [34.849130493302205, 31.997102642944153], [34.849258723934774, 31.99730652244946], [34.84928256779849, 31.997344432413076], [34.84930492867633, 31.99737998271443], [34.849307150037625, 31.997383514977706], [34.84972262392028, 31.997168080333108], [34.849754143462825, 31.997152981613553], [34.849758595019736, 31.9971510412211], [34.850096232203434, 31.997095876112706], [34.850359645555145, 31.997034583595312], [34.850491414514345, 31.997002289711563], [34.85061123935821, 31.9969658303298], [34.85073555842732, 31.996916397406732], [34.850899507647156, 31.996853187017525], [34.851044863652774, 31.9967817182362], [34.851173949317584, 31.996703350296407], [34.85133763213339, 31.996599016403298], [34.85135175123581, 31.996590080950668], [34.8514368127262, 31.996524354352058], [34.85148014801856, 31.99649029477315], [34.851548132965526, 31.996424277114542], [34.85156398660034, 31.99640894186005], [34.85168304739412, 31.996286470822053], [34.85178372097451, 31.996158866014028], [34.85185807432152, 31.996070023222906], [34.851896701066146, 31.996011948039115], [34.85189743345882, 31.996011365705677]]]}}, {"type": "Feature", "properties": {"OBJECTID": 12281647, "LAYER_ID": 2660144, "GROUP_ID": 255925, "SCENARIO": "", "DEFQ": 0, "PLAN_NAME": "", "DATA_DATE": null, "MAVAT_CODE": 660, "MAVAT_NAME": "קרקע חקלאית", "NAME": "", "LABEL": "", "NUM": "42", "LEGAL_AREA": 0.0, "TYPE_CODE": 0, "TYPE_NAME": "", "SOURCE_COD": 0, "HASAVA": 0, "STATUS": "", "PL_CHANGE": "", "ADDRESS": "", "PLACE_NO": 0, "CALC_AREA": 0.0, "OLD_MIG": "", "AGAM_ID": 99000395267.0, "SHAPE_AREA": 8486.4680426, "SHAPE_LEN": 512.697480946}, "geometry": {"type": "Polygon", "coordinates": [[[34.85858818007985, 31.99538213405844], [34.857870357180936, 31.995792754180748], [34.85798808682044, 31.99594089014085], [34.85925430079072, 31.996130106599576], [34.85981531350042, 31.996227595795382], [34.860277461080194, 31.996319279164307], [34.858599879781906, 31.995382079369698], [34.85859939855732, 31.995381825939322], [34.85859772932171, 31.995381157058283], [34.8585959491516, 31.99538074535803], [34.85859411213654, 31.99538060334784], [34.85859227409328, 31.99538073534266], [34.85859049086981, 31.995381137331854], [34.858588816648506, 31.995381797101217], [34.85858818007985, 31.99538213405844]]]}}, {"type": "Feature", "properties": {"OBJECTID": 12281648, "LAYER_ID": 2660144, "GROUP_ID": 255925, "SCENARIO": "", "DEFQ": 0, "PLAN_NAME": "", "DATA_DATE": null, "MAVAT_CODE": 830, "MAVAT_NAME": "דרך מוצעת", "NAME": "", "LABEL": "", "NUM": "16", "LEGAL_AREA": 0.0, "TYPE_CODE": 0, "TYPE_NAME": "", "SOURCE_COD": 0, "HASAVA": 0, "STATUS": "", "PL_CHANGE": "", "ADDRESS": "", "PLACE_NO": 0, "CALC_AREA": 0.0, "OLD_MIG": "", "AGAM_ID": 99000395267.0, "SHAPE_AREA": 2.32115906, "SHAPE_LEN": 10.1251722714}, "geometry": {"type": "Polygon", "coordinates": [[[34.85238406707169, 31.99357051580075], [34.85238046665686, 31.99356787074477], [34.85234777907937, 31.993600089856223], [34.85235724125253, 31.99359900688984], [34.85238406707169, 31.99357051580075]]]}}, {"type": "Feature", "properties": {"OBJECTID": 12281649, "LAYER_ID": 2660144, "GROUP_ID": 255925, "SCENARIO": "", "DEFQ": 0, "PLAN_NAME": "", "DATA_DATE": null, "MAVAT_CODE": 660, "MAVAT_NAME": "קרקע חקלאית", "NAME": "", "LABEL": "", "NUM": "41", "LEGAL_AREA": 0.0, "TYPE_CODE": 0, "TYPE_NAME": "", "SOURCE_COD": 0, "HASAVA": 0, "STATUS": "", "PL_CHANGE": "", "ADDRESS": "", "PLACE_NO": 0, "CALC_AREA": 0.0, "OLD_MIG": "", "AGAM_ID": 99000395267.0, "SHAPE_AREA": 19695.2663782, "SHAPE_LEN": 695.718526363}, "geometry": {"type": "Polygon", "coordinates": [[[34.857057143229454, 31.995801765388347], [34.857951105576895, 31.99529039452456], [34.857957692807965, 31.99528618825831], [34.857967506346604, 31.99527787854777], [34.85797547757475, 31.995268242838396], [34.8579813642909, 31.99525757390667], [34.85798498763078, 31.995246195922984], [34.85798623750181, 31.99523445460181], [34.8579850759282, 31.995222706697355], [34.857981538204655, 31.99521130916367], [34.85797573182394, 31.995200608308878], [34.85796783321057, 31.995190929272706], [34.85795808236026, 31.995182566147474], [34.85794677554766, 31.995175773042103], [34.85793425632424, 31.995170756361297], [34.85792163002399, 31.995167782475363], [34.85790229856234, 31.995164744101036], [34.85776943005541, 31.995148093368986], [34.857635589885625, 31.995138657578202], [34.85750131694886, 31.995136474720837], [34.85736715188321, 31.995141553585743], [34.857233634892424, 31.99515387372312], [34.8571013035713, 31.99517338552674], [34.85697069074142, 31.99520001043371], [34.85684232230616, 31.99523364124076], [34.856716715133544, 31.995274142535767], [34.85663055416984, 31.99530655509501], [34.85663056052578, 31.995306553308843], [34.85524851783537, 31.995858077333427], [34.8551545696132, 31.995946989040302], [34.85520483695312, 31.996465781147567], [34.855228339335184, 31.996708345955298], [34.85528450203385, 31.996763405840888], [34.85529087335599, 31.9967687588633], [34.85529916501687, 31.99677374064707], [34.85530834583397, 31.996777419737118], [34.85531813685248, 31.996779684346013], [34.855328240576846, 31.996780465664653], [34.85533835001004, 31.996779739953006], [34.85534815798156, 31.996777529261518], [34.85535736648072, 31.996773900761013], [34.85536086424696, 31.996772049576695], [34.857057143229454, 31.995801765388347]]]}}, {"type": "Feature", "properties": {"OBJECTID": 12281650, "LAYER_ID": 2660144, "GROUP_ID": 255925, "SCENARIO": "", "DEFQ": 0, "PLAN_NAME": "", "DATA_DATE": null, "MAVAT_CODE": 830, "MAVAT_NAME": "דרך מוצעת", "NAME": "", "LABEL": "", "NUM": "13", "LEGAL_AREA": 0.0, "TYPE_CODE": 0, "TYPE_NAME": "", "SOURCE_COD": 0, "HASAVA": 0, "STATUS": "", "PL_CHANGE": "", "ADDRESS": "", "PLACE_NO": 0, "CALC_AREA": 0.0, "OLD_MIG": "", "AGAM_ID": 99000395267.0, "SHAPE_AREA": 3561.85438539, "SHAPE_LEN": 466.522693789}, "geometry": {"type": "Polygon", "coordinates": [[[34.86013493148485, 31.994558737261833], [34.860180921740735, 31.9945376675149], [34.86032257839883, 31.994478273235757], [34.860467800315334, 31.99442550161328], [34.860616161555484, 31.9943795074246], [34.86076722697903, 31.99434042556868], [34.86092055351632, 31.99430837067087], [34.86107569146749, 31.994283436746617], [34.86123218582116, 31.994265696926007], [34.861389577588575, 31.994255203239074], [34.86153539684621, 31.99425197509646], [34.86153739260039, 31.994251973274533], [34.86228685731125, 31.994255633772593], [34.86228925889402, 31.994117233289113], [34.86164108793362, 31.99411453363446], [34.86150680568012, 31.994113629565906], [34.86131757245017, 31.994118586930774], [34.86112879533349, 31.99413082619076], [34.86094085994646, 31.99415032234427], [34.86075415018667, 31.994177035566036], [34.86074103276006, 31.994179191608158], [34.860693185954524, 31.99418940574825], [34.86055750016526, 31.994223481870836], [34.86042450431547, 31.994264543926857], [34.86029469313232, 31.994312439171736], [34.86016854949859, 31.994366989442167], [34.860046542656704, 31.994427991818874], [34.85999095916227, 31.994458713566523], [34.86013493148485, 31.994558737261833]]]}}, {"type": "Feature", "properties": {"OBJECTID": 12281651, "LAYER_ID": 2660144, "GROUP_ID": 255925, "SCENARIO": "", "DEFQ": 0, "PLAN_NAME": "", "DATA_DATE": null, "MAVAT_CODE": 820, "MAVAT_NAME": "דרך מאושרת", "NAME": "", "LABEL": "", "NUM": "1", "LEGAL_AREA": 0.0, "TYPE_CODE": 0, "TYPE_NAME": "", "SOURCE_COD": 0, "HASAVA": 0, "STATUS": "", "PL_CHANGE": "", "ADDRESS": "", "PLACE_NO": 0, "CALC_AREA": 0.0, "OLD_MIG": "", "AGAM_ID": 99000395267.0, "SHAPE_AREA": 399080.090111, "SHAPE_LEN": 6047.34902693}, "geometry": {"type": "Polygon", "coordinates": [[[34.8536622389029, 31.996825843960558], [34.85420274646161, 31.996455882584044], [34.85453584022763, 31.9968540887647], [34.85453742401509, 31.9968555793022], [34.85474003549768, 31.996740568189516], [34.855131544252785, 31.997359381189515], [34.8553120581645, 31.997256129173714], [34.855307905612435, 31.997249172327372], [34.855283102587, 31.99720987721954], [34.855265358846886, 31.997181798572086], [34.857188806915644, 31.99607437818686], [34.85753758307431, 31.99587356632606], [34.857689420541305, 31.99589625582377], [34.85798808682044, 31.99594089014085], [34.857870357180936, 31.995792754180748], [34.85858818007985, 31.99538213405844], [34.858588816648506, 31.995381797101217], [34.85859049086981, 31.995381137331854], [34.85859227409328, 31.99538073534266], [34.85859411213654, 31.99538060334784], [34.8585959491516, 31.99538074535803], [34.85859772932171, 31.995381157058283], [34.85859939855732, 31.995381825939322], [34.858599879781906, 31.995382079369698], [34.860277461080194, 31.996319279164307], [34.86118994720457, 31.995291684142966], [34.85999095916227, 31.994458713566523], [34.860046542656704, 31.994427991818874], [34.86016854949859, 31.994366989442167], [34.86029469313232, 31.994312439171736], [34.86042450431547, 31.994264543926857], [34.86055750016526, 31.994223481870836], [34.860693185954524, 31.99418940574825], [34.86074103276006, 31.994179191608158], [34.86075415018667, 31.994177035566036], [34.86094085994646, 31.99415032234427], [34.86112879533349, 31.99413082619076], [34.86131757245017, 31.994118586930774], [34.86150680568012, 31.994113629565906], [34.86164108793362, 31.99411453363446], [34.86228925889402, 31.994117233289113], [34.86229143468272, 31.993991765856315], [34.862275873940895, 31.993990935727197], [34.861644632449995, 31.993988317809688], [34.861458545297744, 31.9939879123219], [34.86126731245682, 31.99399461025037], [34.86107661439129, 31.99400851010969], [34.86088682435725, 31.994029584693138], [34.860706564069815, 31.994056404322738], [34.86067882167809, 31.994062205035476], [34.86053942820393, 31.994095818207104], [34.86040258964116, 31.994136344975885], [34.86026877767378, 31.994183645646412], [34.860138453555, 31.994237557173392], [34.86001206651776, 31.99429789372378], [34.85989005222626, 31.994364447317032], [34.859871205520605, 31.994375514575488], [34.85938932229144, 31.994040729320407], [34.859323977350094, 31.99399142293528], [34.859258902997325, 31.993933047264367], [34.85920023087586, 31.993869935409396], [34.85918501149825, 31.993851478561663], [34.85891558386376, 31.99351635127052], [34.85889884316926, 31.99349553175263], [34.85887120226289, 31.993459436965043], [34.858822520475684, 31.993385826237088], [34.85878144420048, 31.993308921514622], [34.85874827753615, 31.99322929218059], [34.858723266018806, 31.993147527788786], [34.85870737635724, 31.993069386227674], [34.85870578220917, 31.993007153014165], [34.8587104221634, 31.992911943744865], [34.8587236004485, 31.992817316533397], [34.858745239703374, 31.992723826687094], [34.85877521291584, 31.992632022837128], [34.85878414018603, 31.992609020940293], [34.85879413588646, 31.992582044546214], [34.85882418270692, 31.9925183689711], [34.85886213162429, 31.99245783523104], [34.85890753771158, 31.992401153021948], [34.858959868617006, 31.992348986883275], [34.858968959703404, 31.992341001411685], [34.85903289487312, 31.99228101782166], [34.85915349898781, 31.99217631095487], [34.85928007707419, 31.992076857410876], [34.85941231444284, 31.9919829044298], [34.859549882338534, 31.991894685576618], [34.859692438757484, 31.991812420160908], [34.85983962929747, 31.991736312691565], [34.859991088038846, 31.991666552368642], [34.86000364620173, 31.9916611359022], [34.86007563413177, 31.991631342679106], [34.86013736728971, 31.99161035746609], [34.860152010180244, 31.99160467254103], [34.860695038197086, 31.991421556124806], [34.860843775439406, 31.991374199267263], [34.8610223778525, 31.9913245107125], [34.861203448663645, 31.991281801264414], [34.86138661261433, 31.99124615943548], [34.86157149010956, 31.99121765909102], [34.861757698004354, 31.991196359296058], [34.86194485039745, 31.991182304193085], [34.86199181548809, 31.99117992271427], [34.86237288817678, 31.991162456183666], [34.8629018503063, 31.99113592485235], [34.863150611344686, 31.99112979624841], [34.86332478056606, 31.991125196688646], [34.86342951523032, 31.991123019494275], [34.863541883283276, 31.99010253537564], [34.863369462192466, 31.990090252018184], [34.863097050102695, 31.990076804292], [34.86282427798359, 31.990070618716985], [34.86255141229224, 31.990071701335122], [34.86227871957705, 31.990080051088384], [34.86200646621749, 31.990095659819815], [34.861734918164196, 31.990118512281608], [34.861464340679255, 31.990148586149804], [34.86119499807733, 31.990185852046174], [34.86116430608122, 31.990190567450544], [34.86102637814144, 31.99021276741802], [34.860730763408895, 31.99026572853505], [34.86043700746761, 31.990325734042308], [34.86014534136573, 31.990392736743694], [34.859855994509125, 31.990466683939545], [34.85956919448106, 31.990547517468112], [34.85928516686333, 31.99063517375121], [34.85900413505899, 31.99072958384417], [34.85887681464952, 31.990774938354132], [34.858750080437126, 31.9908321785388], [34.85861267667125, 31.99089743772034], [34.85849182009273, 31.99096024902125], [34.858437181954585, 31.990987757592755], [34.85811815034328, 31.99115328442722], [34.85808525482365, 31.991170836713795], [34.85729874569232, 31.991591599402145], [34.85616113131348, 31.992318496014285], [34.854795594816615, 31.993016511864283], [34.854718396145365, 31.992969230443773], [34.8551799047223, 31.992516225242277], [34.85531594827785, 31.992403107629066], [34.855713956161374, 31.99210024370021], [34.85577375301419, 31.992054765195192], [34.85585430613419, 31.991985284028075], [34.85590984964451, 31.991930777471744], [34.855920113586, 31.99191987610789], [34.85596472275643, 31.991865422790426], [34.85596595514675, 31.991863720137236], [34.85597111957286, 31.99185648337811], [34.85601695775282, 31.991784445722807], [34.85604791439816, 31.991724775256742], [34.85628489374412, 31.99121995215504], [34.85623037145711, 31.991238705529423], [34.855994073882215, 31.9913248052373], [34.855761264389855, 31.991417550531242], [34.85553220021514, 31.99151683893902], [34.85539934447461, 31.991578239335034], [34.85530709559708, 31.991622579117085], [34.85510335614494, 31.99172564714902], [34.85483424147885, 31.991998206603622], [34.854812103483276, 31.992020840398453], [34.85457632967494, 31.99226559475199], [34.85447929145558, 31.992367611525577], [34.85346979452858, 31.993414165450744], [34.85290638054195, 31.993844921372904], [34.85285590258457, 31.993895513363366], [34.85284341236279, 31.99390811482211], [34.852534378849604, 31.99421985200025], [34.852621246833344, 31.994479020276273], [34.853200444461535, 31.994962160271314], [34.852805170707086, 31.99534343901627], [34.85278736167288, 31.99535979169376], [34.85275202490058, 31.99538800673001], [34.851913524798675, 31.99599914228508], [34.85190307803458, 31.996006962810927], [34.851896701066146, 31.996011948039115], [34.85185807432152, 31.996070023222906], [34.85178372097451, 31.996158866014028], [34.85168304739412, 31.996286470822053], [34.85156398660034, 31.99640894186005], [34.851548132965526, 31.996424277114542], [34.85148014801856, 31.99649029477315], [34.8514368127262, 31.996524354352058], [34.85135175123581, 31.996590080950668], [34.85133763213339, 31.996599016403298], [34.851173949317584, 31.996703350296407], [34.851044863652774, 31.9967817182362], [34.850899507647156, 31.996853187017525], [34.85073555842732, 31.996916397406732], [34.85061123935821, 31.9969658303298], [34.850491414514345, 31.997002289711563], [34.850359645555145, 31.997034583595312], [34.850096232203434, 31.997095876112706], [34.849758595019736, 31.9971510412211], [34.849754143462825, 31.997152981613553], [34.84972262392028, 31.997168080333108], [34.849307150037625, 31.997383514977706], [34.85000064429657, 31.998486107016422], [34.85049464156623, 31.998397155925083], [34.85055353590932, 31.998383091870863], [34.850575816056335, 31.99837586891901], [34.850621462658246, 31.998359846230592], [34.85092777351919, 31.998247821511526], [34.85123062646307, 31.998129166241004], [34.85152982387876, 31.99800395784586], [34.85182517054278, 31.997872278028872], [34.85185950033802, 31.99785643643433], [34.85228006196861, 31.99766167144861], [34.85252767502599, 31.997520865568323], [34.85270858177896, 31.997420888298155], [34.852892806956106, 31.997319188499013], [34.85309500083237, 31.997197938405375], [34.85344037313257, 31.996976841527424], [34.8536622389029, 31.996825843960558]], [[34.857057143229454, 31.995801765388347], [34.85732748600316, 31.995842166412718], [34.85710586914851, 31.995969765740607], [34.85524162779289, 31.99704309736594], [34.85523891561943, 31.99704448048226], [34.85523830547677, 31.99704478050713], [34.85521961644057, 31.99705214465676], [34.85519971075353, 31.997056631310794], [34.85517919324163, 31.997058104144156], [34.85515868732109, 31.997056518405394], [34.85513881605589, 31.997051922276547], [34.855120183226134, 31.99704445540912], [34.85510335498222, 31.997034344680753], [34.855088842642424, 31.99702189730164], [34.85507708715687, 31.99700749147989], [34.85507282699412, 31.997000542028637], [34.85486104072511, 31.99666579585596], [34.85520483695312, 31.996465781147567], [34.8551545696132, 31.995946989040302], [34.85524851783537, 31.995858077333427], [34.85663056052578, 31.995306553308843], [34.85663055416984, 31.99530655509501], [34.856716715133544, 31.995274142535767], [34.85684232230616, 31.99523364124076], [34.85697069074142, 31.99520001043371], [34.8571013035713, 31.99517338552674], [34.857233634892424, 31.99515387372312], [34.85736715188321, 31.995141553585743], [34.85750131694886, 31.995136474720837], [34.857635589885625, 31.995138657578202], [34.85776943005541, 31.995148093368986], [34.85790229856234, 31.995164744101036], [34.85792163002399, 31.995167782475363], [34.85793425632424, 31.995170756361297], [34.85794677554766, 31.995175773042103], [34.85795808236026, 31.995182566147474], [34.85796783321057, 31.995190929272706], [34.85797573182394, 31.995200608308878], [34.857981538204655, 31.99521130916367], [34.8579850759282, 31.995222706697355], [34.85798623750181, 31.99523445460181], [34.85798498763078, 31.995246195922984], [34.8579813642909, 31.99525757390667], [34.85797547757475, 31.995268242838396], [34.857967506346604, 31.99527787854777], [34.857957692807965, 31.99528618825831], [34.857951105576895, 31.99529039452456], [34.857057143229454, 31.995801765388347]]]}}, {"type": "Feature", "properties": {"OBJECTID": 12281652, "LAYER_ID": 2660144, "GROUP_ID": 255925, "SCENARIO": "", "DEFQ": 0, "PLAN_NAME": "", "DATA_DATE": null, "MAVAT_CODE": 660, "MAVAT_NAME": "קרקע חקלאית", "NAME": "", "LABEL": "", "NUM": "45", "LEGAL_AREA": 0.0, "TYPE_CODE": 0, "TYPE_NAME": "", "SOURCE_COD": 0, "HASAVA": 0, "STATUS": "", "PL_CHANGE": "", "ADDRESS": "", "PLACE_NO": 0, "CALC_AREA": 0.0, "OLD_MIG": "", "AGAM_ID": 99000395267.0, "SHAPE_AREA": 9591.62678092, "SHAPE_LEN": 471.186177272}, "geometry": {"type": "Polygon", "coordinates": [[[34.852621246833344, 31.994479020276273], [34.85256755195803, 31.994318826661917], [34.852541513262636, 31.99433623320458], [34.8525342291034, 31.994341109795542], [34.85253180383064, 31.99434274615512], [34.85251425335307, 31.994354761805184], [34.85249005471419, 31.994372476445495], [34.8524708646033, 31.99438822100586], [34.85246315731613, 31.994395073900538], [34.85243454235199, 31.994427148563595], [34.85242097040267, 31.99444818777385], [34.852393748455896, 31.99449388596754], [34.85226325634891, 31.994715987828243], [34.852168448238615, 31.994877160005696], [34.852164181802756, 31.994974557284266], [34.8520666023952, 31.995410973498597], [34.851990973114674, 31.99571411905582], [34.851848719773244, 31.995989246225673], [34.85189743345882, 31.996011365705677], [34.85190305698336, 31.99600697814981], [34.851913524798675, 31.99599914228508], [34.85275202490058, 31.99538800673001], [34.85278736167288, 31.99535979169376], [34.852805170707086, 31.99534343901627], [34.853200444461535, 31.994962160271314], [34.852621246833344, 31.994479020276273]]]}}, {"type": "Feature", "properties": {"OBJECTID": 12281653, "LAYER_ID": 2660144, "GROUP_ID": 255925, "SCENARIO": "", "DEFQ": 0, "PLAN_NAME": "", "DATA_DATE": null, "MAVAT_CODE": 740, "MAVAT_NAME": "נחל/ תעלה/מאגר מים", "NAME": "", "LABEL": "", "NUM": "51", "LEGAL_AREA": 0.0, "TYPE_CODE": 0, "TYPE_NAME": "", "SOURCE_COD": 0, "HASAVA": 0, "STATUS": "", "PL_CHANGE": "", "ADDRESS": "", "PLACE_NO": 0, "CALC_AREA": 0.0, "OLD_MIG": "", "AGAM_ID": 99000395267.0, "SHAPE_AREA": 6955.28433468, "SHAPE_LEN": 668.201011581}, "geometry": {"type": "Polygon", "coordinates": [[[34.85484283552534, 31.991868287643502], [34.85465840297156, 31.9919771148241], [34.85446017836496, 31.992101855134656], [34.85445176882344, 31.992107333526988], [34.85430861397541, 31.99220302160506], [34.854189519035266, 31.992324542825344], [34.852689247998875, 31.993794810755833], [34.852760701556036, 31.993847325975715], [34.85284341236279, 31.99390811482211], [34.85285590258457, 31.993895513363366], [34.85290638054195, 31.993844921372904], [34.85346979452858, 31.993414165450744], [34.85447929145558, 31.992367611525577], [34.85457632967494, 31.99226559475199], [34.854812103483276, 31.992020840398453], [34.85483424147885, 31.991998206603622], [34.85510335614494, 31.99172564714902], [34.855086311606115, 31.991734599498415], [34.85486998588166, 31.991852829727808], [34.85484283552534, 31.991868287643502]]]}}, {"type": "Feature", "properties": {"OBJECTID": 12281654, "LAYER_ID": 2660144, "GROUP_ID": 255925, "SCENARIO": "", "DEFQ": 0, "PLAN_NAME": "", "DATA_DATE": null, "MAVAT_CODE": 850, "MAVAT_NAME": "דרך ו/או טיפול נופי", "NAME": "", "LABEL": "", "NUM": "20", "LEGAL_AREA": 0.0, "TYPE_CODE": 0, "TYPE_NAME": "", "SOURCE_COD": 0, "HASAVA": 0, "STATUS": "", "PL_CHANGE": "", "ADDRESS": "", "PLACE_NO": 0, "CALC_AREA": 0.0, "OLD_MIG": "", "AGAM_ID": 99000395267.0, "SHAPE_AREA": 109.3453886, "SHAPE_LEN": 62.8996924823}, "geometry": {"type": "Polygon", "coordinates": [[[34.852241677581056, 31.993704675123666], [34.852200198392744, 31.993690407108904], [34.85201573689369, 31.993872226909453], [34.85204775628384, 31.993895818609218], [34.852241677581056, 31.993704675123666]]]}}, {"type": "Feature", "properties": {"OBJECTID": 12281655, "LAYER_ID": 2660144, "GROUP_ID": 255925, "SCENARIO": "", "DEFQ": 0, "PLAN_NAME": "", "DATA_DATE": null, "MAVAT_CODE": 930, "MAVAT_NAME": "מפגש דרך-מסילה", "NAME": "", "LABEL": "", "NUM": "30", "LEGAL_AREA": 0.0, "TYPE_CODE": 0, "TYPE_NAME": "", "SOURCE_COD": 0, "HASAVA": 0, "STATUS": "", "PL_CHANGE": "", "ADDRESS": "", "PLACE_NO": 0, "CALC_AREA": 0.0, "OLD_MIG": "", "AGAM_ID": 99000395267.0, "SHAPE_AREA": 651.59983114, "SHAPE_LEN": 150.249130915}, "geometry": {"type": "Polygon", "coordinates": [[[34.852297807930704, 31.993730698198874], [34.852473683059735, 31.99386186634598], [34.85253921066878, 31.993795765550825], [34.8526029960606, 31.993731420209937], [34.8523840670717, 31.99357051580077], [34.85235724125253, 31.99359900688984], [34.8523529083991, 31.99360361029643], [34.85228192734751, 31.9936740299295], [34.852248627061584, 31.993707066151366], [34.85219039493483, 31.993771374422646], [34.85217276524099, 31.993790844109512], [34.852058926775456, 31.99390404881792], [34.85209498343093, 31.993930616843564], [34.852297807930704, 31.993730698198874]]]}}, {"type": "Feature", "properties": {"OBJECTID": 12281656, "LAYER_ID": 2660144, "GROUP_ID": 255925, "SCENARIO": "", "DEFQ": 0, "PLAN_NAME": "", "DATA_DATE": null, "MAVAT_CODE": 830, "MAVAT_NAME": "דרך מוצעת", "NAME": "", "LABEL": "", "NUM": "12", "LEGAL_AREA": 0.0, "TYPE_CODE": 0, "TYPE_NAME": "", "SOURCE_COD": 0, "HASAVA": 0, "STATUS": "", "PL_CHANGE": "", "ADDRESS": "", "PLACE_NO": 0, "CALC_AREA": 0.0, "OLD_MIG": "", "AGAM_ID": 99000395267.0, "SHAPE_AREA": 2569.44110904, "SHAPE_LEN": 553.627618961}, "geometry": {"type": "Polygon", "coordinates": [[[34.857689420541305, 31.99589625582377], [34.85753758307431, 31.99587356632606], [34.857188806915644, 31.99607437818686], [34.85527089273101, 31.997178612399736], [34.855265358846886, 31.997181798572086], [34.855283102587, 31.99720987721954], [34.855307905612435, 31.997249172327372], [34.8553120581645, 31.997256129173714], [34.857689420541305, 31.99589625582377]]]}}, {"type": "Feature", "properties": {"OBJECTID": 12281657, "LAYER_ID": 2660144, "GROUP_ID": 255925, "SCENARIO": "", "DEFQ": 0, "PLAN_NAME": "", "DATA_DATE": null, "MAVAT_CODE": 820, "MAVAT_NAME": "דרך מאושרת", "NAME": "", "LABEL": "", "NUM": "2", "LEGAL_AREA": 0.0, "TYPE_CODE": 0, "TYPE_NAME": "", "SOURCE_COD": 0, "HASAVA": 0, "STATUS": "", "PL_CHANGE": "", "ADDRESS": "", "PLACE_NO": 0, "CALC_AREA": 0.0, "OLD_MIG": "", "AGAM_ID": 99000395267.0, "SHAPE_AREA": 10.04539756, "SHAPE_LEN": 32.7195381788}, "geometry": {"type": "Polygon", "coordinates": [[[34.852241677581056, 31.993704675123666], [34.852248627061584, 31.993707066151366], [34.85228192734752, 31.9936740299295], [34.852352908399105, 31.99360361029643], [34.85235724125253, 31.99359900688984], [34.85234777907937, 31.993600089856223], [34.852241677581056, 31.993704675123666]]]}}, {"type": "Feature", "properties": {"OBJECTID": 12281658, "LAYER_ID": 2660144, "GROUP_ID": 255925, "SCENARIO": "", "DEFQ": 0, "PLAN_NAME": "", "DATA_DATE": null, "MAVAT_CODE": 830, "MAVAT_NAME": "דרך מוצעת", "NAME": "", "LABEL": "", "NUM": "15", "LEGAL_AREA": 0.0, "TYPE_CODE": 0, "TYPE_NAME": "", "SOURCE_COD": 0, "HASAVA": 0, "STATUS": "", "PL_CHANGE": "", "ADDRESS": "", "PLACE_NO": 0, "CALC_AREA": 0.0, "OLD_MIG": "", "AGAM_ID": 99000395267.0, "SHAPE_AREA": 571.34293404, "SHAPE_LEN": 98.0956936994}, "geometry": {"type": "Polygon", "coordinates": [[[34.85284341236279, 31.993908114822123], [34.8526029960606, 31.993731420209937], [34.85253921066878, 31.993795765550825], [34.852473683059735, 31.99386186634598], [34.85271261439233, 31.994040057684316], [34.85284341236279, 31.993908114822123]]]}}, {"type": "Feature", "properties": {"OBJECTID": 12281659, "LAYER_ID": 2660144, "GROUP_ID": 255925, "SCENARIO": "", "DEFQ": 0, "PLAN_NAME": "", "DATA_DATE": null, "MAVAT_CODE": 660, "MAVAT_NAME": "קרקע חקלאית", "NAME": "", "LABEL": "", "NUM": "40", "LEGAL_AREA": 0.0, "TYPE_CODE": 0, "TYPE_NAME": "", "SOURCE_COD": 0, "HASAVA": 0, "STATUS": "", "PL_CHANGE": "", "ADDRESS": "", "PLACE_NO": 0, "CALC_AREA": 0.0, "OLD_MIG": "", "AGAM_ID": 99000395267.0, "SHAPE_AREA": 11108.8786341, "SHAPE_LEN": 1006.43919597}, "geometry": {"type": "Polygon", "coordinates": [[[34.85000064429657, 31.998486107016422], [34.850143761903915, 31.9987136453767], [34.852835757957415, 31.997583814054288], [34.85404970539447, 31.997074291441503], [34.85420576794219, 31.99700624130334], [34.85439887097652, 31.996914730057306], [34.85453036024083, 31.99684753738991], [34.85420274646161, 31.996455882584044], [34.8536622389029, 31.996825843960558], [34.85344037313257, 31.996976841527424], [34.85309500083237, 31.997197938405375], [34.852892806956106, 31.997319188499013], [34.85270858177896, 31.997420888298155], [34.85252767502599, 31.997520865568323], [34.85228006196861, 31.99766167144861], [34.85185950033802, 31.99785643643433], [34.85182517054278, 31.997872278028872], [34.85152982387876, 31.99800395784586], [34.85123062646307, 31.998129166241004], [34.85092777351919, 31.998247821511526], [34.850621462658246, 31.998359846230592], [34.850575816056335, 31.99837586891901], [34.85055353590932, 31.998383091870863], [34.85049464156623, 31.998397155925083], [34.85000064429657, 31.998486107016422]]]}}]}