{"type": "FeatureCollection", "features": [{"type": "Feature", "properties": {"OBJECTID": 11792296, "LAYER_ID": 2660136, "GROUP_ID": 255925, "SCENARIO": "", "DEFQ": 0, "PLAN_NAME": "", "DATA_DATE": null, "MAVAT_CODE": 0, "MAVAT_NAME": "", "BLOCKNAME": "", "ROTATION": 57.29577951, "TYPE_CODE": 0, "TYPE_NAME": "", "SOURCE_COD": 0, "STATUS": "", "PL_CHANGE": "", "PLACE_NO": 0, "ADDRESS": "", "RADIUS": 0.0, "LENGTH": 0.0, "WIDTH": 0.0, "REMARKS": "", "DATE_DEC": "", "TAG1": "", "TAG2": "", "TAG3": "", "STAGE": "", "NAME": "", "LABEL": "", "AGAM_ID": 99000395267.0}, "geometry": {"type": "Point", "coordinates": [34.85619438000509, 31.994594653485517]}}]}