{"type": "FeatureCollection", "features": [{"type": "Feature", "properties": {"OBJECTID": 5686182, "LAYER_ID": 2660145, "GROUP_ID": 255925, "DEFQ": 0, "MAVAT_CODE": 22340, "MAVAT_NAME": "מלבן הדפסה", "PAGE_SIZE": 0, "SCALE": 2500, "PAGE": 1, "PAGES": 1, "PLAN_NAME": "", "VER_ID": 99000946055.0, "AGAM_ID": 99000395267.0, "SHAPE_AREA": 3895000.0, "SHAPE_LEN": 7900.0}, "geometry": {"type": "Polygon", "coordinates": [[[34.86827562546104, 31.98917885831585], [34.848171326406224, 31.989124016645214], [34.84809984894915, 32.00761075795546], [34.86820818182907, 32.00766563886982], [34.86827562546104, 31.98917885831585]]]}}, {"type": "Feature", "properties": {"OBJECTID": 5686183, "LAYER_ID": 2660145, "GROUP_ID": 255925, "DEFQ": 0, "MAVAT_CODE": 22345, "MAVAT_NAME": "מסגרת הגדלה", "PAGE_SIZE": 3, "SCALE": 1000, "PAGE": 1, "PAGES": 1, "PLAN_NAME": "", "VER_ID": 99000946055.0, "AGAM_ID": 99000395267.0, "SHAPE_AREA": 28000.0, "SHAPE_LEN": 680.0}, "geometry": {"type": "Polygon", "coordinates": [[[34.85322539860358, 31.992980005256296], [34.85110907012336, 31.99297413082894], [34.85110423034016, 31.99423664134783], [34.85322058781137, 31.99424251606218], [34.85322539860358, 31.992980005256296]]]}}]}