{"type": "FeatureCollection", "features": [{"type": "Feature", "properties": {"OBJECTID": 11822355, "LAYER_ID": 2660134, "GROUP_ID": 255925, "SCENARIO": "", "DEFQ": 0, "PLAN_NAME": "", "DATA_DATE": null, "MAVAT_CODE": 660, "MAVAT_NAME": "", "NAME": "", "LABEL": "", "NUM": "42", "LEGAL_AREA": 0.0, "TYPE_CODE": 0, "TYPE_NAME": "", "SOURCE_COD": 0, "HASAVA": 0, "STATUS": "", "PL_CHANGE": "", "ADDRESS": "", "PLACE_NO": 0, "CALC_AREA": 0.0, "OLD_MIG": "", "AGAM_ID": 99000395267.0, "FONT_SIZE": 1.5, "ROTATION": 0.0}, "geometry": {"type": "Point", "coordinates": [34.85868881528857, 31.995863904286455]}}, {"type": "Feature", "properties": {"OBJECTID": 11822356, "LAYER_ID": 2660134, "GROUP_ID": 255925, "SCENARIO": "", "DEFQ": 0, "PLAN_NAME": "", "DATA_DATE": null, "MAVAT_CODE": 830, "MAVAT_NAME": "", "NAME": "", "LABEL": "", "NUM": "10", "LEGAL_AREA": 0.0, "TYPE_CODE": 0, "TYPE_NAME": "", "SOURCE_COD": 0, "HASAVA": 0, "STATUS": "", "PL_CHANGE": "", "ADDRESS": "", "PLACE_NO": 0, "CALC_AREA": 0.0, "OLD_MIG": "", "AGAM_ID": 99000395267.0, "FONT_SIZE": 1.5, "ROTATION": 0.0}, "geometry": {"type": "Point", "coordinates": [34.854771245063276, 31.996974139886586]}}, {"type": "Feature", "properties": {"OBJECTID": 11822357, "LAYER_ID": 2660134, "GROUP_ID": 255925, "SCENARIO": "", "DEFQ": 0, "PLAN_NAME": "", "DATA_DATE": null, "MAVAT_CODE": 820, "MAVAT_NAME": "", "NAME": "", "LABEL": "", "NUM": "2", "LEGAL_AREA": 0.0, "TYPE_CODE": 0, "TYPE_NAME": "", "SOURCE_COD": 0, "HASAVA": 0, "STATUS": "", "PL_CHANGE": "", "ADDRESS": "", "PLACE_NO": 0, "CALC_AREA": 0.0, "OLD_MIG": "", "AGAM_ID": 99000395267.0, "FONT_SIZE": 1.5, "ROTATION": 0.0}, "geometry": {"type": "Point", "coordinates": [34.85230415112554, 31.9936474902143]}}, {"type": "Feature", "properties": {"OBJECTID": 11822358, "LAYER_ID": 2660134, "GROUP_ID": 255925, "SCENARIO": "", "DEFQ": 0, "PLAN_NAME": "", "DATA_DATE": null, "MAVAT_CODE": 660, "MAVAT_NAME": "", "NAME": "", "LABEL": "", "NUM": "41", "LEGAL_AREA": 0.0, "TYPE_CODE": 0, "TYPE_NAME": "", "SOURCE_COD": 0, "HASAVA": 0, "STATUS": "", "PL_CHANGE": "", "ADDRESS": "", "PLACE_NO": 0, "CALC_AREA": 0.0, "OLD_MIG": "", "AGAM_ID": 99000395267.0, "FONT_SIZE": 1.5, "ROTATION": 0.0}, "geometry": {"type": "Point", "coordinates": [34.856423200700156, 31.99565371097598]}}, {"type": "Feature", "properties": {"OBJECTID": 11822359, "LAYER_ID": 2660134, "GROUP_ID": 255925, "SCENARIO": "", "DEFQ": 0, "PLAN_NAME": "", "DATA_DATE": null, "MAVAT_CODE": 830, "MAVAT_NAME": "", "NAME": "", "LABEL": "", "NUM": "17", "LEGAL_AREA": 0.0, "TYPE_CODE": 0, "TYPE_NAME": "", "SOURCE_COD": 0, "HASAVA": 0, "STATUS": "", "PL_CHANGE": "", "ADDRESS": "", "PLACE_NO": 0, "CALC_AREA": 0.0, "OLD_MIG": "", "AGAM_ID": 99000395267.0, "FONT_SIZE": 1.5, "ROTATION": 0.0}, "geometry": {"type": "Point", "coordinates": [34.85211874844985, 31.993836424583826]}}, {"type": "Feature", "properties": {"OBJECTID": 11822360, "LAYER_ID": 2660134, "GROUP_ID": 255925, "SCENARIO": "", "DEFQ": 0, "PLAN_NAME": "", "DATA_DATE": null, "MAVAT_CODE": 820, "MAVAT_NAME": "", "NAME": "", "LABEL": "", "NUM": "1", "LEGAL_AREA": 0.0, "TYPE_CODE": 0, "TYPE_NAME": "", "SOURCE_COD": 0, "HASAVA": 0, "STATUS": "", "PL_CHANGE": "", "ADDRESS": "", "PLACE_NO": 0, "CALC_AREA": 0.0, "OLD_MIG": "", "AGAM_ID": 99000395267.0, "FONT_SIZE": 1.5, "ROTATION": 0.0}, "geometry": {"type": "Point", "coordinates": [34.855540963853024, 31.994224052026347]}}, {"type": "Feature", "properties": {"OBJECTID": 11822361, "LAYER_ID": 2660134, "GROUP_ID": 255925, "SCENARIO": "", "DEFQ": 0, "PLAN_NAME": "", "DATA_DATE": null, "MAVAT_CODE": 660, "MAVAT_NAME": "", "NAME": "", "LABEL": "", "NUM": "44", "LEGAL_AREA": 0.0, "TYPE_CODE": 0, "TYPE_NAME": "", "SOURCE_COD": 0, "HASAVA": 0, "STATUS": "", "PL_CHANGE": "", "ADDRESS": "", "PLACE_NO": 0, "CALC_AREA": 0.0, "OLD_MIG": "", "AGAM_ID": 99000395267.0, "FONT_SIZE": 1.5, "ROTATION": 0.0}, "geometry": {"type": "Point", "coordinates": [34.85646921019426, 31.991829192959113]}}, {"type": "Feature", "properties": {"OBJECTID": 11822362, "LAYER_ID": 2660134, "GROUP_ID": 255925, "SCENARIO": "", "DEFQ": 0, "PLAN_NAME": "", "DATA_DATE": null, "MAVAT_CODE": 830, "MAVAT_NAME": "", "NAME": "", "LABEL": "", "NUM": "15", "LEGAL_AREA": 0.0, "TYPE_CODE": 0, "TYPE_NAME": "", "SOURCE_COD": 0, "HASAVA": 0, "STATUS": "", "PL_CHANGE": "", "ADDRESS": "", "PLACE_NO": 0, "CALC_AREA": 0.0, "OLD_MIG": "", "AGAM_ID": 99000395267.0, "FONT_SIZE": 1.5, "ROTATION": 0.0}, "geometry": {"type": "Point", "coordinates": [34.85268880809309, 31.993942798996883]}}, {"type": "Feature", "properties": {"OBJECTID": 11822363, "LAYER_ID": 2660134, "GROUP_ID": 255925, "SCENARIO": "", "DEFQ": 0, "PLAN_NAME": "", "DATA_DATE": null, "MAVAT_CODE": 930, "MAVAT_NAME": "", "NAME": "", "LABEL": "", "NUM": "30", "LEGAL_AREA": 0.0, "TYPE_CODE": 0, "TYPE_NAME": "", "SOURCE_COD": 0, "HASAVA": 0, "STATUS": "", "PL_CHANGE": "", "ADDRESS": "", "PLACE_NO": 0, "CALC_AREA": 0.0, "OLD_MIG": "", "AGAM_ID": 99000395267.0, "FONT_SIZE": 1.5, "ROTATION": 0.0}, "geometry": {"type": "Point", "coordinates": [34.85240423238903, 31.993717199480603]}}, {"type": "Feature", "properties": {"OBJECTID": 11822364, "LAYER_ID": 2660134, "GROUP_ID": 255925, "SCENARIO": "", "DEFQ": 0, "PLAN_NAME": "", "DATA_DATE": null, "MAVAT_CODE": 740, "MAVAT_NAME": "", "NAME": "", "LABEL": "", "NUM": "51", "LEGAL_AREA": 0.0, "TYPE_CODE": 0, "TYPE_NAME": "", "SOURCE_COD": 0, "HASAVA": 0, "STATUS": "", "PL_CHANGE": "", "ADDRESS": "", "PLACE_NO": 0, "CALC_AREA": 0.0, "OLD_MIG": "", "AGAM_ID": 99000395267.0, "FONT_SIZE": 1.5, "ROTATION": 0.0}, "geometry": {"type": "Point", "coordinates": [34.85328396902821, 31.99345652312396]}}, {"type": "Feature", "properties": {"OBJECTID": 11822365, "LAYER_ID": 2660134, "GROUP_ID": 255925, "SCENARIO": "", "DEFQ": 0, "PLAN_NAME": "", "DATA_DATE": null, "MAVAT_CODE": 660, "MAVAT_NAME": "", "NAME": "", "LABEL": "", "NUM": "40", "LEGAL_AREA": 0.0, "TYPE_CODE": 0, "TYPE_NAME": "", "SOURCE_COD": 0, "HASAVA": 0, "STATUS": "", "PL_CHANGE": "", "ADDRESS": "", "PLACE_NO": 0, "CALC_AREA": 0.0, "OLD_MIG": "", "AGAM_ID": 99000395267.0, "FONT_SIZE": 1.5, "ROTATION": 0.0}, "geometry": {"type": "Point", "coordinates": [34.853882727130895, 31.996971704760092]}}, {"type": "Feature", "properties": {"OBJECTID": 11822366, "LAYER_ID": 2660134, "GROUP_ID": 255925, "SCENARIO": "", "DEFQ": 0, "PLAN_NAME": "", "DATA_DATE": null, "MAVAT_CODE": 830, "MAVAT_NAME": "", "NAME": "", "LABEL": "", "NUM": "16", "LEGAL_AREA": 0.0, "TYPE_CODE": 0, "TYPE_NAME": "", "SOURCE_COD": 0, "HASAVA": 0, "STATUS": "", "PL_CHANGE": "", "ADDRESS": "", "PLACE_NO": 0, "CALC_AREA": 0.0, "OLD_MIG": "", "AGAM_ID": 99000395267.0, "FONT_SIZE": 1.5, "ROTATION": 0.0}, "geometry": {"type": "Point", "coordinates": [34.85236903619157, 31.99358282519564]}}, {"type": "Feature", "properties": {"OBJECTID": 11822367, "LAYER_ID": 2660134, "GROUP_ID": 255925, "SCENARIO": "", "DEFQ": 0, "PLAN_NAME": "", "DATA_DATE": null, "MAVAT_CODE": 830, "MAVAT_NAME": "", "NAME": "", "LABEL": "", "NUM": "13", "LEGAL_AREA": 0.0, "TYPE_CODE": 0, "TYPE_NAME": "", "SOURCE_COD": 0, "HASAVA": 0, "STATUS": "", "PL_CHANGE": "", "ADDRESS": "", "PLACE_NO": 0, "CALC_AREA": 0.0, "OLD_MIG": "", "AGAM_ID": 99000395267.0, "FONT_SIZE": 1.5, "ROTATION": 0.0}, "geometry": {"type": "Point", "coordinates": [34.86048904587077, 31.994344841096144]}}, {"type": "Feature", "properties": {"OBJECTID": 11822368, "LAYER_ID": 2660134, "GROUP_ID": 255925, "SCENARIO": "", "DEFQ": 0, "PLAN_NAME": "", "DATA_DATE": null, "MAVAT_CODE": 850, "MAVAT_NAME": "", "NAME": "", "LABEL": "", "NUM": "20", "LEGAL_AREA": 0.0, "TYPE_CODE": 0, "TYPE_NAME": "", "SOURCE_COD": 0, "HASAVA": 0, "STATUS": "", "PL_CHANGE": "", "ADDRESS": "", "PLACE_NO": 0, "CALC_AREA": 0.0, "OLD_MIG": "", "AGAM_ID": 99000395267.0, "FONT_SIZE": 1.5, "ROTATION": 0.0}, "geometry": {"type": "Point", "coordinates": [34.85205403294204, 31.993862736265786]}}, {"type": "Feature", "properties": {"OBJECTID": 11822369, "LAYER_ID": 2660134, "GROUP_ID": 255925, "SCENARIO": "", "DEFQ": 0, "PLAN_NAME": "", "DATA_DATE": null, "MAVAT_CODE": 830, "MAVAT_NAME": "", "NAME": "", "LABEL": "", "NUM": "14", "LEGAL_AREA": 0.0, "TYPE_CODE": 0, "TYPE_NAME": "", "SOURCE_COD": 0, "HASAVA": 0, "STATUS": "", "PL_CHANGE": "", "ADDRESS": "", "PLACE_NO": 0, "CALC_AREA": 0.0, "OLD_MIG": "", "AGAM_ID": 99000395267.0, "FONT_SIZE": 1.5, "ROTATION": 0.0}, "geometry": {"type": "Point", "coordinates": [34.8600401059035, 31.99421515810117]}}, {"type": "Feature", "properties": {"OBJECTID": 11822341, "LAYER_ID": 2660134, "GROUP_ID": 255925, "SCENARIO": "", "DEFQ": 0, "PLAN_NAME": "", "DATA_DATE": null, "MAVAT_CODE": 830, "MAVAT_NAME": "", "NAME": "", "LABEL": "", "NUM": "11", "LEGAL_AREA": 0.0, "TYPE_CODE": 0, "TYPE_NAME": "", "SOURCE_COD": 0, "HASAVA": 0, "STATUS": "", "PL_CHANGE": "", "ADDRESS": "", "PLACE_NO": 0, "CALC_AREA": 0.0, "OLD_MIG": "", "AGAM_ID": 99000395267.0, "FONT_SIZE": 1.5, "ROTATION": 0.0}, "geometry": {"type": "Point", "coordinates": [34.85654466300801, 31.9961814994243]}}, {"type": "Feature", "properties": {"OBJECTID": 11822342, "LAYER_ID": 2660134, "GROUP_ID": 255925, "SCENARIO": "", "DEFQ": 0, "PLAN_NAME": "", "DATA_DATE": null, "MAVAT_CODE": 660, "MAVAT_NAME": "", "NAME": "", "LABEL": "", "NUM": "45", "LEGAL_AREA": 0.0, "TYPE_CODE": 0, "TYPE_NAME": "", "SOURCE_COD": 0, "HASAVA": 0, "STATUS": "", "PL_CHANGE": "", "ADDRESS": "", "PLACE_NO": 0, "CALC_AREA": 0.0, "OLD_MIG": "", "AGAM_ID": 99000395267.0, "FONT_SIZE": 1.5, "ROTATION": 0.0}, "geometry": {"type": "Point", "coordinates": [34.85254141661485, 31.99524179078965]}}, {"type": "Feature", "properties": {"OBJECTID": 11822343, "LAYER_ID": 2660134, "GROUP_ID": 255925, "SCENARIO": "", "DEFQ": 0, "PLAN_NAME": "", "DATA_DATE": null, "MAVAT_CODE": 740, "MAVAT_NAME": "", "NAME": "", "LABEL": "", "NUM": "50", "LEGAL_AREA": 0.0, "TYPE_CODE": 0, "TYPE_NAME": "", "SOURCE_COD": 0, "HASAVA": 0, "STATUS": "", "PL_CHANGE": "", "ADDRESS": "", "PLACE_NO": 0, "CALC_AREA": 0.0, "OLD_MIG": "", "AGAM_ID": 99000395267.0, "FONT_SIZE": 1.5, "ROTATION": 0.0}, "geometry": {"type": "Point", "coordinates": [34.8521290730374, 31.994685509603983]}}, {"type": "Feature", "properties": {"OBJECTID": 11822344, "LAYER_ID": 2660134, "GROUP_ID": 255925, "SCENARIO": "", "DEFQ": 0, "PLAN_NAME": "", "DATA_DATE": null, "MAVAT_CODE": 660, "MAVAT_NAME": "", "NAME": "", "LABEL": "", "NUM": "46", "LEGAL_AREA": 0.0, "TYPE_CODE": 0, "TYPE_NAME": "", "SOURCE_COD": 0, "HASAVA": 0, "STATUS": "", "PL_CHANGE": "", "ADDRESS": "", "PLACE_NO": 0, "CALC_AREA": 0.0, "OLD_MIG": "", "AGAM_ID": 99000395267.0, "FONT_SIZE": 1.5, "ROTATION": 0.0}, "geometry": {"type": "Point", "coordinates": [34.851366566911516, 31.995837486828925]}}, {"type": "Feature", "properties": {"OBJECTID": 11822345, "LAYER_ID": 2660134, "GROUP_ID": 255925, "SCENARIO": "", "DEFQ": 0, "PLAN_NAME": "", "DATA_DATE": null, "MAVAT_CODE": 660, "MAVAT_NAME": "", "NAME": "", "LABEL": "", "NUM": "43", "LEGAL_AREA": 0.0, "TYPE_CODE": 0, "TYPE_NAME": "", "SOURCE_COD": 0, "HASAVA": 0, "STATUS": "", "PL_CHANGE": "", "ADDRESS": "", "PLACE_NO": 0, "CALC_AREA": 0.0, "OLD_MIG": "", "AGAM_ID": 99000395267.0, "FONT_SIZE": 1.5, "ROTATION": 0.0}, "geometry": {"type": "Point", "coordinates": [34.85882656855944, 31.99289068850023]}}, {"type": "Feature", "properties": {"OBJECTID": 11822346, "LAYER_ID": 2660134, "GROUP_ID": 255925, "SCENARIO": "", "DEFQ": 0, "PLAN_NAME": "", "DATA_DATE": null, "MAVAT_CODE": 830, "MAVAT_NAME": "", "NAME": "", "LABEL": "", "NUM": "12", "LEGAL_AREA": 0.0, "TYPE_CODE": 0, "TYPE_NAME": "", "SOURCE_COD": 0, "HASAVA": 0, "STATUS": "", "PL_CHANGE": "", "ADDRESS": "", "PLACE_NO": 0, "CALC_AREA": 0.0, "OLD_MIG": "", "AGAM_ID": 99000395267.0, "FONT_SIZE": 1.5, "ROTATION": 0.0}, "geometry": {"type": "Point", "coordinates": [34.857311916211536, 31.996073490347033]}}]}