{"type": "FeatureCollection", "features": [{"type": "Feature", "properties": {"OBJECTID": 25510131, "LAYER_ID": 7790781, "GROUP_ID": 459617, "SCENARIO": "", "DEFQ": 0, "PLAN_NAME": "", "DATA_DATE": null, "MAVAT_CODE": 160, "MAVAT_NAME": "", "NAME": "", "LABEL": "", "NUM": "5C", "LEGAL_AREA": 0.0, "TYPE_CODE": 0, "TYPE_NAME": "", "SOURCE_COD": 0, "HASAVA": 0, "STATUS": "", "PL_CHANGE": "", "ADDRESS": "", "PLACE_NO": 0, "CALC_AREA": 0.0, "OLD_MIG": "", "AGAM_ID": 4005519122.0, "FONT_SIZE": 0.75, "ROTATION": 0.0}, "geometry": {"type": "Point", "coordinates": [34.84550187189103, 31.985559856173747]}}, {"type": "Feature", "properties": {"OBJECTID": 25509824, "LAYER_ID": 7790781, "GROUP_ID": 459617, "SCENARIO": "", "DEFQ": 0, "PLAN_NAME": "", "DATA_DATE": null, "MAVAT_CODE": 660, "MAVAT_NAME": "", "NAME": "", "LABEL": "", "NUM": "1", "LEGAL_AREA": 0.0, "TYPE_CODE": 0, "TYPE_NAME": "", "SOURCE_COD": 0, "HASAVA": 0, "STATUS": "", "PL_CHANGE": "", "ADDRESS": "", "PLACE_NO": 0, "CALC_AREA": 0.0, "OLD_MIG": "", "AGAM_ID": 4005519122.0, "FONT_SIZE": 0.75, "ROTATION": 0.0}, "geometry": {"type": "Point", "coordinates": [34.845456418812134, 31.985227136985582]}}, {"type": "Feature", "properties": {"OBJECTID": 25510129, "LAYER_ID": 7790781, "GROUP_ID": 459617, "SCENARIO": "", "DEFQ": 0, "PLAN_NAME": "", "DATA_DATE": null, "MAVAT_CODE": 20, "MAVAT_NAME": "", "NAME": "", "LABEL": "", "NUM": "5A", "LEGAL_AREA": 0.0, "TYPE_CODE": 0, "TYPE_NAME": "", "SOURCE_COD": 0, "HASAVA": 0, "STATUS": "", "PL_CHANGE": "", "ADDRESS": "", "PLACE_NO": 0, "CALC_AREA": 0.0, "OLD_MIG": "", "AGAM_ID": 4005519122.0, "FONT_SIZE": 0.75, "ROTATION": 0.0}, "geometry": {"type": "Point", "coordinates": [34.8454242359945, 31.985850504374362]}}, {"type": "Feature", "properties": {"OBJECTID": 25510130, "LAYER_ID": 7790781, "GROUP_ID": 459617, "SCENARIO": "", "DEFQ": 0, "PLAN_NAME": "", "DATA_DATE": null, "MAVAT_CODE": 20, "MAVAT_NAME": "", "NAME": "", "LABEL": "", "NUM": "5B", "LEGAL_AREA": 0.0, "TYPE_CODE": 0, "TYPE_NAME": "", "SOURCE_COD": 0, "HASAVA": 0, "STATUS": "", "PL_CHANGE": "", "ADDRESS": "", "PLACE_NO": 0, "CALC_AREA": 0.0, "OLD_MIG": "", "AGAM_ID": 4005519122.0, "FONT_SIZE": 0.75, "ROTATION": 0.0}, "geometry": {"type": "Point", "coordinates": [34.84564813810114, 31.985824664147778]}}]}