{"type": "FeatureCollection", "features": [{"type": "Feature", "properties": {"OBJECTID": 30645108, "LAYER_ID": 7790787, "GROUP_ID": 459617, "SCENARIO": "", "DEFQ": 0, "PLAN_NAME": "", "DATA_DATE": null, "MAVAT_CODE": 30001, "MAVAT_NAME": "׳¢׳‘׳¨׳™׳× ENTITY", "BLOCKNAME": "DIM", "ROTATION": 353.85940888, "TYPE_CODE": 0, "TYPE_NAME": "DIM", "SOURCE_COD": 0, "STATUS": "", "PL_CHANGE": "", "PLACE_NO": 0, "REMARKS": "", "VALUE1": "", "TAGNAME1": "185518.329542424", "TAGNAME2": "654805.525548433", "VALUE2": "", "TAGNAME3": "", "VALUE3": "1", "DATE_DEC": "", "STAGE": "", "NAME": "DIM", "LABEL": "3", "FONT_SIZE": 1.0, "AGAM_ID": 4005519122.0}, "geometry": {"type": "Point", "coordinates": [34.84534312106003, 31.98584871659306]}}, {"type": "Feature", "properties": {"OBJECTID": 30645109, "LAYER_ID": 7790787, "GROUP_ID": 459617, "SCENARIO": "", "DEFQ": 0, "PLAN_NAME": "", "DATA_DATE": null, "MAVAT_CODE": 30001, "MAVAT_NAME": "׳¢׳‘׳¨׳™׳× ENTITY", "BLOCKNAME": "DIM", "ROTATION": 87.65604084, "TYPE_CODE": 0, "TYPE_NAME": "DIM", "SOURCE_COD": 0, "STATUS": "", "PL_CHANGE": "", "PLACE_NO": 0, "REMARKS": "", "VALUE1": "", "TAGNAME1": "185528.635803532", "TAGNAME2": "654814.941306211", "VALUE2": "", "TAGNAME3": "", "VALUE3": "1", "DATE_DEC": "", "STAGE": "", "NAME": "DIM", "LABEL": "3", "FONT_SIZE": 1.0, "AGAM_ID": 4005519122.0}, "geometry": {"type": "Point", "coordinates": [34.84545184057851, 31.985933934365036]}}, {"type": "Feature", "properties": {"OBJECTID": 30645110, "LAYER_ID": 7790787, "GROUP_ID": 459617, "SCENARIO": "", "DEFQ": 0, "PLAN_NAME": "", "DATA_DATE": null, "MAVAT_CODE": 30001, "MAVAT_NAME": "׳¢׳‘׳¨׳™׳× ENTITY", "BLOCKNAME": "DIM", "ROTATION": 275.17672361, "TYPE_CODE": 0, "TYPE_NAME": "DIM", "SOURCE_COD": 0, "STATUS": "", "PL_CHANGE": "", "PLACE_NO": 0, "REMARKS": "", "VALUE1": "", "TAGNAME1": "185550.203266723", "TAGNAME2": "654814.925568481", "VALUE2": "", "TAGNAME3": "", "VALUE3": "1", "DATE_DEC": "", "STAGE": "", "NAME": "DIM", "LABEL": "3", "FONT_SIZE": 1.0, "AGAM_ID": 4005519122.0}, "geometry": {"type": "Point", "coordinates": [34.845680042039376, 31.985934438911578]}}, {"type": "Feature", "properties": {"OBJECTID": 30645111, "LAYER_ID": 7790787, "GROUP_ID": 459617, "SCENARIO": "", "DEFQ": 0, "PLAN_NAME": "", "DATA_DATE": null, "MAVAT_CODE": 30001, "MAVAT_NAME": "׳¢׳‘׳¨׳™׳× ENTITY", "BLOCKNAME": "DIM", "ROTATION": 353.85940888, "TYPE_CODE": 0, "TYPE_NAME": "DIM", "SOURCE_COD": 0, "STATUS": "", "PL_CHANGE": "", "PLACE_NO": 0, "REMARKS": "", "VALUE1": "", "TAGNAME1": "185553.900170492", "TAGNAME2": "654798.97631072", "VALUE2": "", "TAGNAME3": "", "VALUE3": "1", "DATE_DEC": "", "STAGE": "", "NAME": "DIM", "LABEL": "3", "FONT_SIZE": 1.0, "AGAM_ID": 4005519122.0}, "geometry": {"type": "Point", "coordinates": [34.84571971684687, 31.985790718766264]}}, {"type": "Feature", "properties": {"OBJECTID": 30645112, "LAYER_ID": 7790787, "GROUP_ID": 459617, "SCENARIO": "", "DEFQ": 0, "PLAN_NAME": "", "DATA_DATE": null, "MAVAT_CODE": 30001, "MAVAT_NAME": "׳¢׳‘׳¨׳™׳× ENTITY", "BLOCKNAME": "DIM", "ROTATION": 84.04549699, "TYPE_CODE": 0, "TYPE_NAME": "DIM", "SOURCE_COD": 0, "STATUS": "", "PL_CHANGE": "", "PLACE_NO": 0, "REMARKS": "", "VALUE1": "", "TAGNAME1": "185543.610323978", "TAGNAME2": "654789.000970248", "VALUE2": "", "TAGNAME3": "", "VALUE3": "1", "DATE_DEC": "", "STAGE": "", "NAME": "DIM", "LABEL": "2.5", "FONT_SIZE": 1.0, "AGAM_ID": 4005519122.0}, "geometry": {"type": "Point", "coordinates": [34.84561119464367, 31.985700455285674]}}, {"type": "Feature", "properties": {"OBJECTID": 30645113, "LAYER_ID": 7790787, "GROUP_ID": 459617, "SCENARIO": "", "DEFQ": 0, "PLAN_NAME": "", "DATA_DATE": null, "MAVAT_CODE": 30001, "MAVAT_NAME": "׳¢׳‘׳¨׳™׳× ENTITY", "BLOCKNAME": "DIM", "ROTATION": 84.04549699, "TYPE_CODE": 0, "TYPE_NAME": "DIM", "SOURCE_COD": 0, "STATUS": "", "PL_CHANGE": "", "PLACE_NO": 0, "REMARKS": "", "VALUE1": "", "TAGNAME1": "185543.350977207", "TAGNAME2": "654786.514458786", "VALUE2": "", "TAGNAME3": "", "VALUE3": "1", "DATE_DEC": "", "STAGE": "", "NAME": "DIM", "LABEL": "2.5", "FONT_SIZE": 1.0, "AGAM_ID": 4005519122.0}, "geometry": {"type": "Point", "coordinates": [34.84560853725667, 31.9856780235213]}}, {"type": "Feature", "properties": {"OBJECTID": 30645114, "LAYER_ID": 7790787, "GROUP_ID": 459617, "SCENARIO": "", "DEFQ": 0, "PLAN_NAME": "", "DATA_DATE": null, "MAVAT_CODE": 30001, "MAVAT_NAME": "׳¢׳‘׳¨׳™׳× ENTITY", "BLOCKNAME": "DIM", "ROTATION": 85.01868492, "TYPE_CODE": 0, "TYPE_NAME": "DIM", "SOURCE_COD": 0, "STATUS": "", "PL_CHANGE": "", "PLACE_NO": 0, "REMARKS": "", "VALUE1": "", "TAGNAME1": "185523.870223027", "TAGNAME2": "654795.189713316", "VALUE2": "", "TAGNAME3": "", "VALUE3": "1", "DATE_DEC": "", "STAGE": "", "NAME": "DIM", "LABEL": "2.5", "FONT_SIZE": 1.0, "AGAM_ID": 4005519122.0}, "geometry": {"type": "Point", "coordinates": [34.84540211022078, 31.985755673039964]}}, {"type": "Feature", "properties": {"OBJECTID": 30645115, "LAYER_ID": 7790787, "GROUP_ID": 459617, "SCENARIO": "", "DEFQ": 0, "PLAN_NAME": "", "DATA_DATE": null, "MAVAT_CODE": 30001, "MAVAT_NAME": "׳¢׳‘׳¨׳™׳× ENTITY", "BLOCKNAME": "DIM", "ROTATION": 84.35677018, "TYPE_CODE": 0, "TYPE_NAME": "DIM", "SOURCE_COD": 0, "STATUS": "", "PL_CHANGE": "", "PLACE_NO": 0, "REMARKS": "", "VALUE1": "", "TAGNAME1": "185523.658373955", "TAGNAME2": "654792.807243092", "VALUE2": "", "TAGNAME3": "", "VALUE3": "1", "DATE_DEC": "", "STAGE": "", "NAME": "DIM", "LABEL": "2.5", "FONT_SIZE": 1.0, "AGAM_ID": 4005519122.0}, "geometry": {"type": "Point", "coordinates": [34.845399952870245, 31.98573418236558]}}, {"type": "Feature", "properties": {"OBJECTID": 30645116, "LAYER_ID": 7790787, "GROUP_ID": 459617, "SCENARIO": "", "DEFQ": 0, "PLAN_NAME": "", "DATA_DATE": null, "MAVAT_CODE": 30001, "MAVAT_NAME": "׳¢׳‘׳¨׳™׳× ENTITY", "BLOCKNAME": "DIM", "ROTATION": 351.0721435, "TYPE_CODE": 0, "TYPE_NAME": "DIM", "SOURCE_COD": 0, "STATUS": "", "PL_CHANGE": "", "PLACE_NO": 0, "REMARKS": "", "VALUE1": "", "TAGNAME1": "185513.206485703", "TAGNAME2": "654775.368900663", "VALUE2": "", "TAGNAME3": "", "VALUE3": "1", "DATE_DEC": "", "STAGE": "", "NAME": "DIM", "LABEL": "3", "FONT_SIZE": 1.0, "AGAM_ID": 4005519122.0}, "geometry": {"type": "Point", "coordinates": [34.84528997489653, 31.98557661107694]}}, {"type": "Feature", "properties": {"OBJECTID": 30645117, "LAYER_ID": 7790787, "GROUP_ID": 459617, "SCENARIO": "", "DEFQ": 0, "PLAN_NAME": "", "DATA_DATE": null, "MAVAT_CODE": 30001, "MAVAT_NAME": "׳¢׳‘׳¨׳™׳× ENTITY", "BLOCKNAME": "DIM", "ROTATION": 353.85940888, "TYPE_CODE": 0, "TYPE_NAME": "DIM", "SOURCE_COD": 0, "STATUS": "", "PL_CHANGE": "", "PLACE_NO": 0, "REMARKS": "", "VALUE1": "", "TAGNAME1": "185550.490227055", "TAGNAME2": "654769.702702314", "VALUE2": "", "TAGNAME3": "", "VALUE3": "1", "DATE_DEC": "", "STAGE": "", "NAME": "DIM", "LABEL": "3", "FONT_SIZE": 1.0, "AGAM_ID": 4005519122.0}, "geometry": {"type": "Point", "coordinates": [34.84568466560108, 31.985526629277867]}}, {"type": "Feature", "properties": {"OBJECTID": 30645118, "LAYER_ID": 7790787, "GROUP_ID": 459617, "SCENARIO": "", "DEFQ": 0, "PLAN_NAME": "", "DATA_DATE": null, "MAVAT_CODE": 30001, "MAVAT_NAME": "׳¢׳‘׳¨׳™׳× ENTITY", "BLOCKNAME": "DIM", "ROTATION": 71.79396095, "TYPE_CODE": 0, "TYPE_NAME": "DIM", "SOURCE_COD": 0, "STATUS": "", "PL_CHANGE": "", "PLACE_NO": 0, "REMARKS": "", "VALUE1": "", "TAGNAME1": "185518.336110797", "TAGNAME2": "654674.150610357", "VALUE2": "", "TAGNAME3": "", "VALUE3": "1", "DATE_DEC": "", "STAGE": "", "NAME": "DIM", "LABEL": "5", "FONT_SIZE": 1.0, "AGAM_ID": 4005519122.0}, "geometry": {"type": "Point", "coordinates": [34.84534780507497, 31.98466398512129]}}, {"type": "Feature", "properties": {"OBJECTID": 30645119, "LAYER_ID": 7790787, "GROUP_ID": 459617, "SCENARIO": "", "DEFQ": 0, "PLAN_NAME": "", "DATA_DATE": null, "MAVAT_CODE": 30001, "MAVAT_NAME": "׳¢׳‘׳¨׳™׳× ENTITY", "BLOCKNAME": "DIM", "ROTATION": 353.85940888, "TYPE_CODE": 0, "TYPE_NAME": "DIM", "SOURCE_COD": 0, "STATUS": "", "PL_CHANGE": "", "PLACE_NO": 0, "REMARKS": "", "VALUE1": "", "TAGNAME1": "185535.508576623", "TAGNAME2": "654789.754415141", "VALUE2": "", "TAGNAME3": "", "VALUE3": "1", "DATE_DEC": "", "STAGE": "", "NAME": "DIM", "LABEL": "2.5", "FONT_SIZE": 1.0, "AGAM_ID": 4005519122.0}, "geometry": {"type": "Point", "coordinates": [34.84552544467426, 31.985707007023898]}}]}