<?xml version="1.0" encoding="UTF-8"?>
<kml xmlns="http://www.opengis.net/kml/2.2"
 xmlns:gx="http://www.google.com/kml/ext/2.2">
<Document>
  <Style id="Plan">
	<LabelStyle>		
<color>00000000</color>
			
<scale>0</scale>
		
</LabelStyle>
		
<LineStyle>
			
<color>ffff0000</color>
			
<width>3</width>
		
</LineStyle>
		
<PolyStyle>
			
<fill>0</fill>
		
</PolyStyle>

   <BalloonStyle>
    <text>


<![CDATA[<?xml version="1.0"?>
<table border="0"  width="560" cellpadding="2" cellspacing="2" dir="rtl" xmlns:fo="http://www.w3.org/1999/XSL/Format">
<tr>
<td align="center" colspan="2" height="20" style="border-bottom: Solid 1px #b4b5b4">
<font face="Arial" size="3" color="#b50027">
<b>פרטי גבול תכנית</b>
</font>
</td>
</tr>


<tr>
<td  align="right"><font face="Arial" size="3">מספר תכנית</font>
</td>
<td align="right" bgcolor="#efefef" height="20">
<font face="Arial" size="3" color="#202520">
<b>$[PL_NUMBER]</b>
</font>
</td>
</tr>

<tr>
<td  align="right"><font face="Arial" size="3">שם תכנית</font>
</td>
<td align="right" bgcolor="#efefef" height="20">
<font face="Arial" size="3" color="#202520">
<b>$[PL_NAME]</b>
</font>
</td>
</tr>

<tr>
<td  align="right"><font face="Arial" size="3">שטח התכנית</font>
</td>
<td align="right" bgcolor="#efefef" height="20">
<font face="Arial" size="3" color="#202520">
<b>$[PL_AREA]</b>
</font>
</td>
</tr>

<tr>
<td  align="right"><font face="Arial" size="3">קישור לתכנית</font>
</td>
<td align="right" bgcolor="#efefef" height="20">
<font face="Arial" size="3" color="#202520">
<b>$[PL_URL]</b>
</font>
</td>
</tr>


<tr>
<td  align="right"><font face="Arial" size="3">תאריך יצור הקובץ</font>
</td>
<td align="right" bgcolor="#efefef" height="20">
<font face="Arial" size="3" color="#202520">
<b>$[CREATE_DATE]</b>
</font>
</td>
</tr>

</table>]]> 

</text>
     </BalloonStyle>
  </Style>

  <Placemark>
   <name name="name"><value>גבול תכנית</value></name>
   <description/>   
   <styleUrl>#Plan</styleUrl>
<MultiGeometry>
<Polygon><outerBoundaryIs><LinearRing><coordinates>34.838621848896,32.0056534699287,0 34.8386365469797,32.0056401187923,0 34.8386461733258,32.0056481491226,0 34.838777779495,32.0055490781422,0 34.8389573845361,32.0054174352639,0 34.8389876947427,32.0053939766108,0 34.8390676516555,32.0053435871437,0 34.8391369627754,32.0052876172914,0 34.8391866798231,32.0052552091095,0 34.8392364210135,32.0052209739314,0 34.8393187812654,32.0051505153605,0 34.8393749744955,32.0051145131362,0 34.8394723587063,32.0050423698553,0 34.8395631939634,32.0049792977996,0 34.8397275814464,32.004863948839,0 34.8399112989679,32.0047327240218,0 34.8399228439164,32.0047244768754,0 34.8399244464948,32.004723332588,0 34.8399646507984,32.0046941504513,0 34.8399947380594,32.0046723484198,0 34.8401429519639,32.0045664826588,0 34.8401797157956,32.0045412566865,0 34.8402684081416,32.0044781635338,0 34.8402943372201,32.0044619695075,0 34.8404305091347,32.0043737495188,0 34.8405673623026,32.0042742876964,0 34.8406165857323,32.0042385120114,0 34.8407745164201,32.0041249269087,0 34.8408004694568,32.0041069057995,0 34.8408546139909,32.0040635798314,0 34.8408746517138,32.0040502238955,0 34.8409302827682,32.0040131480208,0 34.8409886627614,32.0039735134756,0 34.8410457916678,32.0039371290127,0 34.8410912387165,32.0039001009738,0 34.8413943974544,32.0036473379851,0 34.8414278380797,32.0036188270834,0 34.8415219538954,32.003537910956,0 34.8416198495941,32.0034527436622,0 34.8417224704191,32.0033624657754,0 34.8418311206319,32.0032658816182,0 34.8418972245187,32.0032065517713,0 34.8419477991025,32.003161160822,0 34.8420758981729,32.0030451982378,0 34.8420787913365,32.0030425606215,0 34.8422221069342,32.0029118734768,0 34.8424040605042,32.0027450422829,0 34.842483864169,32.0026717264274,0 34.8431146909367,32.0020920892697,0 34.843097167253,32.0019956838045,0 34.8431195596143,32.0016937401034,0 34.8433504127842,32.0014818954429,0 34.8434412324136,32.0013985534428,0 34.8436807974702,32.0011787123449,0 34.8439101915703,32.001361160267,0 34.8439579049097,32.001317336709,0 34.844098337036,32.0011887151355,0 34.8442279457233,32.0010706804654,0 34.84434524594,32.000964680416,0 34.8444099318828,32.0009066437912,0 34.8446046312086,32.0007339856284,0 34.8448536029877,32.0005174959313,0 34.8450730215906,32.0003314330664,0 34.8451801838155,32.0002330471646,0 34.8452774686596,32.0001437269607,0 34.8453330228843,32.0000927232921,0 34.845441731234,31.9999922908456,0 34.8457142710883,31.9997404945535,0 34.8458660817442,31.9996002410601,0 34.8459635097536,31.9995102281371,0 34.8462053061635,31.9992879716378,0 34.8463201619679,31.9991823974774,0 34.8463514221279,31.9991536623681,0 34.8461820901215,31.99895386645,0 34.8460839705062,31.9989757824153,0 34.8458293713195,31.9990378467594,0 34.845786532817,31.9990490375873,0 34.8455367743016,31.999116030661,0 34.8452828127001,31.9991916363027,0 34.8450317780605,31.9992740357306,0 34.8447839205723,31.9993631468245,0 34.8445394872606,31.9994588807754,0 34.8442987217402,31.9995611421734,0 34.8440618639728,31.9996698291031,0 34.843829150028,31.999784833245,0 34.8436008118483,31.9999060399833,0 34.8434905671819,31.9999676736539,0 34.8433909478103,32.0000254238894,0 34.8431724885689,32.0001583939732,0 34.8429590635175,32.0002971742542,0 34.8427508853856,32.0004416264185,0 34.8425481616764,32.000591606499,0 34.84235109446,32.0007469650183,0 34.8421598801717,32.0009075471382,0 34.8419747094167,32.0010731928133,0 34.8417957667796,32.0012437369509,0 34.841623230641,32.0014190095754,0 34.841457272999,32.0015988359972,0 34.8412980592981,32.0017830369875,0 34.8411457482642,32.001971428956,0 34.8410004917463,32.0021638241345,0 34.8409565784404,32.002224725009,0 34.8405247560376,32.0028211981327,0 34.8392136893215,32.0046256016924,0 34.839002182305,32.0049050193328,0 34.8389064964352,32.005021701619,0 34.8387532596143,32.0052022276555,0 34.838697398701,32.0052640638557,0 34.8384874526707,32.0054889093734,0 34.8384731461592,32.0055038147978,0 34.8385008162876,32.0055268977316,0 34.8383579427434,32.0056654293113,0 34.8381678742606,32.0058389964328,0 34.838061589547,32.005951105987,0 34.8379285331924,32.0060945856421,0 34.8377773232326,32.0062557961596,0 34.837690840614,32.0063254878838,0 34.8376705001752,32.0063423323959,0 34.8376699343767,32.0063443465572,0 34.8376687807018,32.0063568698402,0 34.8382075143075,32.0059737928362,0 34.8382902134843,32.0059137517102,0 34.838544099118,32.0057294350994,0 34.838621848896,32.0056534699287,0 </coordinates></LinearRing></outerBoundaryIs></Polygon>
</MultiGeometry>

   <ExtendedData>
  
    <Data name="PL_NUMBER"><value>תתל/ 66</value></Data>
	 <Data name="PL_NAME"><value>"חנה וסע" שפירים</value></Data>
	  <Data name="PL_AREA"><value>108.021</value></Data>
	   <Data name="PL_URL"><value>http://mavat.moin.gov.il/MavatPS/Forms/SV3.aspx?tid=3&amp;tnumb=%D7%AA%D7%AA%D7%9C/%2066</value></Data>
	    <Data name="CREATE_DATE"><value>12/10/2015 17:02:17</value></Data>
   </ExtendedData>
  </Placemark>

</Document>
</kml>