<?xml version="1.0" encoding="UTF-8"?>
<kml xmlns="http://www.opengis.net/kml/2.2"
 xmlns:gx="http://www.google.com/kml/ext/2.2">
<Document>
  <Style id="Plan">
	<LabelStyle>		
<color>00000000</color>
			
<scale>0</scale>
		
</LabelStyle>
		
<LineStyle>
			
<color>ffff0000</color>
			
<width>3</width>
		
</LineStyle>
		
<PolyStyle>
			
<fill>0</fill>
		
</PolyStyle>

   <BalloonStyle>
    <text>


<![CDATA[<?xml version="1.0"?>
<table border="0"  width="560" cellpadding="2" cellspacing="2" dir="rtl" xmlns:fo="http://www.w3.org/1999/XSL/Format">
<tr>
<td align="center" colspan="2" height="20" style="border-bottom: Solid 1px #b4b5b4">
<font face="Arial" size="3" color="#b50027">
<b>פרטי גבול תכנית</b>
</font>
</td>
</tr>


<tr>
<td  align="right"><font face="Arial" size="3">מספר תכנית</font>
</td>
<td align="right" bgcolor="#efefef" height="20">
<font face="Arial" size="3" color="#202520">
<b>$[PL_NUMBER]</b>
</font>
</td>
</tr>

<tr>
<td  align="right"><font face="Arial" size="3">שם תכנית</font>
</td>
<td align="right" bgcolor="#efefef" height="20">
<font face="Arial" size="3" color="#202520">
<b>$[PL_NAME]</b>
</font>
</td>
</tr>

<tr>
<td  align="right"><font face="Arial" size="3">שטח התכנית</font>
</td>
<td align="right" bgcolor="#efefef" height="20">
<font face="Arial" size="3" color="#202520">
<b>$[PL_AREA]</b>
</font>
</td>
</tr>

<tr>
<td  align="right"><font face="Arial" size="3">קישור לתכנית</font>
</td>
<td align="right" bgcolor="#efefef" height="20">
<font face="Arial" size="3" color="#202520">
<b>$[PL_URL]</b>
</font>
</td>
</tr>


<tr>
<td  align="right"><font face="Arial" size="3">תאריך יצור הקובץ</font>
</td>
<td align="right" bgcolor="#efefef" height="20">
<font face="Arial" size="3" color="#202520">
<b>$[CREATE_DATE]</b>
</font>
</td>
</tr>

</table>]]> 

</text>
     </BalloonStyle>
  </Style>

  <Placemark>
   <name name="name"><value>גבול תכנית</value></name>
   <description/>   
   <styleUrl>#Plan</styleUrl>
<MultiGeometry>
<Polygon><outerBoundaryIs><LinearRing><coordinates>34.844637550158,31.984835105143,0 34.844770226365,31.9854487071184,0 34.8444333248446,31.9855661114637,0 34.8431378197138,31.9860313195195,0 34.8430285838414,31.9860869336995,0 34.8430075917031,31.9860468708481,0 34.8427994796774,31.985627614247,0 34.8427743537904,31.9855926717312,0 34.8425477581022,31.9852162373116,0 34.8423364258892,31.9847848973962,0 34.8422777813272,31.9847701785363,0 34.841979608242,31.9843593928968,0 34.8416545359418,31.9839199352765,0 34.840000966326,31.9847103738002,0 34.8397557052547,31.9842830227344,0 34.8389619833798,31.9847045537308,0 34.8377059332704,31.9853497078938,0 34.8376515233813,31.9854068258904,0 34.8371626770376,31.9856555537404,0 34.8368865725798,31.9862959608492,0 34.8375265725904,31.9859700405524,0 34.8376314577493,31.9864373330673,0 34.8381221570992,31.9863588510285,0 34.8382720565398,31.9862852096764,0 34.8383389643297,31.9862505931812,0 34.8387680812316,31.9868632597264,0 34.8388087945265,31.9870367503242,0 34.8403844019079,31.986268447245,0 34.8406334259319,31.9866473737921,0 34.8409764601045,31.9864903575392,0 34.8409768686234,31.9865338003306,0 34.8410080990653,31.9875825523262,0 34.8419884366922,31.9870742818343,0 34.8417932942516,31.9867918623185,0 34.8421711287818,31.9865896988695,0 34.8423656854254,31.9868794784592,0 34.8424263423509,31.9869613872942,0 34.8432947783991,31.9881848807592,0 34.8433150257192,31.9882326329032,0 34.843197433662,31.9905165157406,0 34.8432002742436,31.9905347402258,0 34.8432943183864,31.9905400977288,0 34.8433310719089,31.9905363678817,0 34.8434402755046,31.9905302758602,0 34.8439564843198,31.9902971813362,0 34.8441550949976,31.9904041004015,0 34.8442884399583,31.9905109204771,0 34.8444168083793,31.9905644802999,0 34.8444907634106,31.9906221890273,0 34.8446096154064,31.99065778662,0 34.8447221373991,31.9907818148827,0 34.844602913007,31.9909564263521,0 34.8450176586084,31.9915162682159,0 34.8450020188433,31.9915640554739,0 34.8450021991475,31.9916089801418,0 34.8450672714991,31.9916882813549,0 34.8450895247031,31.9917094285126,0 34.845150100194,31.9917696853213,0 34.8452085468815,31.9918711628417,0 34.8452238817301,31.9919135224061,0 34.8452344372317,31.9920016619284,0 34.845237634589,31.9920468296039,0 34.8452371278323,31.9920964777642,0 34.8452334605999,31.992112126266,0 34.8452369289319,31.9921561872955,0 34.8452394064524,31.9921862279138,0 34.8452400940944,31.9922117869207,0 34.8452337764276,31.9922705232171,0 34.8452234665363,31.9923663807947,0 34.8451798553597,31.9924059510084,0 34.8451694587957,31.9924203467869,0 34.8451428740646,31.9925059137999,0 34.8451253449432,31.9925540780783,0 34.8451186976239,31.9925947521487,0 34.8453407448263,31.9926467799322,0 34.8453350857213,31.9926815337777,0 34.8453330779876,31.9926971076197,0 34.8453303856328,31.992712405376,0 34.8453285039601,31.9927531939479,0 34.8453277250564,31.9927836257441,0 34.8453301354216,31.9928439414514,0 34.8453467816828,31.9929614824957,0 34.8453668412531,31.993077500134,0 34.8454048114443,31.9932310356051,0 34.8454876293927,31.9936524446348,0 34.845558562135,31.993969624022,0 34.8456865635983,31.9945993433427,0 34.8457981236427,31.9951178049629,0 34.8458049840314,31.9951398066656,0 34.8458138275448,31.99516125125,0 34.8458241631982,31.9951821337205,0 34.8458300792111,31.9951922939048,0 34.8458319299023,31.9951953111525,0 34.8456805683932,31.9953432908343,0 34.8455828087055,31.9954842111632,0 34.8454101446208,31.9957402670369,0 34.8452309711406,31.996045831149,0 34.8448890465597,31.9965674021476,0 34.8446707830925,31.9968632558469,0 34.8446515589843,31.9968877627785,0 34.8445323223901,31.9971078355335,0 34.8441079936066,31.9978129394679,0 34.8440772649197,31.9978794267259,0 34.8440694411476,31.9979111442828,0 34.8440665587722,31.9979370502433,0 34.8440756570165,31.9980491627167,0 34.8440846136999,31.9982180305201,0 34.8441136566193,31.9982156925846,0 34.8441554963512,31.9982131961984,0 34.8443399797406,31.9980759428883,0 34.8443291287315,31.9980634564128,0 34.8443835173236,31.9980180806754,0 34.8444078572946,31.9979919362105,0 34.8444675868005,31.9979695570868,0 34.8445728650012,31.9978988948786,0 34.8446141224002,31.9977864374034,0 34.8446725326425,31.9976639301927,0 34.8447818477102,31.9975430624702,0 34.8449174532009,31.9974327417755,0 34.845018758299,31.9973739013591,0 34.8451336123403,31.9973735133938,0 34.8451914393218,31.9974006049436,0 34.8452750003161,31.997502068709,0 34.8456612273792,31.9985940746602,0 34.8469089769497,31.9985272741448,0 34.8470456358746,31.9985120220058,0 34.8476230599746,31.9979755067991,0 34.8484905665114,31.9971833525711,0 34.8485551514643,31.9971188638098,0 34.8498521029811,31.995926552011,0 34.8503054792177,31.9955188947776,0 34.8503582115745,31.9954715747482,0 34.8504827384496,31.9953576964718,0 34.8506820230681,31.9951748475588,0 34.8511191678806,31.9947737504768,0 34.8511937176968,31.9947092123334,0 34.8512177477847,31.9946836716839,0 34.85125995002,31.9946424578084,0 34.8512900082139,31.994612327524,0 34.8513262089732,31.9945764608353,0 34.8513255349976,31.9945689812203,0 34.8514473724076,31.9944515882797,0 34.8515563101838,31.9943457889719,0 34.8516414600109,31.9942653001169,0 34.851787327232,31.9941265721053,0 34.8518930686946,31.9940362096744,0 34.8519362679159,31.9940017086444,0 34.8519722132878,31.9939730004602,0 34.8522416196884,31.9937096866799,0 34.8523797166674,31.9937552114762,0 34.8525575974208,31.9938533629025,0 34.8528051742321,31.9940385129118,0 34.8525687650897,31.9942630120705,0 34.8524791092621,31.9944011114734,0 34.8524273612754,31.9946152720477,0 34.8524150208506,31.9950397870755,0 34.8523668250312,31.9953815281102,0 34.8523142508214,31.9955057009455,0 34.8520882635497,31.9957907091828,0 34.8522296726237,31.9960515781989,0 34.8529642678349,31.9956007416794,0 34.853716722122,31.995043267985,0 34.8541274478027,31.995836176515,0 34.8539104250092,31.9960355668644,0 34.8541905739008,31.996426376104,0 34.8544525108346,31.99630636674,0 34.8545333284465,31.9964184752893,0 34.8546966795223,31.9966758922726,0 34.8548386698472,31.9968949272201,0 34.8548932858634,31.9969754967664,0 34.8550215221743,31.9971794984503,0 34.8550630787814,31.9972481137423,0 34.8552520005961,31.9971646545546,0 34.8554856589506,31.9970332990268,0 34.8556352524407,31.996948648912,0 34.8558454665338,31.9968277468613,0 34.8561181053911,31.9966702115521,0 34.8563287477753,31.9965521307012,0 34.8566506529032,31.9963672605381,0 34.8571757188175,31.9960661985991,0 34.8573848661786,31.9959464886364,0 34.8576366223959,31.9957993537888,0 34.8577490099557,31.9958990683838,0 34.8580461524281,31.9961599380511,0 34.8583299874426,31.996409808412,0 34.8586100453533,31.9966525616412,0 34.8586676656764,31.996703800359,0 34.8587765600138,31.9970559765013,0 34.8588883247172,31.9974161503144,0 34.8592085286012,31.9976191952126,0 34.8595391572624,31.997828518934,0 34.8599205897389,31.9980733159682,0 34.8601361104118,31.9982113789388,0 34.8602337018652,31.9982712023561,0 34.8603823775877,31.9983681994428,0 34.8605769693853,31.9984887857016,0 34.860899177212,31.9986956301503,0 34.8610770687163,31.998808956002,0 34.8611606579005,31.9988644554439,0 34.8615237307054,31.9990959631331,0 34.8616357096604,31.9991757361388,0 34.8618391243421,31.9993002833717,0 34.8619206211918,31.9993506652512,0 34.8616024449009,31.99980521541,0 34.8615448486685,31.9998636768181,0 34.8614975720078,31.9999168653107,0 34.8620133776121,32.0001450067589,0 34.8633565429128,32.0005911059836,0 34.8639013608232,32.0007485516259,0 34.866928554694,31.9939978563717,0 34.8683986897193,31.9923364138317,0 34.8681002337714,31.9920538014925,0 34.8680225845007,31.9919972654094,0 34.8678893674968,31.9919051987525,0 34.8677437056778,31.991808791919,0 34.8675847802317,31.9917097416884,0 34.8674314772443,31.9916161602969,0 34.8671455481498,31.9914534150337,0 34.8669676684601,31.9913594683412,0 34.8667801311552,31.9912641249562,0 34.8664993550508,31.9911384091509,0 34.866294492669,31.9909928317723,0 34.8656599955041,31.9905375503129,0 34.865315541005,31.9902906831851,0 34.8650084636339,31.9900697968656,0 34.8648483451694,31.9899549765001,0 34.8643753996808,31.9896138093984,0 34.8642064688671,31.9894937341442,0 34.8640784535604,31.9893979764314,0 34.8640559617077,31.9893808179081,0 34.8640010198889,31.9893427839519,0 34.8638736210705,31.9892544080412,0 34.863709947658,31.9891379606632,0 34.8634343042925,31.9889480002082,0 34.8623581167036,31.9882013357517,0 34.8620499609509,31.9879862649995,0 34.8614744032829,31.9875892662648,0 34.8611231550953,31.9873428455244,0 34.8609888368446,31.9872398856739,0 34.860045184652,31.9865940139152,0 34.8595413987949,31.9862132677165,0 34.8594351166158,31.9863258556624,0 34.8593980576595,31.9863541292226,0 34.8591600198576,31.9857946162193,0 34.8587469997383,31.9848126831746,0 34.8585950968658,31.9844540476892,0 34.8584349425606,31.9840750159636,0 34.8582294406701,31.9835945697303,0 34.8581852584979,31.9834901718314,0 34.858126680953,31.9833780142876,0 34.8580394762577,31.9833577138271,0 34.857983020809,31.9833434085912,0 34.8579125943385,31.9833269405273,0 34.8578805702819,31.9833197901409,0 34.8576344719865,31.9832625782769,0 34.8574894931753,31.9832239382588,0 34.85720148911,31.9832213684738,0 34.8565802321871,31.9832794996851,0 34.856469119914,31.9832925453221,0 34.8564102036561,31.9833012286269,0 34.8557166052358,31.983382420085,0 34.8550378717713,31.9834596230295,0 34.855009591497,31.98346080407,0 34.8549840072047,31.9834619781002,0 34.8549510164067,31.9834631605833,0 34.8548695444961,31.9834666948729,0 34.8547939717751,31.9834681531822,0 34.8544168051243,31.9834490483889,0 34.8543453645359,31.9834456733422,0 34.8543416904459,31.9834680856429,0 34.8543031153585,31.9837316015604,0 34.854255962086,31.9837330874661,0 34.8537877802138,31.9837393191513,0 34.8533384829428,31.9837510518639,0 34.8532094976773,31.983753851201,0 34.8528073044324,31.9837425901761,0 34.8525304084043,31.9837378762392,0 34.8522072374155,31.9837285278403,0 34.8512159187302,31.9836953344448,0 34.8510644959282,31.9836920955948,0 34.8498996170508,31.9836510821947,0 34.8494139527772,31.9836361972041,0 34.8492380723154,31.9836306332337,0 34.8486154015432,31.9836046517715,0 34.8485425037994,31.9836016300936,0 34.8479728926426,31.9835780488003,0 34.8479699364005,31.9836158043992,0 34.8478757925038,31.9836347013922,0 34.8477541653229,31.9836642344813,0 34.8475834552177,31.9836896795251,0 34.8470965660525,31.9837779268396,0 34.8467171872629,31.9838523820463,0 34.8459247314695,31.9839955629801,0 34.845515270382,31.9840682414075,0 34.8455778220575,31.9845632808314,0 34.8452759300457,31.9846503524199,0 34.844637550158,31.984835105143,0 </coordinates></LinearRing></outerBoundaryIs></Polygon><Polygon><outerBoundaryIs><LinearRing><coordinates>34.8434002331815,32.0001227003161,0 34.8429084197115,32.0004038264545,0 34.8430924783111,32.0008124119712,0 34.8436425672364,32.000621652595,0 34.8438032808455,32.0009586326604,0 34.8438285757854,32.0009472228492,0 34.844005610438,32.0013293174176,0 34.8442626146881,32.0010909621036,0 34.844498105184,32.0008720998506,0 34.844652713402,32.0007302163155,0 34.844910280748,32.0004898917169,0 34.8451827836993,32.0002401688323,0 34.8453396949361,32.0000987635024,0 34.8454452283913,31.9999956473247,0 34.8457154190677,31.9997454441763,0 34.8458662805254,31.9996038190652,0 34.8459626586008,31.9995154769172,0 34.8462038488006,31.9992852900758,0 34.8461268870793,31.9990503718541,0 34.8442801498718,31.9995807431541,0 34.8434002331815,32.0001227003161,0 </coordinates></LinearRing></outerBoundaryIs></Polygon>
</MultiGeometry>

   <ExtendedData>
  
    <Data name="PL_NUMBER"><value>גז/ 525/ 12</value></Data>
	 <Data name="PL_NAME"><value>שינוי תכנית מיתאר מקומית מס' גז/12/525</value></Data>
	  <Data name="PL_AREA"><value>0</value></Data>
	   <Data name="PL_URL"><value>http://mavat.moin.gov.il/MavatPS/Forms/SV3.aspx?tid=3&amp;tnumb=%D7%92%D7%96/%20525/%2012</value></Data>
	    <Data name="CREATE_DATE"><value>07/10/2019 02:14:25</value></Data>
   </ExtendedData>
  </Placemark>

</Document>
</kml>