{"type": "FeatureCollection", "features": [{"type": "Feature", "properties": {"OBJECTID": 10435521, "GROUP_ID": 394742, "LAYER_ID": 6472648, "DEFQ": "", "MAVAT_CODE": 0, "MAVAT_NAME": "", "LABEL": "3", "ROZETA_NUM": 1, "TAGNAME": "KBR", "ROTATION": 349.60203576, "STAGE": "", "AGAM_ID": 4005344608.0, "SHAPE_AREA": 3.12580613, "SHAPE_LEN": 7.13776523112}, "geometry": {"type": "Polygon", "coordinates": [[[34.848843498014276, 31.99307389290808], [34.848831422102265, 31.993088704549418], [34.84884880368945, 31.99309899592895], [34.84885063645888, 31.99309626745756], [34.84885188543368, 31.99309330921165], [34.84885251266445, 31.993090211076066], [34.84885249909317, 31.99308706718612], [34.84885184513225, 31.993083973067286], [34.84885057065202, 31.9930810227328], [34.848848714376985, 31.993078305827073], [34.848846332709144, 31.993075904901875], [34.848843498014276, 31.99307389290808]]]}}, {"type": "Feature", "properties": {"OBJECTID": 10435522, "GROUP_ID": 394742, "LAYER_ID": 6472648, "DEFQ": "", "MAVAT_CODE": 0, "MAVAT_NAME": "", "LABEL": "0", "ROZETA_NUM": 1, "TAGNAME": "ROADNO", "ROTATION": 349.60203576, "STAGE": "", "AGAM_ID": 4005344608.0, "SHAPE_AREA": 3.12916412875, "SHAPE_LEN": 7.13889356533}, "geometry": {"type": "Polygon", "coordinates": [[[34.84884880368945, 31.99309899592895], [34.848831422102265, 31.993088704549418], [34.848819346179425, 31.993103517993156], [34.84882209779127, 31.99310489741796], [34.848825061553214, 31.993105908447426], [34.8488281700345, 31.993106528078872], [34.84883135251166, 31.993106742214557], [34.84883474936062, 31.99310651791888], [34.84883805997172, 31.993105832048386], [34.848841198560784, 31.993104702375227], [34.84884408380108, 31.993103158171383], [34.84884664093063, 31.993101239450073], [34.84884880368945, 31.99309899592895]]]}}, {"type": "Feature", "properties": {"OBJECTID": 10435523, "GROUP_ID": 394742, "LAYER_ID": 6472648, "DEFQ": "", "MAVAT_CODE": 0, "MAVAT_NAME": "", "LABEL": "3", "ROZETA_NUM": 1, "TAGNAME": "KBL", "ROTATION": 349.60203576, "STAGE": "", "AGAM_ID": 4005344608.0, "SHAPE_AREA": 3.1260294875, "SHAPE_LEN": 7.13804514967}, "geometry": {"type": "Polygon", "coordinates": [[[34.848831422102265, 31.993088704549418], [34.84881404157715, 31.993078413170473], [34.84881220853907, 31.993081141739456], [34.848810959319245, 31.993084100121223], [34.8488103318747, 31.99308719842688], [34.848810345270024, 31.993090342515963], [34.848810999098305, 31.993093436856956], [34.84881227349336, 31.99309638742981], [34.84881412973338, 31.993099104582893], [34.84881651141749, 31.993101505756822], [34.848819346179425, 31.993103517993156], [34.848831422102265, 31.993088704549418]]]}}, {"type": "Feature", "properties": {"OBJECTID": 10435524, "GROUP_ID": 394742, "LAYER_ID": 6472648, "DEFQ": "", "MAVAT_CODE": 0, "MAVAT_NAME": "", "LABEL": "7", "ROZETA_NUM": 1, "TAGNAME": "WIDTH", "ROTATION": 349.60203576, "STAGE": "", "AGAM_ID": 4005344608.0, "SHAPE_AREA": 3.12575797375, "SHAPE_LEN": 7.13771574867}, "geometry": {"type": "Polygon", "coordinates": [[[34.848843498014276, 31.99307389290808], [34.84884029649957, 31.99307233081584], [34.848836825332874, 31.993071266237973], [34.848833189983786, 31.993070731521104], [34.84882950091047, 31.993070742912323], [34.84882587020349, 31.993071300065527], [34.84882240818001, 31.99307238605189], [34.84881922003178, 31.993073967874285], [34.848816402629055, 31.993075997469894], [34.84881404157715, 31.993078413170473], [34.848831422102265, 31.993088704549418], [34.848843498014276, 31.99307389290808]]]}}]}