{"type": "FeatureCollection", "features": [{"type": "Feature", "properties": {"OBJECTID": 18164932, "LAYER_ID": 6177756, "GROUP_ID": 394742, "SCENARIO": "", "DEFQ": 0, "PLAN_NAME": "", "DATA_DATE": null, "MAVAT_CODE": 10, "MAVAT_NAME": "", "NAME": "", "LABEL": "", "NUM": "524", "LEGAL_AREA": 0.0, "TYPE_CODE": 0, "TYPE_NAME": "", "SOURCE_COD": 0, "HASAVA": 0, "STATUS": "", "PL_CHANGE": "", "ADDRESS": "", "PLACE_NO": 0, "CALC_AREA": 0.0, "OLD_MIG": "", "AGAM_ID": 4005344608.0, "FONT_SIZE": 1.51515152, "ROTATION": 0.0}, "geometry": {"type": "Point", "coordinates": [34.848674341904214, 31.993179784664807]}}, {"type": "Feature", "properties": {"OBJECTID": 18164933, "LAYER_ID": 6177756, "GROUP_ID": 394742, "SCENARIO": "", "DEFQ": 0, "PLAN_NAME": "", "DATA_DATE": null, "MAVAT_CODE": 10, "MAVAT_NAME": "", "NAME": "", "LABEL": "", "NUM": "526", "LEGAL_AREA": 0.0, "TYPE_CODE": 0, "TYPE_NAME": "", "SOURCE_COD": 0, "HASAVA": 0, "STATUS": "", "PL_CHANGE": "", "ADDRESS": "", "PLACE_NO": 0, "CALC_AREA": 0.0, "OLD_MIG": "", "AGAM_ID": 4005344608.0, "FONT_SIZE": 1.51515152, "ROTATION": 0.0}, "geometry": {"type": "Point", "coordinates": [34.848591201392736, 31.992783865737444]}}, {"type": "Feature", "properties": {"OBJECTID": 18164934, "LAYER_ID": 6177756, "GROUP_ID": 394742, "SCENARIO": "", "DEFQ": 0, "PLAN_NAME": "", "DATA_DATE": null, "MAVAT_CODE": 670, "MAVAT_NAME": "", "NAME": "", "LABEL": "", "NUM": "100B", "LEGAL_AREA": 0.0, "TYPE_CODE": 0, "TYPE_NAME": "", "SOURCE_COD": 0, "HASAVA": 0, "STATUS": "", "PL_CHANGE": "", "ADDRESS": "", "PLACE_NO": 0, "CALC_AREA": 0.0, "OLD_MIG": "", "AGAM_ID": 4005344608.0, "FONT_SIZE": 1.51515152, "ROTATION": 0.0}, "geometry": {"type": "Point", "coordinates": [34.848743076768415, 31.992760276485082]}}, {"type": "Feature", "properties": {"OBJECTID": 18164935, "LAYER_ID": 6177756, "GROUP_ID": 394742, "SCENARIO": "", "DEFQ": 0, "PLAN_NAME": "", "DATA_DATE": null, "MAVAT_CODE": 10, "MAVAT_NAME": "", "NAME": "", "LABEL": "", "NUM": "525", "LEGAL_AREA": 0.0, "TYPE_CODE": 0, "TYPE_NAME": "", "SOURCE_COD": 0, "HASAVA": 0, "STATUS": "", "PL_CHANGE": "", "ADDRESS": "", "PLACE_NO": 0, "CALC_AREA": 0.0, "OLD_MIG": "", "AGAM_ID": 4005344608.0, "FONT_SIZE": 1.51515152, "ROTATION": 0.0}, "geometry": {"type": "Point", "coordinates": [34.848566345421, 31.992566665355113]}}, {"type": "Feature", "properties": {"OBJECTID": 18164936, "LAYER_ID": 6177756, "GROUP_ID": 394742, "SCENARIO": "", "DEFQ": 0, "PLAN_NAME": "", "DATA_DATE": null, "MAVAT_CODE": 670, "MAVAT_NAME": "", "NAME": "", "LABEL": "", "NUM": "100C", "LEGAL_AREA": 0.0, "TYPE_CODE": 0, "TYPE_NAME": "", "SOURCE_COD": 0, "HASAVA": 0, "STATUS": "", "PL_CHANGE": "", "ADDRESS": "", "PLACE_NO": 0, "CALC_AREA": 0.0, "OLD_MIG": "", "AGAM_ID": 4005344608.0, "FONT_SIZE": 1.51515152, "ROTATION": 0.0}, "geometry": {"type": "Point", "coordinates": [34.848711993758805, 31.99254592460567]}}, {"type": "Feature", "properties": {"OBJECTID": 18164937, "LAYER_ID": 6177756, "GROUP_ID": 394742, "SCENARIO": "", "DEFQ": 0, "PLAN_NAME": "", "DATA_DATE": null, "MAVAT_CODE": 670, "MAVAT_NAME": "", "NAME": "", "LABEL": "", "NUM": "100A", "LEGAL_AREA": 0.0, "TYPE_CODE": 0, "TYPE_NAME": "", "SOURCE_COD": 0, "HASAVA": 0, "STATUS": "", "PL_CHANGE": "", "ADDRESS": "", "PLACE_NO": 0, "CALC_AREA": 0.0, "OLD_MIG": "", "AGAM_ID": 4005344608.0, "FONT_SIZE": 1.51515152, "ROTATION": 0.0}, "geometry": {"type": "Point", "coordinates": [34.848690892541505, 31.9928829431398]}}, {"type": "Feature", "properties": {"OBJECTID": 18164938, "LAYER_ID": 6177756, "GROUP_ID": 394742, "SCENARIO": "", "DEFQ": 0, "PLAN_NAME": "", "DATA_DATE": null, "MAVAT_CODE": 840, "MAVAT_NAME": "", "NAME": "", "LABEL": "", "NUM": "134", "LEGAL_AREA": 0.0, "TYPE_CODE": 0, "TYPE_NAME": "", "SOURCE_COD": 0, "HASAVA": 0, "STATUS": "", "PL_CHANGE": "", "ADDRESS": "", "PLACE_NO": 0, "CALC_AREA": 0.0, "OLD_MIG": "", "AGAM_ID": 4005344608.0, "FONT_SIZE": 1.51515152, "ROTATION": 0.0}, "geometry": {"type": "Point", "coordinates": [34.84882134883247, 31.992947033758725]}}]}