{"type": "FeatureCollection", "features": [{"type": "Feature", "properties": {"OBJECTID": 22171414, "LAYER_ID": 6472649, "GROUP_ID": 394742, "SCENARIO": "", "DEFQ": 0, "PLAN_NAME": "", "DATA_DATE": null, "MAVAT_CODE": 30001, "MAVAT_NAME": "׳¢׳‘׳¨׳™׳× ENTITY", "BLOCKNAME": "DIM", "ROTATION": 340.38633713, "TYPE_CODE": 0, "TYPE_NAME": "DIM", "SOURCE_COD": 0, "STATUS": "", "PL_CHANGE": "", "PLACE_NO": 0, "REMARKS": "", "VALUE1": "", "TAGNAME1": "185824.14428825", "TAGNAME2": "655612.952132674", "VALUE2": "", "TAGNAME3": "0", "VALUE3": "1", "DATE_DEC": "", "STAGE": "", "NAME": "DIM", "LABEL": "3", "FONT_SIZE": 2.25, "AGAM_ID": 4005344608.0}, "geometry": {"type": "Point", "coordinates": [34.848550783025075, 31.993139149289902]}}, {"type": "Feature", "properties": {"OBJECTID": 22171415, "LAYER_ID": 6472649, "GROUP_ID": 394742, "SCENARIO": "", "DEFQ": 0, "PLAN_NAME": "", "DATA_DATE": null, "MAVAT_CODE": 30001, "MAVAT_NAME": "׳¢׳‘׳¨׳™׳× ENTITY", "BLOCKNAME": "DIM", "ROTATION": 340.38633713, "TYPE_CODE": 0, "TYPE_NAME": "DIM", "SOURCE_COD": 0, "STATUS": "", "PL_CHANGE": "", "PLACE_NO": 0, "REMARKS": "", "VALUE1": "", "TAGNAME1": "185847.125067033", "TAGNAME2": "655610.191117951", "VALUE2": "", "TAGNAME3": "0", "VALUE3": "1", "DATE_DEC": "", "STAGE": "", "NAME": "DIM", "LABEL": "3", "FONT_SIZE": 2.25, "AGAM_ID": 4005344608.0}, "geometry": {"type": "Point", "coordinates": [34.84879405403968, 31.9931149324789]}}, {"type": "Feature", "properties": {"OBJECTID": 22171416, "LAYER_ID": 6472649, "GROUP_ID": 394742, "SCENARIO": "", "DEFQ": 0, "PLAN_NAME": "", "DATA_DATE": null, "MAVAT_CODE": 30001, "MAVAT_NAME": "׳¢׳‘׳¨׳™׳× ENTITY", "BLOCKNAME": "DIM", "ROTATION": 70.3983921, "TYPE_CODE": 0, "TYPE_NAME": "DIM", "SOURCE_COD": 0, "STATUS": "", "PL_CHANGE": "", "PLACE_NO": 0, "REMARKS": "", "VALUE1": "", "TAGNAME1": "185836.064874582", "TAGNAME2": "655630.416765953", "VALUE2": "", "TAGNAME3": "0", "VALUE3": "1", "DATE_DEC": "", "STAGE": "", "NAME": "DIM", "LABEL": "3", "FONT_SIZE": 2.25, "AGAM_ID": 4005344608.0}, "geometry": {"type": "Point", "coordinates": [34.848676314832254, 31.99329699750536]}}, {"type": "Feature", "properties": {"OBJECTID": 22171417, "LAYER_ID": 6472649, "GROUP_ID": 394742, "SCENARIO": "", "DEFQ": 0, "PLAN_NAME": "", "DATA_DATE": null, "MAVAT_CODE": 30001, "MAVAT_NAME": "׳¢׳‘׳¨׳™׳× ENTITY", "BLOCKNAME": "DIM", "ROTATION": 70.3983921, "TYPE_CODE": 0, "TYPE_NAME": "DIM", "SOURCE_COD": 0, "STATUS": "", "PL_CHANGE": "", "PLACE_NO": 0, "REMARKS": "", "VALUE1": "", "TAGNAME1": "185826.007732167", "TAGNAME2": "655596.492924521", "VALUE2": "", "TAGNAME3": "0", "VALUE3": "1", "DATE_DEC": "", "STAGE": "", "NAME": "DIM", "LABEL": "3", "FONT_SIZE": 2.25, "AGAM_ID": 4005344608.0}, "geometry": {"type": "Point", "coordinates": [34.84857107606551, 31.992990776665817]}}, {"type": "Feature", "properties": {"OBJECTID": 22171418, "LAYER_ID": 6472649, "GROUP_ID": 394742, "SCENARIO": "", "DEFQ": 0, "PLAN_NAME": "", "DATA_DATE": null, "MAVAT_CODE": 30001, "MAVAT_NAME": "׳¢׳‘׳¨׳™׳× ENTITY", "BLOCKNAME": "DIM", "ROTATION": 70.3983921, "TYPE_CODE": 0, "TYPE_NAME": "DIM", "SOURCE_COD": 0, "STATUS": "", "PL_CHANGE": "", "PLACE_NO": 0, "REMARKS": "", "VALUE1": "", "TAGNAME1": "185825.065414136", "TAGNAME2": "655589.021068015", "VALUE2": "", "TAGNAME3": "0", "VALUE3": "1", "DATE_DEC": "", "STAGE": "", "NAME": "DIM", "LABEL": "3", "FONT_SIZE": 2.25, "AGAM_ID": 4005344608.0}, "geometry": {"type": "Point", "coordinates": [34.8485613640818, 31.992923368527812]}}, {"type": "Feature", "properties": {"OBJECTID": 22171419, "LAYER_ID": 6472649, "GROUP_ID": 394742, "SCENARIO": "", "DEFQ": 0, "PLAN_NAME": "", "DATA_DATE": null, "MAVAT_CODE": 30001, "MAVAT_NAME": "׳¢׳‘׳¨׳™׳× ENTITY", "BLOCKNAME": "DIM", "ROTATION": 70.3983921, "TYPE_CODE": 0, "TYPE_NAME": "DIM", "SOURCE_COD": 0, "STATUS": "", "PL_CHANGE": "", "PLACE_NO": 0, "REMARKS": "", "VALUE1": "", "TAGNAME1": "185827.173176627", "TAGNAME2": "655561.485199203", "VALUE2": "", "TAGNAME3": "0", "VALUE3": "1", "DATE_DEC": "", "STAGE": "", "NAME": "DIM", "LABEL": "3", "FONT_SIZE": 2.25, "AGAM_ID": 4005344608.0}, "geometry": {"type": "Point", "coordinates": [34.848584626721916, 31.992675115126975]}}, {"type": "Feature", "properties": {"OBJECTID": 22171420, "LAYER_ID": 6472649, "GROUP_ID": 394742, "SCENARIO": "", "DEFQ": 0, "PLAN_NAME": "", "DATA_DATE": null, "MAVAT_CODE": 30001, "MAVAT_NAME": "׳¢׳‘׳¨׳™׳× ENTITY", "BLOCKNAME": "DIM", "ROTATION": 70.3983921, "TYPE_CODE": 0, "TYPE_NAME": "DIM", "SOURCE_COD": 0, "STATUS": "", "PL_CHANGE": "", "PLACE_NO": 0, "REMARKS": "", "VALUE1": "", "TAGNAME1": "185826.769318715", "TAGNAME2": "655558.510488361", "VALUE2": "", "TAGNAME3": "0", "VALUE3": "1", "DATE_DEC": "", "STAGE": "", "NAME": "DIM", "LABEL": "3", "FONT_SIZE": 2.25, "AGAM_ID": 4005344608.0}, "geometry": {"type": "Point", "coordinates": [34.84858045532409, 31.99264827659837]}}, {"type": "Feature", "properties": {"OBJECTID": 22171421, "LAYER_ID": 6472649, "GROUP_ID": 394742, "SCENARIO": "", "DEFQ": 0, "PLAN_NAME": "", "DATA_DATE": null, "MAVAT_CODE": 30001, "MAVAT_NAME": "׳¢׳‘׳¨׳™׳× ENTITY", "BLOCKNAME": "DIM", "ROTATION": 70.3983921, "TYPE_CODE": 0, "TYPE_NAME": "DIM", "SOURCE_COD": 0, "STATUS": "", "PL_CHANGE": "", "PLACE_NO": 0, "REMARKS": "", "VALUE1": "", "TAGNAME1": "185824.380802193", "TAGNAME2": "655538.653249041", "VALUE2": "", "TAGNAME3": "0", "VALUE3": "1", "DATE_DEC": "", "STAGE": "", "NAME": "DIM", "LABEL": "3", "FONT_SIZE": 2.25, "AGAM_ID": 4005344608.0}, "geometry": {"type": "Point", "coordinates": [34.84855587361928, 31.992469134864912]}}, {"type": "Feature", "properties": {"OBJECTID": 22171422, "LAYER_ID": 6472649, "GROUP_ID": 394742, "SCENARIO": "", "DEFQ": 0, "PLAN_NAME": "", "DATA_DATE": null, "MAVAT_CODE": 30001, "MAVAT_NAME": "׳¢׳‘׳¨׳™׳× ENTITY", "BLOCKNAME": "DIM", "ROTATION": 340.38633713, "TYPE_CODE": 0, "TYPE_NAME": "DIM", "SOURCE_COD": 0, "STATUS": "", "PL_CHANGE": "", "PLACE_NO": 0, "REMARKS": "", "VALUE1": "", "TAGNAME1": "185815.774936138", "TAGNAME2": "655550.602838748", "VALUE2": "", "TAGNAME3": "0", "VALUE3": "1", "DATE_DEC": "", "STAGE": "", "NAME": "DIM", "LABEL": "3", "FONT_SIZE": 2.25, "AGAM_ID": 4005344608.0}, "geometry": {"type": "Point", "coordinates": [34.84846439449115, 31.992576640144545]}}, {"type": "Feature", "properties": {"OBJECTID": 22171423, "LAYER_ID": 6472649, "GROUP_ID": 394742, "SCENARIO": "", "DEFQ": 0, "PLAN_NAME": "", "DATA_DATE": null, "MAVAT_CODE": 30001, "MAVAT_NAME": "׳¢׳‘׳¨׳™׳× ENTITY", "BLOCKNAME": "DIM", "ROTATION": 340.38633713, "TYPE_CODE": 0, "TYPE_NAME": "DIM", "SOURCE_COD": 0, "STATUS": "", "PL_CHANGE": "", "PLACE_NO": 0, "REMARKS": "", "VALUE1": "", "TAGNAME1": "185819.265904693", "TAGNAME2": "655576.374902569", "VALUE2": "", "TAGNAME3": "0", "VALUE3": "1", "DATE_DEC": "", "STAGE": "", "NAME": "DIM", "LABEL": "3", "FONT_SIZE": 2.25, "AGAM_ID": 4005344608.0}, "geometry": {"type": "Point", "coordinates": [34.84850043523883, 31.992809153866517]}}, {"type": "Feature", "properties": {"OBJECTID": 22171424, "LAYER_ID": 6472649, "GROUP_ID": 394742, "SCENARIO": "", "DEFQ": 0, "PLAN_NAME": "", "DATA_DATE": null, "MAVAT_CODE": 30001, "MAVAT_NAME": "׳¢׳‘׳¨׳™׳× ENTITY", "BLOCKNAME": "DIM", "ROTATION": 340.38633713, "TYPE_CODE": 0, "TYPE_NAME": "DIM", "SOURCE_COD": 0, "STATUS": "", "PL_CHANGE": "", "PLACE_NO": 0, "REMARKS": "", "VALUE1": "", "TAGNAME1": "185833.872707413", "TAGNAME2": "655548.144790373", "VALUE2": "", "TAGNAME3": "0", "VALUE3": "1", "DATE_DEC": "", "STAGE": "", "NAME": "DIM", "LABEL": "3", "FONT_SIZE": 2.25, "AGAM_ID": 4005344608.0}, "geometry": {"type": "Point", "coordinates": [34.848655981475076, 31.992555011072092]}}, {"type": "Feature", "properties": {"OBJECTID": 22171425, "LAYER_ID": 6472649, "GROUP_ID": 394742, "SCENARIO": "", "DEFQ": 0, "PLAN_NAME": "", "DATA_DATE": null, "MAVAT_CODE": 30001, "MAVAT_NAME": "׳¢׳‘׳¨׳™׳× ENTITY", "BLOCKNAME": "DIM", "ROTATION": 340.38633713, "TYPE_CODE": 0, "TYPE_NAME": "DIM", "SOURCE_COD": 0, "STATUS": "", "PL_CHANGE": "", "PLACE_NO": 0, "REMARKS": "", "VALUE1": "", "TAGNAME1": "185836.966302772", "TAGNAME2": "655570.935693505", "VALUE2": "", "TAGNAME3": "0", "VALUE3": "1", "DATE_DEC": "", "STAGE": "", "NAME": "DIM", "LABEL": "3", "FONT_SIZE": 2.25, "AGAM_ID": 4005344608.0}, "geometry": {"type": "Point", "coordinates": [34.848687923442576, 31.99276062870594]}}, {"type": "Feature", "properties": {"OBJECTID": 22171426, "LAYER_ID": 6472649, "GROUP_ID": 394742, "SCENARIO": "", "DEFQ": 0, "PLAN_NAME": "", "DATA_DATE": null, "MAVAT_CODE": 30001, "MAVAT_NAME": "׳¢׳‘׳¨׳™׳× ENTITY", "BLOCKNAME": "rozeta", "ROTATION": 349.60203576, "TYPE_CODE": 0, "TYPE_NAME": "KBR", "SOURCE_COD": 0, "STATUS": "", "PL_CHANGE": "", "PLACE_NO": 0, "REMARKS": "", "VALUE1": "", "TAGNAME1": "185850.646781387", "TAGNAME2": "655607.271039539", "VALUE2": "", "TAGNAME3": "0", "VALUE3": "1", "DATE_DEC": "", "STAGE": "", "NAME": "KBR", "LABEL": "3", "FONT_SIZE": 2.0, "AGAM_ID": 4005344608.0}, "geometry": {"type": "Point", "coordinates": [34.848840576035805, 31.993087424388452]}}, {"type": "Feature", "properties": {"OBJECTID": 22171427, "LAYER_ID": 6472649, "GROUP_ID": 394742, "SCENARIO": "", "DEFQ": 0, "PLAN_NAME": "", "DATA_DATE": null, "MAVAT_CODE": 30001, "MAVAT_NAME": "׳¢׳‘׳¨׳™׳× ENTITY", "BLOCKNAME": "rozeta", "ROTATION": 349.60203576, "TYPE_CODE": 0, "TYPE_NAME": "KBL", "SOURCE_COD": 0, "STATUS": "", "PL_CHANGE": "", "PLACE_NO": 0, "REMARKS": "", "VALUE1": "", "TAGNAME1": "185850.646781387", "TAGNAME2": "655607.271039539", "VALUE2": "", "TAGNAME3": "0", "VALUE3": "1", "DATE_DEC": "", "STAGE": "", "NAME": "KBL", "LABEL": "3", "FONT_SIZE": 2.0, "AGAM_ID": 4005344608.0}, "geometry": {"type": "Point", "coordinates": [34.84882157474375, 31.993090341684223]}}, {"type": "Feature", "properties": {"OBJECTID": 22171428, "LAYER_ID": 6472649, "GROUP_ID": 394742, "SCENARIO": "", "DEFQ": 0, "PLAN_NAME": "", "DATA_DATE": null, "MAVAT_CODE": 30001, "MAVAT_NAME": "׳¢׳‘׳¨׳™׳× ENTITY", "BLOCKNAME": "rozeta", "ROTATION": 349.60203576, "TYPE_CODE": 0, "TYPE_NAME": "WIDTH", "SOURCE_COD": 0, "STATUS": "", "PL_CHANGE": "", "PLACE_NO": 0, "REMARKS": "", "VALUE1": "", "TAGNAME1": "185850.646781387", "TAGNAME2": "655607.271039539", "VALUE2": "", "TAGNAME3": "0", "VALUE3": "1", "DATE_DEC": "", "STAGE": "", "NAME": "WIDTH", "LABEL": "7", "FONT_SIZE": 2.0, "AGAM_ID": 4005344608.0}, "geometry": {"type": "Point", "coordinates": [34.848829099883964, 31.993077883622917]}}]}