{"type": "FeatureCollection", "features": [{"type": "Feature", "properties": {"OBJECTID": 26783053, "LAYER_ID": 7264119, "GROUP_ID": 437963, "SCENARIO": "", "DEFQ": 0, "PLAN_NAME": "", "DATA_DATE": null, "MAVAT_CODE": 30001, "MAVAT_NAME": "׳¢׳‘׳¨׳™׳× ENTITY", "BLOCKNAME": "DIM", "ROTATION": 295.65914386, "TYPE_CODE": 0, "TYPE_NAME": "DIM", "SOURCE_COD": 0, "STATUS": "", "PL_CHANGE": "", "PLACE_NO": 0, "REMARKS": "", "VALUE1": "", "TAGNAME1": "184510.866716392", "TAGNAME2": "658910.704662879", "VALUE2": "", "TAGNAME3": "", "VALUE3": "1", "DATE_DEC": "", "STAGE": "", "NAME": "DIM", "LABEL": "3", "FONT_SIZE": 2.0, "AGAM_ID": 4005410644.0}, "geometry": {"type": "Point", "coordinates": [34.8510053055136, 31.99295755533413]}}, {"type": "Feature", "properties": {"OBJECTID": 26783054, "LAYER_ID": 7264119, "GROUP_ID": 437963, "SCENARIO": "", "DEFQ": 0, "PLAN_NAME": "", "DATA_DATE": null, "MAVAT_CODE": 30001, "MAVAT_NAME": "׳¢׳‘׳¨׳™׳× ENTITY", "BLOCKNAME": "DIM", "ROTATION": 295.65914386, "TYPE_CODE": 0, "TYPE_NAME": "DIM", "SOURCE_COD": 0, "STATUS": "", "PL_CHANGE": "", "PLACE_NO": 0, "REMARKS": "", "VALUE1": "", "TAGNAME1": "184510.866716392", "TAGNAME2": "658910.704662879", "VALUE2": "", "TAGNAME3": "", "VALUE3": "1", "DATE_DEC": "", "STAGE": "", "NAME": "DIM", "LABEL": "3", "FONT_SIZE": 2.0, "AGAM_ID": 4005410644.0}, "geometry": {"type": "Point", "coordinates": [34.85106322720994, 31.992852301274144]}}, {"type": "Feature", "properties": {"OBJECTID": 26783055, "LAYER_ID": 7264119, "GROUP_ID": 437963, "SCENARIO": "", "DEFQ": 0, "PLAN_NAME": "", "DATA_DATE": null, "MAVAT_CODE": 30001, "MAVAT_NAME": "׳¢׳‘׳¨׳™׳× ENTITY", "BLOCKNAME": "DIM", "ROTATION": 28.98792177, "TYPE_CODE": 0, "TYPE_NAME": "DIM", "SOURCE_COD": 0, "STATUS": "", "PL_CHANGE": "", "PLACE_NO": 0, "REMARKS": "", "VALUE1": "", "TAGNAME1": "184510.866716392", "TAGNAME2": "658910.704662879", "VALUE2": "", "TAGNAME3": "", "VALUE3": "1", "DATE_DEC": "", "STAGE": "", "NAME": "DIM", "LABEL": "3", "FONT_SIZE": 2.0, "AGAM_ID": 4005410644.0}, "geometry": {"type": "Point", "coordinates": [34.85122185481103, 31.992987353190323]}}, {"type": "Feature", "properties": {"OBJECTID": 26783056, "LAYER_ID": 7264119, "GROUP_ID": 437963, "SCENARIO": "", "DEFQ": 0, "PLAN_NAME": "", "DATA_DATE": null, "MAVAT_CODE": 30001, "MAVAT_NAME": "׳¢׳‘׳¨׳™׳× ENTITY", "BLOCKNAME": "DIM", "ROTATION": 28.98792177, "TYPE_CODE": 0, "TYPE_NAME": "DIM", "SOURCE_COD": 0, "STATUS": "", "PL_CHANGE": "", "PLACE_NO": 0, "REMARKS": "", "VALUE1": "", "TAGNAME1": "184510.866716392", "TAGNAME2": "658910.704662879", "VALUE2": "", "TAGNAME3": "", "VALUE3": "1", "DATE_DEC": "", "STAGE": "", "NAME": "DIM", "LABEL": "3", "FONT_SIZE": 2.0, "AGAM_ID": 4005410644.0}, "geometry": {"type": "Point", "coordinates": [34.85083993118328, 31.992831929834644]}}]}