{"type": "FeatureCollection", "features": [{"type": "Feature", "properties": {"OBJECTID": 23384661, "LAYER_ID": 6584173, "GROUP_ID": 410693, "SCENARIO": "", "DEFQ": 0, "PLAN_NAME": "", "DATA_DATE": null, "MAVAT_CODE": 30001, "MAVAT_NAME": "׳¢׳‘׳¨׳™׳× ENTITY", "BLOCKNAME": "DIM", "ROTATION": 3.43805184, "TYPE_CODE": 0, "TYPE_NAME": "DIM", "SOURCE_COD": 0, "STATUS": "", "PL_CHANGE": "", "PLACE_NO": 0, "REMARKS": "", "VALUE1": "", "TAGNAME1": "205073.844035507", "TAGNAME2": "627918.87000757", "VALUE2": "", "TAGNAME3": "", "VALUE3": "1", "DATE_DEC": "", "STAGE": "", "NAME": "DIM", "LABEL": "4", "FONT_SIZE": 1.0, "AGAM_ID": 4005388378.0}, "geometry": {"type": "Point", "coordinates": [34.85440739611306, 31.986275535136073]}}, {"type": "Feature", "properties": {"OBJECTID": 23384662, "LAYER_ID": 6584173, "GROUP_ID": 410693, "SCENARIO": "", "DEFQ": 0, "PLAN_NAME": "", "DATA_DATE": null, "MAVAT_CODE": 30001, "MAVAT_NAME": "׳¢׳‘׳¨׳™׳× ENTITY", "BLOCKNAME": "DIM", "ROTATION": 3.30313475, "TYPE_CODE": 0, "TYPE_NAME": "DIM", "SOURCE_COD": 0, "STATUS": "", "PL_CHANGE": "", "PLACE_NO": 0, "REMARKS": "", "VALUE1": "", "TAGNAME1": "205073.844035507", "TAGNAME2": "627918.87000757", "VALUE2": "", "TAGNAME3": "", "VALUE3": "1", "DATE_DEC": "", "STAGE": "", "NAME": "DIM", "LABEL": "3", "FONT_SIZE": 1.0, "AGAM_ID": 4005388378.0}, "geometry": {"type": "Point", "coordinates": [34.854695104267904, 31.98627036912889]}}, {"type": "Feature", "properties": {"OBJECTID": 23384663, "LAYER_ID": 6584173, "GROUP_ID": 410693, "SCENARIO": "", "DEFQ": 0, "PLAN_NAME": "", "DATA_DATE": null, "MAVAT_CODE": 30001, "MAVAT_NAME": "׳¢׳‘׳¨׳™׳× ENTITY", "BLOCKNAME": "DIM", "ROTATION": 94.38735861, "TYPE_CODE": 0, "TYPE_NAME": "DIM", "SOURCE_COD": 0, "STATUS": "", "PL_CHANGE": "", "PLACE_NO": 0, "REMARKS": "", "VALUE1": "", "TAGNAME1": "205073.844035507", "TAGNAME2": "627918.87000757", "VALUE2": "", "TAGNAME3": "", "VALUE3": "1", "DATE_DEC": "", "STAGE": "", "NAME": "DIM", "LABEL": "5", "FONT_SIZE": 1.0, "AGAM_ID": 4005388378.0}, "geometry": {"type": "Point", "coordinates": [34.85459837316571, 31.98636845329489]}}, {"type": "Feature", "properties": {"OBJECTID": 23384664, "LAYER_ID": 6584173, "GROUP_ID": 410693, "SCENARIO": "", "DEFQ": 0, "PLAN_NAME": "", "DATA_DATE": null, "MAVAT_CODE": 30001, "MAVAT_NAME": "׳¢׳‘׳¨׳™׳× ENTITY", "BLOCKNAME": "DIM", "ROTATION": 94.38735861, "TYPE_CODE": 0, "TYPE_NAME": "DIM", "SOURCE_COD": 0, "STATUS": "", "PL_CHANGE": "", "PLACE_NO": 0, "REMARKS": "", "VALUE1": "", "TAGNAME1": "205073.844035507", "TAGNAME2": "627918.87000757", "VALUE2": "", "TAGNAME3": "", "VALUE3": "1", "DATE_DEC": "", "STAGE": "", "NAME": "DIM", "LABEL": "5", "FONT_SIZE": 1.0, "AGAM_ID": 4005388378.0}, "geometry": {"type": "Point", "coordinates": [34.85447069950579, 31.986362645410132]}}, {"type": "Feature", "properties": {"OBJECTID": 23384665, "LAYER_ID": 6584173, "GROUP_ID": 410693, "SCENARIO": "", "DEFQ": 0, "PLAN_NAME": "", "DATA_DATE": null, "MAVAT_CODE": 30001, "MAVAT_NAME": "׳¢׳‘׳¨׳™׳× ENTITY", "BLOCKNAME": "DIM", "ROTATION": 3.30313475, "TYPE_CODE": 0, "TYPE_NAME": "DIM", "SOURCE_COD": 0, "STATUS": "", "PL_CHANGE": "", "PLACE_NO": 0, "REMARKS": "", "VALUE1": "", "TAGNAME1": "205073.844035507", "TAGNAME2": "627918.87000757", "VALUE2": "", "TAGNAME3": "", "VALUE3": "1", "DATE_DEC": "", "STAGE": "", "NAME": "DIM", "LABEL": "3", "FONT_SIZE": 1.0, "AGAM_ID": 4005388378.0}, "geometry": {"type": "Point", "coordinates": [34.8547131425129, 31.985985345941632]}}, {"type": "Feature", "properties": {"OBJECTID": 23384666, "LAYER_ID": 6584173, "GROUP_ID": 410693, "SCENARIO": "", "DEFQ": 0, "PLAN_NAME": "", "DATA_DATE": null, "MAVAT_CODE": 30001, "MAVAT_NAME": "׳¢׳‘׳¨׳™׳× ENTITY", "BLOCKNAME": "DIM", "ROTATION": 3.30313475, "TYPE_CODE": 0, "TYPE_NAME": "DIM", "SOURCE_COD": 0, "STATUS": "", "PL_CHANGE": "", "PLACE_NO": 0, "REMARKS": "", "VALUE1": "", "TAGNAME1": "205073.844035507", "TAGNAME2": "627918.87000757", "VALUE2": "", "TAGNAME3": "", "VALUE3": "1", "DATE_DEC": "", "STAGE": "", "NAME": "DIM", "LABEL": "3", "FONT_SIZE": 1.0, "AGAM_ID": 4005388378.0}, "geometry": {"type": "Point", "coordinates": [34.85442947939208, 31.985935855785268]}}, {"type": "Feature", "properties": {"OBJECTID": 23384667, "LAYER_ID": 6584173, "GROUP_ID": 410693, "SCENARIO": "", "DEFQ": 0, "PLAN_NAME": "", "DATA_DATE": null, "MAVAT_CODE": 30001, "MAVAT_NAME": "׳¢׳‘׳¨׳™׳× ENTITY", "BLOCKNAME": "DIM", "ROTATION": 95.04199167, "TYPE_CODE": 0, "TYPE_NAME": "DIM", "SOURCE_COD": 0, "STATUS": "", "PL_CHANGE": "", "PLACE_NO": 0, "REMARKS": "", "VALUE1": "", "TAGNAME1": "205073.844035507", "TAGNAME2": "627918.87000757", "VALUE2": "", "TAGNAME3": "", "VALUE3": "1", "DATE_DEC": "", "STAGE": "", "NAME": "DIM", "LABEL": "3", "FONT_SIZE": 1.0, "AGAM_ID": 4005388378.0}, "geometry": {"type": "Point", "coordinates": [34.85450816213892, 31.986106841963373]}}, {"type": "Feature", "properties": {"OBJECTID": 23384668, "LAYER_ID": 6584173, "GROUP_ID": 410693, "SCENARIO": "", "DEFQ": 0, "PLAN_NAME": "", "DATA_DATE": null, "MAVAT_CODE": 30001, "MAVAT_NAME": "׳¢׳‘׳¨׳™׳× ENTITY", "BLOCKNAME": "DIM", "ROTATION": 93.86351306, "TYPE_CODE": 0, "TYPE_NAME": "DIM", "SOURCE_COD": 0, "STATUS": "", "PL_CHANGE": "", "PLACE_NO": 0, "REMARKS": "", "VALUE1": "", "TAGNAME1": "205073.844035507", "TAGNAME2": "627918.87000757", "VALUE2": "", "TAGNAME3": "", "VALUE3": "1", "DATE_DEC": "", "STAGE": "", "NAME": "DIM", "LABEL": "3", "FONT_SIZE": 1.0, "AGAM_ID": 4005388378.0}, "geometry": {"type": "Point", "coordinates": [34.85461337627233, 31.98613886647937]}}]}