{"type": "FeatureCollection", "features": [{"type": "Feature", "properties": {"OBJECTID": 19166805, "LAYER_ID": 6584167, "GROUP_ID": 410693, "SCENARIO": "", "DEFQ": 0, "PLAN_NAME": "", "DATA_DATE": null, "MAVAT_CODE": 660, "MAVAT_NAME": "", "NAME": "", "LABEL": "", "NUM": "1030", "LEGAL_AREA": 0.0, "TYPE_CODE": 0, "TYPE_NAME": "", "SOURCE_COD": 0, "HASAVA": 0, "STATUS": "", "PL_CHANGE": "", "ADDRESS": "", "PLACE_NO": 0, "CALC_AREA": 0.0, "OLD_MIG": "", "AGAM_ID": 4005388378.0, "FONT_SIZE": 1.86, "ROTATION": 0.0}, "geometry": {"type": "Point", "coordinates": [34.85462824094444, 31.985367347292726]}}, {"type": "Feature", "properties": {"OBJECTID": 19166806, "LAYER_ID": 6584167, "GROUP_ID": 410693, "SCENARIO": "", "DEFQ": 0, "PLAN_NAME": "", "DATA_DATE": null, "MAVAT_CODE": 20, "MAVAT_NAME": "", "NAME": "", "LABEL": "", "NUM": "30B", "LEGAL_AREA": 0.0, "TYPE_CODE": 0, "TYPE_NAME": "", "SOURCE_COD": 0, "HASAVA": 0, "STATUS": "", "PL_CHANGE": "", "ADDRESS": "", "PLACE_NO": 0, "CALC_AREA": 0.0, "OLD_MIG": "", "AGAM_ID": 4005388378.0, "FONT_SIZE": 1.37, "ROTATION": 0.0}, "geometry": {"type": "Point", "coordinates": [34.85447741927029, 31.986258171905273]}}, {"type": "Feature", "properties": {"OBJECTID": 19166807, "LAYER_ID": 6584167, "GROUP_ID": 410693, "SCENARIO": "", "DEFQ": 0, "PLAN_NAME": "", "DATA_DATE": null, "MAVAT_CODE": 160, "MAVAT_NAME": "", "NAME": "", "LABEL": "", "NUM": "30A", "LEGAL_AREA": 0.0, "TYPE_CODE": 0, "TYPE_NAME": "", "SOURCE_COD": 0, "HASAVA": 0, "STATUS": "", "PL_CHANGE": "", "ADDRESS": "", "PLACE_NO": 0, "CALC_AREA": 0.0, "OLD_MIG": "", "AGAM_ID": 4005388378.0, "FONT_SIZE": 1.78, "ROTATION": 0.0}, "geometry": {"type": "Point", "coordinates": [34.854575754746776, 31.985980442059947]}}, {"type": "Feature", "properties": {"OBJECTID": 19166808, "LAYER_ID": 6584167, "GROUP_ID": 410693, "SCENARIO": "", "DEFQ": 0, "PLAN_NAME": "", "DATA_DATE": null, "MAVAT_CODE": 20, "MAVAT_NAME": "", "NAME": "", "LABEL": "", "NUM": "30C", "LEGAL_AREA": 0.0, "TYPE_CODE": 0, "TYPE_NAME": "", "SOURCE_COD": 0, "HASAVA": 0, "STATUS": "", "PL_CHANGE": "", "ADDRESS": "", "PLACE_NO": 0, "CALC_AREA": 0.0, "OLD_MIG": "", "AGAM_ID": 4005388378.0, "FONT_SIZE": 1.37, "ROTATION": 0.0}, "geometry": {"type": "Point", "coordinates": [34.854633208455446, 31.986261223804348]}}]}