{"type": "FeatureCollection", "features": [{"type": "Feature", "properties": {"OBJECTID": 706609, "LAYER_ID": 397667, "GROUP_ID": 134231, "SCENARIO": "", "DEFQ": 0, "PLAN_NAME": "", "DATA_DATE": null, "MAVAT_CODE": 20, "MAVAT_NAME": "", "NAME": "", "LABEL": "", "NUM": "1", "LEGAL_AREA": 0.3982, "TYPE_CODE": 0, "TYPE_NAME": "", "SOURCE_COD": 0, "HASAVA": 0, "STATUS": "", "PL_CHANGE": "", "ADDRESS": "", "PLACE_NO": 0, "CALC_AREA": 0.0, "OLD_MIG": "", "AGAM_ID": 4000252277.0, "FONT_SIZE": 1.2, "ROTATION": 0.0}, "geometry": {"type": "Point", "coordinates": [34.84790294406929, 31.993328359799655]}}]}