{"type": "FeatureCollection", "features": [{"type": "Feature", "properties": {"OBJECTID": 3690561, "LAYER_ID": 397678, "GROUP_ID": 134231, "SCENARIO": "", "DEFQ": 0, "PLAN_NAME": "", "DATA_DATE": null, "MAVAT_CODE": 21010, "MAVAT_NAME": "קו בנין", "NAME": "", "LABEL": "", "TYPE_CODE": 0, "TYPE_NAME": "", "SOURCE_COD": 0, "PL_CHANGE": "", "PLACE_NO": 0, "ADDRESS": "", "LENGTH": 0.0, "WIDTH": 0.0, "REMARKS": "", "DATE_DEC": "", "STATUS": "", "STAGE": "", "AGAM_ID": 4000252277.0, "SHAPE_LEN": 58.4729695949}, "geometry": {"type": "LineString", "coordinates": [[34.84793463183774, 31.993410641168495], [34.847934635700064, 31.99341064117936], [34.84795303707928, 31.993408604069487], [34.84795685338818, 31.99340624621111], [34.84796117164967, 31.99340259028031], [34.847964679375394, 31.993398350846697], [34.847967269984906, 31.99339365672338], [34.84796886476396, 31.99338865053897], [34.84796941525618, 31.99338348440391], [34.84796905357275, 31.993379113124973], [34.847946497143184, 31.993237419838202], [34.8478330552168, 31.993249203137413], [34.847858428790985, 31.99341907852511], [34.84793463183774, 31.993410641168495]]}}, {"type": "Feature", "properties": {"OBJECTID": 3690562, "LAYER_ID": 397678, "GROUP_ID": 134231, "SCENARIO": "", "DEFQ": 0, "PLAN_NAME": "", "DATA_DATE": null, "MAVAT_CODE": 21120, "MAVAT_NAME": "להריסה", "NAME": "", "LABEL": "", "TYPE_CODE": 0, "TYPE_NAME": "", "SOURCE_COD": 0, "PL_CHANGE": "", "PLACE_NO": 0, "ADDRESS": "", "LENGTH": 0.0, "WIDTH": 0.0, "REMARKS": "", "DATE_DEC": "", "STATUS": "", "STAGE": "", "AGAM_ID": 4000252277.0, "SHAPE_LEN": 1.54275317116}, "geometry": {"type": "LineString", "coordinates": [[34.84783543056932, 31.993235717444843], [34.84783359684715, 31.99322189297649]]}}, {"type": "Feature", "properties": {"OBJECTID": 3690563, "LAYER_ID": 397678, "GROUP_ID": 134231, "SCENARIO": "", "DEFQ": 0, "PLAN_NAME": "", "DATA_DATE": null, "MAVAT_CODE": 21120, "MAVAT_NAME": "להריסה", "NAME": "", "LABEL": "", "TYPE_CODE": 0, "TYPE_NAME": "", "SOURCE_COD": 0, "PL_CHANGE": "", "PLACE_NO": 0, "ADDRESS": "", "LENGTH": 0.0, "WIDTH": 0.0, "REMARKS": "", "DATE_DEC": "", "STATUS": "", "STAGE": "", "AGAM_ID": 4000252277.0, "SHAPE_LEN": 18.9862382014}, "geometry": {"type": "LineString", "coordinates": [[34.84783543056932, 31.993235717444843], [34.847865735965414, 31.993232799548505], [34.847862879671865, 31.993218851095335], [34.84783359684715, 31.99322189297649], [34.84780445296232, 31.99322492040669], [34.84780951190093, 31.9932598310532], [34.84783804730778, 31.993256826666652], [34.84783543056932, 31.993235717444843]]}}, {"type": "Feature", "properties": {"OBJECTID": 3690564, "LAYER_ID": 397678, "GROUP_ID": 134231, "SCENARIO": "", "DEFQ": 0, "PLAN_NAME": "", "DATA_DATE": null, "MAVAT_CODE": 23500, "MAVAT_NAME": "מידות - קו", "NAME": "", "LABEL": "", "TYPE_CODE": 0, "TYPE_NAME": "", "SOURCE_COD": 0, "PL_CHANGE": "", "PLACE_NO": 0, "ADDRESS": "", "LENGTH": 0.0, "WIDTH": 0.0, "REMARKS": "", "DATE_DEC": "", "STATUS": "", "STAGE": "", "AGAM_ID": 4000252277.0, "SHAPE_LEN": 5.40030065254}, "geometry": {"type": "LineString", "coordinates": [[34.84782319555849, 31.993375895131507], [34.84785150855265, 31.993372622101376], [34.84782319555849, 31.993375895131507]]}}, {"type": "Feature", "properties": {"OBJECTID": 3690565, "LAYER_ID": 397678, "GROUP_ID": 134231, "SCENARIO": "", "DEFQ": 0, "PLAN_NAME": "", "DATA_DATE": null, "MAVAT_CODE": 23500, "MAVAT_NAME": "מידות - קו", "NAME": "", "LABEL": "", "TYPE_CODE": 0, "TYPE_NAME": "", "SOURCE_COD": 0, "PL_CHANGE": "", "PLACE_NO": 0, "ADDRESS": "", "LENGTH": 0.0, "WIDTH": 0.0, "REMARKS": "", "DATE_DEC": "", "STATUS": "", "STAGE": "", "AGAM_ID": 4000252277.0, "SHAPE_LEN": 6.00006624287}, "geometry": {"type": "LineString", "coordinates": [[34.84792108398964, 31.99324005926823], [34.84791724551899, 31.993213203530008], [34.84792108398964, 31.99324005926823]]}}, {"type": "Feature", "properties": {"OBJECTID": 3690566, "LAYER_ID": 397678, "GROUP_ID": 134231, "SCENARIO": "", "DEFQ": 0, "PLAN_NAME": "", "DATA_DATE": null, "MAVAT_CODE": 23500, "MAVAT_NAME": "מידות - קו", "NAME": "", "LABEL": "", "TYPE_CODE": 0, "TYPE_NAME": "", "SOURCE_COD": 0, "PL_CHANGE": "", "PLACE_NO": 0, "ADDRESS": "", "LENGTH": 0.0, "WIDTH": 0.0, "REMARKS": "", "DATE_DEC": "", "STATUS": "", "STAGE": "", "AGAM_ID": 4000252277.0, "SHAPE_LEN": 5.40019831904}, "geometry": {"type": "LineString", "coordinates": [[34.84796429295546, 31.993349214325406], [34.8479926053039, 31.99334594072083], [34.84796429295546, 31.993349214325406]]}}, {"type": "Feature", "properties": {"OBJECTID": 3690567, "LAYER_ID": 397678, "GROUP_ID": 134231, "SCENARIO": "", "DEFQ": 0, "PLAN_NAME": "", "DATA_DATE": null, "MAVAT_CODE": 23500, "MAVAT_NAME": "מידות - קו", "NAME": "", "LABEL": "", "TYPE_CODE": 0, "TYPE_NAME": "", "SOURCE_COD": 0, "PL_CHANGE": "", "PLACE_NO": 0, "ADDRESS": "", "LENGTH": 0.0, "WIDTH": 0.0, "REMARKS": "", "DATE_DEC": "", "STATUS": "", "STAGE": "", "AGAM_ID": 4000252277.0, "SHAPE_LEN": 5.9998370814}, "geometry": {"type": "LineString", "coordinates": [[34.84787838141731, 31.993416411140995], [34.8478824705697, 31.993443238951603], [34.84787838141731, 31.993416411140995]]}}]}