{"type": "FeatureCollection", "features": [{"type": "Feature", "properties": {"OBJECTID": 394769, "GROUP_ID": 134231, "LAYER_ID": 397676, "DEFQ": "", "MAVAT_CODE": 0, "MAVAT_NAME": "", "LABEL": "3", "ROZETA_NUM": 1, "TAGNAME": "KBL", "ROTATION": 78.821684, "STAGE": "", "AGAM_ID": 4000252277.0, "SHAPE_AREA": 19.5850009275, "SHAPE_LEN": 17.8485885319}, "geometry": {"type": "Polygon", "coordinates": [[[34.847956283914115, 31.99343487502029], [34.84795329269361, 31.993433275850208], [34.84794494726328, 31.99342993081909], [34.84793604703649, 31.993427871616746], [34.84792686244182, 31.99342716081094], [34.84791767254808, 31.993427819999066], [34.84791660497934, 31.99342798696043], [34.84790876057979, 31.99342982849688], [34.84790038936493, 31.993433126603062], [34.84789281734825, 31.993437613429712], [34.847886274601514, 31.993443152647068], [34.847882834087535, 31.993447029690717], [34.84792669071513, 31.993472250070674], [34.847956283914115, 31.99343487502029]]]}}, {"type": "Feature", "properties": {"OBJECTID": 394770, "GROUP_ID": 134231, "LAYER_ID": 397676, "DEFQ": "", "MAVAT_CODE": 0, "MAVAT_NAME": "", "LABEL": "10", "ROZETA_NUM": 1, "TAGNAME": "WIDTH", "ROTATION": 78.821684, "STAGE": "", "AGAM_ID": 4000252277.0, "SHAPE_AREA": 19.583136105, "SHAPE_LEN": 17.8482918686}, "geometry": {"type": "Polygon", "coordinates": [[[34.847956283914115, 31.99343487502029], [34.84792669071513, 31.993472250070674], [34.84797054736854, 31.99349746998465], [34.84797242222977, 31.99349492284889], [34.84797634723662, 31.99348781083524], [34.84797876347019, 31.993480226021447], [34.847979597514794, 31.993472398868278], [34.84797882402881, 31.993464567199897], [34.847976466514616, 31.993456968977537], [34.847972596604436, 31.993449835069267], [34.8479673318838, 31.99344338223514], [34.847960832318726, 31.993437806541102], [34.847956283914115, 31.99343487502029]]]}}, {"type": "Feature", "properties": {"OBJECTID": 394771, "GROUP_ID": 134231, "LAYER_ID": 397676, "DEFQ": "", "MAVAT_CODE": 0, "MAVAT_NAME": "", "LABEL": "", "ROZETA_NUM": 1, "TAGNAME": "ROADNO", "ROTATION": 78.821684, "STAGE": "", "AGAM_ID": 4000252277.0, "SHAPE_AREA": 19.5806175825, "SHAPE_LEN": 17.8479369494}, "geometry": {"type": "Polygon", "coordinates": [[[34.84792669071513, 31.993472250070674], [34.847882834087535, 31.993447029690717], [34.84788095965206, 31.99344957628464], [34.8478770346605, 31.99345668825733], [34.847874618432115, 31.993464273028664], [34.84787378438313, 31.99347210013925], [34.84787455785611, 31.993479931766373], [34.847876915349865, 31.99348752994994], [34.847880785233485, 31.993494663822943], [34.84788604992279, 31.99350111662611], [34.847892549453, 31.993506692294133], [34.847897098553695, 31.99350962421494], [34.84792669071513, 31.993472250070674]]]}}, {"type": "Feature", "properties": {"OBJECTID": 394772, "GROUP_ID": 134231, "LAYER_ID": 397676, "DEFQ": "", "MAVAT_CODE": 0, "MAVAT_NAME": "", "LABEL": "3", "ROZETA_NUM": 1, "TAGNAME": "KBR", "ROTATION": 78.821684, "STAGE": "", "AGAM_ID": 4000252277.0, "SHAPE_AREA": 19.5853757888, "SHAPE_LEN": 17.8484406269}, "geometry": {"type": "Polygon", "coordinates": [[[34.84797054736854, 31.99349746998465], [34.84792669071513, 31.993472250070674], [34.847897098553695, 31.99350962421494], [34.84790009104674, 31.993511224118777], [34.84790843638686, 31.993514569114414], [34.84791733651909, 31.993516628295065], [34.847926521017065, 31.993517339093447], [34.847935710814056, 31.9935166799123], [34.84793677698946, 31.993516513181362], [34.847944620460865, 31.99351467180135], [34.84795299163014, 31.993511373712614], [34.84796056360348, 31.99350688691004], [34.84796710631013, 31.993501347722958], [34.84797054736854, 31.99349746998465]]]}}, {"type": "Feature", "properties": {"OBJECTID": 394773, "GROUP_ID": 134231, "LAYER_ID": 397676, "DEFQ": "", "MAVAT_CODE": 0, "MAVAT_NAME": "", "LABEL": "10", "ROZETA_NUM": 2, "TAGNAME": "WIDTH", "ROTATION": 348.40786821, "STAGE": "", "AGAM_ID": 4000252277.0, "SHAPE_AREA": 19.5811667725, "SHAPE_LEN": 17.8480512535}, "geometry": {"type": "Polygon", "coordinates": [[[34.84807021676258, 31.993271447011328], [34.8480675461172, 31.993270030764748], [34.8480592007821, 31.99326668577509], [34.84805030065881, 31.99326462660172], [34.8480411161727, 31.993263915811486], [34.84803192638931, 31.993264575001362], [34.84802301053521, 31.9932665841422], [34.848014639513714, 31.993269882187395], [34.848007067673834, 31.993274368927608], [34.84800052508194, 31.993279908035674], [34.84799687273416, 31.993284054750784], [34.8480409409429, 31.99330900379243], [34.84807021676258, 31.993271447011328]]]}}, {"type": "Feature", "properties": {"OBJECTID": 394774, "GROUP_ID": 134231, "LAYER_ID": 397676, "DEFQ": "", "MAVAT_CODE": 0, "MAVAT_NAME": "", "LABEL": "3", "ROZETA_NUM": 2, "TAGNAME": "KBR", "ROTATION": 348.40786821, "STAGE": "", "AGAM_ID": 4000252277.0, "SHAPE_AREA": 19.586703135, "SHAPE_LEN": 17.8485802547}, "geometry": {"type": "Polygon", "coordinates": [[[34.84807021676258, 31.993271447011328], [34.8480409409429, 31.99330900379243], [34.84808500811916, 31.99333395236498], [34.84808667295662, 31.99333167252489], [34.84809059796885, 31.99332456046897], [34.84809301420171, 31.993316975611645], [34.848093848239515, 31.993309148415108], [34.84809307474085, 31.993301316704784], [34.848092805019284, 31.993300089019236], [34.84809071834114, 31.993293723295526], [34.848086848303886, 31.99328658916025], [34.848081583414455, 31.99328013612238], [34.848075083644, 31.993274560254093], [34.84807021676258, 31.993271447011328]]]}}, {"type": "Feature", "properties": {"OBJECTID": 394775, "GROUP_ID": 134231, "LAYER_ID": 397676, "DEFQ": "", "MAVAT_CODE": 0, "MAVAT_NAME": "", "LABEL": "2.7", "ROZETA_NUM": 2, "TAGNAME": "KBL", "ROTATION": 348.40786821, "STAGE": "", "AGAM_ID": 4000252277.0, "SHAPE_AREA": 19.5824219525, "SHAPE_LEN": 17.8482724748}, "geometry": {"type": "Polygon", "coordinates": [[[34.8480409409429, 31.99330900379243], [34.84799687273416, 31.993284054750784], [34.84799520866587, 31.99328633360313], [34.84799128360086, 31.99329344574149], [34.84798886733128, 31.993301030687874], [34.84798803327464, 31.993308857977624], [34.84798880677369, 31.99331668978253], [34.84798907685494, 31.99331791899524], [34.847991163413326, 31.993324284253273], [34.84799503342702, 31.993331418358814], [34.84800029828919, 31.99333787137071], [34.84800679802982, 31.993343447217292], [34.848011665099264, 31.99334656056637], [34.8480409409429, 31.99330900379243]]]}}, {"type": "Feature", "properties": {"OBJECTID": 394776, "GROUP_ID": 134231, "LAYER_ID": 397676, "DEFQ": "", "MAVAT_CODE": 0, "MAVAT_NAME": "", "LABEL": "", "ROZETA_NUM": 2, "TAGNAME": "ROADNO", "ROTATION": 348.40786821, "STAGE": "", "AGAM_ID": 4000252277.0, "SHAPE_AREA": 19.5820609338, "SHAPE_LEN": 17.8479841586}, "geometry": {"type": "Polygon", "coordinates": [[[34.84808500811916, 31.99333395236498], [34.8480409409429, 31.99330900379243], [34.848011665099264, 31.99334656056637], [34.84801433545349, 31.993347976650107], [34.84802268065598, 31.99335132158731], [34.84803158063953, 31.993353380728504], [34.848040764982294, 31.99335409150771], [34.848049954622276, 31.993353432328195], [34.84805887033652, 31.99335142321882], [34.848067241225195, 31.993348125225463], [34.84807481294282, 31.993343638556066], [34.848081355426444, 31.993338099535993], [34.84808500811916, 31.99333395236498]]]}}]}