{"type": "FeatureCollection", "features": [{"type": "Feature", "properties": {"OBJECTID": 2033681, "LAYER_ID": 397665, "GROUP_ID": 134231, "DEFQ": 0, "DATA_DATE": null, "MAVAT_CODE": 0, "MAVAT_NAME": "", "TYPE_CODE": 0, "LABEL": "", "LOT_NUM": 7196, "GUSH_SUFFI": 0, "PARCEL_NUM": 151, "CALC_AREA": 0.0, "LEGAL_AREA": 0.0, "IS_ANALITY": 0, "STATUS": 0, "PLAN_NAME": "", "AGAM_ID": 4000252277.0, "FONT_SIZE": 2.0, "ROTATION": 0.0}, "geometry": {"type": "Point", "coordinates": [34.847819724326996, 31.993504018992628]}}, {"type": "Feature", "properties": {"OBJECTID": 2033682, "LAYER_ID": 397665, "GROUP_ID": 134231, "DEFQ": 0, "DATA_DATE": null, "MAVAT_CODE": 0, "MAVAT_NAME": "", "TYPE_CODE": 0, "LABEL": "", "LOT_NUM": 7196, "GUSH_SUFFI": 0, "PARCEL_NUM": 96, "CALC_AREA": 0.0, "LEGAL_AREA": 0.0, "IS_ANALITY": 0, "STATUS": 0, "PLAN_NAME": "", "AGAM_ID": 4000252277.0, "FONT_SIZE": 2.0, "ROTATION": 0.0}, "geometry": {"type": "Point", "coordinates": [34.8477259522525, 31.99334714658768]}}, {"type": "Feature", "properties": {"OBJECTID": 2033683, "LAYER_ID": 397665, "GROUP_ID": 134231, "DEFQ": 0, "DATA_DATE": null, "MAVAT_CODE": 0, "MAVAT_NAME": "", "TYPE_CODE": 0, "LABEL": "", "LOT_NUM": 7196, "GUSH_SUFFI": 0, "PARCEL_NUM": 97, "CALC_AREA": 0.0, "LEGAL_AREA": 0.0, "IS_ANALITY": 0, "STATUS": 0, "PLAN_NAME": "", "AGAM_ID": 4000252277.0, "FONT_SIZE": 2.0, "ROTATION": 0.0}, "geometry": {"type": "Point", "coordinates": [34.84804564859351, 31.993280043442713]}}, {"type": "Feature", "properties": {"OBJECTID": 2033684, "LAYER_ID": 397665, "GROUP_ID": 134231, "DEFQ": 0, "DATA_DATE": null, "MAVAT_CODE": 0, "MAVAT_NAME": "", "TYPE_CODE": 0, "LABEL": "", "LOT_NUM": 7196, "GUSH_SUFFI": 0, "PARCEL_NUM": 103, "CALC_AREA": 0.0, "LEGAL_AREA": 0.0, "IS_ANALITY": 0, "STATUS": 0, "PLAN_NAME": "", "AGAM_ID": 4000252277.0, "FONT_SIZE": 2.0, "ROTATION": 0.0}, "geometry": {"type": "Point", "coordinates": [34.84787931760278, 31.99311266336184]}}, {"type": "Feature", "properties": {"OBJECTID": 2033685, "LAYER_ID": 397665, "GROUP_ID": 134231, "DEFQ": 0, "DATA_DATE": null, "MAVAT_CODE": 0, "MAVAT_NAME": "", "TYPE_CODE": 0, "LABEL": "", "LOT_NUM": 7196, "GUSH_SUFFI": 0, "PARCEL_NUM": 97, "CALC_AREA": 0.0, "LEGAL_AREA": 0.0, "IS_ANALITY": 0, "STATUS": 0, "PLAN_NAME": "", "AGAM_ID": 4000252277.0, "FONT_SIZE": 2.0, "ROTATION": 0.0}, "geometry": {"type": "Point", "coordinates": [34.8478833286364, 31.993326982647982]}}, {"type": "Feature", "properties": {"OBJECTID": 2033686, "LAYER_ID": 397665, "GROUP_ID": 134231, "DEFQ": 0, "DATA_DATE": null, "MAVAT_CODE": 0, "MAVAT_NAME": "", "TYPE_CODE": 0, "LABEL": "", "LOT_NUM": 7196, "GUSH_SUFFI": 0, "PARCEL_NUM": 102, "CALC_AREA": 0.0, "LEGAL_AREA": 0.0, "IS_ANALITY": 0, "STATUS": 0, "PLAN_NAME": "", "AGAM_ID": 4000252277.0, "FONT_SIZE": 2.0, "ROTATION": 0.0}, "geometry": {"type": "Point", "coordinates": [34.84770483498955, 31.99317605312317]}}]}