{"type": "FeatureCollection", "features": [{"type": "Feature", "properties": {"OBJECTID": 2379403, "LAYER_ID": 397680, "GROUP_ID": 134231, "DEFQ": 0, "DATA_DATE": null, "MAVAT_CODE": 1602, "MAVAT_NAME": "גבול חלקה", "TYPE_CODE": 0, "LABEL": "", "LOT_NUM": 7196, "GUSH_SUFFI": 0, "PARCEL_NUM": 97, "CALC_AREA": 0.0, "LEGAL_AREA": 0.0, "IS_ANALITY": 0, "STATUS": 0, "PLAN_NAME": "", "AGAM_ID": 4000252277.0, "SHAPE_AREA": 398.09465029, "SHAPE_LEN": 79.8265436429}, "geometry": {"type": "Polygon", "coordinates": [[[34.847997349356305, 31.993375744179353], [34.84797058211464, 31.993207623463103], [34.84780066963883, 31.993225346274482], [34.84783412099609, 31.9934490152122], [34.84794134565926, 31.993437179999923], [34.84794419340357, 31.993436859743255], [34.84794531427594, 31.993436703341487], [34.84795601368046, 31.99343429229852], [34.84796605926266, 31.99343033451675], [34.847975145792184, 31.99342495025152], [34.84798299717926, 31.993418303101286], [34.84798937486344, 31.99341059503658], [34.84799408506219, 31.993402060263247], [34.8479969846589, 31.99339295810627], [34.847997985551295, 31.993383565130223], [34.847997349356305, 31.993375744179353]]]}}, {"type": "Feature", "properties": {"OBJECTID": 2379404, "LAYER_ID": 397680, "GROUP_ID": 134231, "DEFQ": 0, "DATA_DATE": null, "MAVAT_CODE": 1602, "MAVAT_NAME": "גבול חלקה", "TYPE_CODE": 0, "LABEL": "", "LOT_NUM": 7196, "GUSH_SUFFI": 0, "PARCEL_NUM": 97, "CALC_AREA": 0.0, "LEGAL_AREA": 0.0, "IS_ANALITY": 0, "STATUS": 0, "PLAN_NAME": "", "AGAM_ID": 4000252277.0, "SHAPE_AREA": 514.70497472, "SHAPE_LEN": 146.385964401}, "geometry": {"type": "Polygon", "coordinates": [[[34.8480559607858, 31.99298906064213], [34.84806142381295, 31.992982650311493], [34.848069275151836, 31.992976003158546], [34.84807836162571, 31.992970618887934], [34.84808840714686, 31.99296666109781], [34.8480991064876, 31.992964250043393], [34.84810127999773, 31.992963962669567], [34.84787873707837, 31.99298809390761], [34.847880464634095, 31.992988078729017], [34.84789148634784, 31.992988931719193], [34.847902166813256, 31.992991402822213], [34.8479121815103, 31.992995416954948], [34.847921226147825, 31.993000852150228], [34.847929025909316, 31.993007543262614], [34.84793534380296, 31.993015286986292], [34.847939987862524, 31.993023848032365], [34.84794281698024, 31.993032966277962], [34.847943525699144, 31.99303768749765], [34.84797058211464, 31.993207623463103], [34.847997349356305, 31.993375744179353], [34.847997985551295, 31.993383565130223], [34.8479969846589, 31.99339295810627], [34.84799408506219, 31.993402060263247], [34.84798937486344, 31.99341059503658], [34.84798299717926, 31.993418303101286], [34.847975145792184, 31.99342495025152], [34.84796605926266, 31.99343033451675], [34.84795601368046, 31.99343429229852], [34.84794531427594, 31.993436703341487], [34.84794419340357, 31.993436859743255], [34.848107022676864, 31.993418617255283], [34.84807339693928, 31.993194996593232], [34.84804646471247, 31.993015882448358], [34.848047435110914, 31.993007997083627], [34.8480503346796, 31.99299889495607], [34.848055044835114, 31.99299036020912], [34.8480559607858, 31.99298906064213]]]}}, {"type": "Feature", "properties": {"OBJECTID": 2379405, "LAYER_ID": 397680, "GROUP_ID": 134231, "DEFQ": 0, "DATA_DATE": null, "MAVAT_CODE": 1602, "MAVAT_NAME": "גבול חלקה", "TYPE_CODE": 0, "LABEL": "", "LOT_NUM": 7196, "GUSH_SUFFI": 0, "PARCEL_NUM": 151, "CALC_AREA": 0.0, "LEGAL_AREA": 0.0, "IS_ANALITY": 0, "STATUS": 0, "PLAN_NAME": "", "AGAM_ID": 4000252277.0, "SHAPE_AREA": 669.823646, "SHAPE_LEN": 155.572490171}, "geometry": {"type": "Polygon", "coordinates": [[[34.84812033419744, 31.993506309857114], [34.84810702267686, 31.993418617255276], [34.84794419340357, 31.993436859743255], [34.84794134565926, 31.993437179999926], [34.8478341209961, 31.9934490152122], [34.847667265623215, 31.993467431802454], [34.84755906973754, 31.993480293910277], [34.84739445381934, 31.99349804730114], [34.84740818901446, 31.99358710288768], [34.847511929525986, 31.993575481884577], [34.84768226561547, 31.993556211357696], [34.84778527479534, 31.993543785470454], [34.847951163319436, 31.993525313705305], [34.84812033419744, 31.993506309857114]]]}}, {"type": "Feature", "properties": {"OBJECTID": 2379406, "LAYER_ID": 397680, "GROUP_ID": 134231, "DEFQ": 0, "DATA_DATE": null, "MAVAT_CODE": 1602, "MAVAT_NAME": "גבול חלקה", "TYPE_CODE": 0, "LABEL": "", "LOT_NUM": 7196, "GUSH_SUFFI": 0, "PARCEL_NUM": 96, "CALC_AREA": 0.0, "LEGAL_AREA": 0.0, "IS_ANALITY": 0, "STATUS": 0, "PLAN_NAME": "", "AGAM_ID": 4000252277.0, "SHAPE_AREA": 398.1418227, "SHAPE_LEN": 81.8250618253}, "geometry": {"type": "Polygon", "coordinates": [[[34.8478341209961, 31.9934490152122], [34.84780066963883, 31.993225346274485], [34.84763289084836, 31.993244589885517], [34.847667265623215, 31.993467431802454], [34.8478341209961, 31.9934490152122]]]}}, {"type": "Feature", "properties": {"OBJECTID": 2379407, "LAYER_ID": 397680, "GROUP_ID": 134231, "DEFQ": 0, "DATA_DATE": null, "MAVAT_CODE": 1602, "MAVAT_NAME": "גבול חלקה", "TYPE_CODE": 0, "LABEL": "", "LOT_NUM": 7196, "GUSH_SUFFI": 0, "PARCEL_NUM": 102, "CALC_AREA": 0.0, "LEGAL_AREA": 0.0, "IS_ANALITY": 0, "STATUS": 0, "PLAN_NAME": "", "AGAM_ID": 4000252277.0, "SHAPE_AREA": 401.30581662, "SHAPE_LEN": 82.1680919613}, "geometry": {"type": "Polygon", "coordinates": [[[34.84780066963883, 31.993225346274485], [34.84776709879032, 31.9930008761841], [34.84759936870093, 31.993020217284855], [34.84763289084836, 31.993244589885517], [34.84780066963883, 31.993225346274485]]]}}, {"type": "Feature", "properties": {"OBJECTID": 2379408, "LAYER_ID": 397680, "GROUP_ID": 134231, "DEFQ": 0, "DATA_DATE": null, "MAVAT_CODE": 1602, "MAVAT_NAME": "גבול חלקה", "TYPE_CODE": 0, "LABEL": "", "LOT_NUM": 7196, "GUSH_SUFFI": 0, "PARCEL_NUM": 103, "CALC_AREA": 0.0, "LEGAL_AREA": 0.0, "IS_ANALITY": 0, "STATUS": 0, "PLAN_NAME": "", "AGAM_ID": 4000252277.0, "SHAPE_AREA": 397.34207357, "SHAPE_LEN": 79.9899035122}, "geometry": {"type": "Polygon", "coordinates": [[[34.84788173383336, 31.992988093309126], [34.84787873707837, 31.99298809390761], [34.84786583039057, 31.992989493314877], [34.84776709879032, 31.993000876184094], [34.84780066963883, 31.993225346274482], [34.84797058211464, 31.993207623463103], [34.847943525699144, 31.99303768749765], [34.84794281700088, 31.99303296648936], [34.847939987882526, 31.993023848241677], [34.84793534382189, 31.99301528719364], [34.8479290259268, 31.99300754346819], [34.847921226163514, 31.99300085235427], [34.84791218152392, 31.992995417157733], [34.847902166824575, 31.992991403024064], [34.847891486356716, 31.992988931920507], [34.84788173383336, 31.992988093309126]]]}}]}