{"type": "FeatureCollection", "features": [{"type": "Feature", "properties": {"OBJECTID": 1145205, "LAYER_ID": 397677, "GROUP_ID": 134231, "SCENARIO": "", "DEFQ": 0, "PLAN_NAME": "", "DATA_DATE": null, "MAVAT_CODE": 23505, "MAVAT_NAME": "בלוק מידות - מספר", "BLOCKNAME": "", "ROTATION": 352.0852943, "TYPE_CODE": 0, "TYPE_NAME": "", "SOURCE_COD": 0, "STATUS": "", "PL_CHANGE": "", "PLACE_NO": 0, "ADDRESS": "", "RADIUS": 0.0, "LENGTH": 0.0, "WIDTH": 0.0, "REMARKS": "", "DATE_DEC": "", "TAG1": "", "TAG2": "", "TAG3": "", "STAGE": "", "NAME": "2.7", "LABEL": "", "AGAM_ID": 4000252277.0}, "geometry": {"type": "Point", "coordinates": [34.847841237993194, 31.993382909622696]}}, {"type": "Feature", "properties": {"OBJECTID": 1145206, "LAYER_ID": 397677, "GROUP_ID": 134231, "SCENARIO": "", "DEFQ": 0, "PLAN_NAME": "", "DATA_DATE": null, "MAVAT_CODE": 23505, "MAVAT_NAME": "בלוק מידות - מספר", "BLOCKNAME": "", "ROTATION": 82.86180312, "TYPE_CODE": 0, "TYPE_NAME": "", "SOURCE_COD": 0, "STATUS": "", "PL_CHANGE": "", "PLACE_NO": 0, "ADDRESS": "", "RADIUS": 0.0, "LENGTH": 0.0, "WIDTH": 0.0, "REMARKS": "", "DATE_DEC": "", "TAG1": "", "TAG2": "", "TAG3": "", "STAGE": "", "NAME": "3", "LABEL": "", "AGAM_ID": 4000252277.0}, "geometry": {"type": "Point", "coordinates": [34.84790866233149, 31.99322772385461]}}, {"type": "Feature", "properties": {"OBJECTID": 1145207, "LAYER_ID": 397677, "GROUP_ID": 134231, "SCENARIO": "", "DEFQ": 0, "PLAN_NAME": "", "DATA_DATE": null, "MAVAT_CODE": 23505, "MAVAT_NAME": "בלוק מידות - מספר", "BLOCKNAME": "", "ROTATION": 352.0852943, "TYPE_CODE": 0, "TYPE_NAME": "", "SOURCE_COD": 0, "STATUS": "", "PL_CHANGE": "", "PLACE_NO": 0, "ADDRESS": "", "RADIUS": 0.0, "LENGTH": 0.0, "WIDTH": 0.0, "REMARKS": "", "DATE_DEC": "", "TAG1": "", "TAG2": "", "TAG3": "", "STAGE": "", "NAME": "2.7", "LABEL": "", "AGAM_ID": 4000252277.0}, "geometry": {"type": "Point", "coordinates": [34.84798233518548, 31.993356228480394]}}, {"type": "Feature", "properties": {"OBJECTID": 1145208, "LAYER_ID": 397677, "GROUP_ID": 134231, "SCENARIO": "", "DEFQ": 0, "PLAN_NAME": "", "DATA_DATE": null, "MAVAT_CODE": 23505, "MAVAT_NAME": "בלוק מידות - מספר", "BLOCKNAME": "", "ROTATION": 82.4090615, "TYPE_CODE": 0, "TYPE_NAME": "", "SOURCE_COD": 0, "STATUS": "", "PL_CHANGE": "", "PLACE_NO": 0, "ADDRESS": "", "RADIUS": 0.0, "LENGTH": 0.0, "WIDTH": 0.0, "REMARKS": "", "DATE_DEC": "", "TAG1": "", "TAG2": "", "TAG3": "", "STAGE": "", "NAME": "3", "LABEL": "", "AGAM_ID": 4000252277.0}, "geometry": {"type": "Point", "coordinates": [34.84786993184637, 31.993430987794685]}}, {"type": "Feature", "properties": {"OBJECTID": 1145209, "LAYER_ID": 397677, "GROUP_ID": 134231, "SCENARIO": "", "DEFQ": 0, "PLAN_NAME": "", "DATA_DATE": null, "MAVAT_CODE": 0, "MAVAT_NAME": "", "BLOCKNAME": "", "ROTATION": 57.29577951, "TYPE_CODE": 0, "TYPE_NAME": "", "SOURCE_COD": 0, "STATUS": "", "PL_CHANGE": "", "PLACE_NO": 0, "ADDRESS": "", "RADIUS": 0.0, "LENGTH": 0.0, "WIDTH": 0.0, "REMARKS": "", "DATE_DEC": "", "TAG1": "", "TAG2": "", "TAG3": "", "STAGE": "", "NAME": "", "LABEL": "", "AGAM_ID": 4000252277.0}, "geometry": {"type": "Point", "coordinates": [34.8479452290927, 31.993363333263968]}}]}