{"type": "FeatureCollection", "features": [{"type": "Feature", "properties": {"OBJECTID": 453057, "LAYER_ID": 397664, "GROUP_ID": 134231, "DEFQ": 0, "DATA_DATE": null, "MAVAT_CODE": 0, "MAVAT_NAME": "", "LABEL": "", "LOT_NUM": 7196, "GUSH_SUFFI": 0, "CALC_AREA": 0.0, "LEGAL_AREA": 0.0, "TYPE_CODE": 0, "STATUS": 6, "IS_ANALITY": 0, "PLAN_NAME": "", "STATUS_NAM": "", "AGAM_ID": 4000252277.0, "FONT_SIZE": 6.0, "ROTATION": 0.0}, "geometry": {"type": "Point", "coordinates": [34.84651118503422, 31.99417673765001]}}]}