{"type": "FeatureCollection", "features": [{"type": "Feature", "properties": {"OBJECTID": 1002230, "LAYER_ID": 397684, "GROUP_ID": 134231, "SCENARIO": "", "DEFQ": 0, "PLAN_NAME": "", "DATA_DATE": null, "MAVAT_CODE": 20, "MAVAT_NAME": "מגורים א'", "NAME": "", "LABEL": "", "NUM": "1", "LEGAL_AREA": 0.3982, "TYPE_CODE": 0, "TYPE_NAME": "", "SOURCE_COD": 0, "HASAVA": 0, "STATUS": "", "PL_CHANGE": "", "ADDRESS": "", "PLACE_NO": 0, "CALC_AREA": 0.0, "OLD_MIG": "", "AGAM_ID": 4000252277.0, "SHAPE_AREA": 398.109799765, "SHAPE_LEN": 79.8300114982}, "geometry": {"type": "Polygon", "coordinates": [[[34.84793872236534, 31.993437470225714], [34.84794396895314, 31.993436889774046], [34.84794531440976, 31.99343670414062], [34.84795601381428, 31.993434293097646], [34.84796605939646, 31.99343033531588], [34.84797514592599, 31.993424951050667], [34.84798299731307, 31.993418303900434], [34.84798937499724, 31.993410595835712], [34.84799408519599, 31.9934020610624], [34.847996984792715, 31.993392958905442], [34.84799798568509, 31.99338356592938], [34.847997349356305, 31.993375744179353], [34.847970592542836, 31.993207663171724], [34.84780068670208, 31.993225312053927], [34.84783410603519, 31.993449053045882], [34.84793872236534, 31.993437470225714]]]}}]}