{"type": "FeatureCollection", "features": [{"type": "Feature", "properties": {"OBJECTID": 629108, "LAYER_ID": 397679, "GROUP_ID": 134231, "DEFQ": 0, "DATA_DATE": null, "MAVAT_CODE": 1601, "MAVAT_NAME": "גבול גוש", "LABEL": "", "LOT_NUM": 7196, "GUSH_SUFFI": 0, "CALC_AREA": 0.0, "LEGAL_AREA": 0.0, "TYPE_CODE": 0, "STATUS": 6, "IS_ANALITY": 0, "PLAN_NAME": "", "STATUS_NAM": "מוסדר", "AGAM_ID": 4000252277.0, "SHAPE_AREA": 102699.116148, "SHAPE_LEN": 1440.04860293}, "geometry": {"type": "Polygon", "coordinates": [[[34.848782381725314, 31.994753354442793], [34.84878214028354, 31.99475175396839], [34.84878558797742, 31.99477421671143], [34.84881851836636, 31.994988306745082], [34.84908470628195, 31.994975074451123], [34.849043250581246, 31.994748876453976], [34.84900214358065, 31.99454206816931], [34.84896007118178, 31.994338684011336], [34.848900729783146, 31.994057822675988], [34.84905192010894, 31.99401537806107], [34.849012187890274, 31.99391259474789], [34.84893312468823, 31.99376658245372], [34.848868605869434, 31.993631419866972], [34.848823096446814, 31.993472659834364], [34.84880472650299, 31.99329711753602], [34.84880779948098, 31.993131459560544], [34.84853591924446, 31.993153013406243], [34.84851719776165, 31.9930286564027], [34.84841027231556, 31.99233855123668], [34.8484091346162, 31.99232342252664], [34.84841121969354, 31.992303853824808], [34.848417260356655, 31.992284890982305], [34.8484270730609, 31.992267110174964], [34.848440359650596, 31.992251051662784], [34.84845671641861, 31.992237203374525], [34.84847564637288, 31.992225986082342], [34.84849657433722, 31.992217740617], [34.848518864427675, 31.992212717511993], [34.84851962506167, 31.99221260735483], [34.84903963726275, 31.99213862522435], [34.849018174133306, 31.992031964791394], [34.84849871518128, 31.992105869030745], [34.848129124347444, 31.992152172972645], [34.84751655221633, 31.992202992509053], [34.84726362084983, 31.992218280705178], [34.84576316909599, 31.992296940915892], [34.84572948650197, 31.992299834339747], [34.84566895734127, 31.99231087686294], [34.84561088826107, 31.992329148245894], [34.8455564613689, 31.992354276539945], [34.845506784631, 31.992385750210758], [34.84546286931805, 31.992422928551104], [34.84542560941895, 31.99246505472354], [34.84539576344183, 31.992511271166777], [34.84537393897259, 31.992560637052645], [34.845370248184615, 31.992571864447704], [34.84535470729146, 31.99263033574144], [34.84534143562889, 31.992709496208242], [34.84533679105926, 31.992789362587843], [34.84534081323078, 31.992869253489587], [34.845352014690306, 31.992941580832312], [34.845803054668856, 31.995108664949758], [34.84581375413036, 31.99514662872738], [34.845834379640024, 31.995191854943098], [34.84586268443471, 31.99523395627714], [34.845898036238886, 31.995271992250515], [34.84593964535485, 31.995305113196984], [34.84598658230288, 31.995332579243787], [34.846037798584476, 31.995353776839536], [34.84609215010439, 31.995368232460585], [34.846148422728604, 31.995375623188917], [34.84620535940703, 31.99537578392616], [34.84622772287532, 31.99537385258681], [34.84844487270437, 31.99512584815947], [34.84847978296058, 31.99512056304269], [34.848535758035176, 31.99510602061798], [34.84858856456285, 31.99508453095262], [34.84863702292414, 31.995056574094775], [34.848680050633966, 31.99502277455987], [34.848716686523126, 31.99498388737952], [34.84874611220935, 31.994940781234913], [34.84876767037825, 31.99489441905121], [34.84878087946612, 31.994845836487134], [34.848785444416336, 31.99479611879956], [34.848782381725314, 31.994753354442793]]]}}]}