{"type": "FeatureCollection", "features": [{"type": "Feature", "properties": {"OBJECTID": 19369633, "GROUP_ID": 134231, "LAYER_ID": 397682, "DEFQ": "", "MAVAT_CODE": 1020, "MAVAT_NAME": "קו מדידה + סימון מרחק", "LABEL": "", "NAME": "", "NUM": 0, "TYPE": "", "DATA_DATE": null, "HEIGHT": 0.0, "LENGTH": 0.0, "PLAN_NAME": "", "AGAM_ID": 4000252277.0, "SHAPE_LEN": 1.82917085041}, "geometry": {"type": "LineString", "coordinates": [[34.847984632946655, 31.993416581770564], [34.84796934751713, 31.99340646209288]]}}, {"type": "Feature", "properties": {"OBJECTID": 19369634, "GROUP_ID": 134231, "LAYER_ID": 397682, "DEFQ": "", "MAVAT_CODE": 1020, "MAVAT_NAME": "קו מדידה + סימון מרחק", "LABEL": "", "NAME": "", "NUM": 0, "TYPE": "", "DATA_DATE": null, "HEIGHT": 0.0, "LENGTH": 0.0, "PLAN_NAME": "", "AGAM_ID": 4000252277.0, "SHAPE_LEN": 8.62680705708}, "geometry": {"type": "LineString", "coordinates": [[34.84794134565926, 31.993437179999926], [34.84799734935629, 31.993375744179367]]}}, {"type": "Feature", "properties": {"OBJECTID": 19369635, "GROUP_ID": 134231, "LAYER_ID": 397682, "DEFQ": "", "MAVAT_CODE": 1020, "MAVAT_NAME": "קו מדידה + סימון מרחק", "LABEL": "", "NAME": "", "NUM": 0, "TYPE": "", "DATA_DATE": null, "HEIGHT": 0.0, "LENGTH": 0.0, "PLAN_NAME": "", "AGAM_ID": 4000252277.0, "SHAPE_LEN": 2.66934309569}, "geometry": {"type": "LineString", "coordinates": [[34.84777717245731, 31.993258522494152], [34.84780519261556, 31.993255482804248]]}}, {"type": "Feature", "properties": {"OBJECTID": 19369636, "GROUP_ID": 134231, "LAYER_ID": 397682, "DEFQ": "", "MAVAT_CODE": 1020, "MAVAT_NAME": "קו מדידה + סימון מרחק", "LABEL": "", "NAME": "", "NUM": 0, "TYPE": "", "DATA_DATE": null, "HEIGHT": 0.0, "LENGTH": 0.0, "PLAN_NAME": "", "AGAM_ID": 4000252277.0, "SHAPE_LEN": 3.02369446208}, "geometry": {"type": "LineString", "coordinates": [[34.847900906388865, 31.99341416060639], [34.84790502816385, 31.993441201017767]]}}, {"type": "Feature", "properties": {"OBJECTID": 19369637, "GROUP_ID": 134231, "LAYER_ID": 397682, "DEFQ": "", "MAVAT_CODE": 1020, "MAVAT_NAME": "קו מדידה + סימון מרחק", "LABEL": "", "NAME": "", "NUM": 0, "TYPE": "", "DATA_DATE": null, "HEIGHT": 0.0, "LENGTH": 0.0, "PLAN_NAME": "", "AGAM_ID": 4000252277.0, "SHAPE_LEN": 1.02483413414}, "geometry": {"type": "LineString", "coordinates": [[34.84780402077274, 31.993320822335168], [34.84781477850465, 31.993319655422585]]}}, {"type": "Feature", "properties": {"OBJECTID": 19369638, "GROUP_ID": 134231, "LAYER_ID": 397682, "DEFQ": "", "MAVAT_CODE": 1020, "MAVAT_NAME": "קו מדידה + סימון מרחק", "LABEL": "", "NAME": "", "NUM": 0, "TYPE": "", "DATA_DATE": null, "HEIGHT": 0.0, "LENGTH": 0.0, "PLAN_NAME": "", "AGAM_ID": 4000252277.0, "SHAPE_LEN": 2.67392600543}, "geometry": {"type": "LineString", "coordinates": [[34.847801823063286, 31.993423891761804], [34.84782989143699, 31.993420847242344]]}}, {"type": "Feature", "properties": {"OBJECTID": 19369639, "GROUP_ID": 134231, "LAYER_ID": 397682, "DEFQ": "", "MAVAT_CODE": 1020, "MAVAT_NAME": "קו מדידה + סימון מרחק", "LABEL": "", "NAME": "", "NUM": 0, "TYPE": "", "DATA_DATE": null, "HEIGHT": 0.0, "LENGTH": 0.0, "PLAN_NAME": "", "AGAM_ID": 4000252277.0, "SHAPE_LEN": 3.08039930244}, "geometry": {"type": "LineString", "coordinates": [[34.84785968148256, 31.9934182093072], [34.84786388117673, 31.993445756751925]]}}, {"type": "Feature", "properties": {"OBJECTID": 19369640, "GROUP_ID": 134231, "LAYER_ID": 397682, "DEFQ": "", "MAVAT_CODE": 1020, "MAVAT_NAME": "קו מדידה + סימון מרחק", "LABEL": "", "NAME": "", "NUM": 0, "TYPE": "", "DATA_DATE": null, "HEIGHT": 0.0, "LENGTH": 0.0, "PLAN_NAME": "", "AGAM_ID": 4000252277.0, "SHAPE_LEN": 2.82944993241}, "geometry": {"type": "LineString", "coordinates": [[34.84785968148256, 31.9934182093072], [34.84782998070771, 31.993421431861375]]}}, {"type": "Feature", "properties": {"OBJECTID": 19369641, "GROUP_ID": 134231, "LAYER_ID": 397682, "DEFQ": "", "MAVAT_CODE": 1020, "MAVAT_NAME": "קו מדידה + סימון מרחק", "LABEL": "", "NAME": "", "NUM": 0, "TYPE": "", "DATA_DATE": null, "HEIGHT": 0.0, "LENGTH": 0.0, "PLAN_NAME": "", "AGAM_ID": 4000252277.0, "SHAPE_LEN": 3.08883535981}, "geometry": {"type": "LineString", "coordinates": [[34.847837343319604, 31.99325013167073], [34.847804919820554, 31.99325364957445]]}}, {"type": "Feature", "properties": {"OBJECTID": 19369642, "GROUP_ID": 134231, "LAYER_ID": 397682, "DEFQ": "", "MAVAT_CODE": 1020, "MAVAT_NAME": "קו מדידה + סימון מרחק", "LABEL": "", "NAME": "", "NUM": 0, "TYPE": "", "DATA_DATE": null, "HEIGHT": 0.0, "LENGTH": 0.0, "PLAN_NAME": "", "AGAM_ID": 4000252277.0, "SHAPE_LEN": 3.00946772702}, "geometry": {"type": "LineString", "coordinates": [[34.84795774324197, 31.99332882937084], [34.847989299559714, 31.993325180936544]]}}, {"type": "Feature", "properties": {"OBJECTID": 19369643, "GROUP_ID": 134231, "LAYER_ID": 397682, "DEFQ": "", "MAVAT_CODE": 1020, "MAVAT_NAME": "קו מדידה + סימון מרחק", "LABEL": "", "NAME": "", "NUM": 0, "TYPE": "", "DATA_DATE": null, "HEIGHT": 0.0, "LENGTH": 0.0, "PLAN_NAME": "", "AGAM_ID": 4000252277.0, "SHAPE_LEN": 2.91774814583}, "geometry": {"type": "LineString", "coordinates": [[34.84794447747116, 31.993239340487694], [34.847975071974815, 31.99323580298211]]}}, {"type": "Feature", "properties": {"OBJECTID": 19369644, "GROUP_ID": 134231, "LAYER_ID": 397682, "DEFQ": "", "MAVAT_CODE": 2207, "MAVAT_NAME": "מבנה ארעי (צריף /סככה /קונזולה)", "LABEL": "", "NAME": "", "NUM": 0, "TYPE": "", "DATA_DATE": null, "HEIGHT": 0.0, "LENGTH": 0.0, "PLAN_NAME": "", "AGAM_ID": 4000252277.0, "SHAPE_LEN": 13.4465101019}, "geometry": {"type": "LineString", "coordinates": [[34.84780436868545, 31.993224341239532], [34.84783350817154, 31.993221219919334], [34.847838227525095, 31.993256807495673], [34.84780951167849, 31.993259830809087], [34.84780436868545, 31.993224341239532]]}}, {"type": "Feature", "properties": {"OBJECTID": 19369645, "GROUP_ID": 134231, "LAYER_ID": 397682, "DEFQ": "", "MAVAT_CODE": 2298, "MAVAT_NAME": "קו מבנה חלקי מדוד", "LABEL": "", "NAME": "", "NUM": 0, "TYPE": "", "DATA_DATE": null, "HEIGHT": 0.0, "LENGTH": 0.0, "PLAN_NAME": "", "AGAM_ID": 4000252277.0, "SHAPE_LEN": 0.860036197538}, "geometry": {"type": "LineString", "coordinates": [[34.847848579008065, 31.993249050416797], [34.84784810471338, 31.99324582784462], [34.847849576128716, 31.9932456863379], [34.847850050430424, 31.99324890710644]]}}, {"type": "Feature", "properties": {"OBJECTID": 19369646, "GROUP_ID": 134231, "LAYER_ID": 397682, "DEFQ": "", "MAVAT_CODE": 2298, "MAVAT_NAME": "קו מבנה חלקי מדוד", "LABEL": "", "NAME": "", "NUM": 0, "TYPE": "", "DATA_DATE": null, "HEIGHT": 0.0, "LENGTH": 0.0, "PLAN_NAME": "", "AGAM_ID": 4000252277.0, "SHAPE_LEN": 0.899951827727}, "geometry": {"type": "LineString", "coordinates": [[34.847860356694, 31.993247914772915], [34.847859882391944, 31.993244694004407], [34.84786177564894, 31.993244511748948], [34.84786224942198, 31.993247732515982]]}}, {"type": "Feature", "properties": {"OBJECTID": 19369647, "GROUP_ID": 134231, "LAYER_ID": 397682, "DEFQ": "", "MAVAT_CODE": 2298, "MAVAT_NAME": "קו מבנה חלקי מדוד", "LABEL": "", "NAME": "", "NUM": 0, "TYPE": "", "DATA_DATE": null, "HEIGHT": 0.0, "LENGTH": 0.0, "PLAN_NAME": "", "AGAM_ID": 4000252277.0, "SHAPE_LEN": 20.082676929}, "geometry": {"type": "LineString", "coordinates": [[34.847821714964965, 31.993150882236776], [34.84782790137147, 31.993192923629724], [34.84787635102883, 31.99318747038904], [34.847876799116605, 31.99319035561324], [34.84790252476422, 31.993187271579366], [34.84790210558572, 31.99318457220782], [34.84793344816123, 31.99318104583183], [34.847927261176444, 31.993139004893017]]}}, {"type": "Feature", "properties": {"OBJECTID": 19369648, "GROUP_ID": 134231, "LAYER_ID": 397682, "DEFQ": "", "MAVAT_CODE": 2298, "MAVAT_NAME": "קו מבנה חלקי מדוד", "LABEL": "", "NAME": "", "NUM": 0, "TYPE": "", "DATA_DATE": null, "HEIGHT": 0.0, "LENGTH": 0.0, "PLAN_NAME": "", "AGAM_ID": 4000252277.0, "SHAPE_LEN": 31.8123895337}, "geometry": {"type": "LineString", "coordinates": [[34.84772444809312, 31.993264288330483], [34.84777717245731, 31.993258522494152], [34.84778683501815, 31.993322702093472], [34.84778658994764, 31.99332272845884], [34.84780402077274, 31.993320822335168], [34.84780720740089, 31.993344909423485], [34.847790210608586, 31.993346768069955], [34.847801823063286, 31.993423891761804], [34.84774934474004, 31.993429629892557]]}}, {"type": "Feature", "properties": {"OBJECTID": 19369649, "GROUP_ID": 134231, "LAYER_ID": 397682, "DEFQ": "", "MAVAT_CODE": 2404, "MAVAT_NAME": "אבן שפה", "LABEL": "", "NAME": "", "NUM": 0, "TYPE": "", "DATA_DATE": null, "HEIGHT": 0.0, "LENGTH": 0.0, "PLAN_NAME": "", "AGAM_ID": 4000252277.0, "SHAPE_LEN": 2.34173012963}, "geometry": {"type": "LineString", "coordinates": [[34.84809111197447, 31.993510556460166], [34.848115876287736, 31.993509814371315]]}}, {"type": "Feature", "properties": {"OBJECTID": 19369650, "GROUP_ID": 134231, "LAYER_ID": 397682, "DEFQ": "", "MAVAT_CODE": 2404, "MAVAT_NAME": "אבן שפה", "LABEL": "", "NAME": "", "NUM": 0, "TYPE": "", "DATA_DATE": null, "HEIGHT": 0.0, "LENGTH": 0.0, "PLAN_NAME": "", "AGAM_ID": 4000252277.0, "SHAPE_LEN": 3.1843922501}, "geometry": {"type": "LineString", "coordinates": [[34.84798999940881, 31.993497737446702], [34.847974451959985, 31.993523214794777]]}}, {"type": "Feature", "properties": {"OBJECTID": 19369651, "GROUP_ID": 134231, "LAYER_ID": 397682, "DEFQ": "", "MAVAT_CODE": 2404, "MAVAT_NAME": "אבן שפה", "LABEL": "", "NAME": "", "NUM": 0, "TYPE": "", "DATA_DATE": null, "HEIGHT": 0.0, "LENGTH": 0.0, "PLAN_NAME": "", "AGAM_ID": 4000252277.0, "SHAPE_LEN": 6.83377448776}, "geometry": {"type": "LineString", "coordinates": [[34.84798999940881, 31.993497737446717], [34.84799045537876, 31.993497242960306], [34.84799174527476, 31.99349615090779], [34.84799323809084, 31.993495266332992], [34.84799488846851, 31.993494616113296], [34.847996646261954, 31.993494220005296], [34.847997208912645, 31.993494150484956], [34.84801795845418, 31.993491773894107], [34.84801898832449, 31.993491749856222], [34.84802190384892, 31.99349197548964], [34.848024729104985, 31.99349262915302], [34.84802737824874, 31.993493690985158], [34.848029269362314, 31.99349478160919], [34.848048979726876, 31.993514856982898]]}}, {"type": "Feature", "properties": {"OBJECTID": 19369652, "GROUP_ID": 134231, "LAYER_ID": 397682, "DEFQ": "", "MAVAT_CODE": 2404, "MAVAT_NAME": "אבן שפה", "LABEL": "", "NAME": "", "NUM": 0, "TYPE": "", "DATA_DATE": null, "HEIGHT": 0.0, "LENGTH": 0.0, "PLAN_NAME": "", "AGAM_ID": 4000252277.0, "SHAPE_LEN": 8.78411801439}, "geometry": {"type": "LineString", "coordinates": [[34.847900242317046, 31.993531122555183], [34.847884555998256, 31.993510427202374], [34.84788339240145, 31.993509439200572], [34.84788196629744, 31.993508582215846], [34.84788038724002, 31.993507949294585], [34.847878703208046, 31.993507559667723], [34.847876965369956, 31.993507425173885], [34.84787663123653, 31.993507428988185], [34.84785937451501, 31.993509454648766], [34.84785856206171, 31.993509673445956], [34.84785686351608, 31.993510342640654], [34.84785532713018, 31.993511253030324], [34.84785399958637, 31.993512376953262], [34.847852921221374, 31.993513680259625], [34.84785258373893, 31.993514214671823], [34.84784222930541, 31.993536949332807]]}}, {"type": "Feature", "properties": {"OBJECTID": 19369653, "GROUP_ID": 134231, "LAYER_ID": 397682, "DEFQ": "", "MAVAT_CODE": 2404, "MAVAT_NAME": "אבן שפה", "LABEL": "", "NAME": "", "NUM": 0, "TYPE": "", "DATA_DATE": null, "HEIGHT": 0.0, "LENGTH": 0.0, "PLAN_NAME": "", "AGAM_ID": 4000252277.0, "SHAPE_LEN": 5.4229823248}, "geometry": {"type": "LineString", "coordinates": [[34.847778953269206, 31.99345475977594], [34.84778726831167, 31.993466145407517], [34.8477873287359, 31.993466236468016], [34.84778841247689, 31.99346756478626], [34.847789750411366, 31.993468712545397], [34.84779130188687, 31.99346964487134], [34.84779301976258, 31.993470333435823], [34.84779485184171, 31.9934707573172], [34.84779674245747, 31.993470903635984], [34.84779863416441, 31.993470767946384], [34.847800469483964, 31.993470354371258], [34.847802192650875, 31.993469675476895], [34.84780375130756, 31.99346875189113], [34.847805098095016, 31.99346761167668], [34.8478061920918, 31.993466289478384], [34.847806635249846, 31.993465569472914], [34.84781060770139, 31.993450790620372]]}}, {"type": "Feature", "properties": {"OBJECTID": 19369654, "GROUP_ID": 134231, "LAYER_ID": 397682, "DEFQ": "", "MAVAT_CODE": 2404, "MAVAT_NAME": "אבן שפה", "LABEL": "", "NAME": "", "NUM": 0, "TYPE": "", "DATA_DATE": null, "HEIGHT": 0.0, "LENGTH": 0.0, "PLAN_NAME": "", "AGAM_ID": 4000252277.0, "SHAPE_LEN": 8.02815578362}, "geometry": {"type": "LineString", "coordinates": [[34.847974368629515, 31.99321615072416], [34.84799147815712, 31.99322494626747], [34.84799312419713, 31.993226440896457], [34.847995157989054, 31.9932289336682], [34.84799665295778, 31.99323168954348], [34.84799674213742, 31.99323190493356], [34.84799963507699, 31.993249858933872], [34.84799993274781, 31.993251012613808], [34.84800015695036, 31.99325328269975], [34.847999915195494, 31.993255551477016], [34.8479992148288, 31.993257750009917], [34.84799807713052, 31.99325981149716], [34.84799705188434, 31.993261124213245], [34.847982615126455, 31.993272897280963]]}}, {"type": "Feature", "properties": {"OBJECTID": 19369655, "GROUP_ID": 134231, "LAYER_ID": 397682, "DEFQ": "", "MAVAT_CODE": 2404, "MAVAT_NAME": "אבן שפה", "LABEL": "", "NAME": "", "NUM": 0, "TYPE": "", "DATA_DATE": null, "HEIGHT": 0.0, "LENGTH": 0.0, "PLAN_NAME": "", "AGAM_ID": 4000252277.0, "SHAPE_LEN": 8.15676545971}, "geometry": {"type": "LineString", "coordinates": [[34.84809289846499, 31.993322174882202], [34.84807483761693, 31.99331337668126], [34.848073494027425, 31.993312558417333], [34.8480722396735, 31.99331148236236], [34.848071223632466, 31.993310237027394], [34.84807047677622, 31.993308860251325], [34.848070021797604, 31.993307393866807], [34.848069872520895, 31.99330588242917], [34.84806989473127, 31.993305336756784], [34.84806742539197, 31.99328729376738], [34.84806735797883, 31.99328699058411], [34.848067192894945, 31.993285319096923], [34.84806737090035, 31.993283648573158], [34.84806788658642, 31.993282029770814], [34.84806872428424, 31.993280511876428], [34.84806985854082, 31.993279141010404], [34.84806999654174, 31.99327900440194], [34.84808476207694, 31.993264436658837]]}}, {"type": "Feature", "properties": {"OBJECTID": 19369656, "GROUP_ID": 134231, "LAYER_ID": 397682, "DEFQ": "", "MAVAT_CODE": 2404, "MAVAT_NAME": "אבן שפה", "LABEL": "", "NAME": "", "NUM": 0, "TYPE": "", "DATA_DATE": null, "HEIGHT": 0.0, "LENGTH": 0.0, "PLAN_NAME": "", "AGAM_ID": 4000252277.0, "SHAPE_LEN": 9.80956940021}, "geometry": {"type": "LineString", "coordinates": [[34.848116374309484, 31.993435597403955], [34.84811583834046, 31.993435681460884], [34.848111436569255, 31.993435997205182], [34.84810703733488, 31.99343565674987], [34.84810277430591, 31.99343467043952], [34.848098777012446, 31.993433068242688], [34.84809516691027, 31.99343089884134], [34.84809205369052, 31.993428228151675], [34.848089531946826, 31.99342513732132], [34.84808767830105, 31.993421720263562], [34.84808701805597, 31.99341991378919], [34.848082481002734, 31.993389150026452], [34.8480822660345, 31.993388375853723], [34.84808215433067, 31.993387244846673], [34.84808227477746, 31.993386114491496], [34.8480826237152, 31.993385019133456], [34.84808319054155, 31.99338399205447], [34.84808395803379, 31.993383064461778], [34.848084092841646, 31.993382932113445], [34.84810032900874, 31.993370893095136]]}}, {"type": "Feature", "properties": {"OBJECTID": 19369657, "GROUP_ID": 134231, "LAYER_ID": 397682, "DEFQ": "", "MAVAT_CODE": 2404, "MAVAT_NAME": "אבן שפה", "LABEL": "", "NAME": "", "NUM": 0, "TYPE": "", "DATA_DATE": null, "HEIGHT": 0.0, "LENGTH": 0.0, "PLAN_NAME": "", "AGAM_ID": 4000252277.0, "SHAPE_LEN": 16.7561524039}, "geometry": {"type": "LineString", "coordinates": [[34.847943356529235, 31.993437095468348], [34.84796119320071, 31.99344913909715], [34.84796224379093, 31.993449760329046], [34.84796351058031, 31.993450268085688], [34.847964861584714, 31.993450580660685], [34.84796625575455, 31.993450688556607], [34.84796765072866, 31.99345058849509], [34.84796900412146, 31.993450283516463], [34.84797027481078, 31.99344978288733], [34.84797142418738, 31.993449101819085], [34.84797145725967, 31.99344907819841], [34.847973626732156, 31.99344805222924], [34.84798659408118, 31.99344036836642], [34.847997798762485, 31.993430882245573], [34.8480069003275, 31.993419882098205], [34.84801362223015, 31.99340770215869], [34.84801776022956, 31.993394712508692], [34.84801918859576, 31.993381307832447], [34.8480185284154, 31.99337174554966], [34.848018263107726, 31.9933694649955], [34.848017435044056, 31.99336679616379], [34.848016075760476, 31.99336429041996], [34.84801422655815, 31.993362023899685], [34.84801194362419, 31.99336006547009], [34.84800929632438, 31.993358474636995], [34.848006365095564, 31.993357299737042], [34.84800630945986, 31.993357282388377], [34.848004399624905, 31.993356843180848], [34.848002394670054, 31.99335668801624], [34.84800038855868, 31.99335683191535], [34.84799844224545, 31.99335727050589], [34.847996614868094, 31.993357990461483], [34.84799496195055, 31.993358969906712], [34.847994477426326, 31.993359334124644]]}}, {"type": "Feature", "properties": {"OBJECTID": 19369658, "GROUP_ID": 134231, "LAYER_ID": 397682, "DEFQ": "", "MAVAT_CODE": 2407, "MAVAT_NAME": "שביל מרוצף", "LABEL": "", "NAME": "", "NUM": 0, "TYPE": "", "DATA_DATE": null, "HEIGHT": 0.0, "LENGTH": 0.0, "PLAN_NAME": "", "AGAM_ID": 4000252277.0, "SHAPE_LEN": 4.70855419852}, "geometry": {"type": "LineString", "coordinates": [[34.8479575747191, 31.99329032191969], [34.84796261903226, 31.99332835970033], [34.84795774324197, 31.99332882937084]]}}, {"type": "Feature", "properties": {"OBJECTID": 19369659, "GROUP_ID": 134231, "LAYER_ID": 397682, "DEFQ": "", "MAVAT_CODE": 2407, "MAVAT_NAME": "שביל מרוצף", "LABEL": "", "NAME": "", "NUM": 0, "TYPE": "", "DATA_DATE": null, "HEIGHT": 0.0, "LENGTH": 0.0, "PLAN_NAME": "", "AGAM_ID": 4000252277.0, "SHAPE_LEN": 4.80797160822}, "geometry": {"type": "LineString", "coordinates": [[34.84796952397363, 31.99321691672481], [34.84796028821816, 31.993218005410796], [34.84796288128861, 31.99323756693489], [34.84794454469265, 31.993239333462096]]}}, {"type": "Feature", "properties": {"OBJECTID": 19369660, "GROUP_ID": 134231, "LAYER_ID": 397682, "DEFQ": "", "MAVAT_CODE": 2407, "MAVAT_NAME": "שביל מרוצף", "LABEL": "", "NAME": "", "NUM": 0, "TYPE": "", "DATA_DATE": null, "HEIGHT": 0.0, "LENGTH": 0.0, "PLAN_NAME": "", "AGAM_ID": 4000252277.0, "SHAPE_LEN": 11.163817911}, "geometry": {"type": "LineString", "coordinates": [[34.84797929995302, 31.99341870992565], [34.847947184503894, 31.99337758724023], [34.847932692662695, 31.993376373736787], [34.84792944616314, 31.993367346589338], [34.84789513619055, 31.99337065044908]]}}, {"type": "Feature", "properties": {"OBJECTID": 19369661, "GROUP_ID": 134231, "LAYER_ID": 397682, "DEFQ": "", "MAVAT_CODE": 2407, "MAVAT_NAME": "שביל מרוצף", "LABEL": "", "NAME": "", "NUM": 0, "TYPE": "", "DATA_DATE": null, "HEIGHT": 0.0, "LENGTH": 0.0, "PLAN_NAME": "", "AGAM_ID": 4000252277.0, "SHAPE_LEN": 2.66444443412}, "geometry": {"type": "LineString", "coordinates": [[34.847900906388865, 31.99341416060639], [34.84790337248045, 31.993438096419407]]}}, {"type": "Feature", "properties": {"OBJECTID": 19369662, "GROUP_ID": 134231, "LAYER_ID": 397682, "DEFQ": "", "MAVAT_CODE": 2412, "MAVAT_NAME": "מדרגות", "LABEL": "", "NAME": "", "NUM": 0, "TYPE": "", "DATA_DATE": null, "HEIGHT": 0.0, "LENGTH": 0.0, "PLAN_NAME": "", "AGAM_ID": 4000252277.0, "SHAPE_LEN": 0.576585986649}, "geometry": {"type": "LineString", "coordinates": [[34.847889678753994, 31.993444339454626], [34.84788914430405, 31.993439159801785]]}}, {"type": "Feature", "properties": {"OBJECTID": 19369663, "GROUP_ID": 134231, "LAYER_ID": 397682, "DEFQ": "", "MAVAT_CODE": 2412, "MAVAT_NAME": "מדרגות", "LABEL": "", "NAME": "", "NUM": 0, "TYPE": "", "DATA_DATE": null, "HEIGHT": 0.0, "LENGTH": 0.0, "PLAN_NAME": "", "AGAM_ID": 4000252277.0, "SHAPE_LEN": 0.936266393715}, "geometry": {"type": "LineString", "coordinates": [[34.84788914430405, 31.993439159801785], [34.84789901363743, 31.99343842099697]]}}, {"type": "Feature", "properties": {"OBJECTID": 19369664, "GROUP_ID": 134231, "LAYER_ID": 397682, "DEFQ": "", "MAVAT_CODE": 2412, "MAVAT_NAME": "מדרגות", "LABEL": "", "NAME": "", "NUM": 0, "TYPE": "", "DATA_DATE": null, "HEIGHT": 0.0, "LENGTH": 0.0, "PLAN_NAME": "", "AGAM_ID": 4000252277.0, "SHAPE_LEN": 0.936067219808}, "geometry": {"type": "LineString", "coordinates": [[34.847889678753994, 31.993444339454626], [34.84789954597158, 31.993443600643836]]}}, {"type": "Feature", "properties": {"OBJECTID": 19369665, "GROUP_ID": 134231, "LAYER_ID": 397682, "DEFQ": "", "MAVAT_CODE": 2412, "MAVAT_NAME": "מדרגות", "LABEL": "", "NAME": "", "NUM": 0, "TYPE": "", "DATA_DATE": null, "HEIGHT": 0.0, "LENGTH": 0.0, "PLAN_NAME": "", "AGAM_ID": 4000252277.0, "SHAPE_LEN": 0.936261855733}, "geometry": {"type": "LineString", "coordinates": [[34.84788941152728, 31.99344175007911], [34.84789928085916, 31.99344101172516]]}}, {"type": "Feature", "properties": {"OBJECTID": 19369666, "GROUP_ID": 134231, "LAYER_ID": 397682, "DEFQ": "", "MAVAT_CODE": 2412, "MAVAT_NAME": "מדרגות", "LABEL": "", "NAME": "", "NUM": 0, "TYPE": "", "DATA_DATE": null, "HEIGHT": 0.0, "LENGTH": 0.0, "PLAN_NAME": "", "AGAM_ID": 4000252277.0, "SHAPE_LEN": 0.576567845097}, "geometry": {"type": "LineString", "coordinates": [[34.84789954597158, 31.993443600643836], [34.84789901363743, 31.99343842099697]]}}, {"type": "Feature", "properties": {"OBJECTID": 19369667, "GROUP_ID": 134231, "LAYER_ID": 397682, "DEFQ": "", "MAVAT_CODE": 2412, "MAVAT_NAME": "מדרגות", "LABEL": "", "NAME": "", "NUM": 0, "TYPE": "", "DATA_DATE": null, "HEIGHT": 0.0, "LENGTH": 0.0, "PLAN_NAME": "", "AGAM_ID": 4000252277.0, "SHAPE_LEN": 1.72701955982}, "geometry": {"type": "LineString", "coordinates": [[34.847850457194745, 31.99334999988731], [34.84786861187231, 31.99334821663026]]}}, {"type": "Feature", "properties": {"OBJECTID": 19369668, "GROUP_ID": 134231, "LAYER_ID": 397682, "DEFQ": "", "MAVAT_CODE": 2412, "MAVAT_NAME": "מדרגות", "LABEL": "", "NAME": "", "NUM": 0, "TYPE": "", "DATA_DATE": null, "HEIGHT": 0.0, "LENGTH": 0.0, "PLAN_NAME": "", "AGAM_ID": 4000252277.0, "SHAPE_LEN": 1.70769997438}, "geometry": {"type": "LineString", "coordinates": [[34.84785143862133, 31.99335725719711], [34.84786939005704, 31.993355492757654]]}}, {"type": "Feature", "properties": {"OBJECTID": 19369669, "GROUP_ID": 134231, "LAYER_ID": 397682, "DEFQ": "", "MAVAT_CODE": 2412, "MAVAT_NAME": "מדרגות", "LABEL": "", "NAME": "", "NUM": 0, "TYPE": "", "DATA_DATE": null, "HEIGHT": 0.0, "LENGTH": 0.0, "PLAN_NAME": "", "AGAM_ID": 4000252277.0, "SHAPE_LEN": 0.809838749382}, "geometry": {"type": "LineString", "coordinates": [[34.8478676942089, 31.993355659335414], [34.84786671277234, 31.993348404280205]]}}, {"type": "Feature", "properties": {"OBJECTID": 19369670, "GROUP_ID": 134231, "LAYER_ID": 397682, "DEFQ": "", "MAVAT_CODE": 2412, "MAVAT_NAME": "מדרגות", "LABEL": "", "NAME": "", "NUM": 0, "TYPE": "", "DATA_DATE": null, "HEIGHT": 0.0, "LENGTH": 0.0, "PLAN_NAME": "", "AGAM_ID": 4000252277.0, "SHAPE_LEN": 0.810037357163}, "geometry": {"type": "LineString", "coordinates": [[34.847864645491676, 31.993355959186037], [34.8478636640623, 31.99334870232721]]}}, {"type": "Feature", "properties": {"OBJECTID": 19369671, "GROUP_ID": 134231, "LAYER_ID": 397682, "DEFQ": "", "MAVAT_CODE": 2412, "MAVAT_NAME": "מדרגות", "LABEL": "", "NAME": "", "NUM": 0, "TYPE": "", "DATA_DATE": null, "HEIGHT": 0.0, "LENGTH": 0.0, "PLAN_NAME": "", "AGAM_ID": 4000252277.0, "SHAPE_LEN": 0.810037357163}, "geometry": {"type": "LineString", "coordinates": [[34.84786159677442, 31.993356259036602], [34.84786061534528, 31.99334900217776]]}}, {"type": "Feature", "properties": {"OBJECTID": 19369672, "GROUP_ID": 134231, "LAYER_ID": 397682, "DEFQ": "", "MAVAT_CODE": 2412, "MAVAT_NAME": "מדרגות", "LABEL": "", "NAME": "", "NUM": 0, "TYPE": "", "DATA_DATE": null, "HEIGHT": 0.0, "LENGTH": 0.0, "PLAN_NAME": "", "AGAM_ID": 4000252277.0, "SHAPE_LEN": 0.810013827042}, "geometry": {"type": "LineString", "coordinates": [[34.84785854805715, 31.993356558887076], [34.84785756874459, 31.99334930203417]]}}, {"type": "Feature", "properties": {"OBJECTID": 19369673, "GROUP_ID": 134231, "LAYER_ID": 397682, "DEFQ": "", "MAVAT_CODE": 2412, "MAVAT_NAME": "מדרגות", "LABEL": "", "NAME": "", "NUM": 0, "TYPE": "", "DATA_DATE": null, "HEIGHT": 0.0, "LENGTH": 0.0, "PLAN_NAME": "", "AGAM_ID": 4000252277.0, "SHAPE_LEN": 0.809838749382}, "geometry": {"type": "LineString", "coordinates": [[34.84785549987591, 31.993356856935392], [34.84785451844027, 31.993349601880087]]}}, {"type": "Feature", "properties": {"OBJECTID": 19369674, "GROUP_ID": 134231, "LAYER_ID": 397682, "DEFQ": "", "MAVAT_CODE": 2412, "MAVAT_NAME": "מדרגות", "LABEL": "", "NAME": "", "NUM": 0, "TYPE": "", "DATA_DATE": null, "HEIGHT": 0.0, "LENGTH": 0.0, "PLAN_NAME": "", "AGAM_ID": 4000252277.0, "SHAPE_LEN": 0.810087009216}, "geometry": {"type": "LineString", "coordinates": [[34.847852452745855, 31.993357156790182], [34.847851471319174, 31.99334989948038]]}}, {"type": "Feature", "properties": {"OBJECTID": 19369675, "GROUP_ID": 134231, "LAYER_ID": 397682, "DEFQ": "", "MAVAT_CODE": 2412, "MAVAT_NAME": "מדרגות", "LABEL": "", "NAME": "", "NUM": 0, "TYPE": "", "DATA_DATE": null, "HEIGHT": 0.0, "LENGTH": 0.0, "PLAN_NAME": "", "AGAM_ID": 4000252277.0, "SHAPE_LEN": 0.810037357163}, "geometry": {"type": "LineString", "coordinates": [[34.847849404028516, 31.99335745664042], [34.847848422600336, 31.993350199781506]]}}, {"type": "Feature", "properties": {"OBJECTID": 19369676, "GROUP_ID": 134231, "LAYER_ID": 397682, "DEFQ": "", "MAVAT_CODE": 2412, "MAVAT_NAME": "מדרגות", "LABEL": "", "NAME": "", "NUM": 0, "TYPE": "", "DATA_DATE": null, "HEIGHT": 0.0, "LENGTH": 0.0, "PLAN_NAME": "", "AGAM_ID": 4000252277.0, "SHAPE_LEN": 0.810037357163}, "geometry": {"type": "LineString", "coordinates": [[34.84784635531118, 31.993357756490624], [34.847845373883224, 31.993350499631678]]}}, {"type": "Feature", "properties": {"OBJECTID": 19369677, "GROUP_ID": 134231, "LAYER_ID": 397682, "DEFQ": "", "MAVAT_CODE": 2412, "MAVAT_NAME": "מדרגות", "LABEL": "", "NAME": "", "NUM": 0, "TYPE": "", "DATA_DATE": null, "HEIGHT": 0.0, "LENGTH": 0.0, "PLAN_NAME": "", "AGAM_ID": 4000252277.0, "SHAPE_LEN": 0.809838749382}, "geometry": {"type": "LineString", "coordinates": [[34.847843306073436, 31.993358054084776], [34.84784232463875, 31.993350799029397]]}}, {"type": "Feature", "properties": {"OBJECTID": 19369678, "GROUP_ID": 134231, "LAYER_ID": 397682, "DEFQ": "", "MAVAT_CODE": 2412, "MAVAT_NAME": "מדרגות", "LABEL": "", "NAME": "", "NUM": 0, "TYPE": "", "DATA_DATE": null, "HEIGHT": 0.0, "LENGTH": 0.0, "PLAN_NAME": "", "AGAM_ID": 4000252277.0, "SHAPE_LEN": 0.809987705154}, "geometry": {"type": "LineString", "coordinates": [[34.847840257883384, 31.993358354387183], [34.84783927645418, 31.993351097979094]]}}, {"type": "Feature", "properties": {"OBJECTID": 19369679, "GROUP_ID": 134231, "LAYER_ID": 397682, "DEFQ": "", "MAVAT_CODE": 2602, "MAVAT_NAME": "גדר אבן/ קיר אבן/גדר/ בטון", "LABEL": "", "NAME": "", "NUM": 0, "TYPE": "", "DATA_DATE": null, "HEIGHT": 0.0, "LENGTH": 0.0, "PLAN_NAME": "", "AGAM_ID": 4000252277.0, "SHAPE_LEN": 2.738067174}, "geometry": {"type": "LineString", "coordinates": [[34.848121751401656, 31.9935086959481], [34.84812221442929, 31.993510456214366], [34.84811840217291, 31.993511181381784], [34.84811794126166, 31.99350942112146], [34.848115876287736, 31.993509814371315], [34.84811679811361, 31.99351333399022], [34.848124740314574, 31.9935118232247], [34.848123818488396, 31.993508303605875], [34.848121751401656, 31.9935086959481]]}}, {"type": "Feature", "properties": {"OBJECTID": 19369680, "GROUP_ID": 134231, "LAYER_ID": 397682, "DEFQ": "", "MAVAT_CODE": 2602, "MAVAT_NAME": "גדר אבן/ קיר אבן/גדר/ בטון", "LABEL": "", "NAME": "", "NUM": 0, "TYPE": "", "DATA_DATE": null, "HEIGHT": 0.0, "LENGTH": 0.0, "PLAN_NAME": "", "AGAM_ID": 4000252277.0, "SHAPE_LEN": 15.654012901}, "geometry": {"type": "LineString", "coordinates": [[34.84784030410676, 31.993538958550502], [34.847921449491956, 31.993530808335972], [34.8479212024551, 31.99352901756358], [34.84783994062739, 31.993537179174204]]}}, {"type": "Feature", "properties": {"OBJECTID": 19369681, "GROUP_ID": 134231, "LAYER_ID": 397682, "DEFQ": "", "MAVAT_CODE": 2602, "MAVAT_NAME": "גדר אבן/ קיר אבן/גדר/ בטון", "LABEL": "", "NAME": "", "NUM": 0, "TYPE": "", "DATA_DATE": null, "HEIGHT": 0.0, "LENGTH": 0.0, "PLAN_NAME": "", "AGAM_ID": 4000252277.0, "SHAPE_LEN": 3.70755411653}, "geometry": {"type": "LineString", "coordinates": [[34.84795878583091, 31.99352657058656], [34.847959043648565, 31.993529267700918], [34.84795214931143, 31.993529751540777], [34.847951888319464, 31.993527054417495], [34.847949780373845, 31.99352720360631], [34.847950213779505, 31.99353169715402], [34.847961327703054, 31.993530917201277], [34.8479608942986, 31.99352642320267], [34.84795878583091, 31.99352657058656]]}}, {"type": "Feature", "properties": {"OBJECTID": 19369682, "GROUP_ID": 134231, "LAYER_ID": 397682, "DEFQ": "", "MAVAT_CODE": 2602, "MAVAT_NAME": "גדר אבן/ קיר אבן/גדר/ בטון", "LABEL": "", "NAME": "", "NUM": 0, "TYPE": "", "DATA_DATE": null, "HEIGHT": 0.0, "LENGTH": 0.0, "PLAN_NAME": "", "AGAM_ID": 4000252277.0, "SHAPE_LEN": 33.9080250143}, "geometry": {"type": "LineString", "coordinates": [[34.84809111197447, 31.993510556460166], [34.84809136325074, 31.993512346342364], [34.84804924370039, 31.99351664690084], [34.84797479374244, 31.993524995913365], [34.84797058157278, 31.9935257001134], [34.84797241951913, 31.993533664586806], [34.847938637934554, 31.993539323196334], [34.84793602102547, 31.99352797612672], [34.847938096404356, 31.993527628900967], [34.847940306936394, 31.99353720684472], [34.847969934064, 31.993532241324335], [34.8479680982255, 31.993524279111337], [34.847974451959985, 31.993523214794777], [34.84804897972687, 31.993514856982905], [34.84809111197447, 31.993510556460166]]}}, {"type": "Feature", "properties": {"OBJECTID": 19369683, "GROUP_ID": 134231, "LAYER_ID": 397682, "DEFQ": "", "MAVAT_CODE": 2602, "MAVAT_NAME": "גדר אבן/ קיר אבן/גדר/ בטון", "LABEL": "", "NAME": "", "NUM": 0, "TYPE": "", "DATA_DATE": null, "HEIGHT": 0.0, "LENGTH": 0.0, "PLAN_NAME": "", "AGAM_ID": 4000252277.0, "SHAPE_LEN": 12.3459002736}, "geometry": {"type": "LineString", "coordinates": [[34.84774706469095, 31.993456205021484], [34.847810175053574, 31.993448290960103], [34.84781060770139, 31.993450790620372], [34.847747401532644, 31.99345871478342]]}}, {"type": "Feature", "properties": {"OBJECTID": 19369684, "GROUP_ID": 134231, "LAYER_ID": 397682, "DEFQ": "", "MAVAT_CODE": 2602, "MAVAT_NAME": "גדר אבן/ קיר אבן/גדר/ בטון", "LABEL": "", "NAME": "", "NUM": 0, "TYPE": "", "DATA_DATE": null, "HEIGHT": 0.0, "LENGTH": 0.0, "PLAN_NAME": "", "AGAM_ID": 4000252277.0, "SHAPE_LEN": 3.69484684241}, "geometry": {"type": "LineString", "coordinates": [[34.84783686422214, 31.993445077082583], [34.84783780841186, 31.9934495143506], [34.84783572414284, 31.99344983494657], [34.847835158791305, 31.99344717303993], [34.84782841838867, 31.993448213267026], [34.84782898374177, 31.993450874722814], [34.84782690211115, 31.993451197129648], [34.84782595845102, 31.993446759863037], [34.84783686422214, 31.993445077082583]]}}, {"type": "Feature", "properties": {"OBJECTID": 19369685, "GROUP_ID": 134231, "LAYER_ID": 397682, "DEFQ": "", "MAVAT_CODE": 2602, "MAVAT_NAME": "גדר אבן/ קיר אבן/גדר/ בטון", "LABEL": "", "NAME": "", "NUM": 0, "TYPE": "", "DATA_DATE": null, "HEIGHT": 0.0, "LENGTH": 0.0, "PLAN_NAME": "", "AGAM_ID": 4000252277.0, "SHAPE_LEN": 3.23733776564}, "geometry": {"type": "LineString", "coordinates": [[34.84792530272411, 31.993331953620462], [34.84792701720536, 31.993344888935567], [34.84793069892274, 31.993344534949877], [34.84792898232989, 31.993331598276175]]}}, {"type": "Feature", "properties": {"OBJECTID": 19369686, "GROUP_ID": 134231, "LAYER_ID": 397682, "DEFQ": "", "MAVAT_CODE": 2602, "MAVAT_NAME": "גדר אבן/ קיר אבן/גדר/ בטון", "LABEL": "", "NAME": "", "NUM": 0, "TYPE": "", "DATA_DATE": null, "HEIGHT": 0.0, "LENGTH": 0.0, "PLAN_NAME": "", "AGAM_ID": 4000252277.0, "SHAPE_LEN": 1.34194970289}, "geometry": {"type": "LineString", "coordinates": [[34.84796710975398, 31.993237160375713], [34.84797307667176, 31.993236378138644], [34.84797323565286, 31.993237270017236], [34.84796726873677, 31.993238051803417], [34.84796725762601, 31.993238051772195], [34.84796710975398, 31.993237160375713]]}}, {"type": "Feature", "properties": {"OBJECTID": 19369687, "GROUP_ID": 134231, "LAYER_ID": 397682, "DEFQ": "", "MAVAT_CODE": 2602, "MAVAT_NAME": "גדר אבן/ קיר אבן/גדר/ בטון", "LABEL": "", "NAME": "", "NUM": 0, "TYPE": "", "DATA_DATE": null, "HEIGHT": 0.0, "LENGTH": 0.0, "PLAN_NAME": "", "AGAM_ID": 4000252277.0, "SHAPE_LEN": 1.34104961531}, "geometry": {"type": "LineString", "coordinates": [[34.847967551683446, 31.993239860261816], [34.8479677133134, 31.993240751246056], [34.847973680231426, 31.99323996900896], [34.847973518603155, 31.993239077573847], [34.847967551683446, 31.993239860261816]]}}, {"type": "Feature", "properties": {"OBJECTID": 19369688, "GROUP_ID": 134231, "LAYER_ID": 397682, "DEFQ": "", "MAVAT_CODE": 2602, "MAVAT_NAME": "גדר אבן/ קיר אבן/גדר/ בטון", "LABEL": "", "NAME": "", "NUM": 0, "TYPE": "", "DATA_DATE": null, "HEIGHT": 0.0, "LENGTH": 0.0, "PLAN_NAME": "", "AGAM_ID": 4000252277.0, "SHAPE_LEN": 1.35822735713}, "geometry": {"type": "LineString", "coordinates": [[34.8479724627151, 31.99321659627217], [34.847974368629515, 31.99321615072416], [34.8479724540115, 31.993205713291857]]}}, {"type": "Feature", "properties": {"OBJECTID": 19369689, "GROUP_ID": 134231, "LAYER_ID": 397682, "DEFQ": "", "MAVAT_CODE": 2602, "MAVAT_NAME": "גדר אבן/ קיר אבן/גדר/ בטון", "LABEL": "", "NAME": "", "NUM": 0, "TYPE": "", "DATA_DATE": null, "HEIGHT": 0.0, "LENGTH": 0.0, "PLAN_NAME": "", "AGAM_ID": 4000252277.0, "SHAPE_LEN": 1.79086054233}, "geometry": {"type": "LineString", "coordinates": [[34.84796494961442, 31.993204703837215], [34.847963004980514, 31.993194093174303], [34.847969272726885, 31.993193231071075]]}}, {"type": "Feature", "properties": {"OBJECTID": 19369690, "GROUP_ID": 134231, "LAYER_ID": 397682, "DEFQ": "", "MAVAT_CODE": 2602, "MAVAT_NAME": "גדר אבן/ קיר אבן/גדר/ בטון", "LABEL": "", "NAME": "", "NUM": 0, "TYPE": "", "DATA_DATE": null, "HEIGHT": 0.0, "LENGTH": 0.0, "PLAN_NAME": "", "AGAM_ID": 4000252277.0, "SHAPE_LEN": 38.3969835999}, "geometry": {"type": "LineString", "coordinates": [[34.8480623080915, 31.993127449284028], [34.84807305742671, 31.993193038727846], [34.848077249738466, 31.99319254007956], [34.84807790931237, 31.99319656036483], [34.84807371752953, 31.99319705901463], [34.84808476207693, 31.993264436658837], [34.84809289846499, 31.993322174882202], [34.84810032900874, 31.993370893095122], [34.848108080148435, 31.993418800584976], [34.84816049235148, 31.993412640527314]]}}, {"type": "Feature", "properties": {"OBJECTID": 19369691, "GROUP_ID": 134231, "LAYER_ID": 397682, "DEFQ": "", "MAVAT_CODE": 2602, "MAVAT_NAME": "גדר אבן/ קיר אבן/גדר/ בטון", "LABEL": "", "NAME": "", "NUM": 0, "TYPE": "", "DATA_DATE": null, "HEIGHT": 0.0, "LENGTH": 0.0, "PLAN_NAME": "", "AGAM_ID": 4000252277.0, "SHAPE_LEN": 29.2034909376}, "geometry": {"type": "LineString", "coordinates": [[34.848160202966106, 31.99341085414547], [34.84810988691448, 31.993416767583717], [34.848102427246594, 31.993370653696253], [34.84809499876229, 31.993321949918084], [34.84808686081359, 31.99326420447604], [34.848076106775686, 31.99319859518119]]}}, {"type": "Feature", "properties": {"OBJECTID": 19369692, "GROUP_ID": 134231, "LAYER_ID": 397682, "DEFQ": "", "MAVAT_CODE": 2602, "MAVAT_NAME": "גדר אבן/ קיר אבן/גדר/ בטון", "LABEL": "", "NAME": "", "NUM": 0, "TYPE": "", "DATA_DATE": null, "HEIGHT": 0.0, "LENGTH": 0.0, "PLAN_NAME": "", "AGAM_ID": 4000252277.0, "SHAPE_LEN": 29.1701671587}, "geometry": {"type": "LineString", "coordinates": [[34.8479724627151, 31.99321659627217], [34.84796952397363, 31.99321691672481], [34.847969534841994, 31.993216979430635], [34.84797967582798, 31.993273224495788], [34.847988703081924, 31.993344795274773], [34.84798871135198, 31.99334484579896], [34.84799165062481, 31.99334452579829], [34.847982615126455, 31.993272897280963], [34.8479724627151, 31.99321659627217]]}}, {"type": "Feature", "properties": {"OBJECTID": 19369693, "GROUP_ID": 134231, "LAYER_ID": 397682, "DEFQ": "", "MAVAT_CODE": 2602, "MAVAT_NAME": "גדר אבן/ קיר אבן/גדר/ בטון", "LABEL": "", "NAME": "", "NUM": 0, "TYPE": "", "DATA_DATE": null, "HEIGHT": 0.0, "LENGTH": 0.0, "PLAN_NAME": "", "AGAM_ID": 4000252277.0, "SHAPE_LEN": 31.9663739345}, "geometry": {"type": "LineString", "coordinates": [[34.84799372214154, 31.99335598451149], [34.84799143449763, 31.993356358646995], [34.84799721941374, 31.993381982485822], [34.84799721908082, 31.993382130275197], [34.84799622559546, 31.993391453738727], [34.847993347457134, 31.99340048853534], [34.84798867211613, 31.993408960147224], [34.84798234162993, 31.99341661116854], [34.847974548347, 31.993423209126636], [34.84796552906229, 31.99342855354565], [34.847955557822395, 31.993432482037917], [34.84794493759879, 31.993434875237966], [34.847943091146206, 31.993435123382078], [34.847899013637424, 31.99343842099697], [34.84789921762477, 31.99344039832166], [34.847943356529235, 31.993437095468348], [34.84794533530163, 31.99343683039804], [34.847956347836806, 31.99343434879306], [34.847966687414754, 31.993430275182103], [34.8479760398722, 31.993424733340007], [34.847984121039225, 31.993417891653035], [34.84799068537369, 31.993409958002676], [34.84799553342177, 31.993401173449122], [34.847998517878395, 31.993391804906796], [34.847999548062894, 31.99338213703424], [34.8479995481445, 31.993381792433386], [34.84799372214154, 31.99335598451149]]}}, {"type": "Feature", "properties": {"OBJECTID": 19369694, "GROUP_ID": 134231, "LAYER_ID": 397682, "DEFQ": "", "MAVAT_CODE": 2602, "MAVAT_NAME": "גדר אבן/ קיר אבן/גדר/ בטון", "LABEL": "", "NAME": "", "NUM": 0, "TYPE": "", "DATA_DATE": null, "HEIGHT": 0.0, "LENGTH": 0.0, "PLAN_NAME": "", "AGAM_ID": 4000252277.0, "SHAPE_LEN": 7.14398478162}, "geometry": {"type": "LineString", "coordinates": [[34.84807486207969, 31.993191003917463], [34.8480644042494, 31.993127199058296]]}}, {"type": "Feature", "properties": {"OBJECTID": 19369695, "GROUP_ID": 134231, "LAYER_ID": 397682, "DEFQ": "", "MAVAT_CODE": 2602, "MAVAT_NAME": "גדר אבן/ קיר אבן/גדר/ בטון", "LABEL": "", "NAME": "", "NUM": 0, "TYPE": "", "DATA_DATE": null, "HEIGHT": 0.0, "LENGTH": 0.0, "PLAN_NAME": "", "AGAM_ID": 4000252277.0, "SHAPE_LEN": 25.1683273381}, "geometry": {"type": "LineString", "coordinates": [[34.84780109810565, 31.993220174737885], [34.84783374545509, 31.993445430392875]]}}, {"type": "Feature", "properties": {"OBJECTID": 19369696, "GROUP_ID": 134231, "LAYER_ID": 397682, "DEFQ": "", "MAVAT_CODE": 2602, "MAVAT_NAME": "גדר אבן/ קיר אבן/גדר/ בטון", "LABEL": "", "NAME": "", "NUM": 0, "TYPE": "", "DATA_DATE": null, "HEIGHT": 0.0, "LENGTH": 0.0, "PLAN_NAME": "", "AGAM_ID": 4000252277.0, "SHAPE_LEN": 25.1924644682}, "geometry": {"type": "LineString", "coordinates": [[34.84780369255367, 31.993219680626407], [34.84783637081876, 31.993445152349405]]}}, {"type": "Feature", "properties": {"OBJECTID": 19369697, "GROUP_ID": 134231, "LAYER_ID": 397682, "DEFQ": "", "MAVAT_CODE": 2602, "MAVAT_NAME": "גדר אבן/ קיר אבן/גדר/ בטון", "LABEL": "", "NAME": "", "NUM": 0, "TYPE": "", "DATA_DATE": null, "HEIGHT": 0.0, "LENGTH": 0.0, "PLAN_NAME": "", "AGAM_ID": 4000252277.0, "SHAPE_LEN": 4.98396592284}, "geometry": {"type": "LineString", "coordinates": [[34.847837143014424, 31.993446864788073], [34.847889423095594, 31.993440947958053]]}}, {"type": "Feature", "properties": {"OBJECTID": 19369698, "GROUP_ID": 134231, "LAYER_ID": 397682, "DEFQ": "", "MAVAT_CODE": 2602, "MAVAT_NAME": "גדר אבן/ קיר אבן/גדר/ בטון", "LABEL": "", "NAME": "", "NUM": 0, "TYPE": "", "DATA_DATE": null, "HEIGHT": 0.0, "LENGTH": 0.0, "PLAN_NAME": "", "AGAM_ID": 4000252277.0, "SHAPE_LEN": 4.98397266872}, "geometry": {"type": "LineString", "coordinates": [[34.84783686422214, 31.993445077082583], [34.84788914430405, 31.993439159801785]]}}, {"type": "Feature", "properties": {"OBJECTID": 19369699, "GROUP_ID": 134231, "LAYER_ID": 397682, "DEFQ": "", "MAVAT_CODE": 2602, "MAVAT_NAME": "גדר אבן/ קיר אבן/גדר/ בטון", "LABEL": "", "NAME": "", "NUM": 0, "TYPE": "", "DATA_DATE": null, "HEIGHT": 0.0, "LENGTH": 0.0, "PLAN_NAME": "", "AGAM_ID": 4000252277.0, "SHAPE_LEN": 0.099943108817}, "geometry": {"type": "LineString", "coordinates": [[34.84783927645418, 31.993351097979094], [34.84783915558218, 31.993350202600222]]}}, {"type": "Feature", "properties": {"OBJECTID": 19369700, "GROUP_ID": 134231, "LAYER_ID": 397682, "DEFQ": "", "MAVAT_CODE": 2602, "MAVAT_NAME": "גדר אבן/ קיר אבן/גדר/ בטון", "LABEL": "", "NAME": "", "NUM": 0, "TYPE": "", "DATA_DATE": null, "HEIGHT": 0.0, "LENGTH": 0.0, "PLAN_NAME": "", "AGAM_ID": 4000252277.0, "SHAPE_LEN": 0.100097952027}, "geometry": {"type": "LineString", "coordinates": [[34.84784037927925, 31.993359251120225], [34.847840257883384, 31.993358354387183]]}}, {"type": "Feature", "properties": {"OBJECTID": 19369701, "GROUP_ID": 134231, "LAYER_ID": 397682, "DEFQ": "", "MAVAT_CODE": 2602, "MAVAT_NAME": "גדר אבן/ קיר אבן/גדר/ בטון", "LABEL": "", "NAME": "", "NUM": 0, "TYPE": "", "DATA_DATE": null, "HEIGHT": 0.0, "LENGTH": 0.0, "PLAN_NAME": "", "AGAM_ID": 4000252277.0, "SHAPE_LEN": 1.06354495086}, "geometry": {"type": "LineString", "coordinates": [[34.84783915558218, 31.993350202600222], [34.84785033579181, 31.99334910495785]]}}, {"type": "Feature", "properties": {"OBJECTID": 19369702, "GROUP_ID": 134231, "LAYER_ID": 397682, "DEFQ": "", "MAVAT_CODE": 2602, "MAVAT_NAME": "גדר אבן/ קיר אבן/גדר/ בטון", "LABEL": "", "NAME": "", "NUM": 0, "TYPE": "", "DATA_DATE": null, "HEIGHT": 0.0, "LENGTH": 0.0, "PLAN_NAME": "", "AGAM_ID": 4000252277.0, "SHAPE_LEN": 1.06360049008}, "geometry": {"type": "LineString", "coordinates": [[34.84783927645418, 31.993351097979094], [34.847850457194745, 31.99334999988731]]}}, {"type": "Feature", "properties": {"OBJECTID": 19369703, "GROUP_ID": 134231, "LAYER_ID": 397682, "DEFQ": "", "MAVAT_CODE": 2602, "MAVAT_NAME": "גדר אבן/ קיר אבן/גדר/ בטון", "LABEL": "", "NAME": "", "NUM": 0, "TYPE": "", "DATA_DATE": null, "HEIGHT": 0.0, "LENGTH": 0.0, "PLAN_NAME": "", "AGAM_ID": 4000252277.0, "SHAPE_LEN": 1.06358871868}, "geometry": {"type": "LineString", "coordinates": [[34.847840257883384, 31.993358354387183], [34.84785143862133, 31.99335725719711]]}}, {"type": "Feature", "properties": {"OBJECTID": 19369704, "GROUP_ID": 134231, "LAYER_ID": 397682, "DEFQ": "", "MAVAT_CODE": 2602, "MAVAT_NAME": "גדר אבן/ קיר אבן/גדר/ בטון", "LABEL": "", "NAME": "", "NUM": 0, "TYPE": "", "DATA_DATE": null, "HEIGHT": 0.0, "LENGTH": 0.0, "PLAN_NAME": "", "AGAM_ID": 4000252277.0, "SHAPE_LEN": 1.06359460322}, "geometry": {"type": "LineString", "coordinates": [[34.84784037927925, 31.993359251120225], [34.847851560019045, 31.993358153479246]]}}, {"type": "Feature", "properties": {"OBJECTID": 19369705, "GROUP_ID": 134231, "LAYER_ID": 397682, "DEFQ": "", "MAVAT_CODE": 2602, "MAVAT_NAME": "גדר אבן/ קיר אבן/גדר/ בטון", "LABEL": "", "NAME": "", "NUM": 0, "TYPE": "", "DATA_DATE": null, "HEIGHT": 0.0, "LENGTH": 0.0, "PLAN_NAME": "", "AGAM_ID": 4000252277.0, "SHAPE_LEN": 0.100070774955}, "geometry": {"type": "LineString", "coordinates": [[34.8479677133134, 31.993240751246056], [34.84796756227384, 31.993239858037068]]}}, {"type": "Feature", "properties": {"OBJECTID": 19369706, "GROUP_ID": 134231, "LAYER_ID": 397682, "DEFQ": "", "MAVAT_CODE": 2602, "MAVAT_NAME": "גדר אבן/ קיר אבן/גדר/ בטון", "LABEL": "", "NAME": "", "NUM": 0, "TYPE": "", "DATA_DATE": null, "HEIGHT": 0.0, "LENGTH": 0.0, "PLAN_NAME": "", "AGAM_ID": 4000252277.0, "SHAPE_LEN": 2.60079193484}, "geometry": {"type": "LineString", "coordinates": [[34.8479914550422, 31.993342974148216], [34.84799195685989, 31.993342886579036], [34.847993404523294, 31.99334278273766], [34.84799485135215, 31.993342894708725], [34.84799625338521, 31.993343219089947], [34.847997568022514, 31.993343746025253], [34.847998755319416, 31.993344459503927], [34.847999779200535, 31.9933453378473], [34.848000608555736, 31.99334635436739], [34.8480012181855, 31.99334747817771], [34.84800158956652, 31.993348675131877], [34.84800171141456, 31.993349908861042], [34.84800158002733, 31.993351141878968], [34.84800119939693, 31.993352336721017], [34.848000581088655, 31.99335345708254], [34.84799974388943, 31.993354468921886], [34.847998713237175, 31.993355341494855], [34.84799752044771, 31.993356048288742], [34.84799620176335, 31.993356567827966], [34.84799479725165, 31.99335688432657], [34.84799394477427, 31.993356971709005]]}}, {"type": "Feature", "properties": {"OBJECTID": 19369707, "GROUP_ID": 134231, "LAYER_ID": 397682, "DEFQ": "", "MAVAT_CODE": 2602, "MAVAT_NAME": "גדר אבן/ קיר אבן/גדר/ בטון", "LABEL": "", "NAME": "", "NUM": 0, "TYPE": "", "DATA_DATE": null, "HEIGHT": 0.0, "LENGTH": 0.0, "PLAN_NAME": "", "AGAM_ID": 4000252277.0, "SHAPE_LEN": 3.209004494}, "geometry": {"type": "LineString", "coordinates": [[34.84799122498745, 31.99334116989656], [34.84799158128049, 31.993341111943675], [34.84799339654771, 31.993340981734004], [34.8479952107684, 31.993341122137732], [34.84799696881844, 31.993341528888788], [34.847998617280346, 31.993342189628272], [34.84800010606645, 31.99334308427991], [34.848001389940755, 31.993344185660227], [34.84800242989338, 31.993345460304297], [34.84800319432589, 31.993346869482725], [34.84800366001137, 31.993348370378357], [34.848003812800215, 31.993349917387228], [34.84800364804997, 31.993351463504265], [34.84800317076649, 31.99335296175144], [34.84800239545177, 31.993354366605356], [34.84800134566334, 31.99335563538017], [34.84800005329849, 31.993356729524795], [34.84799855762509, 31.993357615794213], [34.847996904088404, 31.99335826725957], [34.847995142930316, 31.99335866412639], [34.84799434633605, 31.993358754799075]]}}, {"type": "Feature", "properties": {"OBJECTID": 19369708, "GROUP_ID": 134231, "LAYER_ID": 397682, "DEFQ": "", "MAVAT_CODE": 2602, "MAVAT_NAME": "גדר אבן/ קיר אבן/גדר/ בטון", "LABEL": "", "NAME": "", "NUM": 0, "TYPE": "", "DATA_DATE": null, "HEIGHT": 0.0, "LENGTH": 0.0, "PLAN_NAME": "", "AGAM_ID": 4000252277.0, "SHAPE_LEN": 1.1925123731}, "geometry": {"type": "LineString", "coordinates": [[34.8479724627151, 31.99321659627217], [34.847970514432305, 31.993205971170315]]}}, {"type": "Feature", "properties": {"OBJECTID": 19369709, "GROUP_ID": 134231, "LAYER_ID": 397682, "DEFQ": "", "MAVAT_CODE": 2602, "MAVAT_NAME": "גדר אבן/ קיר אבן/גדר/ בטון", "LABEL": "", "NAME": "", "NUM": 0, "TYPE": "", "DATA_DATE": null, "HEIGHT": 0.0, "LENGTH": 0.0, "PLAN_NAME": "", "AGAM_ID": 4000252277.0, "SHAPE_LEN": 0.200090635713}, "geometry": {"type": "LineString", "coordinates": [[34.847967717216875, 31.993185019845676], [34.847965626737796, 31.993185306157876]]}}, {"type": "Feature", "properties": {"OBJECTID": 19369710, "GROUP_ID": 134231, "LAYER_ID": 397682, "DEFQ": "", "MAVAT_CODE": 2602, "MAVAT_NAME": "גדר אבן/ קיר אבן/גדר/ בטון", "LABEL": "", "NAME": "", "NUM": 0, "TYPE": "", "DATA_DATE": null, "HEIGHT": 0.0, "LENGTH": 0.0, "PLAN_NAME": "", "AGAM_ID": 4000252277.0, "SHAPE_LEN": 4.50491767544}, "geometry": {"type": "LineString", "coordinates": [[34.84796718277848, 31.99319351693388], [34.84795958568021, 31.99315341091178]]}}, {"type": "Feature", "properties": {"OBJECTID": 19369711, "GROUP_ID": 134231, "LAYER_ID": 397682, "DEFQ": "", "MAVAT_CODE": 2612, "MAVAT_NAME": "שער", "LABEL": "", "NAME": "", "NUM": 0, "TYPE": "", "DATA_DATE": null, "HEIGHT": 0.0, "LENGTH": 0.0, "PLAN_NAME": "", "AGAM_ID": 4000252277.0, "SHAPE_LEN": 1.28564380856}, "geometry": {"type": "LineString", "coordinates": [[34.84799165062481, 31.99334452579829], [34.84799372214154, 31.99335598451148]]}}, {"type": "Feature", "properties": {"OBJECTID": 19369712, "GROUP_ID": 134231, "LAYER_ID": 397682, "DEFQ": "", "MAVAT_CODE": 2612, "MAVAT_NAME": "שער", "LABEL": "", "NAME": "", "NUM": 0, "TYPE": "", "DATA_DATE": null, "HEIGHT": 0.0, "LENGTH": 0.0, "PLAN_NAME": "", "AGAM_ID": 4000252277.0, "SHAPE_LEN": 1.1846128492}, "geometry": {"type": "LineString", "coordinates": [[34.84796952397363, 31.99321691672481], [34.84796758864621, 31.993206361999913]]}}, {"type": "Feature", "properties": {"OBJECTID": 19369713, "GROUP_ID": 134231, "LAYER_ID": 397682, "DEFQ": "", "MAVAT_CODE": 4801, "MAVAT_NAME": "קו ביוב תת קרקעי", "LABEL": "", "NAME": "", "NUM": 0, "TYPE": "", "DATA_DATE": null, "HEIGHT": 0.0, "LENGTH": 0.0, "PLAN_NAME": "", "AGAM_ID": 4000252277.0, "SHAPE_LEN": 8.05509116274}, "geometry": {"type": "LineString", "coordinates": [[34.84801029829814, 31.993458111531115], [34.847926691768066, 31.99347225142633]]}}, {"type": "Feature", "properties": {"OBJECTID": 19369714, "GROUP_ID": 134231, "LAYER_ID": 397682, "DEFQ": "", "MAVAT_CODE": 4801, "MAVAT_NAME": "קו ביוב תת קרקעי", "LABEL": "", "NAME": "", "NUM": 0, "TYPE": "", "DATA_DATE": null, "HEIGHT": 0.0, "LENGTH": 0.0, "PLAN_NAME": "", "AGAM_ID": 4000252277.0, "SHAPE_LEN": 14.3377522486}, "geometry": {"type": "LineString", "coordinates": [[34.84794468517916, 31.993367029127356], [34.84797381764807, 31.99349392065679]]}}, {"type": "Feature", "properties": {"OBJECTID": 19369715, "GROUP_ID": 134231, "LAYER_ID": 397682, "DEFQ": "", "MAVAT_CODE": 4801, "MAVAT_NAME": "קו ביוב תת קרקעי", "LABEL": "", "NAME": "", "NUM": 0, "TYPE": "", "DATA_DATE": null, "HEIGHT": 0.0, "LENGTH": 0.0, "PLAN_NAME": "", "AGAM_ID": 4000252277.0, "SHAPE_LEN": 5.53321104107}, "geometry": {"type": "LineString", "coordinates": [[34.84788641201586, 31.993371884404375], [34.84794468517916, 31.993367029127356]]}}, {"type": "Feature", "properties": {"OBJECTID": 19369716, "GROUP_ID": 134231, "LAYER_ID": 397682, "DEFQ": "", "MAVAT_CODE": 4801, "MAVAT_NAME": "קו ביוב תת קרקעי", "LABEL": "", "NAME": "", "NUM": 0, "TYPE": "", "DATA_DATE": null, "HEIGHT": 0.0, "LENGTH": 0.0, "PLAN_NAME": "", "AGAM_ID": 4000252277.0, "SHAPE_LEN": 3.29106700061}, "geometry": {"type": "LineString", "coordinates": [[34.847978782440826, 31.993360992645286], [34.84794468517916, 31.993367029127356]]}}, {"type": "Feature", "properties": {"OBJECTID": 19369717, "GROUP_ID": 134231, "LAYER_ID": 397682, "DEFQ": "", "MAVAT_CODE": 2602, "MAVAT_NAME": "גדר אבן/ קיר אבן/גדר/ בטון", "LABEL": "", "NAME": "", "NUM": 0, "TYPE": "", "DATA_DATE": null, "HEIGHT": 0.0, "LENGTH": 0.0, "PLAN_NAME": "", "AGAM_ID": 4000252277.0, "SHAPE_LEN": 23.2314104615}, "geometry": {"type": "LineString", "coordinates": [[34.84786306759854, 31.99322005307713], [34.84790320080772, 31.99321493537682], [34.84798340544594, 31.99320425427396], [34.84798304689521, 31.993202294551256], [34.847902848614645, 31.993212973868157], [34.84786272387162, 31.993218091592155]]}}, {"type": "Feature", "properties": {"OBJECTID": 19369718, "GROUP_ID": 134231, "LAYER_ID": 397682, "DEFQ": "", "MAVAT_CODE": 2602, "MAVAT_NAME": "גדר אבן/ קיר אבן/גדר/ בטון", "LABEL": "", "NAME": "", "NUM": 0, "TYPE": "", "DATA_DATE": null, "HEIGHT": 0.0, "LENGTH": 0.0, "PLAN_NAME": "", "AGAM_ID": 4000252277.0, "SHAPE_LEN": 6.11781815829}, "geometry": {"type": "LineString", "coordinates": [[34.84796704112593, 31.99320442429143], [34.84796542031024, 31.993195587933307], [34.84796961081498, 31.993195009473972], [34.847961640344145, 31.99315294549123]]}}, {"type": "Feature", "properties": {"OBJECTID": 19369719, "GROUP_ID": 134231, "LAYER_ID": 397682, "DEFQ": "", "MAVAT_CODE": 2602, "MAVAT_NAME": "גדר אבן/ קיר אבן/גדר/ בטון", "LABEL": "", "NAME": "", "NUM": 0, "TYPE": "", "DATA_DATE": null, "HEIGHT": 0.0, "LENGTH": 0.0, "PLAN_NAME": "", "AGAM_ID": 4000252277.0, "SHAPE_LEN": 2.05000161139}, "geometry": {"type": "LineString", "coordinates": [[34.84807401061619, 31.99319884540712], [34.84808029908942, 31.99319809608193], [34.84807905439135, 31.993190505269137], [34.848072765927334, 31.99319125233978]]}}]}