{"type": "FeatureCollection", "features": [{"type": "Feature", "properties": {"OBJECTID": 886231, "LAYER_ID": 397675, "GROUP_ID": 134231, "SCENARIO": "", "DEFQ": 0, "PLAN_NAME": "", "DATA_DATE": null, "MAVAT_CODE": 30001, "MAVAT_NAME": "עברית ENTITY", "BLOCKNAME": "rozeta", "ROTATION": 78.82157461, "TYPE_CODE": 0, "TYPE_NAME": "", "SOURCE_COD": 0, "STATUS": "", "PL_CHANGE": "", "PLACE_NO": 0, "REMARKS": "", "VALUE1": "", "TAGNAME1": "185765.288020", "TAGNAME2": "655650.083554", "VALUE2": "", "TAGNAME3": "1", "VALUE3": "1.0000", "DATE_DEC": "", "STAGE": "", "NAME": "WIDTH", "LABEL": "10", "FONT_SIZE": 2.0, "AGAM_ID": 4000252277.0}, "geometry": {"type": "Point", "coordinates": [34.84796458926609, 31.993471207182264]}}, {"type": "Feature", "properties": {"OBJECTID": 886232, "LAYER_ID": 397675, "GROUP_ID": 134231, "SCENARIO": "", "DEFQ": 0, "PLAN_NAME": "", "DATA_DATE": null, "MAVAT_CODE": 30001, "MAVAT_NAME": "עברית ENTITY", "BLOCKNAME": "dim", "ROTATION": 352.08530528, "TYPE_CODE": 0, "TYPE_NAME": "", "SOURCE_COD": 0, "STATUS": "", "PL_CHANGE": "", "PLACE_NO": 0, "REMARKS": "", "VALUE1": "", "TAGNAME1": "185770.504096", "TAGNAME2": "655637.200630", "VALUE2": "", "TAGNAME3": "0", "VALUE3": "1.0000", "DATE_DEC": "", "STAGE": "", "NAME": "NUMBER", "LABEL": "2.7", "FONT_SIZE": 1.0, "AGAM_ID": 4000252277.0}, "geometry": {"type": "Point", "coordinates": [34.847994150631706, 31.993359560461094]}}, {"type": "Feature", "properties": {"OBJECTID": 886233, "LAYER_ID": 397675, "GROUP_ID": 134231, "SCENARIO": "", "DEFQ": 0, "PLAN_NAME": "", "DATA_DATE": null, "MAVAT_CODE": 30001, "MAVAT_NAME": "עברית ENTITY", "BLOCKNAME": "rozeta", "ROTATION": 78.82157461, "TYPE_CODE": 0, "TYPE_NAME": "", "SOURCE_COD": 0, "STATUS": "", "PL_CHANGE": "", "PLACE_NO": 0, "REMARKS": "", "VALUE1": "", "TAGNAME1": "185765.288020", "TAGNAME2": "655650.083554", "VALUE2": "", "TAGNAME3": "5", "VALUE3": "1.0000", "DATE_DEC": "", "STAGE": "", "NAME": "KBL", "LABEL": "3", "FONT_SIZE": 2.0, "AGAM_ID": 4000252277.0}, "geometry": {"type": "Point", "coordinates": [34.84792243926962, 31.99345602506694]}}, {"type": "Feature", "properties": {"OBJECTID": 886234, "LAYER_ID": 397675, "GROUP_ID": 134231, "SCENARIO": "", "DEFQ": 0, "PLAN_NAME": "", "DATA_DATE": null, "MAVAT_CODE": 30001, "MAVAT_NAME": "עברית ENTITY", "BLOCKNAME": "rozeta", "ROTATION": 348.4073847, "TYPE_CODE": 0, "TYPE_NAME": "", "SOURCE_COD": 0, "STATUS": "", "PL_CHANGE": "", "PLACE_NO": 0, "REMARKS": "", "VALUE1": "", "TAGNAME1": "185776.025198", "TAGNAME2": "655631.945768", "VALUE2": "", "TAGNAME3": "1", "VALUE3": "1.0000", "DATE_DEC": "", "STAGE": "", "NAME": "WIDTH", "LABEL": "10", "FONT_SIZE": 2.0, "AGAM_ID": 4000252277.0}, "geometry": {"type": "Point", "coordinates": [34.84803946686564, 31.99327672007371]}}, {"type": "Feature", "properties": {"OBJECTID": 886235, "LAYER_ID": 397675, "GROUP_ID": 134231, "SCENARIO": "", "DEFQ": 0, "PLAN_NAME": "", "DATA_DATE": null, "MAVAT_CODE": 30001, "MAVAT_NAME": "עברית ENTITY", "BLOCKNAME": "dim", "ROTATION": 82.40894713, "TYPE_CODE": 0, "TYPE_NAME": "", "SOURCE_COD": 0, "STATUS": "", "PL_CHANGE": "", "PLACE_NO": 0, "REMARKS": "", "VALUE1": "", "TAGNAME1": "185759.9091", "TAGNAME2": "655645.5256", "VALUE2": "", "TAGNAME3": "0", "VALUE3": "1.000000", "DATE_DEC": "", "STAGE": "", "NAME": "NUMBER", "LABEL": "3", "FONT_SIZE": 1.0, "AGAM_ID": 4000252277.0}, "geometry": {"type": "Point", "coordinates": [34.84786500638765, 31.993434447699908]}}, {"type": "Feature", "properties": {"OBJECTID": 886236, "LAYER_ID": 397675, "GROUP_ID": 134231, "SCENARIO": "", "DEFQ": 0, "PLAN_NAME": "", "DATA_DATE": null, "MAVAT_CODE": 30001, "MAVAT_NAME": "עברית ENTITY", "BLOCKNAME": "rozeta", "ROTATION": 78.82157461, "TYPE_CODE": 0, "TYPE_NAME": "", "SOURCE_COD": 0, "STATUS": "", "PL_CHANGE": "", "PLACE_NO": 0, "REMARKS": "", "VALUE1": "", "TAGNAME1": "185765.288020", "TAGNAME2": "655650.083554", "VALUE2": "", "TAGNAME3": "3", "VALUE3": "1.0000", "DATE_DEC": "", "STAGE": "", "NAME": "KBR", "LABEL": "3", "FONT_SIZE": 2.0, "AGAM_ID": 4000252277.0}, "geometry": {"type": "Point", "coordinates": [34.847929887293844, 31.993488712892244]}}, {"type": "Feature", "properties": {"OBJECTID": 886237, "LAYER_ID": 397675, "GROUP_ID": 134231, "SCENARIO": "", "DEFQ": 0, "PLAN_NAME": "", "DATA_DATE": null, "MAVAT_CODE": 30001, "MAVAT_NAME": "עברית ENTITY", "BLOCKNAME": "rozeta", "ROTATION": 348.4073847, "TYPE_CODE": 0, "TYPE_NAME": "", "SOURCE_COD": 0, "STATUS": "", "PL_CHANGE": "", "PLACE_NO": 0, "REMARKS": "", "VALUE1": "", "TAGNAME1": "185776.025198", "TAGNAME2": "655631.945768", "VALUE2": "", "TAGNAME3": "5", "VALUE3": "1.0000", "DATE_DEC": "", "STAGE": "", "NAME": "KBL", "LABEL": "2.7", "FONT_SIZE": 2.0, "AGAM_ID": 4000252277.0}, "geometry": {"type": "Point", "coordinates": [34.84802367803667, 31.99331250255302]}}, {"type": "Feature", "properties": {"OBJECTID": 886238, "LAYER_ID": 397675, "GROUP_ID": 134231, "SCENARIO": "", "DEFQ": 0, "PLAN_NAME": "", "DATA_DATE": null, "MAVAT_CODE": 30001, "MAVAT_NAME": "עברית ENTITY", "BLOCKNAME": "rozeta", "ROTATION": 348.4073847, "TYPE_CODE": 0, "TYPE_NAME": "", "SOURCE_COD": 0, "STATUS": "", "PL_CHANGE": "", "PLACE_NO": 0, "REMARKS": "", "VALUE1": "", "TAGNAME1": "185776.025198", "TAGNAME2": "655631.945768", "VALUE2": "", "TAGNAME3": "3", "VALUE3": "1.0000", "DATE_DEC": "", "STAGE": "", "NAME": "KBR", "LABEL": "3", "FONT_SIZE": 2.0, "AGAM_ID": 4000252277.0}, "geometry": {"type": "Point", "coordinates": [34.848060241453005, 31.993306168165596]}}, {"type": "Feature", "properties": {"OBJECTID": 886239, "LAYER_ID": 397675, "GROUP_ID": 134231, "SCENARIO": "", "DEFQ": 0, "PLAN_NAME": "", "DATA_DATE": null, "MAVAT_CODE": 30001, "MAVAT_NAME": "עברית ENTITY", "BLOCKNAME": "dim", "ROTATION": 82.86168813, "TYPE_CODE": 0, "TYPE_NAME": "", "SOURCE_COD": 0, "STATUS": "", "PL_CHANGE": "", "PLACE_NO": 0, "REMARKS": "", "VALUE1": "", "TAGNAME1": "185763.494721", "TAGNAME2": "655622.973742", "VALUE2": "", "TAGNAME3": "0", "VALUE3": "1.0000", "DATE_DEC": "", "STAGE": "", "NAME": "NUMBER", "LABEL": "3", "FONT_SIZE": 1.0, "AGAM_ID": 4000252277.0}, "geometry": {"type": "Point", "coordinates": [34.84790370951933, 31.99323114580893]}}, {"type": "Feature", "properties": {"OBJECTID": 886240, "LAYER_ID": 397675, "GROUP_ID": 134231, "SCENARIO": "", "DEFQ": 0, "PLAN_NAME": "", "DATA_DATE": null, "MAVAT_CODE": 30001, "MAVAT_NAME": "עברית ENTITY", "BLOCKNAME": "dim", "ROTATION": 352.08530528, "TYPE_CODE": 0, "TYPE_NAME": "", "SOURCE_COD": 0, "STATUS": "", "PL_CHANGE": "", "PLACE_NO": 0, "REMARKS": "", "VALUE1": "", "TAGNAME1": "185757.179930", "TAGNAME2": "655640.203248", "VALUE2": "", "TAGNAME3": "0", "VALUE3": "1.0000", "DATE_DEC": "", "STAGE": "", "NAME": "NUMBER", "LABEL": "2.7", "FONT_SIZE": 1.0, "AGAM_ID": 4000252277.0}, "geometry": {"type": "Point", "coordinates": [34.847853053437596, 31.993386241616516]}}]}