{"type": "FeatureCollection", "features": [{"type": "Feature", "properties": {"OBJECTID": 614273, "LAYER_ID": 397685, "GROUP_ID": 134231, "DEFQ": 0, "MAVAT_CODE": 22340, "MAVAT_NAME": "מלבן הדפסה", "PAGE_SIZE": 3, "SCALE": 250, "PAGE": 1, "PAGES": 1, "PLAN_NAME": "", "VER_ID": 4000276125.0, "AGAM_ID": 4000252277.0, "SHAPE_AREA": 3881.25, "SHAPE_LEN": 250.0}, "geometry": {"type": "Polygon", "coordinates": [[[34.847691250020404, 31.993695529059114], [34.848299698932045, 31.993697237994255], [34.84830205091152, 31.993088527730574], [34.84769360601845, 31.993086818835696], [34.847691250020404, 31.993695529059114]]]}}]}