{"type": "FeatureCollection", "features": [{"type": "Feature", "properties": {"OBJECTID": 1068337, "GROUP_ID": 134231, "LAYER_ID": 397683, "DEFQ": "", "MAVAT_CODE": 2200, "MAVAT_NAME": "מבנה / בית", "LABEL": "", "NAME": "", "NUM": 0, "TYPE": "", "STATUS": "", "POL_AREA": 0.0, "HEIGHT": 0.0, "PLAN_NAME": "", "DATA_DATE": "", "AGAM_ID": 4000252277.0, "SHAPE_AREA": 4.63228415, "SHAPE_LEN": 8.93825259321}, "geometry": {"type": "Polygon", "coordinates": [[[34.847865735689545, 31.9932327994395], [34.84786272387162, 31.993218091592155], [34.84783350817154, 31.993221219919334], [34.84783543034655, 31.993235717290897], [34.847865735689545, 31.9932327994395]]]}}, {"type": "Feature", "properties": {"OBJECTID": 1068338, "GROUP_ID": 134231, "LAYER_ID": 397683, "DEFQ": "", "MAVAT_CODE": 2200, "MAVAT_NAME": "מבנה / בית", "LABEL": "", "NAME": "", "NUM": 0, "TYPE": "", "STATUS": "", "POL_AREA": 0.0, "HEIGHT": 0.0, "PLAN_NAME": "", "DATA_DATE": "", "AGAM_ID": 4000252277.0, "SHAPE_AREA": 142.81423913, "SHAPE_LEN": 62.6338899809}, "geometry": {"type": "Polygon", "coordinates": [[[34.847900906388865, 31.99341416060639], [34.84789044812615, 31.993335310508115], [34.84795774324197, 31.99332882937084], [34.847952150365884, 31.993290902323544], [34.8479575747191, 31.99329032191969], [34.8479560394359, 31.99327688074598], [34.847950174699314, 31.993277508159174], [34.84794454469265, 31.993239333462096], [34.84791461249315, 31.993242216308495], [34.84791427937912, 31.993239699342976], [34.84788516863, 31.99324250332785], [34.847885563424484, 31.993245488051492], [34.847837343319604, 31.99325013167073], [34.84784613013696, 31.993316399183833], [34.84783309274112, 31.993317655735396], [34.847830664769205, 31.993318334283018], [34.847829418541764, 31.99332044280322], [34.84783220686139, 31.993338216152438], [34.847832862833826, 31.99333988272355], [34.84783433316093, 31.99334111691402], [34.84783629718543, 31.993341652692788], [34.84783801422462, 31.99334147896057], [34.847849158893865, 31.993340404665293], [34.84785968148256, 31.9934182093072], [34.847900906388865, 31.99341416060639]]]}}]}