<?xml version="1.0" encoding="UTF-8"?>
<kml xmlns="http://www.opengis.net/kml/2.2"
 xmlns:gx="http://www.google.com/kml/ext/2.2">
<Document>
  <Style id="Plan">
	<LabelStyle>		
<color>00000000</color>
			
<scale>0</scale>
		
</LabelStyle>
		
<LineStyle>
			
<color>ffff0000</color>
			
<width>3</width>
		
</LineStyle>
		
<PolyStyle>
			
<fill>0</fill>
		
</PolyStyle>

   <BalloonStyle>
    <text>


<![CDATA[<?xml version="1.0"?>
<table border="0"  width="560" cellpadding="2" cellspacing="2" dir="rtl" xmlns:fo="http://www.w3.org/1999/XSL/Format">
<tr>
<td align="center" colspan="2" height="20" style="border-bottom: Solid 1px #b4b5b4">
<font face="Arial" size="3" color="#b50027">
<b>פרטי גבול תכנית</b>
</font>
</td>
</tr>


<tr>
<td  align="right"><font face="Arial" size="3">מספר תכנית</font>
</td>
<td align="right" bgcolor="#efefef" height="20">
<font face="Arial" size="3" color="#202520">
<b>$[PL_NUMBER]</b>
</font>
</td>
</tr>

<tr>
<td  align="right"><font face="Arial" size="3">שם תכנית</font>
</td>
<td align="right" bgcolor="#efefef" height="20">
<font face="Arial" size="3" color="#202520">
<b>$[PL_NAME]</b>
</font>
</td>
</tr>

<tr>
<td  align="right"><font face="Arial" size="3">שטח התכנית</font>
</td>
<td align="right" bgcolor="#efefef" height="20">
<font face="Arial" size="3" color="#202520">
<b>$[PL_AREA]</b>
</font>
</td>
</tr>

<tr>
<td  align="right"><font face="Arial" size="3">קישור לתכנית</font>
</td>
<td align="right" bgcolor="#efefef" height="20">
<font face="Arial" size="3" color="#202520">
<b>$[PL_URL]</b>
</font>
</td>
</tr>


<tr>
<td  align="right"><font face="Arial" size="3">תאריך יצור הקובץ</font>
</td>
<td align="right" bgcolor="#efefef" height="20">
<font face="Arial" size="3" color="#202520">
<b>$[CREATE_DATE]</b>
</font>
</td>
</tr>

</table>]]> 

</text>
     </BalloonStyle>
  </Style>

  <Placemark>
   <name name="name"><value>גבול תכנית</value></name>
   <description/>   
   <styleUrl>#Plan</styleUrl>
<MultiGeometry>
<Polygon><outerBoundaryIs><LinearRing><coordinates>34.8371563322186,31.9992461725188,0 34.837003325545,31.9989195334916,0 34.8368503219017,31.998592894863,0 34.8366973173687,31.9982662577037,0 34.8365443158771,31.9979396181475,0 34.8364598716032,31.9977593433631,0 34.8363084292716,31.9974360286818,0 34.8361821489292,31.9971664330765,0 34.8356752571108,31.9972707581391,0 34.8352740854112,31.9973533216717,0 34.8349828580759,31.9974132572767,0 34.834581709088,31.9974958148009,0 34.834461907122,31.9975204691843,0 34.8342557456814,31.9967929694286,0 34.8348380392679,31.9956123071636,0 34.8351800922595,31.9949457686394,0 34.8354754771559,31.9943899806778,0 34.8354431828164,31.9942760090397,0 34.8345752368578,31.991212859131,0 34.8342788353541,31.9904309369246,0 34.8334865338558,31.9888910336177,0 34.8334334037631,31.9887877693794,0 34.8325978771554,31.9884320498958,0 34.8326857078997,31.9882924107768,0 34.8328072527658,31.9880991684608,0 34.8330095582046,31.9877775268928,0 34.8321841266263,31.9874461758445,0 34.8321109206127,31.9874051724577,0 34.8320603285449,31.9873768355101,0 34.8318594819394,31.9872643375159,0 34.8314174823119,31.9875001030325,0 34.8308299924404,31.9882440016321,0 34.8307172204865,31.9883867930894,0 34.830277487944,31.9889925227771,0 34.8299226855445,31.9894812536525,0 34.829759123165,31.9897065546566,0 34.8306903328167,31.9903542421939,0 34.830300236902,31.9908609781547,0 34.8301809863909,31.9908580835375,0 34.8301739198405,31.9908648586658,0 34.8301597560057,31.9908788106731,0 34.829653904376,31.9904787591187,0 34.8296106746745,31.9905364624808,0 34.8295094277378,31.9906716101669,0 34.8287378543469,31.9917015074167,0 34.8286112040946,31.991870559072,0 34.8287323587525,31.9919320024831,0 34.8286175148988,31.9920997994789,0 34.8287017044781,31.9921305154215,0 34.8287082847808,31.9921329694114,0 34.8287996561179,31.9921670525552,0 34.8288181710567,31.9921739589415,0 34.8288151862484,31.9921767330171,0 34.828853105965,31.9921908918677,0 34.8291424474083,31.9922989558738,0 34.8294314883474,31.9924069104328,0 34.8295021685766,31.9924333075887,0 34.8299263095846,31.9925917172001,0 34.8302399435786,31.9927088502555,0 34.8302822573161,31.9927246519607,0 34.8304211224886,31.9927765131794,0 34.8309159367224,31.9929613160746,0 34.8310856970282,31.9930247161584,0 34.8311423404218,31.9930458679725,0 34.8316024130644,31.9932176862658,0 34.8316655693423,31.9932412755266,0 34.8315523026111,31.9935731118333,0 34.831501628583,31.9937215706936,0 34.8314979231842,31.9937324354744,0 34.8313572082181,31.9941447222374,0 34.8312584287995,31.9944341170392,0 34.8312406147021,31.9944798129436,0 34.8312069654791,31.9945660868047,0 34.8311953404667,31.9945958950386,0 34.8311681681333,31.9946684099608,0 34.8311799389415,31.9947406789206,0 34.8311627674757,31.9948078754054,0 34.8310744359114,31.9951534651382,0 34.8310592961415,31.995212867098,0 34.831047575963,31.9952586442555,0 34.8310335981284,31.9953132521869,0 34.8310338190822,31.9953631221408,0 34.8310116940007,31.9955062002316,0 34.8309841572849,31.995684287552,0 34.8309650789211,31.9957493956316,0 34.8308821103743,31.996032533239,0 34.8308270376059,31.9962734672853,0 34.8307994467504,31.9963942005496,0 34.8307542309991,31.9965919944839,0 34.8307540217775,31.9966435765812,0 34.8307126616621,31.9968222819425,0 34.830709255227,31.996827231674,0 34.8306703236389,31.9969288403287,0 34.8305674114374,31.9972548986647,0 34.8304834899971,31.9974644095627,0 34.8304387116428,31.9975465216968,0 34.8304326614533,31.9976499621288,0 34.8302053576772,31.9976803913546,0 34.8298471480203,31.9976539935352,0 34.8298602250798,31.9978602556429,0 34.8301905240655,31.9978150765494,0 34.8304206330002,31.9977920416826,0 34.8304208689562,31.9978751847526,0 34.8304022066474,31.998066852003,0 34.8304011059487,31.9980772196853,0 34.8304000366578,31.9981581082803,0 34.8303818882897,31.9983014406807,0 34.8303528085704,31.9985306826636,0 34.8303395811591,31.9986347117064,0 34.8303202474677,31.9987570290543,0 34.8302864184777,31.9989830100665,0 34.8302855504364,31.9989882381269,0 34.8302710914672,31.9990829747561,0 34.8305644370669,31.9989979429802,0 34.8308995724206,31.998935385917,0 34.8311933145258,31.9988791323188,0 34.8315564495895,31.998801074773,0 34.8317313891625,31.9987651161541,0 34.8318992791801,31.9987306089599,0 34.8322262104762,31.9986634123913,0 34.8325570522057,31.9985954113039,0 34.8328684474835,31.9985314044962,0 34.8331754222056,31.9984645675268,0 34.8333814610748,31.9989680571952,0 34.8335353452882,31.998914750956,0 34.8337443824527,31.9988422530751,0 34.8337796623483,31.99883001584,0 34.8338320554019,31.9988118191757,0 34.8338780088569,31.9987958620573,0 34.8338918038044,31.9987907675028,0 34.8339058350335,31.9987861784196,0 34.833935231941,31.9987765373292,0 34.8339649935452,31.9987677433209,0 34.8339980641379,31.9987590998297,0 34.8340046172039,31.998757387374,0 34.8340066828499,31.9987568847906,0 34.8340321859994,31.9987506757414,0 34.8340349040019,31.9987500143615,0 34.8340962196375,31.9987377127367,0 34.8341355624327,31.9987315110186,0 34.8341666456725,31.9987271720168,0 34.8344237153231,31.9987198546452,0 34.8344607690795,31.9987229625129,0 34.8345005216458,31.9987290680237,0 34.8346323560422,31.9987509857816,0 34.8347840287017,31.9987069019961,0 34.8350168718559,31.998638855976,0 34.835061275499,31.9986256421504,0 34.835368948605,31.9985357262743,0 34.8354609035234,31.998701086452,0 34.8355373718662,31.9988385900937,0 34.8355950266931,31.9988170240407,0 34.8356944686195,31.999010226534,0 34.8357794199195,31.999175394908,0 34.8358488307775,31.9993101450297,0 34.8359564896613,31.9992750171398,0 34.836277662992,31.9991703486743,0 34.8363702107026,31.9993678409162,0 34.8364642700559,31.999568773691,0 34.8365585625227,31.999769508401,0 34.8366524946464,31.9999706382877,0 34.8367465969633,32.000171624937,0 34.836839986279,32.0003709229443,0 34.8369049392533,32.0005096275213,0 34.8369334078038,32.0005703382508,0 34.837027008417,32.0007699790921,0 34.8371204627458,32.0009693040318,0 34.8372172225294,32.0011757900575,0 34.8372449258991,32.0012347575273,0 34.8372448709495,32.0012347771628,0 34.837244887578,32.0012348135535,0 34.8372669442321,32.0012836193767,0 34.8374157376919,32.0012351780969,0 34.8379947092092,32.0010654069949,0 34.8380068678602,32.0010618583645,0 34.8379810034645,32.0010066458295,0 34.8379574640572,32.0009563948116,0 34.8379479421012,32.0009360690882,0 34.8379449158585,32.0009296111212,0 34.8379339227726,32.0009061432425,0 34.8379244014683,32.0008858158959,0 34.8379213771271,32.0008793596021,0 34.8377683650789,32.0005527215413,0 34.8376153560545,32.0002260855474,0 34.8374623461539,31.9998994476862,0 34.8373093373833,31.9995728090908,0 34.8371563322186,31.9992461725188,0 </coordinates></LinearRing></outerBoundaryIs></Polygon><Polygon><outerBoundaryIs><LinearRing><coordinates>34.8355877316107,31.979324779005,0 34.8353278981022,31.9791659591318,0 34.8347456575459,31.9801862111421,0 34.8352092352402,31.9824675147046,0 34.8352356402072,31.98259744913,0 34.8356184388001,31.9844791200108,0 34.835650643748,31.984637417075,0 34.8358801547908,31.9857655547421,0 34.8358896228288,31.9858120973811,0 34.8363248261051,31.9879512084536,0 34.8363383754775,31.9881311771711,0 34.8363439098694,31.9882046792586,0 34.8366063750635,31.991690620861,0 34.8375476381873,31.9938614838053,0 34.83758439659,31.9939462566938,0 34.8386055107977,31.9963011566763,0 34.8386353921605,31.9963700679208,0 34.8393890592554,31.9981080896729,0 34.8402917572892,32.0002389806149,0 34.8403816240696,32.0004511126677,0 34.8407070691132,32.001219317861,0 34.8410404416322,32.0013683581388,0 34.8412111681687,32.0014446850031,0 34.8416270271824,32.0009482018129,0 34.8420899376857,32.0006137936758,0 34.841953913695,32.0004381297333,0 34.8417315229099,32.0001509230712,0 34.8416147518956,32.0000001187746,0 34.8414681313644,31.9998107648733,0 34.8399592884497,31.9978620985165,0 34.8372904623052,31.9917073122474,0 34.8372351881798,31.991579830633,0 34.8372340285571,31.9915771583052,0 34.8369610905016,31.9879525591263,0 34.8369581446197,31.987913424835,0 34.8369507438838,31.9878768838031,0 34.8363542295918,31.9849313987456,0 34.8362279373744,31.9835735130999,0 34.8362099441358,31.983380047237,0 34.8360154866533,31.9812892000494,0 34.8358478849516,31.9794870135019,0 34.8355877316107,31.979324779005,0 </coordinates></LinearRing></outerBoundaryIs></Polygon>
</MultiGeometry>

   <ExtendedData>
  
    <Data name="PL_NUMBER"><value>455-0812289</value></Data>
	 <Data name="PL_NAME"><value>בית דגן שכונת האתרוג</value></Data>
	  <Data name="PL_AREA"><value>706.568</value></Data>
	   <Data name="PL_URL"><value>http://mavat.moin.gov.il/MavatPS/Forms/SV3.aspx?tid=3&amp;tnumb=455-0812289</value></Data>
	    <Data name="CREATE_DATE"><value>04/11/2024 14:58:57</value></Data>
   </ExtendedData>
  </Placemark>

</Document>
</kml>