{"type": "FeatureCollection", "features": [{"type": "Feature", "properties": {"OBJECTID": 27475010, "LAYER_ID": 7357138, "GROUP_ID": 441914, "SCENARIO": "", "DEFQ": 0, "PLAN_NAME": "", "DATA_DATE": null, "MAVAT_CODE": 30001, "MAVAT_NAME": "׳¢׳‘׳¨׳™׳× ENTITY", "BLOCKNAME": "DIM", "ROTATION": 90.70732166, "TYPE_CODE": 0, "TYPE_NAME": "DIM", "SOURCE_COD": 0, "STATUS": "", "PL_CHANGE": "", "PLACE_NO": 0, "REMARKS": "", "VALUE1": "", "TAGNAME1": "205073.844035507", "TAGNAME2": "627918.87000757", "VALUE2": "", "TAGNAME3": "", "VALUE3": "1", "DATE_DEC": "", "STAGE": "", "NAME": "DIM", "LABEL": "2.5", "FONT_SIZE": 1.0, "AGAM_ID": 4005328970.0}, "geometry": {"type": "Point", "coordinates": [34.85174716365823, 31.985988193219992]}}, {"type": "Feature", "properties": {"OBJECTID": 27475011, "LAYER_ID": 7357138, "GROUP_ID": 441914, "SCENARIO": "", "DEFQ": 0, "PLAN_NAME": "", "DATA_DATE": null, "MAVAT_CODE": 30001, "MAVAT_NAME": "׳¢׳‘׳¨׳™׳× ENTITY", "BLOCKNAME": "DIM", "ROTATION": 90.70732166, "TYPE_CODE": 0, "TYPE_NAME": "DIM", "SOURCE_COD": 0, "STATUS": "", "PL_CHANGE": "", "PLACE_NO": 0, "REMARKS": "", "VALUE1": "", "TAGNAME1": "205073.844035507", "TAGNAME2": "627918.87000757", "VALUE2": "", "TAGNAME3": "", "VALUE3": "1", "DATE_DEC": "", "STAGE": "", "NAME": "DIM", "LABEL": "5", "FONT_SIZE": 1.0, "AGAM_ID": 4005328970.0}, "geometry": {"type": "Point", "coordinates": [34.85171643420826, 31.98499976488016]}}, {"type": "Feature", "properties": {"OBJECTID": 27475012, "LAYER_ID": 7357138, "GROUP_ID": 441914, "SCENARIO": "", "DEFQ": 0, "PLAN_NAME": "", "DATA_DATE": null, "MAVAT_CODE": 30001, "MAVAT_NAME": "׳¢׳‘׳¨׳™׳× ENTITY", "BLOCKNAME": "DIM", "ROTATION": 90.70732166, "TYPE_CODE": 0, "TYPE_NAME": "DIM", "SOURCE_COD": 0, "STATUS": "", "PL_CHANGE": "", "PLACE_NO": 0, "REMARKS": "", "VALUE1": "", "TAGNAME1": "205073.844035507", "TAGNAME2": "627918.87000757", "VALUE2": "", "TAGNAME3": "", "VALUE3": "1", "DATE_DEC": "", "STAGE": "", "NAME": "DIM", "LABEL": "3", "FONT_SIZE": 1.0, "AGAM_ID": 4005328970.0}, "geometry": {"type": "Point", "coordinates": [34.85174758107732, 31.98596371400954]}}, {"type": "Feature", "properties": {"OBJECTID": 27475013, "LAYER_ID": 7357138, "GROUP_ID": 441914, "SCENARIO": "", "DEFQ": 0, "PLAN_NAME": "", "DATA_DATE": null, "MAVAT_CODE": 30001, "MAVAT_NAME": "׳¢׳‘׳¨׳™׳× ENTITY", "BLOCKNAME": "DIM", "ROTATION": 90.70732166, "TYPE_CODE": 0, "TYPE_NAME": "DIM", "SOURCE_COD": 0, "STATUS": "", "PL_CHANGE": "", "PLACE_NO": 0, "REMARKS": "", "VALUE1": "", "TAGNAME1": "205073.844035507", "TAGNAME2": "627918.87000757", "VALUE2": "", "TAGNAME3": "", "VALUE3": "1", "DATE_DEC": "", "STAGE": "", "NAME": "DIM", "LABEL": "5", "FONT_SIZE": 1.0, "AGAM_ID": 4005328970.0}, "geometry": {"type": "Point", "coordinates": [34.85153624614151, 31.986139400401793]}}, {"type": "Feature", "properties": {"OBJECTID": 27475014, "LAYER_ID": 7357138, "GROUP_ID": 441914, "SCENARIO": "", "DEFQ": 0, "PLAN_NAME": "", "DATA_DATE": null, "MAVAT_CODE": 30001, "MAVAT_NAME": "׳¢׳‘׳¨׳™׳× ENTITY", "BLOCKNAME": "DIM", "ROTATION": 90.70732166, "TYPE_CODE": 0, "TYPE_NAME": "DIM", "SOURCE_COD": 0, "STATUS": "", "PL_CHANGE": "", "PLACE_NO": 0, "REMARKS": "", "VALUE1": "", "TAGNAME1": "205073.844035507", "TAGNAME2": "627918.87000757", "VALUE2": "", "TAGNAME3": "", "VALUE3": "1", "DATE_DEC": "", "STAGE": "", "NAME": "DIM", "LABEL": "5", "FONT_SIZE": 1.0, "AGAM_ID": 4005328970.0}, "geometry": {"type": "Point", "coordinates": [34.85174915683847, 31.986134309034423]}}, {"type": "Feature", "properties": {"OBJECTID": 27475015, "LAYER_ID": 7357138, "GROUP_ID": 441914, "SCENARIO": "", "DEFQ": 0, "PLAN_NAME": "", "DATA_DATE": null, "MAVAT_CODE": 30001, "MAVAT_NAME": "׳¢׳‘׳¨׳™׳× ENTITY", "BLOCKNAME": "DIM", "ROTATION": 1.30548361, "TYPE_CODE": 0, "TYPE_NAME": "DIM", "SOURCE_COD": 0, "STATUS": "", "PL_CHANGE": "", "PLACE_NO": 0, "REMARKS": "", "VALUE1": "", "TAGNAME1": "205073.844035507", "TAGNAME2": "627918.87000757", "VALUE2": "", "TAGNAME3": "", "VALUE3": "1", "DATE_DEC": "", "STAGE": "", "NAME": "DIM", "LABEL": "3", "FONT_SIZE": 1.0, "AGAM_ID": 4005328970.0}, "geometry": {"type": "Point", "coordinates": [34.851449352695326, 31.98607152167398]}}, {"type": "Feature", "properties": {"OBJECTID": 27475016, "LAYER_ID": 7357138, "GROUP_ID": 441914, "SCENARIO": "", "DEFQ": 0, "PLAN_NAME": "", "DATA_DATE": null, "MAVAT_CODE": 30001, "MAVAT_NAME": "׳¢׳‘׳¨׳™׳× ENTITY", "BLOCKNAME": "DIM", "ROTATION": 1.30548361, "TYPE_CODE": 0, "TYPE_NAME": "DIM", "SOURCE_COD": 0, "STATUS": "", "PL_CHANGE": "", "PLACE_NO": 0, "REMARKS": "", "VALUE1": "", "TAGNAME1": "205073.844035507", "TAGNAME2": "627918.87000757", "VALUE2": "", "TAGNAME3": "", "VALUE3": "1", "DATE_DEC": "", "STAGE": "", "NAME": "DIM", "LABEL": "3", "FONT_SIZE": 1.0, "AGAM_ID": 4005328970.0}, "geometry": {"type": "Point", "coordinates": [34.85184056852988, 31.986074948358613]}}, {"type": "Feature", "properties": {"OBJECTID": 27475017, "LAYER_ID": 7357138, "GROUP_ID": 441914, "SCENARIO": "", "DEFQ": 0, "PLAN_NAME": "", "DATA_DATE": null, "MAVAT_CODE": 30001, "MAVAT_NAME": "׳¢׳‘׳¨׳™׳× ENTITY", "BLOCKNAME": "DIM", "ROTATION": 1.30548361, "TYPE_CODE": 0, "TYPE_NAME": "DIM", "SOURCE_COD": 0, "STATUS": "", "PL_CHANGE": "", "PLACE_NO": 0, "REMARKS": "", "VALUE1": "", "TAGNAME1": "205073.844035507", "TAGNAME2": "627918.87000757", "VALUE2": "", "TAGNAME3": "", "VALUE3": "1", "DATE_DEC": "", "STAGE": "", "NAME": "DIM", "LABEL": "3", "FONT_SIZE": 1.0, "AGAM_ID": 4005328970.0}, "geometry": {"type": "Point", "coordinates": [34.851858712169346, 31.985791222693738]}}, {"type": "Feature", "properties": {"OBJECTID": 27475018, "LAYER_ID": 7357138, "GROUP_ID": 441914, "SCENARIO": "", "DEFQ": 0, "PLAN_NAME": "", "DATA_DATE": null, "MAVAT_CODE": 30001, "MAVAT_NAME": "׳¢׳‘׳¨׳™׳× ENTITY", "BLOCKNAME": "DIM", "ROTATION": 1.30548361, "TYPE_CODE": 0, "TYPE_NAME": "DIM", "SOURCE_COD": 0, "STATUS": "", "PL_CHANGE": "", "PLACE_NO": 0, "REMARKS": "", "VALUE1": "", "TAGNAME1": "205073.844035507", "TAGNAME2": "627918.87000757", "VALUE2": "", "TAGNAME3": "", "VALUE3": "1", "DATE_DEC": "", "STAGE": "", "NAME": "DIM", "LABEL": "3", "FONT_SIZE": 1.0, "AGAM_ID": 4005328970.0}, "geometry": {"type": "Point", "coordinates": [34.85188244266695, 31.98537239342814]}}, {"type": "Feature", "properties": {"OBJECTID": 27475019, "LAYER_ID": 7357138, "GROUP_ID": 441914, "SCENARIO": "", "DEFQ": 0, "PLAN_NAME": "", "DATA_DATE": null, "MAVAT_CODE": 30001, "MAVAT_NAME": "׳¢׳‘׳¨׳™׳× ENTITY", "BLOCKNAME": "DIM", "ROTATION": 1.30548361, "TYPE_CODE": 0, "TYPE_NAME": "DIM", "SOURCE_COD": 0, "STATUS": "", "PL_CHANGE": "", "PLACE_NO": 0, "REMARKS": "", "VALUE1": "", "TAGNAME1": "205073.844035507", "TAGNAME2": "627918.87000757", "VALUE2": "", "TAGNAME3": "", "VALUE3": "1", "DATE_DEC": "", "STAGE": "", "NAME": "DIM", "LABEL": "3", "FONT_SIZE": 1.0, "AGAM_ID": 4005328970.0}, "geometry": {"type": "Point", "coordinates": [34.85149367119646, 31.985376884307396]}}, {"type": "Feature", "properties": {"OBJECTID": 27475020, "LAYER_ID": 7357138, "GROUP_ID": 441914, "SCENARIO": "", "DEFQ": 0, "PLAN_NAME": "", "DATA_DATE": null, "MAVAT_CODE": 30001, "MAVAT_NAME": "׳¢׳‘׳¨׳™׳× ENTITY", "BLOCKNAME": "DIM", "ROTATION": 1.30548361, "TYPE_CODE": 0, "TYPE_NAME": "DIM", "SOURCE_COD": 0, "STATUS": "", "PL_CHANGE": "", "PLACE_NO": 0, "REMARKS": "", "VALUE1": "", "TAGNAME1": "205073.844035507", "TAGNAME2": "627918.87000757", "VALUE2": "", "TAGNAME3": "", "VALUE3": "1", "DATE_DEC": "", "STAGE": "", "NAME": "DIM", "LABEL": "3", "FONT_SIZE": 1.0, "AGAM_ID": 4005328970.0}, "geometry": {"type": "Point", "coordinates": [34.851467229108664, 31.985778313759983]}}, {"type": "Feature", "properties": {"OBJECTID": 27475021, "LAYER_ID": 7357138, "GROUP_ID": 441914, "SCENARIO": "", "DEFQ": 0, "PLAN_NAME": "", "DATA_DATE": null, "MAVAT_CODE": 30001, "MAVAT_NAME": "׳¢׳‘׳¨׳™׳× ENTITY", "BLOCKNAME": "DIM", "ROTATION": 1.30548361, "TYPE_CODE": 0, "TYPE_NAME": "DIM", "SOURCE_COD": 0, "STATUS": "", "PL_CHANGE": "", "PLACE_NO": 0, "REMARKS": "", "VALUE1": "", "TAGNAME1": "205073.844035507", "TAGNAME2": "627918.87000757", "VALUE2": "", "TAGNAME3": "", "VALUE3": "1", "DATE_DEC": "", "STAGE": "", "NAME": "DIM", "LABEL": "2.5", "FONT_SIZE": 1.0, "AGAM_ID": 4005328970.0}, "geometry": {"type": "Point", "coordinates": [34.851479294377924, 31.986072158648717]}}, {"type": "Feature", "properties": {"OBJECTID": 27475022, "LAYER_ID": 7357138, "GROUP_ID": 441914, "SCENARIO": "", "DEFQ": 0, "PLAN_NAME": "", "DATA_DATE": null, "MAVAT_CODE": 30001, "MAVAT_NAME": "׳¢׳‘׳¨׳™׳× ENTITY", "BLOCKNAME": "DIM", "ROTATION": 1.30548361, "TYPE_CODE": 0, "TYPE_NAME": "DIM", "SOURCE_COD": 0, "STATUS": "", "PL_CHANGE": "", "PLACE_NO": 0, "REMARKS": "", "VALUE1": "", "TAGNAME1": "205073.844035507", "TAGNAME2": "627918.87000757", "VALUE2": "", "TAGNAME3": "", "VALUE3": "1", "DATE_DEC": "", "STAGE": "", "NAME": "DIM", "LABEL": "2.5", "FONT_SIZE": 1.0, "AGAM_ID": 4005328970.0}, "geometry": {"type": "Point", "coordinates": [34.851655776111016, 31.98607388116092]}}, {"type": "Feature", "properties": {"OBJECTID": 27475023, "LAYER_ID": 7357138, "GROUP_ID": 441914, "SCENARIO": "", "DEFQ": 0, "PLAN_NAME": "", "DATA_DATE": null, "MAVAT_CODE": 30001, "MAVAT_NAME": "׳¢׳‘׳¨׳™׳× ENTITY", "BLOCKNAME": "DIM", "ROTATION": 1.30548361, "TYPE_CODE": 0, "TYPE_NAME": "DIM", "SOURCE_COD": 0, "STATUS": "", "PL_CHANGE": "", "PLACE_NO": 0, "REMARKS": "", "VALUE1": "", "TAGNAME1": "205073.844035507", "TAGNAME2": "627918.87000757", "VALUE2": "", "TAGNAME3": "", "VALUE3": "1", "DATE_DEC": "", "STAGE": "", "NAME": "DIM", "LABEL": "2.5", "FONT_SIZE": 1.0, "AGAM_ID": 4005328970.0}, "geometry": {"type": "Point", "coordinates": [34.851682225414436, 31.98607413864117]}}, {"type": "Feature", "properties": {"OBJECTID": 27475024, "LAYER_ID": 7357138, "GROUP_ID": 441914, "SCENARIO": "", "DEFQ": 0, "PLAN_NAME": "", "DATA_DATE": null, "MAVAT_CODE": 30001, "MAVAT_NAME": "׳¢׳‘׳¨׳™׳× ENTITY", "BLOCKNAME": "DIM", "ROTATION": 90.70732166, "TYPE_CODE": 0, "TYPE_NAME": "DIM", "SOURCE_COD": 0, "STATUS": "", "PL_CHANGE": "", "PLACE_NO": 0, "REMARKS": "", "VALUE1": "", "TAGNAME1": "205073.844035507", "TAGNAME2": "627918.87000757", "VALUE2": "", "TAGNAME3": "", "VALUE3": "1", "DATE_DEC": "", "STAGE": "", "NAME": "DIM", "LABEL": "2.5", "FONT_SIZE": 1.0, "AGAM_ID": 4005328970.0}, "geometry": {"type": "Point", "coordinates": [34.85153523250387, 31.985934282276396]}}, {"type": "Feature", "properties": {"OBJECTID": 27475025, "LAYER_ID": 7357138, "GROUP_ID": 441914, "SCENARIO": "", "DEFQ": 0, "PLAN_NAME": "", "DATA_DATE": null, "MAVAT_CODE": 30001, "MAVAT_NAME": "׳¢׳‘׳¨׳™׳× ENTITY", "BLOCKNAME": "DIM", "ROTATION": 90.70732166, "TYPE_CODE": 0, "TYPE_NAME": "DIM", "SOURCE_COD": 0, "STATUS": "", "PL_CHANGE": "", "PLACE_NO": 0, "REMARKS": "", "VALUE1": "", "TAGNAME1": "205073.844035507", "TAGNAME2": "627918.87000757", "VALUE2": "", "TAGNAME3": "", "VALUE3": "1", "DATE_DEC": "", "STAGE": "", "NAME": "DIM", "LABEL": "3", "FONT_SIZE": 1.0, "AGAM_ID": 4005328970.0}, "geometry": {"type": "Point", "coordinates": [34.85153564997883, 31.985909803066853]}}]}