{"type": "FeatureCollection", "features": [{"type": "Feature", "properties": {"OBJECTID": 22646027, "LAYER_ID": 7357134, "GROUP_ID": 441914, "SCENARIO": "", "DEFQ": 0, "PLAN_NAME": "", "DATA_DATE": null, "MAVAT_CODE": 660, "MAVAT_NAME": "", "NAME": "", "LABEL": "", "NUM": "1022", "LEGAL_AREA": 0.0, "TYPE_CODE": 0, "TYPE_NAME": "", "SOURCE_COD": 0, "HASAVA": 0, "STATUS": "", "PL_CHANGE": "", "ADDRESS": "", "PLACE_NO": 0, "CALC_AREA": 0.0, "OLD_MIG": "", "AGAM_ID": 4005328970.0, "FONT_SIZE": 3.41, "ROTATION": 0.0}, "geometry": {"type": "Point", "coordinates": [34.8516995589029, 31.985273824940485]}}, {"type": "Feature", "properties": {"OBJECTID": 22646028, "LAYER_ID": 7357134, "GROUP_ID": 441914, "SCENARIO": "", "DEFQ": 0, "PLAN_NAME": "", "DATA_DATE": null, "MAVAT_CODE": 20, "MAVAT_NAME": "", "NAME": "", "LABEL": "", "NUM": "22B", "LEGAL_AREA": 0.0, "TYPE_CODE": 0, "TYPE_NAME": "", "SOURCE_COD": 0, "HASAVA": 0, "STATUS": "", "PL_CHANGE": "", "ADDRESS": "", "PLACE_NO": 0, "CALC_AREA": 0.0, "OLD_MIG": "", "AGAM_ID": 4005328970.0, "FONT_SIZE": 2.06, "ROTATION": 0.0}, "geometry": {"type": "Point", "coordinates": [34.85156092112966, 31.9860619499397]}}, {"type": "Feature", "properties": {"OBJECTID": 22646029, "LAYER_ID": 7357134, "GROUP_ID": 441914, "SCENARIO": "", "DEFQ": 0, "PLAN_NAME": "", "DATA_DATE": null, "MAVAT_CODE": 20, "MAVAT_NAME": "", "NAME": "", "LABEL": "", "NUM": "22C", "LEGAL_AREA": 0.0, "TYPE_CODE": 0, "TYPE_NAME": "", "SOURCE_COD": 0, "HASAVA": 0, "STATUS": "", "PL_CHANGE": "", "ADDRESS": "", "PLACE_NO": 0, "CALC_AREA": 0.0, "OLD_MIG": "", "AGAM_ID": 4005328970.0, "FONT_SIZE": 2.31, "ROTATION": 0.0}, "geometry": {"type": "Point", "coordinates": [34.85176384447816, 31.986067041003817]}}, {"type": "Feature", "properties": {"OBJECTID": 22646030, "LAYER_ID": 7357134, "GROUP_ID": 441914, "SCENARIO": "", "DEFQ": 0, "PLAN_NAME": "", "DATA_DATE": null, "MAVAT_CODE": 160, "MAVAT_NAME": "", "NAME": "", "LABEL": "", "NUM": "22A", "LEGAL_AREA": 0.0, "TYPE_CODE": 0, "TYPE_NAME": "", "SOURCE_COD": 0, "HASAVA": 0, "STATUS": "", "PL_CHANGE": "", "ADDRESS": "", "PLACE_NO": 0, "CALC_AREA": 0.0, "OLD_MIG": "", "AGAM_ID": 4005328970.0, "FONT_SIZE": 2.86, "ROTATION": 0.0}, "geometry": {"type": "Point", "coordinates": [34.85166675142222, 31.98577834721997]}}]}