{"type": "FeatureCollection", "features": [{"type": "Feature", "properties": {"OBJECTID": 3537489, "LAYER_ID": 1659402, "GROUP_ID": 215776, "DEFQ": 0, "DATA_DATE": null, "MAVAT_CODE": 0, "MAVAT_NAME": "", "LABEL": "", "LOT_NUM": 6261, "GUSH_SUFFI": 0, "CALC_AREA": 0.0, "LEGAL_AREA": 0.0, "TYPE_CODE": 0, "STATUS": 6, "IS_ANALITY": 0, "PLAN_NAME": "", "STATUS_NAM": "", "AGAM_ID": 4000426053.0, "FONT_SIZE": 8.0, "ROTATION": 0.0}, "geometry": {"type": "Point", "coordinates": [34.84984447493409, 31.98651387758093]}}]}