{"type": "FeatureCollection", "features": [{"type": "Feature", "properties": {"OBJECTID": 21476689, "LAYER_ID": 1659401, "GROUP_ID": 215776, "DEFQ": 0, "DATA_DATE": null, "MAVAT_CODE": 0, "MAVAT_NAME": "", "TYPE_CODE": 0, "LABEL": "", "LOT_NUM": 6261, "GUSH_SUFFI": 0, "PARCEL_NUM": 7, "CALC_AREA": 0.0, "LEGAL_AREA": 0.0, "IS_ANALITY": 0, "STATUS": 0, "PLAN_NAME": "", "AGAM_ID": 4000426053.0, "FONT_SIZE": 6.25, "ROTATION": 0.0}, "geometry": {"type": "Point", "coordinates": [34.85034359732579, 31.98808330568236]}}, {"type": "Feature", "properties": {"OBJECTID": 21476690, "LAYER_ID": 1659401, "GROUP_ID": 215776, "DEFQ": 0, "DATA_DATE": null, "MAVAT_CODE": 0, "MAVAT_NAME": "", "TYPE_CODE": 0, "LABEL": "", "LOT_NUM": 6261, "GUSH_SUFFI": 0, "PARCEL_NUM": 27, "CALC_AREA": 0.0, "LEGAL_AREA": 0.0, "IS_ANALITY": 0, "STATUS": 0, "PLAN_NAME": "", "AGAM_ID": 4000426053.0, "FONT_SIZE": 6.25, "ROTATION": 0.0}, "geometry": {"type": "Point", "coordinates": [34.85156415182662, 31.987885592001792]}}, {"type": "Feature", "properties": {"OBJECTID": 21476691, "LAYER_ID": 1659401, "GROUP_ID": 215776, "DEFQ": 0, "DATA_DATE": null, "MAVAT_CODE": 0, "MAVAT_NAME": "", "TYPE_CODE": 0, "LABEL": "", "LOT_NUM": 6261, "GUSH_SUFFI": 0, "PARCEL_NUM": 6, "CALC_AREA": 0.0, "LEGAL_AREA": 0.0, "IS_ANALITY": 0, "STATUS": 0, "PLAN_NAME": "", "AGAM_ID": 4000426053.0, "FONT_SIZE": 6.25, "ROTATION": 0.0}, "geometry": {"type": "Point", "coordinates": [34.85064449687717, 31.989105642929758]}}, {"type": "Feature", "properties": {"OBJECTID": 21476692, "LAYER_ID": 1659401, "GROUP_ID": 215776, "DEFQ": 0, "DATA_DATE": null, "MAVAT_CODE": 0, "MAVAT_NAME": "", "TYPE_CODE": 0, "LABEL": "", "LOT_NUM": 6261, "GUSH_SUFFI": 0, "PARCEL_NUM": 28, "CALC_AREA": 0.0, "LEGAL_AREA": 0.0, "IS_ANALITY": 0, "STATUS": 0, "PLAN_NAME": "", "AGAM_ID": 4000426053.0, "FONT_SIZE": 6.25, "ROTATION": 0.0}, "geometry": {"type": "Point", "coordinates": [34.85163265455506, 31.988815646581287]}}, {"type": "Feature", "properties": {"OBJECTID": 21476693, "LAYER_ID": 1659401, "GROUP_ID": 215776, "DEFQ": 0, "DATA_DATE": null, "MAVAT_CODE": 0, "MAVAT_NAME": "", "TYPE_CODE": 0, "LABEL": "", "LOT_NUM": 6261, "GUSH_SUFFI": 0, "PARCEL_NUM": 5, "CALC_AREA": 0.0, "LEGAL_AREA": 0.0, "IS_ANALITY": 0, "STATUS": 0, "PLAN_NAME": "", "AGAM_ID": 4000426053.0, "FONT_SIZE": 6.25, "ROTATION": 0.0}, "geometry": {"type": "Point", "coordinates": [34.850203371830645, 31.989046933342838]}}, {"type": "Feature", "properties": {"OBJECTID": 21476694, "LAYER_ID": 1659401, "GROUP_ID": 215776, "DEFQ": 0, "DATA_DATE": null, "MAVAT_CODE": 0, "MAVAT_NAME": "", "TYPE_CODE": 0, "LABEL": "", "LOT_NUM": 6261, "GUSH_SUFFI": 0, "PARCEL_NUM": 12, "CALC_AREA": 0.0, "LEGAL_AREA": 0.0, "IS_ANALITY": 0, "STATUS": 0, "PLAN_NAME": "", "AGAM_ID": 4000426053.0, "FONT_SIZE": 6.25, "ROTATION": 0.0}, "geometry": {"type": "Point", "coordinates": [34.849544424738106, 31.987572750306963]}}, {"type": "Feature", "properties": {"OBJECTID": 21476695, "LAYER_ID": 1659401, "GROUP_ID": 215776, "DEFQ": 0, "DATA_DATE": null, "MAVAT_CODE": 0, "MAVAT_NAME": "", "TYPE_CODE": 0, "LABEL": "", "LOT_NUM": 6261, "GUSH_SUFFI": 0, "PARCEL_NUM": 45, "CALC_AREA": 0.0, "LEGAL_AREA": 0.0, "IS_ANALITY": 0, "STATUS": 0, "PLAN_NAME": "", "AGAM_ID": 4000426053.0, "FONT_SIZE": 3.125, "ROTATION": 0.0}, "geometry": {"type": "Point", "coordinates": [34.85062589152053, 31.987237248790446]}}, {"type": "Feature", "properties": {"OBJECTID": 21476696, "LAYER_ID": 1659401, "GROUP_ID": 215776, "DEFQ": 0, "DATA_DATE": null, "MAVAT_CODE": 0, "MAVAT_NAME": "", "TYPE_CODE": 0, "LABEL": "", "LOT_NUM": 6261, "GUSH_SUFFI": 0, "PARCEL_NUM": 8, "CALC_AREA": 0.0, "LEGAL_AREA": 0.0, "IS_ANALITY": 0, "STATUS": 0, "PLAN_NAME": "", "AGAM_ID": 4000426053.0, "FONT_SIZE": 6.25, "ROTATION": 0.0}, "geometry": {"type": "Point", "coordinates": [34.84957799647862, 31.988293540354167]}}]}