{"type": "FeatureCollection", "features": [{"type": "Feature", "properties": {"OBJECTID": 7208374, "LAYER_ID": 1659390, "GROUP_ID": 215776, "SCENARIO": "", "DEFQ": 0, "PLAN_NAME": "", "DATA_DATE": null, "MAVAT_CODE": 680, "MAVAT_NAME": "שטח פרטי פתוח", "NAME": "", "LABEL": "", "NUM": "601", "LEGAL_AREA": 0.0, "TYPE_CODE": 0, "TYPE_NAME": "", "SOURCE_COD": 0, "HASAVA": 0, "STATUS": "", "PL_CHANGE": "", "ADDRESS": "", "PLACE_NO": 0, "CALC_AREA": 0.0, "OLD_MIG": "", "AGAM_ID": 4000426053.0, "SHAPE_AREA": 9899.64947156, "SHAPE_LEN": 564.854640216}, "geometry": {"type": "Polygon", "coordinates": [[[34.85081104741699, 31.988217228201243], [34.85037323236301, 31.987425582113886], [34.850315804684755, 31.98744865055797], [34.85040528371099, 31.987610445685814], [34.84972579158087, 31.987874192788524], [34.85055522378716, 31.989394697998808], [34.85090134590298, 31.989234104529878], [34.85040364344379, 31.98838088801297], [34.85081104741699, 31.988217228201243]]]}}, {"type": "Feature", "properties": {"OBJECTID": 7208375, "LAYER_ID": 1659390, "GROUP_ID": 215776, "SCENARIO": "", "DEFQ": 0, "PLAN_NAME": "", "DATA_DATE": null, "MAVAT_CODE": 400, "MAVAT_NAME": "מבנים ומוסדות ציבור", "NAME": "", "LABEL": "", "NUM": "401", "LEGAL_AREA": 0.0, "TYPE_CODE": 0, "TYPE_NAME": "", "SOURCE_COD": 0, "HASAVA": 0, "STATUS": "", "PL_CHANGE": "", "ADDRESS": "", "PLACE_NO": 0, "CALC_AREA": 0.0, "OLD_MIG": "", "AGAM_ID": 4000426053.0, "SHAPE_AREA": 6395.97094936, "SHAPE_LEN": 370.917248976}, "geometry": {"type": "Polygon", "coordinates": [[[34.85090134590298, 31.989234104529878], [34.85096156129822, 31.989206166642457], [34.851575833584576, 31.988968668968234], [34.85158469710571, 31.988964802203427], [34.85159978855957, 31.988955858605912], [34.851612828481656, 31.988944817439204], [34.85162342066049, 31.98893201418424], [34.85163124325861, 31.988917837862076], [34.85163605859133, 31.988902719213637], [34.85163772034801, 31.988887117772634], [34.851633545748165, 31.988861787858898], [34.85162116637631, 31.98883848467836], [34.85161785815729, 31.98883432689146], [34.85152124429168, 31.9887189069821], [34.851428176289176, 31.988493824919683], [34.8510796357393, 31.98865747745582], [34.850950840024076, 31.988469994567602], [34.85081104741698, 31.988217228201247], [34.85040364344379, 31.98838088801297], [34.85090134590298, 31.989234104529878]]]}}]}