{"type": "FeatureCollection", "features": [{"type": "Feature", "properties": {"OBJECTID": 3804730, "LAYER_ID": 1659389, "GROUP_ID": 215776, "SCENARIO": "", "DEFQ": 0, "PLAN_NAME": "425-0449702", "DATA_DATE": null, "MAVAT_CODE": 20010, "MAVAT_NAME": "גבול תכנית אמיתי", "NAME": "", "LABEL": "", "TYPE_CODE": 0, "TYPE_NAME": "", "SOURCE_COD": 0, "LEGAL_AREA": 0.0, "IS_ANALITY": 0, "HASAVA": 0, "STATUS": "", "PL_CHANGE": "", "ADDRESS": "", "PLACE_NO": 0, "REMARKS": "", "AGAM_ID": 4000426053.0, "VER_ID": 4000210935.0, "SHAPE_AREA": 16298.4266002, "SHAPE_LEN": 639.299482334}, "geometry": {"type": "Polygon", "coordinates": [[[34.85055522378715, 31.98939469799879], [34.85096156129822, 31.989206166642457], [34.85116157829611, 31.989129301916797], [34.851361594955996, 31.989052438676133], [34.85157584841894, 31.988968663598662], [34.85158431764621, 31.98896494869872], [34.85159946205496, 31.98895597371878], [34.851612547733254, 31.988944893809435], [34.85162068974409, 31.98893550810251], [34.85162317624509, 31.988932046733197], [34.85163102630406, 31.98891782064586], [34.85163585854079, 31.988902648924245], [34.851637526137615, 31.988886990980266], [34.85163333689436, 31.988861570942614], [34.8516209140847, 31.98883818599369], [34.85161784551511, 31.988834312427446], [34.85152124429168, 31.9887189069821], [34.851428176289176, 31.988493824919683], [34.8510796357393, 31.98865747745582], [34.850950840024076, 31.988469994567602], [34.85037323236301, 31.987425582113886], [34.850315804684755, 31.98744865055797], [34.85040528371099, 31.987610445685814], [34.84972579158087, 31.987874192788524], [34.85055522378715, 31.98939469799879]]]}}]}