{"type": "FeatureCollection", "features": [{"type": "Feature", "properties": {"OBJECTID": 3722100, "LAYER_ID": 1659391, "GROUP_ID": 215776, "DEFQ": 0, "DATA_DATE": null, "MAVAT_CODE": 1601, "MAVAT_NAME": "גבול גוש", "LABEL": "", "LOT_NUM": 6261, "GUSH_SUFFI": 0, "CALC_AREA": 0.0, "LEGAL_AREA": 0.0, "TYPE_CODE": 0, "STATUS": 6, "IS_ANALITY": 0, "PLAN_NAME": "", "STATUS_NAM": "מוסדר", "AGAM_ID": 4000426053.0, "SHAPE_AREA": 223000.828557, "SHAPE_LEN": 1931.64982294}, "geometry": {"type": "Polygon", "coordinates": [[[34.85328639986289, 31.985611569658165], [34.853250751799166, 31.98474845528995], [34.85324492651785, 31.98452331096416], [34.853261615506206, 31.98433303676406], [34.853128377716644, 31.98434652157778], [34.85309648711006, 31.984349901646652], [34.85188164433963, 31.984489817166107], [34.851485849872994, 31.984323218083105], [34.851449865276294, 31.984308144458105], [34.85126591471807, 31.984230753950403], [34.85066939403065, 31.984386621710616], [34.84994127003538, 31.984576513974606], [34.84934651524988, 31.984644144305825], [34.849275173854515, 31.984648361737534], [34.84892360162939, 31.984662592733077], [34.84834492651948, 31.984865499729363], [34.84826750317198, 31.98488557308387], [34.848309680596586, 31.984978126337392], [34.84839255851292, 31.985518359034895], [34.848432720441735, 31.985804163152807], [34.84847109713449, 31.986059120549296], [34.848509102644414, 31.986328054842474], [34.84854656400629, 31.98660095552456], [34.84867725784137, 31.987226903145878], [34.84876248367093, 31.987570999729197], [34.848758434051156, 31.9876058881802], [34.84878233971047, 31.987717598455497], [34.848815851341314, 31.98789011720072], [34.84884129388771, 31.988453815689518], [34.84884319994716, 31.98848087513433], [34.84893173105278, 31.98936768608938], [34.84895436929024, 31.98956127649728], [34.849012062118206, 31.989554945093204], [34.849021589411734, 31.989553889609695], [34.84912691799372, 31.989542461083744], [34.849141670325324, 31.98964079894661], [34.849139951095204, 31.98964101056651], [34.849139040585825, 31.989641143288054], [34.849138134253344, 31.989641290450162], [34.84913722998845, 31.98964145024329], [34.8491363299074, 31.989641622673386], [34.84913543188701, 31.989641809538067], [34.84913453805042, 31.989642009039745], [34.849133650513934, 31.989642221184244], [34.849132765038085, 31.98964244776339], [34.84913188586231, 31.98964268698542], [34.8491310108704, 31.98964293884439], [34.84913014217159, 31.989643205149818], [34.8491292776636, 31.989643482288628], [34.84912841944873, 31.989643773873897], [34.84912756753395, 31.98964407810204], [34.84912672191926, 31.989644394973073], [34.849125884727854, 31.98964472268931], [34.84912505171334, 31.989645064846094], [34.849124227122104, 31.9896454178481], [34.849123408830955, 31.98964578349298], [34.84912259895615, 31.989646161786656], [34.84912179750463, 31.989646550925563], [34.84912100446944, 31.98964695271326], [34.849120217734345, 31.989647367143856], [34.849119441538775, 31.98964779242557], [34.849118673766505, 31.98964822855251], [34.84911791441056, 31.98964867732825], [34.84911716347792, 31.989649136949215], [34.84911642309174, 31.989649605617725], [34.849115693238176, 31.989650086940987], [34.84911497180788, 31.98965057910945], [34.84911426091713, 31.989651082129054], [34.849113562682184, 31.98965159600574], [34.849112872877456, 31.98965211892405], [34.849112193612264, 31.989652652693493], [34.84911152700287, 31.989653197320006], [34.84911087093996, 31.989653750994087], [34.849110225423544, 31.989654313715718], [34.84910959256987, 31.989654885490832], [34.849108970255735, 31.989655468117096], [34.84910836060433, 31.989656059796836], [34.849107763615685, 31.989656660530056], [34.849107179296716, 31.989657268513188], [34.84910660764049, 31.989657885549786], [34.849106046530764, 31.989658511633948], [34.849105500200025, 31.989659146777512], [34.84910496653899, 31.98965978917097], [34.84910444766389, 31.989660438820255], [34.84910393933528, 31.989661097517114], [34.849103445799564, 31.989661761666184], [34.849102967042846, 31.98966243487467], [34.84910250096277, 31.989663113529463], [34.84910204966866, 31.989663799440084], [34.84910161104423, 31.98966449260061], [34.849101187205754, 31.989665193016936], [34.84910077816016, 31.98966589888551], [34.84910038390748, 31.989666610206314], [34.84910000444769, 31.98966732697937], [34.849099639780825, 31.989668049204642], [34.84909928779058, 31.989668776876236], [34.84909895270951, 31.989669510005985], [34.849098632421324, 31.98967024858798], [34.849098326932996, 31.989670990818595], [34.84909803835382, 31.989671738507404], [34.84909776245825, 31.98967248983892], [34.84909750347878, 31.989673244825003], [34.84909726140847, 31.989674005269272], [34.849097032028716, 31.989674767552668], [34.84909681956507, 31.98967553349064], [34.849096624024476, 31.98967630127958], [34.84909644327679, 31.98967707452078], [34.84909627734288, 31.98967784780345], [34.849096128325044, 31.989678624740684], [34.849095996230304, 31.989679403528918], [34.849095878942364, 31.989680184162214], [34.84909577646123, 31.98968096664058], [34.84909569091011, 31.989681749166326], [34.84909562227511, 31.989682535346656], [34.84909556846083, 31.98968331976488], [34.84909553156958, 31.989684106034087], [34.84909551160838, 31.989684892350702], [34.849095506453985, 31.989685680512366], [34.84909551823656, 31.989686466917856], [34.84909554483289, 31.989687253364796], [34.84909558835925, 31.98968803985917], [34.84909564882259, 31.989688824597337], [34.84909572409968, 31.989689609377], [34.84909581631374, 31.989690392400448], [34.849095923348536, 31.989691173661804], [34.8490960473203, 31.98969195316697], [34.84909618611278, 31.98969273091004], [34.84909634184223, 31.9896935068969], [34.84909651450866, 31.989694281127594], [34.849096702002754, 31.989695051792555], [34.84910389323015, 31.989723568911263], [34.84937419458023, 31.989654886543068], [34.84970533636093, 31.989559229379154], [34.84993582879024, 31.989496296258565], [34.85018840311123, 31.98944190130596], [34.85047097158791, 31.989429793905], [34.85061589547376, 31.98941279320355], [34.850778969602416, 31.989381143517882], [34.85078809436715, 31.98937467595926], [34.85080913760435, 31.989323061256393], [34.8509561705885, 31.989225084090766], [34.850998167607166, 31.989200311275173], [34.851544819031986, 31.989139698150392], [34.85229527637414, 31.98893779460525], [34.852204524095704, 31.9887347271506], [34.85224707717725, 31.98870274103179], [34.8523009089998, 31.98868205873686], [34.8524160855302, 31.988640624735638], [34.85265091700956, 31.988188209690293], [34.85280325766206, 31.988251217021407], [34.85315505563541, 31.9873353381345], [34.85318240274452, 31.987273899977325], [34.853189329209485, 31.987177786856076], [34.85319567850202, 31.98712207294879], [34.85325876403295, 31.986511767752685], [34.853289161336896, 31.986217243317792], [34.85328639986289, 31.985611569658165]]]}}]}