{"type": "FeatureCollection", "features": [{"type": "Feature", "properties": {"OBJECTID": 21797611, "LAYER_ID": 1659403, "GROUP_ID": 215776, "DEFQ": 0, "DATA_DATE": null, "MAVAT_CODE": 1602, "MAVAT_NAME": "גבול חלקה", "TYPE_CODE": 0, "LABEL": "", "LOT_NUM": 6261, "GUSH_SUFFI": 0, "PARCEL_NUM": 12, "CALC_AREA": 0.0, "LEGAL_AREA": 0.0, "IS_ANALITY": 0, "STATUS": 0, "PLAN_NAME": "", "AGAM_ID": 4000426053.0, "SHAPE_AREA": 3901.30756634, "SHAPE_LEN": 281.905978622}, "geometry": {"type": "Polygon", "coordinates": [[[34.84974647207054, 31.987540691457244], [34.8498421770025, 31.98751134003712], [34.84982120213747, 31.987123166771017], [34.849368291466874, 31.987191898544644], [34.849296182885325, 31.987996304028705], [34.849326547428845, 31.98801697716519], [34.84983174190555, 31.987871157587666], [34.8498273481406, 31.987808008237067], [34.84978103749617, 31.987816005892803], [34.84974647207054, 31.987540691457244]]]}}, {"type": "Feature", "properties": {"OBJECTID": 21797612, "LAYER_ID": 1659403, "GROUP_ID": 215776, "DEFQ": 0, "DATA_DATE": null, "MAVAT_CODE": 1602, "MAVAT_NAME": "גבול חלקה", "TYPE_CODE": 0, "LABEL": "", "LOT_NUM": 6261, "GUSH_SUFFI": 0, "PARCEL_NUM": 8, "CALC_AREA": 0.0, "LEGAL_AREA": 0.0, "IS_ANALITY": 0, "STATUS": 0, "PLAN_NAME": "", "AGAM_ID": 4000426053.0, "SHAPE_AREA": 3666.39885222, "SHAPE_LEN": 268.860951076}, "geometry": {"type": "Polygon", "coordinates": [[[34.84984735856111, 31.988330323849166], [34.84985651412023, 31.98813151797526], [34.84983174190555, 31.987871157587666], [34.849326547428845, 31.98801697716519], [34.84925127883811, 31.98807750121396], [34.84930362563539, 31.988162224244185], [34.84935756451623, 31.988306687172262], [34.84941353423501, 31.988291478816922], [34.849460724072664, 31.988439939453222], [34.84951385872798, 31.98859826258434], [34.84953679265419, 31.98871202068899], [34.84952379369957, 31.988727103976544], [34.84973322481193, 31.988712710499744], [34.84987637751219, 31.988699271417573], [34.84984735856111, 31.988330323849166]]]}}, {"type": "Feature", "properties": {"OBJECTID": 21797613, "LAYER_ID": 1659403, "GROUP_ID": 215776, "DEFQ": 0, "DATA_DATE": null, "MAVAT_CODE": 1602, "MAVAT_NAME": "גבול חלקה", "TYPE_CODE": 0, "LABEL": "", "LOT_NUM": 6261, "GUSH_SUFFI": 0, "PARCEL_NUM": 5, "CALC_AREA": 0.0, "LEGAL_AREA": 0.0, "IS_ANALITY": 0, "STATUS": 0, "PLAN_NAME": "", "AGAM_ID": 4000426053.0, "SHAPE_AREA": 2571.6224948, "SHAPE_LEN": 260.159790015}, "geometry": {"type": "Polygon", "coordinates": [[[34.85026903578302, 31.98882808656871], [34.850399095059174, 31.988795979098978], [34.85044083966155, 31.988785674297358], [34.85044366261532, 31.98866335973852], [34.850374006330156, 31.988655058224456], [34.85029043745678, 31.988656767550417], [34.85022541475767, 31.98865809571679], [34.85019100391541, 31.988658800477754], [34.8499461326241, 31.988692875887313], [34.85018840311123, 31.98944190130596], [34.85047097158791, 31.989429793905], [34.85026903578302, 31.98882808656871]]]}}, {"type": "Feature", "properties": {"OBJECTID": 21797614, "LAYER_ID": 1659403, "GROUP_ID": 215776, "DEFQ": 0, "DATA_DATE": null, "MAVAT_CODE": 1602, "MAVAT_NAME": "גבול חלקה", "TYPE_CODE": 0, "LABEL": "", "LOT_NUM": 6261, "GUSH_SUFFI": 0, "PARCEL_NUM": 45, "CALC_AREA": 0.0, "LEGAL_AREA": 0.0, "IS_ANALITY": 0, "STATUS": 0, "PLAN_NAME": "", "AGAM_ID": 4000426053.0, "SHAPE_AREA": 1995.4681491, "SHAPE_LEN": 813.6898343}, "geometry": {"type": "Polygon", "coordinates": [[[34.85071452318538, 31.987455068605954], [34.85068649202985, 31.98733419567742], [34.85067552984392, 31.987297286761972], [34.85066986388425, 31.987253385592624], [34.85065881012493, 31.98719953513502], [34.85064977971333, 31.987155550638217], [34.85060243948997, 31.98681049496165], [34.85055728402465, 31.986617476842238], [34.850437193830714, 31.98611808911638], [34.85032661442829, 31.985653019775086], [34.85028612793491, 31.98565459138425], [34.85030501228029, 31.985802918677635], [34.85054722148691, 31.986822560454108], [34.8505734349609, 31.986987968442115], [34.85060348540796, 31.987194132414327], [34.850582580669105, 31.98720865990776], [34.85061563477172, 31.987306027822473], [34.85065361733299, 31.987423324898344], [34.85077802074043, 31.9881451217483], [34.85080974924971, 31.988259394724214], [34.850886124410486, 31.988485094468984], [34.850870627971496, 31.98859688756716], [34.850869180166434, 31.988738219595856], [34.850845758179766, 31.988750725486128], [34.8509561705885, 31.989225084090766], [34.850998167607166, 31.989200311275173], [34.85090408418254, 31.988846762307617], [34.8509333242409, 31.988618900284177], [34.850932552412864, 31.98851774824003], [34.85092001599296, 31.988447599897903], [34.85082570219374, 31.988143900093863], [34.85078145308577, 31.987867689621353], [34.85071452318538, 31.987455068605954]]]}}, {"type": "Feature", "properties": {"OBJECTID": 21797615, "LAYER_ID": 1659403, "GROUP_ID": 215776, "DEFQ": 0, "DATA_DATE": null, "MAVAT_CODE": 1602, "MAVAT_NAME": "גבול חלקה", "TYPE_CODE": 0, "LABEL": "", "LOT_NUM": 6261, "GUSH_SUFFI": 0, "PARCEL_NUM": 27, "CALC_AREA": 0.0, "LEGAL_AREA": 0.0, "IS_ANALITY": 0, "STATUS": 0, "PLAN_NAME": "", "AGAM_ID": 4000426053.0, "SHAPE_AREA": 18726.91774, "SHAPE_LEN": 567.861577786}, "geometry": {"type": "Polygon", "coordinates": [[[34.85226426433869, 31.987852108315572], [34.85238973643031, 31.98773390528955], [34.85229528027467, 31.987248099480166], [34.85213392859263, 31.987263191592938], [34.851141886904514, 31.98735271201963], [34.85111588932892, 31.98726872500858], [34.85110532532662, 31.9872532206479], [34.85110214240175, 31.987235033226984], [34.85067552984392, 31.987297286761972], [34.85068649202985, 31.98733419567742], [34.85071452318538, 31.987455068605954], [34.85078145308577, 31.987867689621353], [34.85082570219374, 31.988143900093863], [34.85092001599296, 31.988447599897903], [34.850932552412864, 31.98851774824003], [34.8509333242409, 31.988618900284177], [34.851414601504146, 31.988535578544212], [34.851439792112195, 31.988501630774063], [34.85170211777069, 31.98845025208937], [34.852157179190094, 31.988339333418303], [34.852260416037765, 31.988314933949844], [34.85226426433869, 31.987852108315572]]]}}, {"type": "Feature", "properties": {"OBJECTID": 21797616, "LAYER_ID": 1659403, "GROUP_ID": 215776, "DEFQ": 0, "DATA_DATE": null, "MAVAT_CODE": 1602, "MAVAT_NAME": "גבול חלקה", "TYPE_CODE": 0, "LABEL": "", "LOT_NUM": 6261, "GUSH_SUFFI": 0, "PARCEL_NUM": 28, "CALC_AREA": 0.0, "LEGAL_AREA": 0.0, "IS_ANALITY": 0, "STATUS": 0, "PLAN_NAME": "", "AGAM_ID": 4000426053.0, "SHAPE_AREA": 8451.55707974, "SHAPE_LEN": 383.768062357}, "geometry": {"type": "Polygon", "coordinates": [[[34.852204524095704, 31.9887347271506], [34.85224707717725, 31.98870274103179], [34.852157179190094, 31.988339333418303], [34.85170211777069, 31.98845025208937], [34.851439792112195, 31.988501630774063], [34.851414601504146, 31.988535578544212], [34.8509333242409, 31.988618900284177], [34.85090408418254, 31.988846762307617], [34.850998167607166, 31.989200311275173], [34.851544819031986, 31.989139698150392], [34.85229527637414, 31.98893779460525], [34.852204524095704, 31.9887347271506]]]}}, {"type": "Feature", "properties": {"OBJECTID": 21797617, "LAYER_ID": 1659403, "GROUP_ID": 215776, "DEFQ": 0, "DATA_DATE": null, "MAVAT_CODE": 1602, "MAVAT_NAME": "גבול חלקה", "TYPE_CODE": 0, "LABEL": "", "LOT_NUM": 6261, "GUSH_SUFFI": 0, "PARCEL_NUM": 7, "CALC_AREA": 0.0, "LEGAL_AREA": 0.0, "IS_ANALITY": 0, "STATUS": 0, "PLAN_NAME": "", "AGAM_ID": 4000426053.0, "SHAPE_AREA": 13503.6798059, "SHAPE_LEN": 509.25381481}, "geometry": {"type": "Polygon", "coordinates": [[[34.85080974924971, 31.988259394724214], [34.85077802074043, 31.9881451217483], [34.85065361733299, 31.987423324898344], [34.85061563477172, 31.987306027822473], [34.850582580669105, 31.98720865990776], [34.85036235795514, 31.9872804407397], [34.85013623092318, 31.98737913076009], [34.84998042441067, 31.987471511168305], [34.8498421770025, 31.98751134003712], [34.84974647207054, 31.987540691457244], [34.84978103749617, 31.987816005892803], [34.8498273481406, 31.987808008237067], [34.84983174190555, 31.987871157587666], [34.84985651412023, 31.98813151797526], [34.84984735856111, 31.988330323849166], [34.84987637751219, 31.988699271417573], [34.8499461326241, 31.988692875887313], [34.85019100391541, 31.988658800477754], [34.85022541475767, 31.98865809571679], [34.85029043745678, 31.988656767550417], [34.850374006330156, 31.988655058224456], [34.85044366261532, 31.98866335973852], [34.85044083966155, 31.988785674297358], [34.850451274679585, 31.988832580951716], [34.850602398068574, 31.988833272899562], [34.850743346222394, 31.98878880826003], [34.850845758179766, 31.988750725486128], [34.850869180166434, 31.988738219595856], [34.850870627971496, 31.98859688756716], [34.850886124410486, 31.988485094468984], [34.85080974924971, 31.988259394724214]]]}}, {"type": "Feature", "properties": {"OBJECTID": 21797618, "LAYER_ID": 1659403, "GROUP_ID": 215776, "DEFQ": 0, "DATA_DATE": null, "MAVAT_CODE": 1602, "MAVAT_NAME": "גבול חלקה", "TYPE_CODE": 0, "LABEL": "", "LOT_NUM": 6261, "GUSH_SUFFI": 0, "PARCEL_NUM": 6, "CALC_AREA": 0.0, "LEGAL_AREA": 0.0, "IS_ANALITY": 0, "STATUS": 0, "PLAN_NAME": "", "AGAM_ID": 4000426053.0, "SHAPE_AREA": 3299.91005166, "SHAPE_LEN": 238.720494976}, "geometry": {"type": "Polygon", "coordinates": [[[34.850845758179766, 31.988750725486128], [34.850743346222394, 31.98878880826003], [34.850602398068574, 31.988833272899562], [34.850451274679585, 31.988832580951716], [34.85044083966155, 31.988785674297358], [34.850399095059174, 31.988795979098978], [34.85026903578302, 31.98882808656871], [34.85047097158791, 31.989429793905], [34.85061589547376, 31.98941279320355], [34.850778969602416, 31.989381143517882], [34.85078809436715, 31.98937467595926], [34.85080913760435, 31.989323061256393], [34.8509561705885, 31.989225084090766], [34.850845758179766, 31.988750725486128]]]}}]}