{"type": "FeatureCollection", "features": [{"type": "Feature", "properties": {"OBJECTID": 3663265, "LAYER_ID": 1659397, "GROUP_ID": 215776, "DEFQ": 0, "MAVAT_CODE": 22340, "MAVAT_NAME": "מלבן הדפסה", "PAGE_SIZE": 0, "SCALE": 500, "PAGE": 1, "PAGES": 1, "PLAN_NAME": "", "VER_ID": 4000210935.0, "AGAM_ID": 4000426053.0, "SHAPE_AREA": 155800.0, "SHAPE_LEN": 1580.0}, "geometry": {"type": "Polygon", "coordinates": [[[34.853592665101324, 31.987286336119023], [34.849571889737994, 31.987275157944435], [34.849557656707304, 31.990972512174864], [34.85357859334896, 31.99098369194899], [34.853592665101324, 31.987286336119023]]]}}]}