<?xml version="1.0" encoding="UTF-8"?>
<kml xmlns="http://www.opengis.net/kml/2.2"
 xmlns:gx="http://www.google.com/kml/ext/2.2">
<Document>
  <Style id="Plan">
	<LabelStyle>		
<color>00000000</color>
			
<scale>0</scale>
		
</LabelStyle>
		
<LineStyle>
			
<color>ffff0000</color>
			
<width>3</width>
		
</LineStyle>
		
<PolyStyle>
			
<fill>0</fill>
		
</PolyStyle>

   <BalloonStyle>
    <text>


<![CDATA[<?xml version="1.0"?>
<table border="0"  width="560" cellpadding="2" cellspacing="2" dir="rtl" xmlns:fo="http://www.w3.org/1999/XSL/Format">
<tr>
<td align="center" colspan="2" height="20" style="border-bottom: Solid 1px #b4b5b4">
<font face="Arial" size="3" color="#b50027">
<b>פרטי גבול תכנית</b>
</font>
</td>
</tr>


<tr>
<td  align="right"><font face="Arial" size="3">מספר תכנית</font>
</td>
<td align="right" bgcolor="#efefef" height="20">
<font face="Arial" size="3" color="#202520">
<b>$[PL_NUMBER]</b>
</font>
</td>
</tr>

<tr>
<td  align="right"><font face="Arial" size="3">שם תכנית</font>
</td>
<td align="right" bgcolor="#efefef" height="20">
<font face="Arial" size="3" color="#202520">
<b>$[PL_NAME]</b>
</font>
</td>
</tr>

<tr>
<td  align="right"><font face="Arial" size="3">שטח התכנית</font>
</td>
<td align="right" bgcolor="#efefef" height="20">
<font face="Arial" size="3" color="#202520">
<b>$[PL_AREA]</b>
</font>
</td>
</tr>

<tr>
<td  align="right"><font face="Arial" size="3">קישור לתכנית</font>
</td>
<td align="right" bgcolor="#efefef" height="20">
<font face="Arial" size="3" color="#202520">
<b>$[PL_URL]</b>
</font>
</td>
</tr>


<tr>
<td  align="right"><font face="Arial" size="3">תאריך יצור הקובץ</font>
</td>
<td align="right" bgcolor="#efefef" height="20">
<font face="Arial" size="3" color="#202520">
<b>$[CREATE_DATE]</b>
</font>
</td>
</tr>

</table>]]> 

</text>
     </BalloonStyle>
  </Style>

  <Placemark>
   <name name="name"><value>גבול תכנית</value></name>
   <description/>   
   <styleUrl>#Plan</styleUrl>
<MultiGeometry>
<Polygon><outerBoundaryIs><LinearRing><coordinates>34.8440056114927,32.0013293183224,0 34.8438285768402,32.000947223754,0 34.8438032819003,32.0009586335652,0 34.8436425682911,32.0006216534998,0 34.8430924793658,32.000812412876,0 34.8429084207662,32.0004038273593,0 34.8434002342363,32.0001227012209,0 34.8432930298017,31.9999053326759,0 34.842951603819,31.9992000972402,0 34.8429665675349,31.9991423597122,0 34.842991822698,31.9990757164654,0 34.8430249834277,31.9990116406176,0 34.8430258868032,31.9990101155411,0 34.8430737213885,31.9989826567155,0 34.8434729400934,31.9987001770167,0 34.8435321193491,31.9986671591321,0 34.8435572573313,31.9986524411166,0 34.8440234144686,31.9983003506889,0 34.8440262391153,31.9978023229846,0 34.8440264555216,31.9977708110707,0 34.8440646350881,31.9977430394617,0 34.8440745941173,31.9977357307011,0 34.8443469760923,31.9972739344148,0 34.8445966317659,31.9968688612484,0 34.8446463643609,31.9967896257834,0 34.8448517775673,31.9964989841806,0 34.8449659852372,31.9963360818587,0 34.8450259282721,31.9962380419532,0 34.8451488528142,31.996029020792,0 34.8452952579525,31.9957935241659,0 34.8456782696949,31.9952197132103,0 34.8457976924796,31.9951277136385,0 34.8457912654057,31.9950976979503,0 34.8457889588844,31.9950867327401,0 34.8456927733693,31.994628893996,0 34.8456888295395,31.994610125375,0 34.845686564653,31.9945993442474,0 34.8454981193579,31.9937023773039,0 34.8454876304474,31.9936524455396,0 34.8454620315141,31.9935305974396,0 34.8453668423077,31.9930775010388,0 34.8453467827374,31.9929614834005,0 34.8453197691008,31.9928052293282,0 34.8453192433353,31.9928022050009,0 34.8453108859349,31.9927538628131,0 34.845307226773,31.9927326853673,0 34.8453036047787,31.9927117461021,0 34.845300421218,31.9927032060467,0 34.8449715404372,31.9926111277266,0 34.8450140820945,31.9925897060199,0 34.8450542625095,31.9925540183225,0 34.845124312194,31.9923991248885,0 34.8451918301318,31.9923224934135,0 34.845187604039,31.9919951130016,0 34.8451351684458,31.9918369904906,0 34.8449529695928,31.991636296014,0 34.8449834845442,31.9915305794836,0 34.8445801299617,31.9909954322968,0 34.8445142389281,31.9909753372084,0 34.8432625166681,31.9912844472841,0 34.8428463106564,31.9913872268554,0 34.8428394917794,31.9913894114242,0 34.8427680724613,31.991409902394,0 34.842746844216,31.9913148749428,0 34.8427347488187,31.9912961731644,0 34.842709885605,31.9912758802761,0 34.8425932296188,31.9912361424898,0 34.8421857377269,31.9910133167752,0 34.842182473889,31.9910037519649,0 34.8421718998942,31.9909727647226,0 34.8421676443144,31.9909603041,0 34.8420416606863,31.99089786427,0 34.8420533997288,31.9908930461075,0 34.8420894604899,31.9908782477314,0 34.8420767870296,31.9908709754778,0 34.8420432895606,31.990851757996,0 34.8423378995912,31.990700028746,0 34.8429916584724,31.9905112051338,0 34.8430476784331,31.9905172697153,0 34.8432002752982,31.9905347411306,0 34.8431974347167,31.9905165166455,0 34.8433150267738,31.988232633808,0 34.8432947794537,31.988184881664,0 34.8424263434055,31.986961388199,0 34.842490345758,31.9869280886771,0 34.8425223257125,31.986911449665,0 34.8432118629616,31.9865526900878,0 34.8431781359923,31.9865059780932,0 34.8431833178584,31.9864710678432,0 34.8431863000659,31.9864509697473,0 34.8431117260478,31.9862456045612,0 34.8430075927577,31.9860468717529,0 34.8427994807319,31.9856276151518,0 34.8427743548449,31.985592672636,0 34.8425477591568,31.9852162382164,0 34.8423364269437,31.984784898301,0 34.8422777823818,31.9847701794411,0 34.8419796092965,31.9843593938016,0 34.8416545369963,31.9839199361813,0 34.8416359927891,31.9838915521258,0 34.840785792782,31.9830787078889,0 34.8407710945864,31.983064658963,0 34.8403368736115,31.9826394617964,0 34.8401424304284,31.982442887838,0 34.8400852454703,31.9823859353196,0 34.8399115620654,31.9822129757038,0 34.8398861406187,31.9821847880646,0 34.8395059389155,31.9817606919132,0 34.8390306763934,31.9812717987032,0 34.8389567884512,31.9811924400726,0 34.8389318781449,31.9811657038118,0 34.838806349241,31.9810320124029,0 34.8386247759205,31.9808382002349,0 34.8384135113365,31.980613312604,0 34.8381680778501,31.9803532097858,0 34.8380319772806,31.98020831916,0 34.8379275452093,31.9801008905792,0 34.8376237524508,31.9797783684622,0 34.8374837182635,31.9796312185788,0 34.837361469218,31.9794953889207,0 34.8373465899352,31.9794813895725,0 34.8372105401603,31.9793424537127,0 34.8370332399298,31.9791538243555,0 34.8369445750319,31.9790601011233,0 34.8367422991892,31.9793498020035,0 34.8358146374337,31.9806777931002,0 34.8357127378724,31.9808254576485,0 34.8353973344426,31.9813193293175,0 34.8353018569386,31.9814688284226,0 34.8352591850737,31.9815356451003,0 34.835126120171,31.9817440017808,0 34.8350371728217,31.9818832770032,0 34.8348004063405,31.9822116769554,0 34.8343093933448,31.9829132801312,0 34.8342697744232,31.9829698915445,0 34.8338948677512,31.983527822832,0 34.833732664444,31.9837692088509,0 34.8336882303968,31.983835334448,0 34.8336184655622,31.9839336687239,0 34.8335607493267,31.9840168969155,0 34.8333873147541,31.9842669971202,0 34.8330279674697,31.9847851818666,0 34.8328021188436,31.9851108557273,0 34.832544257161,31.9854826887655,0 34.8328393066773,31.9863431833744,0 34.833031503736,31.9869366808939,0 34.8330566408522,31.9869895387418,0 34.8324168449464,31.9872555825461,0 34.8322639977264,31.987317697697,0 34.8322348522313,31.9873294474486,0 34.8321773819753,31.9873540783953,0 34.8321407662988,31.9873731360526,0 34.8321268365612,31.9873838013693,0 34.8321115683967,31.9873978499244,0 34.8320904826838,31.9874197667601,0 34.8320793222343,31.9874405908792,0 34.8320714126447,31.9874749479575,0 34.8320661824623,31.9875008576053,0 34.8320420278436,31.9876276052915,0 34.8320332245869,31.9876788667225,0 34.8320160243767,31.9878033803074,0 34.8320120304048,31.9878501468432,0 34.8320165023075,31.9879301966756,0 34.8320334662149,31.9880694630078,0 34.83204638847,31.9881856060993,0 34.8320533523363,31.9882617169563,0 34.8320569204483,31.9883203445368,0 34.832071980031,31.9887256367451,0 34.832076812868,31.9888389388523,0 34.8320807529999,31.9889573930352,0 34.8320855827102,31.9890012888736,0 34.8320872202078,31.9890296932141,0 34.8321237413715,31.9894522042272,0 34.8321395870305,31.9896279306735,0 34.8321439844807,31.9896766895541,0 34.8321476090331,31.9897308010633,0 34.8321626293634,31.9899416430292,0 34.8321695498657,31.9900295889745,0 34.832177674806,31.9901462842738,0 34.8321863003596,31.9903035584946,0 34.832193686506,31.9903988356416,0 34.8321953884342,31.9904270201241,0 34.832197131026,31.9905279151657,0 34.8321957205484,31.9905910371218,0 34.8321878767503,31.9906907749789,0 34.8321789594143,31.9907702191544,0 34.832169294436,31.9908293742123,0 34.8321583669494,31.990915013272,0 34.8321571249423,31.9909364256047,0 34.8321543452198,31.9910513971118,0 34.8321552399973,31.9910750738244,0 34.8321643141269,31.9912030407995,0 34.8321640078761,31.991237986503,0 34.8321547845634,31.9912695224826,0 34.8321251994615,31.9913489059987,0 34.8321078803021,31.9914209992712,0 34.8320805590361,31.9915539347666,0 34.8320306200891,31.9917189296295,0 34.8320262491554,31.9917363900988,0 34.8320197925881,31.9917797694256,0 34.8320243706544,31.9917927471577,0 34.8320566205405,31.9918311683692,0 34.8336301179319,31.9913848764222,0 34.8336700848663,31.9918071480444,0 34.8340311048346,31.9917028072684,0 34.8341275862865,31.9916811066088,0 34.8352854115874,31.9913592695948,0 34.8351173850384,31.9905037573981,0 34.8351074634499,31.9903802971421,0 34.8350892896469,31.9903357168851,0 34.8350782310232,31.9902900318913,0 34.8350677852463,31.9902561839237,0 34.8352876818338,31.9901734072838,0 34.8369482628901,31.9898098240367,0 34.8370309867333,31.9903632972769,0 34.8378962330949,31.9899066783124,0 34.8380953580333,31.9902133609973,0 34.8383883146864,31.9908966539626,0 34.8372491490641,31.9915608972276,0 34.8372005568787,31.9916313676339,0 34.8372414996396,31.9918521930162,0 34.8372487985996,31.991897397998,0 34.8372546567595,31.9919186000708,0 34.8372630268992,31.9919392971901,0 34.8373048374461,31.9920284404124,0 34.8373328936496,31.9920842132433,0 34.8374184917034,31.9923156430855,0 34.8374377288672,31.992369925853,0 34.8374492898256,31.992402489073,0 34.8376571706139,31.9929827428525,0 34.8379865912223,31.9937378855812,0 34.8379598577534,31.9937398861085,0 34.8336939805503,31.9950728665723,0 34.8335122403427,31.9951298269267,0 34.8332075848936,31.9952253130471,0 34.8332085425575,31.9952754776131,0 34.8332130687252,31.9953014194319,0 34.8332848535369,31.9954588818694,0 34.8333265014379,31.995545800223,0 34.8335228624552,31.9959736043602,0 34.8335885863804,31.9961175182766,0 34.8336030165363,31.9961468689793,0 34.8336830082819,31.9962795556502,0 34.8337183104398,31.9963405303579,0 34.8337467093835,31.9963919041547,0 34.8338414211979,31.996564085706,0 34.8339838040508,31.9968057332201,0 34.8341269923581,31.9970535837002,0 34.8342944435176,31.9973522292819,0 34.8344743587287,31.9976779649974,0 34.834486842363,31.9976988582443,0 34.8346188523318,31.9978891839674,0 34.8346451223168,31.9979354760158,0 34.8346649934353,31.9979687887314,0 34.834808985893,31.9982228415365,0 34.8348588987804,31.9983109124976,0 34.8349070410643,31.9983877057761,0 34.8349772076399,31.9984961261945,0 34.8350612754985,31.9986256422857,0 34.8351676370331,31.9988009661369,0 34.8352643858963,31.998960440737,0 34.8352651423592,31.9989618064605,0 34.8353562291405,31.9991251783233,0 34.8353627308131,31.9991368484993,0 34.8354418362408,31.9992902331703,0 34.8355092186459,31.9994208907947,0 34.8355355767269,31.9994718289827,0 34.8358729822862,31.9993571989515,0 34.8358488308306,31.9993101449848,0 34.8359564893972,31.9992750170038,0 34.8362776627272,31.9991703487186,0 34.8363702110197,31.9993678410073,0 34.836464269838,31.9995687752685,0 34.8365585626825,31.9997695081309,0 34.8366524945326,31.9999706402714,0 34.8367465966988,32.0001716249363,0 34.836839986385,32.0003709228995,0 34.8369049393059,32.0005096276116,0 34.8369334098607,32.0005703399251,0 34.8370270106316,32.0007699810374,0 34.8371204649145,32.0009693042184,0 34.8372172224769,32.0011757899671,0 34.8372392129966,32.0012225957271,0 34.8372449257396,32.0012347577072,0 34.8372786633055,32.0013006272486,0 34.837042997878,32.0013794313656,0 34.8369503451166,32.0014247796324,0 34.8368992377669,32.0014473677436,0 34.8364364353688,32.0016525165034,0 34.836405882325,32.0016754526186,0 34.836323127008,32.0017470174084,0 34.8361890644248,32.0018497509127,0 34.835968820654,32.0020019411717,0 34.8359237398949,32.0020331964558,0 34.8376466668347,32.0037433854341,0 34.8387734478068,32.0048595028161,0 34.8391832506023,32.0052654184274,0 34.8392191780782,32.0052393336207,0 34.8393776471708,32.005124283711,0 34.8399191179991,32.0047353400684,0 34.8399654173793,32.0047020812768,0 34.8401399206453,32.0045767310227,0 34.8407838392784,32.0041186969503,0 34.8408746661267,32.004054615702,0 34.8409817258423,32.0039790811505,0 34.8412167584021,32.0038114965773,0 34.8413858854144,32.0036885315761,0 34.841588789007,32.0035375268131,0 34.8417735034036,32.0033861522814,0 34.842041371628,32.0031481573049,0 34.8421308096207,32.0030654111253,0 34.8422802440722,32.0029245330159,0 34.8423086423178,32.0028981336363,0 34.8423427881693,32.0028687602886,0 34.8424874186561,32.0027350898293,0 34.8425350070084,32.0026911095523,0 34.8427744945855,32.002469773026,0 34.843020045063,32.0022457154443,0 34.8432093346702,32.0020641378909,0 34.843243479911,32.0020347678998,0 34.8434637721324,32.0018304626857,0 34.8440056114927,32.0013293183224,0 </coordinates></LinearRing></outerBoundaryIs></Polygon>
</MultiGeometry>

   <ExtendedData>
  
    <Data name="PL_NUMBER"><value>גמ/ 548</value></Data>
	 <Data name="PL_NAME"><value>תכנית מס' גמ/548</value></Data>
	  <Data name="PL_AREA"><value>1659</value></Data>
	   <Data name="PL_URL"><value>http://mavat.moin.gov.il/MavatPS/Forms/SV3.aspx?tid=3&amp;tnumb=%D7%92%D7%9E/%20548</value></Data>
	    <Data name="CREATE_DATE"><value>07/10/2019 05:21:27</value></Data>
   </ExtendedData>
  </Placemark>

</Document>
</kml>