{"type": "FeatureCollection", "features": [{"type": "Feature", "properties": {"OBJECTID": 11601079, "LAYER_ID": 1830518, "GROUP_ID": 222456, "SCENARIO": "", "DEFQ": 0, "PLAN_NAME": "", "DATA_DATE": null, "MAVAT_CODE": 23505, "MAVAT_NAME": "בלוק מידות - מספר", "BLOCKNAME": "", "ROTATION": 334.45425704, "TYPE_CODE": 0, "TYPE_NAME": "", "SOURCE_COD": 0, "STATUS": "", "PL_CHANGE": "", "PLACE_NO": 0, "ADDRESS": "", "RADIUS": 0.0, "LENGTH": 0.0, "WIDTH": 0.0, "REMARKS": "", "DATE_DEC": "", "TAG1": "", "TAG2": "", "TAG3": "", "STAGE": "", "NAME": "4.81", "LABEL": "", "AGAM_ID": 4000595003.0}, "geometry": {"type": "Point", "coordinates": [34.8502805799919, 31.994952046930983]}}, {"type": "Feature", "properties": {"OBJECTID": 11601080, "LAYER_ID": 1830518, "GROUP_ID": 222456, "SCENARIO": "", "DEFQ": 0, "PLAN_NAME": "", "DATA_DATE": null, "MAVAT_CODE": 23505, "MAVAT_NAME": "בלוק מידות - מספר", "BLOCKNAME": "", "ROTATION": 334.45893953, "TYPE_CODE": 0, "TYPE_NAME": "", "SOURCE_COD": 0, "STATUS": "", "PL_CHANGE": "", "PLACE_NO": 0, "ADDRESS": "", "RADIUS": 0.0, "LENGTH": 0.0, "WIDTH": 0.0, "REMARKS": "", "DATE_DEC": "", "TAG1": "", "TAG2": "", "TAG3": "", "STAGE": "", "NAME": "4.36", "LABEL": "", "AGAM_ID": 4000595003.0}, "geometry": {"type": "Point", "coordinates": [34.85024881302871, 31.9948996915974]}}, {"type": "Feature", "properties": {"OBJECTID": 11601081, "LAYER_ID": 1830518, "GROUP_ID": 222456, "SCENARIO": "", "DEFQ": 0, "PLAN_NAME": "", "DATA_DATE": null, "MAVAT_CODE": 23505, "MAVAT_NAME": "בלוק מידות - מספר", "BLOCKNAME": "", "ROTATION": 42.51744717, "TYPE_CODE": 0, "TYPE_NAME": "", "SOURCE_COD": 0, "STATUS": "", "PL_CHANGE": "", "PLACE_NO": 0, "ADDRESS": "", "RADIUS": 0.0, "LENGTH": 0.0, "WIDTH": 0.0, "REMARKS": "", "DATE_DEC": "", "TAG1": "", "TAG2": "", "TAG3": "", "STAGE": "", "NAME": "3.82", "LABEL": "", "AGAM_ID": 4000595003.0}, "geometry": {"type": "Point", "coordinates": [34.85056064668504, 31.995040301262865]}}, {"type": "Feature", "properties": {"OBJECTID": 11601082, "LAYER_ID": 1830518, "GROUP_ID": 222456, "SCENARIO": "", "DEFQ": 0, "PLAN_NAME": "", "DATA_DATE": null, "MAVAT_CODE": 23505, "MAVAT_NAME": "בלוק מידות - מספר", "BLOCKNAME": "", "ROTATION": 317.75483255, "TYPE_CODE": 0, "TYPE_NAME": "", "SOURCE_COD": 0, "STATUS": "", "PL_CHANGE": "", "PLACE_NO": 0, "ADDRESS": "", "RADIUS": 0.0, "LENGTH": 0.0, "WIDTH": 0.0, "REMARKS": "", "DATE_DEC": "", "TAG1": "", "TAG2": "", "TAG3": "", "STAGE": "", "NAME": "3", "LABEL": "", "AGAM_ID": 4000595003.0}, "geometry": {"type": "Point", "coordinates": [34.85049965880517, 31.994883139968767]}}, {"type": "Feature", "properties": {"OBJECTID": 11601083, "LAYER_ID": 1830518, "GROUP_ID": 222456, "SCENARIO": "", "DEFQ": 0, "PLAN_NAME": "", "DATA_DATE": null, "MAVAT_CODE": 23505, "MAVAT_NAME": "בלוק מידות - מספר", "BLOCKNAME": "", "ROTATION": 44.19900743, "TYPE_CODE": 0, "TYPE_NAME": "", "SOURCE_COD": 0, "STATUS": "", "PL_CHANGE": "", "PLACE_NO": 0, "ADDRESS": "", "RADIUS": 0.0, "LENGTH": 0.0, "WIDTH": 0.0, "REMARKS": "", "DATE_DEC": "", "TAG1": "", "TAG2": "", "TAG3": "", "STAGE": "", "NAME": "0.43", "LABEL": "", "AGAM_ID": 4000595003.0}, "geometry": {"type": "Point", "coordinates": [34.85025036740658, 31.99480637379134]}}, {"type": "Feature", "properties": {"OBJECTID": 11601084, "LAYER_ID": 1830518, "GROUP_ID": 222456, "SCENARIO": "", "DEFQ": 0, "PLAN_NAME": "", "DATA_DATE": null, "MAVAT_CODE": 23505, "MAVAT_NAME": "בלוק מידות - מספר", "BLOCKNAME": "", "ROTATION": 44.19900744, "TYPE_CODE": 0, "TYPE_NAME": "", "SOURCE_COD": 0, "STATUS": "", "PL_CHANGE": "", "PLACE_NO": 0, "ADDRESS": "", "RADIUS": 0.0, "LENGTH": 0.0, "WIDTH": 0.0, "REMARKS": "", "DATE_DEC": "", "TAG1": "", "TAG2": "", "TAG3": "", "STAGE": "", "NAME": "2.22", "LABEL": "", "AGAM_ID": 4000595003.0}, "geometry": {"type": "Point", "coordinates": [34.8502352547406, 31.994831026575227]}}, {"type": "Feature", "properties": {"OBJECTID": 11601085, "LAYER_ID": 1830518, "GROUP_ID": 222456, "SCENARIO": "", "DEFQ": 0, "PLAN_NAME": "", "DATA_DATE": null, "MAVAT_CODE": 23505, "MAVAT_NAME": "בלוק מידות - מספר", "BLOCKNAME": "", "ROTATION": 312.68974928, "TYPE_CODE": 0, "TYPE_NAME": "", "SOURCE_COD": 0, "STATUS": "", "PL_CHANGE": "", "PLACE_NO": 0, "ADDRESS": "", "RADIUS": 0.0, "LENGTH": 0.0, "WIDTH": 0.0, "REMARKS": "", "DATE_DEC": "", "TAG1": "", "TAG2": "", "TAG3": "", "STAGE": "", "NAME": "5", "LABEL": "", "AGAM_ID": 4000595003.0}, "geometry": {"type": "Point", "coordinates": [34.85043145213877, 31.995114431634782]}}, {"type": "Feature", "properties": {"OBJECTID": 11601086, "LAYER_ID": 1830518, "GROUP_ID": 222456, "SCENARIO": "", "DEFQ": 0, "PLAN_NAME": "", "DATA_DATE": null, "MAVAT_CODE": 23505, "MAVAT_NAME": "בלוק מידות - מספר", "BLOCKNAME": "", "ROTATION": 44.19900744, "TYPE_CODE": 0, "TYPE_NAME": "", "SOURCE_COD": 0, "STATUS": "", "PL_CHANGE": "", "PLACE_NO": 0, "ADDRESS": "", "RADIUS": 0.0, "LENGTH": 0.0, "WIDTH": 0.0, "REMARKS": "", "DATE_DEC": "", "TAG1": "", "TAG2": "", "TAG3": "", "STAGE": "", "NAME": "1.65", "LABEL": "", "AGAM_ID": 4000595003.0}, "geometry": {"type": "Point", "coordinates": [34.850283971264595, 31.99478495236622]}}, {"type": "Feature", "properties": {"OBJECTID": 11601087, "LAYER_ID": 1830518, "GROUP_ID": 222456, "SCENARIO": "", "DEFQ": 0, "PLAN_NAME": "", "DATA_DATE": null, "MAVAT_CODE": 23505, "MAVAT_NAME": "בלוק מידות - מספר", "BLOCKNAME": "", "ROTATION": 44.19900744, "TYPE_CODE": 0, "TYPE_NAME": "", "SOURCE_COD": 0, "STATUS": "", "PL_CHANGE": "", "PLACE_NO": 0, "ADDRESS": "", "RADIUS": 0.0, "LENGTH": 0.0, "WIDTH": 0.0, "REMARKS": "", "DATE_DEC": "", "TAG1": "", "TAG2": "", "TAG3": "", "STAGE": "", "NAME": "3", "LABEL": "", "AGAM_ID": 4000595003.0}, "geometry": {"type": "Point", "coordinates": [34.85033823942898, 31.9947734795641]}}]}