{"type": "FeatureCollection", "features": [{"type": "Feature", "properties": {"OBJECTID": 13546675, "LAYER_ID": 1830528, "GROUP_ID": 222456, "SCENARIO": "", "DEFQ": 0, "PLAN_NAME": "", "DATA_DATE": null, "MAVAT_CODE": 30001, "MAVAT_NAME": "עברית ENTITY", "BLOCKNAME": "dim", "ROTATION": 44.19900744, "TYPE_CODE": 0, "TYPE_NAME": "", "SOURCE_COD": 0, "STATUS": "", "PL_CHANGE": "", "PLACE_NO": 0, "REMARKS": "", "VALUE1": "", "TAGNAME1": "", "TAGNAME2": "", "VALUE2": "", "TAGNAME3": "0", "VALUE3": "0.7", "DATE_DEC": "", "STAGE": "", "NAME": "NUMBER", "LABEL": "3", "FONT_SIZE": 2.0, "AGAM_ID": 4000595003.0}, "geometry": {"type": "Point", "coordinates": [34.85033823942898, 31.9947734795641]}}, {"type": "Feature", "properties": {"OBJECTID": 13546676, "LAYER_ID": 1830528, "GROUP_ID": 222456, "SCENARIO": "", "DEFQ": 0, "PLAN_NAME": "", "DATA_DATE": null, "MAVAT_CODE": 30001, "MAVAT_NAME": "עברית ENTITY", "BLOCKNAME": "dim", "ROTATION": 334.45425704, "TYPE_CODE": 0, "TYPE_NAME": "", "SOURCE_COD": 0, "STATUS": "", "PL_CHANGE": "", "PLACE_NO": 0, "REMARKS": "", "VALUE1": "", "TAGNAME1": "", "TAGNAME2": "", "VALUE2": "", "TAGNAME3": "0", "VALUE3": "0.7", "DATE_DEC": "", "STAGE": "", "NAME": "NUMBER", "LABEL": "4.81", "FONT_SIZE": 2.0, "AGAM_ID": 4000595003.0}, "geometry": {"type": "Point", "coordinates": [34.8502805799919, 31.994952046930983]}}, {"type": "Feature", "properties": {"OBJECTID": 13546677, "LAYER_ID": 1830528, "GROUP_ID": 222456, "SCENARIO": "", "DEFQ": 0, "PLAN_NAME": "", "DATA_DATE": null, "MAVAT_CODE": 30001, "MAVAT_NAME": "עברית ENTITY", "BLOCKNAME": "dim", "ROTATION": 334.45893953, "TYPE_CODE": 0, "TYPE_NAME": "", "SOURCE_COD": 0, "STATUS": "", "PL_CHANGE": "", "PLACE_NO": 0, "REMARKS": "", "VALUE1": "", "TAGNAME1": "", "TAGNAME2": "", "VALUE2": "", "TAGNAME3": "0", "VALUE3": "0.7", "DATE_DEC": "", "STAGE": "", "NAME": "NUMBER", "LABEL": "4.36", "FONT_SIZE": 2.0, "AGAM_ID": 4000595003.0}, "geometry": {"type": "Point", "coordinates": [34.85024881302871, 31.9948996915974]}}, {"type": "Feature", "properties": {"OBJECTID": 13546678, "LAYER_ID": 1830528, "GROUP_ID": 222456, "SCENARIO": "", "DEFQ": 0, "PLAN_NAME": "", "DATA_DATE": null, "MAVAT_CODE": 30001, "MAVAT_NAME": "עברית ENTITY", "BLOCKNAME": "dim", "ROTATION": 42.51744717, "TYPE_CODE": 0, "TYPE_NAME": "", "SOURCE_COD": 0, "STATUS": "", "PL_CHANGE": "", "PLACE_NO": 0, "REMARKS": "", "VALUE1": "", "TAGNAME1": "", "TAGNAME2": "", "VALUE2": "", "TAGNAME3": "0", "VALUE3": "0.7", "DATE_DEC": "", "STAGE": "", "NAME": "NUMBER", "LABEL": "3.82", "FONT_SIZE": 2.0, "AGAM_ID": 4000595003.0}, "geometry": {"type": "Point", "coordinates": [34.85056064668504, 31.995040301262865]}}, {"type": "Feature", "properties": {"OBJECTID": 13546679, "LAYER_ID": 1830528, "GROUP_ID": 222456, "SCENARIO": "", "DEFQ": 0, "PLAN_NAME": "", "DATA_DATE": null, "MAVAT_CODE": 30001, "MAVAT_NAME": "עברית ENTITY", "BLOCKNAME": "dim", "ROTATION": 317.75483255, "TYPE_CODE": 0, "TYPE_NAME": "", "SOURCE_COD": 0, "STATUS": "", "PL_CHANGE": "", "PLACE_NO": 0, "REMARKS": "", "VALUE1": "", "TAGNAME1": "", "TAGNAME2": "", "VALUE2": "", "TAGNAME3": "0", "VALUE3": "0.7", "DATE_DEC": "", "STAGE": "", "NAME": "NUMBER", "LABEL": "3", "FONT_SIZE": 2.0, "AGAM_ID": 4000595003.0}, "geometry": {"type": "Point", "coordinates": [34.85049965880517, 31.994883139968767]}}, {"type": "Feature", "properties": {"OBJECTID": 13546680, "LAYER_ID": 1830528, "GROUP_ID": 222456, "SCENARIO": "", "DEFQ": 0, "PLAN_NAME": "", "DATA_DATE": null, "MAVAT_CODE": 30001, "MAVAT_NAME": "עברית ENTITY", "BLOCKNAME": "dim", "ROTATION": 44.19900743, "TYPE_CODE": 0, "TYPE_NAME": "", "SOURCE_COD": 0, "STATUS": "", "PL_CHANGE": "", "PLACE_NO": 0, "REMARKS": "", "VALUE1": "", "TAGNAME1": "", "TAGNAME2": "", "VALUE2": "", "TAGNAME3": "0", "VALUE3": "0.7", "DATE_DEC": "", "STAGE": "", "NAME": "NUMBER", "LABEL": "0.43", "FONT_SIZE": 2.0, "AGAM_ID": 4000595003.0}, "geometry": {"type": "Point", "coordinates": [34.85025036740658, 31.99480637379134]}}, {"type": "Feature", "properties": {"OBJECTID": 13546681, "LAYER_ID": 1830528, "GROUP_ID": 222456, "SCENARIO": "", "DEFQ": 0, "PLAN_NAME": "", "DATA_DATE": null, "MAVAT_CODE": 30001, "MAVAT_NAME": "עברית ENTITY", "BLOCKNAME": "dim", "ROTATION": 44.19900744, "TYPE_CODE": 0, "TYPE_NAME": "", "SOURCE_COD": 0, "STATUS": "", "PL_CHANGE": "", "PLACE_NO": 0, "REMARKS": "", "VALUE1": "", "TAGNAME1": "", "TAGNAME2": "", "VALUE2": "", "TAGNAME3": "0", "VALUE3": "0.7", "DATE_DEC": "", "STAGE": "", "NAME": "NUMBER", "LABEL": "2.22", "FONT_SIZE": 2.0, "AGAM_ID": 4000595003.0}, "geometry": {"type": "Point", "coordinates": [34.8502352547406, 31.994831026575227]}}, {"type": "Feature", "properties": {"OBJECTID": 13546682, "LAYER_ID": 1830528, "GROUP_ID": 222456, "SCENARIO": "", "DEFQ": 0, "PLAN_NAME": "", "DATA_DATE": null, "MAVAT_CODE": 30001, "MAVAT_NAME": "עברית ENTITY", "BLOCKNAME": "dim", "ROTATION": 44.19900744, "TYPE_CODE": 0, "TYPE_NAME": "", "SOURCE_COD": 0, "STATUS": "", "PL_CHANGE": "", "PLACE_NO": 0, "REMARKS": "", "VALUE1": "", "TAGNAME1": "", "TAGNAME2": "", "VALUE2": "", "TAGNAME3": "0", "VALUE3": "0.7", "DATE_DEC": "", "STAGE": "", "NAME": "NUMBER", "LABEL": "1.65", "FONT_SIZE": 2.0, "AGAM_ID": 4000595003.0}, "geometry": {"type": "Point", "coordinates": [34.850283971264595, 31.99478495236622]}}, {"type": "Feature", "properties": {"OBJECTID": 13546683, "LAYER_ID": 1830528, "GROUP_ID": 222456, "SCENARIO": "", "DEFQ": 0, "PLAN_NAME": "", "DATA_DATE": null, "MAVAT_CODE": 30001, "MAVAT_NAME": "עברית ENTITY", "BLOCKNAME": "dim", "ROTATION": 312.68974928, "TYPE_CODE": 0, "TYPE_NAME": "", "SOURCE_COD": 0, "STATUS": "", "PL_CHANGE": "", "PLACE_NO": 0, "REMARKS": "", "VALUE1": "", "TAGNAME1": "", "TAGNAME2": "", "VALUE2": "", "TAGNAME3": "0", "VALUE3": "0.7", "DATE_DEC": "", "STAGE": "", "NAME": "NUMBER", "LABEL": "5", "FONT_SIZE": 2.0, "AGAM_ID": 4000595003.0}, "geometry": {"type": "Point", "coordinates": [34.85043145213877, 31.995114431634782]}}]}