{"type": "FeatureCollection", "features": [{"type": "Feature", "properties": {"OBJECTID": 5890379, "LAYER_ID": 1830513, "GROUP_ID": 222456, "SCENARIO": "", "DEFQ": 0, "PLAN_NAME": "425-0486316", "DATA_DATE": null, "MAVAT_CODE": 20010, "MAVAT_NAME": "גבול תכנית אמיתי", "NAME": "", "LABEL": "", "TYPE_CODE": 0, "TYPE_NAME": "", "SOURCE_COD": 0, "LEGAL_AREA": 0.0, "IS_ANALITY": 0, "HASAVA": 0, "STATUS": "", "PL_CHANGE": "", "ADDRESS": "", "PLACE_NO": 0, "REMARKS": "", "AGAM_ID": 4000595003.0, "VER_ID": 4000218361.0, "SHAPE_AREA": 996.4752, "SHAPE_LEN": 128.795040067}, "geometry": {"type": "Polygon", "coordinates": [[[34.85025326623532, 31.99489465393135], [34.85035352566202, 31.995074933513454], [34.85048139086547, 31.995176111744772], [34.85066181865336, 31.995009510831334], [34.85037399635488, 31.99473203508541], [34.85023172210098, 31.994855906468143], [34.85025326623532, 31.99489465393135]]]}}]}