{"type": "FeatureCollection", "features": [{"type": "Feature", "properties": {"OBJECTID": 12077111, "LAYER_ID": 1830514, "GROUP_ID": 222456, "SCENARIO": "", "DEFQ": 0, "PLAN_NAME": "", "DATA_DATE": null, "MAVAT_CODE": 10, "MAVAT_NAME": "מגורים", "NAME": "", "LABEL": "", "NUM": "101", "LEGAL_AREA": 0.0, "TYPE_CODE": 0, "TYPE_NAME": "", "SOURCE_COD": 0, "HASAVA": 0, "STATUS": "", "PL_CHANGE": "", "ADDRESS": "", "PLACE_NO": 0, "CALC_AREA": 0.0, "OLD_MIG": "", "AGAM_ID": 4000595003.0, "SHAPE_AREA": 996.4752, "SHAPE_LEN": 128.795040067}, "geometry": {"type": "Polygon", "coordinates": [[[34.85025326623532, 31.99489465393135], [34.85035352566202, 31.995074933513454], [34.85048139086547, 31.995176111744772], [34.850661818653364, 31.99500951083135], [34.85037399635488, 31.994732035085416], [34.85023172210098, 31.994855906468143], [34.85025326623532, 31.99489465393135]]]}}]}