{"type": "FeatureCollection", "features": [{"type": "Feature", "properties": {"OBJECTID": 5589442, "LAYER_ID": 1830521, "GROUP_ID": 222456, "DEFQ": 0, "MAVAT_CODE": 22340, "MAVAT_NAME": "מלבן הדפסה", "PAGE_SIZE": 3, "SCALE": 250, "PAGE": 1, "PAGES": 1, "PLAN_NAME": "", "VER_ID": 4000218361.0, "AGAM_ID": 4000595003.0, "SHAPE_AREA": 3881.25, "SHAPE_LEN": 250.0}, "geometry": {"type": "Polygon", "coordinates": [[[34.85082136187077, 31.994707593685945], [34.85021290612159, 31.994705896794336], [34.850210566616134, 31.995314607029144], [34.85081902638421, 31.995316303960724], [34.85082136187077, 31.994707593685945]]]}}]}