{"type": "FeatureCollection", "features": [{"type": "Feature", "properties": {"OBJECTID": 21124309, "LAYER_ID": 1830516, "GROUP_ID": 222456, "SCENARIO": "", "DEFQ": 0, "PLAN_NAME": "", "DATA_DATE": null, "MAVAT_CODE": 21010, "MAVAT_NAME": "קו בנין", "NAME": "", "LABEL": "", "TYPE_CODE": 0, "TYPE_NAME": "", "SOURCE_COD": 0, "PL_CHANGE": "", "PLACE_NO": 0, "ADDRESS": "", "LENGTH": 0.0, "WIDTH": 0.0, "REMARKS": "", "DATE_DEC": "", "STATUS": "", "STAGE": "", "AGAM_ID": 4000595003.0, "SHAPE_LEN": 104.720416645}, "geometry": {"type": "LineString", "coordinates": [[34.85028521262618, 31.99481493366231], [34.8503231639733, 31.99479729907963], [34.85033033708552, 31.99480872320129], [34.8503728108714, 31.99477174195458], [34.85061326573144, 31.995003549617515], [34.850487722389325, 31.995119533958945], [34.85039675309338, 31.995047379797118], [34.850331085294684, 31.9949290116931], [34.850276842667036, 31.994845210737676], [34.85029740894147, 31.994835528527528], [34.85028521262618, 31.99481493366231]]}}, {"type": "Feature", "properties": {"OBJECTID": 21124310, "LAYER_ID": 1830516, "GROUP_ID": 222456, "SCENARIO": "", "DEFQ": 0, "PLAN_NAME": "", "DATA_DATE": null, "MAVAT_CODE": 21120, "MAVAT_NAME": "להריסה", "NAME": "", "LABEL": "", "TYPE_CODE": 0, "TYPE_NAME": "", "SOURCE_COD": 0, "PL_CHANGE": "", "PLACE_NO": 0, "ADDRESS": "", "LENGTH": 0.0, "WIDTH": 0.0, "REMARKS": "", "DATE_DEC": "", "STATUS": "", "STAGE": "", "AGAM_ID": 4000595003.0, "SHAPE_LEN": 0.206296279777}, "geometry": {"type": "LineString", "coordinates": [[34.85049907111936, 31.9948526157099], [34.85050051766783, 31.994854009016386]]}}, {"type": "Feature", "properties": {"OBJECTID": 21124311, "LAYER_ID": 1830516, "GROUP_ID": 222456, "SCENARIO": "", "DEFQ": 0, "PLAN_NAME": "", "DATA_DATE": null, "MAVAT_CODE": 21120, "MAVAT_NAME": "להריסה", "NAME": "", "LABEL": "", "TYPE_CODE": 0, "TYPE_NAME": "", "SOURCE_COD": 0, "PL_CHANGE": "", "PLACE_NO": 0, "ADDRESS": "", "LENGTH": 0.0, "WIDTH": 0.0, "REMARKS": "", "DATE_DEC": "", "STATUS": "", "STAGE": "", "AGAM_ID": 4000595003.0, "SHAPE_LEN": 0.960860460694}, "geometry": {"type": "LineString", "coordinates": [[34.85051724968003, 31.994870139962174], [34.850523984462555, 31.99487663161318]]}}, {"type": "Feature", "properties": {"OBJECTID": 21124312, "LAYER_ID": 1830516, "GROUP_ID": 222456, "SCENARIO": "", "DEFQ": 0, "PLAN_NAME": "", "DATA_DATE": null, "MAVAT_CODE": 21120, "MAVAT_NAME": "להריסה", "NAME": "", "LABEL": "", "TYPE_CODE": 0, "TYPE_NAME": "", "SOURCE_COD": 0, "PL_CHANGE": "", "PLACE_NO": 0, "ADDRESS": "", "LENGTH": 0.0, "WIDTH": 0.0, "REMARKS": "", "DATE_DEC": "", "STATUS": "", "STAGE": "", "AGAM_ID": 4000595003.0, "SHAPE_LEN": 0.209908033315}, "geometry": {"type": "LineString", "coordinates": [[34.8506294499817, 31.99503939824323], [34.85063095569161, 31.995038006585904]]}}, {"type": "Feature", "properties": {"OBJECTID": 21124313, "LAYER_ID": 1830516, "GROUP_ID": 222456, "SCENARIO": "", "DEFQ": 0, "PLAN_NAME": "", "DATA_DATE": null, "MAVAT_CODE": 21120, "MAVAT_NAME": "להריסה", "NAME": "", "LABEL": "", "TYPE_CODE": 0, "TYPE_NAME": "", "SOURCE_COD": 0, "PL_CHANGE": "", "PLACE_NO": 0, "ADDRESS": "", "LENGTH": 0.0, "WIDTH": 0.0, "REMARKS": "", "DATE_DEC": "", "STATUS": "", "STAGE": "", "AGAM_ID": 4000595003.0, "SHAPE_LEN": 2.81421802428}, "geometry": {"type": "LineString", "coordinates": [[34.85051724968003, 31.994870139962174], [34.8505051900636, 31.994851947495654], [34.85050051766783, 31.994854009016386]]}}, {"type": "Feature", "properties": {"OBJECTID": 21124314, "LAYER_ID": 1830516, "GROUP_ID": 222456, "SCENARIO": "", "DEFQ": 0, "PLAN_NAME": "", "DATA_DATE": null, "MAVAT_CODE": 21120, "MAVAT_NAME": "להריסה", "NAME": "", "LABEL": "", "TYPE_CODE": 0, "TYPE_NAME": "", "SOURCE_COD": 0, "PL_CHANGE": "", "PLACE_NO": 0, "ADDRESS": "", "LENGTH": 0.0, "WIDTH": 0.0, "REMARKS": "", "DATE_DEC": "", "STATUS": "", "STAGE": "", "AGAM_ID": 4000595003.0, "SHAPE_LEN": 86.888348299}, "geometry": {"type": "LineString", "coordinates": [[34.85063095569161, 31.995038006585904], [34.85065827038693, 31.995079210436273], [34.85053604337871, 31.995190873342384], [34.85035256965227, 31.995075922801853], [34.85035382179747, 31.995074468757057], [34.850535779432654, 31.995188470023816], [34.850655664002254, 31.995078944984186], [34.8506294499817, 31.99503939824323]]}}, {"type": "Feature", "properties": {"OBJECTID": 21124315, "LAYER_ID": 1830516, "GROUP_ID": 222456, "SCENARIO": "", "DEFQ": 0, "PLAN_NAME": "", "DATA_DATE": null, "MAVAT_CODE": 21120, "MAVAT_NAME": "להריסה", "NAME": "", "LABEL": "", "TYPE_CODE": 0, "TYPE_NAME": "", "SOURCE_COD": 0, "PL_CHANGE": "", "PLACE_NO": 0, "ADDRESS": "", "LENGTH": 0.0, "WIDTH": 0.0, "REMARKS": "", "DATE_DEC": "", "STATUS": "", "STAGE": "", "AGAM_ID": 4000595003.0, "SHAPE_LEN": 4.18997530972}, "geometry": {"type": "LineString", "coordinates": [[34.85049907111936, 31.9948526157099], [34.85050603118224, 31.994849547303954], [34.850523984462555, 31.99487663161318]]}}, {"type": "Feature", "properties": {"OBJECTID": 21124316, "LAYER_ID": 1830516, "GROUP_ID": 222456, "SCENARIO": "", "DEFQ": 0, "PLAN_NAME": "", "DATA_DATE": null, "MAVAT_CODE": 21120, "MAVAT_NAME": "להריסה", "NAME": "", "LABEL": "", "TYPE_CODE": 0, "TYPE_NAME": "", "SOURCE_COD": 0, "PL_CHANGE": "", "PLACE_NO": 0, "ADDRESS": "", "LENGTH": 0.0, "WIDTH": 0.0, "REMARKS": "", "DATE_DEC": "", "STATUS": "", "STAGE": "", "AGAM_ID": 4000595003.0, "SHAPE_LEN": 6.5856890518}, "geometry": {"type": "LineString", "coordinates": [[34.850451404621325, 31.99477134252432], [34.850427356171885, 31.99478347656142], [34.85044136745025, 31.994796984880246], [34.8504590825377, 31.99478804873271]]}}, {"type": "Feature", "properties": {"OBJECTID": 21124317, "LAYER_ID": 1830516, "GROUP_ID": 222456, "SCENARIO": "", "DEFQ": 0, "PLAN_NAME": "", "DATA_DATE": null, "MAVAT_CODE": 21120, "MAVAT_NAME": "להריסה", "NAME": "", "LABEL": "", "TYPE_CODE": 0, "TYPE_NAME": "", "SOURCE_COD": 0, "PL_CHANGE": "", "PLACE_NO": 0, "ADDRESS": "", "LENGTH": 0.0, "WIDTH": 0.0, "REMARKS": "", "DATE_DEC": "", "STATUS": "", "STAGE": "", "AGAM_ID": 4000595003.0, "SHAPE_LEN": 36.536232109}, "geometry": {"type": "LineString", "coordinates": [[34.85046489042282, 31.99478513452484], [34.85052965598807, 31.994851371750276], [34.85056737311683, 31.994824589096286], [34.85047930879858, 31.994734523731672], [34.850441591679335, 31.994761306946092], [34.85046014705842, 31.99478028533241], [34.85045503912971, 31.994783912654054], [34.85045977989524, 31.99478876346269], [34.85046489042282, 31.99478513452484]]}}, {"type": "Feature", "properties": {"OBJECTID": 21124318, "LAYER_ID": 1830516, "GROUP_ID": 222456, "SCENARIO": "", "DEFQ": 0, "PLAN_NAME": "", "DATA_DATE": null, "MAVAT_CODE": 23500, "MAVAT_NAME": "מידות - קו", "NAME": "", "LABEL": "", "TYPE_CODE": 0, "TYPE_NAME": "", "SOURCE_COD": 0, "PL_CHANGE": "", "PLACE_NO": 0, "ADDRESS": "", "LENGTH": 0.0, "WIDTH": 0.0, "REMARKS": "", "DATE_DEC": "", "STATUS": "", "STAGE": "", "AGAM_ID": 4000595003.0, "SHAPE_LEN": 4.81360674303}, "geometry": {"type": "LineString", "coordinates": [[34.850276975203336, 31.994937285381987], [34.85032300437955, 31.994918694120507]]}}, {"type": "Feature", "properties": {"OBJECTID": 21124319, "LAYER_ID": 1830516, "GROUP_ID": 222456, "SCENARIO": "", "DEFQ": 0, "PLAN_NAME": "", "DATA_DATE": null, "MAVAT_CODE": 23500, "MAVAT_NAME": "מידות - קו", "NAME": "", "LABEL": "", "TYPE_CODE": 0, "TYPE_NAME": "", "SOURCE_COD": 0, "PL_CHANGE": "", "PLACE_NO": 0, "ADDRESS": "", "LENGTH": 0.0, "WIDTH": 0.0, "REMARKS": "", "DATE_DEC": "", "STATUS": "", "STAGE": "", "AGAM_ID": 4000595003.0, "SHAPE_LEN": 4.36118985908}, "geometry": {"type": "LineString", "coordinates": [[34.850247372763924, 31.994884055613575], [34.850289077484774, 31.99486721477768]]}}, {"type": "Feature", "properties": {"OBJECTID": 21124320, "LAYER_ID": 1830516, "GROUP_ID": 222456, "SCENARIO": "", "DEFQ": 0, "PLAN_NAME": "", "DATA_DATE": null, "MAVAT_CODE": 23500, "MAVAT_NAME": "מידות - קו", "NAME": "", "LABEL": "", "TYPE_CODE": 0, "TYPE_NAME": "", "SOURCE_COD": 0, "PL_CHANGE": "", "PLACE_NO": 0, "ADDRESS": "", "LENGTH": 0.0, "WIDTH": 0.0, "REMARKS": "", "DATE_DEC": "", "STATUS": "", "STAGE": "", "AGAM_ID": 4000595003.0, "SHAPE_LEN": 3.81994507323}, "geometry": {"type": "LineString", "coordinates": [[34.850608934707495, 31.99505834031331], [34.85057923028031, 31.995034976553058]]}}, {"type": "Feature", "properties": {"OBJECTID": 21124321, "LAYER_ID": 1830516, "GROUP_ID": 222456, "SCENARIO": "", "DEFQ": 0, "PLAN_NAME": "", "DATA_DATE": null, "MAVAT_CODE": 23500, "MAVAT_NAME": "מידות - קו", "NAME": "", "LABEL": "", "TYPE_CODE": 0, "TYPE_NAME": "", "SOURCE_COD": 0, "PL_CHANGE": "", "PLACE_NO": 0, "ADDRESS": "", "LENGTH": 0.0, "WIDTH": 0.0, "REMARKS": "", "DATE_DEC": "", "STATUS": "", "STAGE": "", "AGAM_ID": 4000595003.0, "SHAPE_LEN": 3.0004738646}, "geometry": {"type": "LineString", "coordinates": [[34.85050542341299, 31.9948589698524], [34.85048184918463, 31.994877095356074]]}}, {"type": "Feature", "properties": {"OBJECTID": 21124322, "LAYER_ID": 1830516, "GROUP_ID": 222456, "SCENARIO": "", "DEFQ": 0, "PLAN_NAME": "", "DATA_DATE": null, "MAVAT_CODE": 23500, "MAVAT_NAME": "מידות - קו", "NAME": "", "LABEL": "", "TYPE_CODE": 0, "TYPE_NAME": "", "SOURCE_COD": 0, "PL_CHANGE": "", "PLACE_NO": 0, "ADDRESS": "", "LENGTH": 0.0, "WIDTH": 0.0, "REMARKS": "", "DATE_DEC": "", "STATUS": "", "STAGE": "", "AGAM_ID": 4000595003.0, "SHAPE_LEN": 0.434344071014}, "geometry": {"type": "LineString", "coordinates": [[34.85028192793021, 31.994812193882403], [34.85028521262618, 31.99481493366231]]}}, {"type": "Feature", "properties": {"OBJECTID": 21124323, "LAYER_ID": 1830516, "GROUP_ID": 222456, "SCENARIO": "", "DEFQ": 0, "PLAN_NAME": "", "DATA_DATE": null, "MAVAT_CODE": 23500, "MAVAT_NAME": "מידות - קו", "NAME": "", "LABEL": "", "TYPE_CODE": 0, "TYPE_NAME": "", "SOURCE_COD": 0, "PL_CHANGE": "", "PLACE_NO": 0, "ADDRESS": "", "LENGTH": 0.0, "WIDTH": 0.0, "REMARKS": "", "DATE_DEC": "", "STATUS": "", "STAGE": "", "AGAM_ID": 4000595003.0, "SHAPE_LEN": 2.21760793749}, "geometry": {"type": "LineString", "coordinates": [[34.85026007273456, 31.99483122188669], [34.850276842667036, 31.994845210737676]]}}, {"type": "Feature", "properties": {"OBJECTID": 21124324, "LAYER_ID": 1830516, "GROUP_ID": 222456, "SCENARIO": "", "DEFQ": 0, "PLAN_NAME": "", "DATA_DATE": null, "MAVAT_CODE": 23500, "MAVAT_NAME": "מידות - קו", "NAME": "", "LABEL": "", "TYPE_CODE": 0, "TYPE_NAME": "", "SOURCE_COD": 0, "PL_CHANGE": "", "PLACE_NO": 0, "ADDRESS": "", "LENGTH": 0.0, "WIDTH": 0.0, "REMARKS": "", "DATE_DEC": "", "STATUS": "", "STAGE": "", "AGAM_ID": 4000595003.0, "SHAPE_LEN": 5.00319644772}, "geometry": {"type": "LineString", "coordinates": [[34.850405882961674, 31.995116362596224], [34.8504419063756, 31.995083298259146]]}}, {"type": "Feature", "properties": {"OBJECTID": 21124325, "LAYER_ID": 1830516, "GROUP_ID": 222456, "SCENARIO": "", "DEFQ": 0, "PLAN_NAME": "", "DATA_DATE": null, "MAVAT_CODE": 23500, "MAVAT_NAME": "מידות - קו", "NAME": "", "LABEL": "", "TYPE_CODE": 0, "TYPE_NAME": "", "SOURCE_COD": 0, "PL_CHANGE": "", "PLACE_NO": 0, "ADDRESS": "", "LENGTH": 0.0, "WIDTH": 0.0, "REMARKS": "", "DATE_DEC": "", "STATUS": "", "STAGE": "", "AGAM_ID": 4000595003.0, "SHAPE_LEN": 1.65010625789}, "geometry": {"type": "LineString", "coordinates": [[34.850310934793114, 31.994786937511005], [34.85032341310185, 31.994797346578363]]}}, {"type": "Feature", "properties": {"OBJECTID": 21124326, "LAYER_ID": 1830516, "GROUP_ID": 222456, "SCENARIO": "", "DEFQ": 0, "PLAN_NAME": "", "DATA_DATE": null, "MAVAT_CODE": 23500, "MAVAT_NAME": "מידות - קו", "NAME": "", "LABEL": "", "TYPE_CODE": 0, "TYPE_NAME": "", "SOURCE_COD": 0, "PL_CHANGE": "", "PLACE_NO": 0, "ADDRESS": "", "LENGTH": 0.0, "WIDTH": 0.0, "REMARKS": "", "DATE_DEC": "", "STATUS": "", "STAGE": "", "AGAM_ID": 4000595003.0, "SHAPE_LEN": 2.99984204176}, "geometry": {"type": "LineString", "coordinates": [[34.85034421876581, 31.994757961768276], [34.850366903361596, 31.994776885632437]]}}, {"type": "Feature", "properties": {"OBJECTID": 21124327, "LAYER_ID": 1830516, "GROUP_ID": 222456, "SCENARIO": "", "DEFQ": 0, "PLAN_NAME": "", "DATA_DATE": null, "MAVAT_CODE": 23500, "MAVAT_NAME": "מידות - קו", "NAME": "", "LABEL": "", "TYPE_CODE": 0, "TYPE_NAME": "", "SOURCE_COD": 0, "PL_CHANGE": "", "PLACE_NO": 0, "ADDRESS": "", "LENGTH": 0.0, "WIDTH": 0.0, "REMARKS": "", "DATE_DEC": "", "STATUS": "", "STAGE": "", "AGAM_ID": 4000595003.0, "SHAPE_LEN": 5.00319644772}, "geometry": {"type": "LineString", "coordinates": [[34.850405882961674, 31.995116362596224], [34.8504419063756, 31.995083298259146]]}}]}