{"type": "FeatureCollection", "features": [{"type": "Feature", "properties": {"OBJECTID": 11607250, "LAYER_ID": 1830522, "GROUP_ID": 222456, "SCENARIO": "", "DEFQ": 0, "PLAN_NAME": "", "DATA_DATE": null, "MAVAT_CODE": 10, "MAVAT_NAME": "", "NAME": "", "LABEL": "", "NUM": "101", "LEGAL_AREA": 0.0, "TYPE_CODE": 0, "TYPE_NAME": "", "SOURCE_COD": 0, "HASAVA": 0, "STATUS": "", "PL_CHANGE": "", "ADDRESS": "", "PLACE_NO": 0, "CALC_AREA": 0.0, "OLD_MIG": "", "AGAM_ID": 4000595003.0, "FONT_SIZE": 3.0, "ROTATION": 0.0}, "geometry": {"type": "Point", "coordinates": [34.85046558390831, 31.99494455328028]}}]}