{"type": "FeatureCollection", "features": [{"type": "Feature", "properties": {"OBJECTID": 19545618, "LAYER_ID": 6584080, "GROUP_ID": 410691, "SCENARIO": "", "DEFQ": 0, "PLAN_NAME": "", "DATA_DATE": null, "MAVAT_CODE": 660, "MAVAT_NAME": "", "NAME": "", "LABEL": "", "NUM": "1050", "LEGAL_AREA": 0.0, "TYPE_CODE": 0, "TYPE_NAME": "", "SOURCE_COD": 0, "HASAVA": 0, "STATUS": "", "PL_CHANGE": "", "ADDRESS": "", "PLACE_NO": 0, "CALC_AREA": 0.0, "OLD_MIG": "", "AGAM_ID": 4005388368.0, "FONT_SIZE": 2.43, "ROTATION": 0.0}, "geometry": {"type": "Point", "coordinates": [34.85318233185618, 31.991290884516378]}}, {"type": "Feature", "properties": {"OBJECTID": 19545619, "LAYER_ID": 6584080, "GROUP_ID": 410691, "SCENARIO": "", "DEFQ": 0, "PLAN_NAME": "", "DATA_DATE": null, "MAVAT_CODE": 160, "MAVAT_NAME": "", "NAME": "", "LABEL": "", "NUM": "50A", "LEGAL_AREA": 0.0, "TYPE_CODE": 0, "TYPE_NAME": "", "SOURCE_COD": 0, "HASAVA": 0, "STATUS": "", "PL_CHANGE": "", "ADDRESS": "", "PLACE_NO": 0, "CALC_AREA": 0.0, "OLD_MIG": "", "AGAM_ID": 4005388368.0, "FONT_SIZE": 2.15, "ROTATION": 0.0}, "geometry": {"type": "Point", "coordinates": [34.852799014307045, 31.991155647335145]}}, {"type": "Feature", "properties": {"OBJECTID": 19545620, "LAYER_ID": 6584080, "GROUP_ID": 410691, "SCENARIO": "", "DEFQ": 0, "PLAN_NAME": "", "DATA_DATE": null, "MAVAT_CODE": 20, "MAVAT_NAME": "", "NAME": "", "LABEL": "", "NUM": "50B", "LEGAL_AREA": 0.0, "TYPE_CODE": 0, "TYPE_NAME": "", "SOURCE_COD": 0, "HASAVA": 0, "STATUS": "", "PL_CHANGE": "", "ADDRESS": "", "PLACE_NO": 0, "CALC_AREA": 0.0, "OLD_MIG": "", "AGAM_ID": 4005388368.0, "FONT_SIZE": 2.15, "ROTATION": 0.0}, "geometry": {"type": "Point", "coordinates": [34.852891535811516, 31.99095902195628]}}, {"type": "Feature", "properties": {"OBJECTID": 19545621, "LAYER_ID": 6584080, "GROUP_ID": 410691, "SCENARIO": "", "DEFQ": 0, "PLAN_NAME": "", "DATA_DATE": null, "MAVAT_CODE": 20, "MAVAT_NAME": "", "NAME": "", "LABEL": "", "NUM": "50C", "LEGAL_AREA": 0.0, "TYPE_CODE": 0, "TYPE_NAME": "", "SOURCE_COD": 0, "HASAVA": 0, "STATUS": "", "PL_CHANGE": "", "ADDRESS": "", "PLACE_NO": 0, "CALC_AREA": 0.0, "OLD_MIG": "", "AGAM_ID": 4005388368.0, "FONT_SIZE": 2.15, "ROTATION": 0.0}, "geometry": {"type": "Point", "coordinates": [34.85305233974947, 31.990870549467836]}}]}