{"type": "FeatureCollection", "features": [{"type": "Feature", "properties": {"OBJECTID": 29289249, "LAYER_ID": 7623514, "GROUP_ID": 452743, "SCENARIO": "", "DEFQ": 0, "PLAN_NAME": "", "DATA_DATE": null, "MAVAT_CODE": 30001, "MAVAT_NAME": "׳¢׳‘׳¨׳™׳× ENTITY", "BLOCKNAME": "DIM", "ROTATION": 352.21439134, "TYPE_CODE": 0, "TYPE_NAME": "DIM", "SOURCE_COD": 0, "STATUS": "", "PL_CHANGE": "", "PLACE_NO": 0, "REMARKS": "", "VALUE1": "", "TAGNAME1": "205073.844035507", "TAGNAME2": "627918.87000757", "VALUE2": "", "TAGNAME3": "", "VALUE3": "1", "DATE_DEC": "", "STAGE": "", "NAME": "DIM", "LABEL": "3", "FONT_SIZE": 1.0, "AGAM_ID": 4005416470.0}, "geometry": {"type": "Point", "coordinates": [34.848937794820536, 31.995663587809343]}}, {"type": "Feature", "properties": {"OBJECTID": 29289250, "LAYER_ID": 7623514, "GROUP_ID": 452743, "SCENARIO": "", "DEFQ": 0, "PLAN_NAME": "", "DATA_DATE": null, "MAVAT_CODE": 30001, "MAVAT_NAME": "׳¢׳‘׳¨׳™׳× ENTITY", "BLOCKNAME": "DIM", "ROTATION": 82.74419442, "TYPE_CODE": 0, "TYPE_NAME": "DIM", "SOURCE_COD": 0, "STATUS": "", "PL_CHANGE": "", "PLACE_NO": 0, "REMARKS": "", "VALUE1": "", "TAGNAME1": "205073.844035507", "TAGNAME2": "627918.87000757", "VALUE2": "", "TAGNAME3": "", "VALUE3": "1", "DATE_DEC": "", "STAGE": "", "NAME": "DIM", "LABEL": "3", "FONT_SIZE": 1.0, "AGAM_ID": 4005416470.0}, "geometry": {"type": "Point", "coordinates": [34.84906244916124, 31.995716887181324]}}, {"type": "Feature", "properties": {"OBJECTID": 29289251, "LAYER_ID": 7623514, "GROUP_ID": 452743, "SCENARIO": "", "DEFQ": 0, "PLAN_NAME": "", "DATA_DATE": null, "MAVAT_CODE": 30001, "MAVAT_NAME": "׳¢׳‘׳¨׳™׳× ENTITY", "BLOCKNAME": "DIM", "ROTATION": 82.74419442, "TYPE_CODE": 0, "TYPE_NAME": "DIM", "SOURCE_COD": 0, "STATUS": "", "PL_CHANGE": "", "PLACE_NO": 0, "REMARKS": "", "VALUE1": "", "TAGNAME1": "205073.844035507", "TAGNAME2": "627918.87000757", "VALUE2": "", "TAGNAME3": "", "VALUE3": "1", "DATE_DEC": "", "STAGE": "", "NAME": "DIM", "LABEL": "3", "FONT_SIZE": 1.0, "AGAM_ID": 4005416470.0}, "geometry": {"type": "Point", "coordinates": [34.849031298902084, 31.995563446631095]}}, {"type": "Feature", "properties": {"OBJECTID": 29289252, "LAYER_ID": 7623514, "GROUP_ID": 452743, "SCENARIO": "", "DEFQ": 0, "PLAN_NAME": "", "DATA_DATE": null, "MAVAT_CODE": 30001, "MAVAT_NAME": "׳¢׳‘׳¨׳™׳× ENTITY", "BLOCKNAME": "DIM", "ROTATION": 352.21439134, "TYPE_CODE": 0, "TYPE_NAME": "DIM", "SOURCE_COD": 0, "STATUS": "", "PL_CHANGE": "", "PLACE_NO": 0, "REMARKS": "", "VALUE1": "", "TAGNAME1": "205073.844035507", "TAGNAME2": "627918.87000757", "VALUE2": "", "TAGNAME3": "", "VALUE3": "1", "DATE_DEC": "", "STAGE": "", "NAME": "DIM", "LABEL": "3", "FONT_SIZE": 1.0, "AGAM_ID": 4005416470.0}, "geometry": {"type": "Point", "coordinates": [34.84920138377377, 31.995640976468575]}}, {"type": "Feature", "properties": {"OBJECTID": 29289253, "LAYER_ID": 7623514, "GROUP_ID": 452743, "SCENARIO": "", "DEFQ": 0, "PLAN_NAME": "", "DATA_DATE": null, "MAVAT_CODE": 30001, "MAVAT_NAME": "׳¢׳‘׳¨׳™׳× ENTITY", "BLOCKNAME": "DIM", "ROTATION": 82.74419442, "TYPE_CODE": 0, "TYPE_NAME": "DIM", "SOURCE_COD": 0, "STATUS": "", "PL_CHANGE": "", "PLACE_NO": 0, "REMARKS": "", "VALUE1": "", "TAGNAME1": "205073.844035507", "TAGNAME2": "627918.87000757", "VALUE2": "", "TAGNAME3": "", "VALUE3": "1", "DATE_DEC": "", "STAGE": "", "NAME": "DIM", "LABEL": "3", "FONT_SIZE": 1.0, "AGAM_ID": 4005416470.0}, "geometry": {"type": "Point", "coordinates": [34.84910635804526, 31.99571258589161]}}, {"type": "Feature", "properties": {"OBJECTID": 29289254, "LAYER_ID": 7623514, "GROUP_ID": 452743, "SCENARIO": "", "DEFQ": 0, "PLAN_NAME": "", "DATA_DATE": null, "MAVAT_CODE": 30001, "MAVAT_NAME": "׳¢׳‘׳¨׳™׳× ENTITY", "BLOCKNAME": "DIM", "ROTATION": 82.74419442, "TYPE_CODE": 0, "TYPE_NAME": "DIM", "SOURCE_COD": 0, "STATUS": "", "PL_CHANGE": "", "PLACE_NO": 0, "REMARKS": "", "VALUE1": "", "TAGNAME1": "205073.844035507", "TAGNAME2": "627918.87000757", "VALUE2": "", "TAGNAME3": "", "VALUE3": "1", "DATE_DEC": "", "STAGE": "", "NAME": "DIM", "LABEL": "5", "FONT_SIZE": 1.0, "AGAM_ID": 4005416470.0}, "geometry": {"type": "Point", "coordinates": [34.84912462694567, 31.9956906222416]}}, {"type": "Feature", "properties": {"OBJECTID": 29289255, "LAYER_ID": 7623514, "GROUP_ID": 452743, "SCENARIO": "", "DEFQ": 0, "PLAN_NAME": "", "DATA_DATE": null, "MAVAT_CODE": 30001, "MAVAT_NAME": "׳¢׳‘׳¨׳™׳× ENTITY", "BLOCKNAME": "DIM", "ROTATION": 352.73568213, "TYPE_CODE": 0, "TYPE_NAME": "DIM", "SOURCE_COD": 0, "STATUS": "", "PL_CHANGE": "", "PLACE_NO": 0, "REMARKS": "", "VALUE1": "", "TAGNAME1": "205073.844035507", "TAGNAME2": "627918.87000757", "VALUE2": "", "TAGNAME3": "", "VALUE3": "1", "DATE_DEC": "", "STAGE": "", "NAME": "DIM", "LABEL": "5.5", "FONT_SIZE": 1.0, "AGAM_ID": 4005416470.0}, "geometry": {"type": "Point", "coordinates": [34.849177010371, 31.995664245083205]}}, {"type": "Feature", "properties": {"OBJECTID": 29289256, "LAYER_ID": 7623514, "GROUP_ID": 452743, "SCENARIO": "", "DEFQ": 0, "PLAN_NAME": "", "DATA_DATE": null, "MAVAT_CODE": 30001, "MAVAT_NAME": "׳¢׳‘׳¨׳™׳× ENTITY", "BLOCKNAME": "DIM", "ROTATION": 352.21439134, "TYPE_CODE": 0, "TYPE_NAME": "DIM", "SOURCE_COD": 0, "STATUS": "", "PL_CHANGE": "", "PLACE_NO": 0, "REMARKS": "", "VALUE1": "", "TAGNAME1": "205073.844035507", "TAGNAME2": "627918.87000757", "VALUE2": "", "TAGNAME3": "", "VALUE3": "1", "DATE_DEC": "", "STAGE": "", "NAME": "DIM", "LABEL": "2", "FONT_SIZE": 1.0, "AGAM_ID": 4005416470.0}, "geometry": {"type": "Point", "coordinates": [34.84919971467376, 31.995596855618746]}}]}