{"type": "FeatureCollection", "features": [{"type": "Feature", "properties": {"OBJECTID": 24273467, "LAYER_ID": 7623510, "GROUP_ID": 452743, "SCENARIO": "", "DEFQ": 0, "PLAN_NAME": "", "DATA_DATE": null, "MAVAT_CODE": 10, "MAVAT_NAME": "", "NAME": "", "LABEL": "", "NUM": "532", "LEGAL_AREA": 0.0, "TYPE_CODE": 0, "TYPE_NAME": "", "SOURCE_COD": 0, "HASAVA": 0, "STATUS": "", "PL_CHANGE": "", "ADDRESS": "", "PLACE_NO": 0, "CALC_AREA": 0.0, "OLD_MIG": "", "AGAM_ID": 4005416470.0, "FONT_SIZE": 0.75, "ROTATION": 0.0}, "geometry": {"type": "Point", "coordinates": [34.849051732108926, 31.99563553622968]}}, {"type": "Feature", "properties": {"OBJECTID": 24273468, "LAYER_ID": 7623510, "GROUP_ID": 452743, "SCENARIO": "", "DEFQ": 0, "PLAN_NAME": "", "DATA_DATE": null, "MAVAT_CODE": 670, "MAVAT_NAME": "", "NAME": "", "LABEL": "", "NUM": "107", "LEGAL_AREA": 0.0, "TYPE_CODE": 0, "TYPE_NAME": "", "SOURCE_COD": 0, "HASAVA": 0, "STATUS": "", "PL_CHANGE": "", "ADDRESS": "", "PLACE_NO": 0, "CALC_AREA": 0.0, "OLD_MIG": "", "AGAM_ID": 4005416470.0, "FONT_SIZE": 0.75, "ROTATION": 0.0}, "geometry": {"type": "Point", "coordinates": [34.84903673380488, 31.99584390798996]}}]}