<?xml version="1.0" encoding="UTF-8"?>
<kml xmlns="http://www.opengis.net/kml/2.2"
 xmlns:gx="http://www.google.com/kml/ext/2.2">
<Document>
  <Style id="Plan">
	<LabelStyle>		
<color>00000000</color>
			
<scale>0</scale>
		
</LabelStyle>
		
<LineStyle>
			
<color>ffff0000</color>
			
<width>3</width>
		
</LineStyle>
		
<PolyStyle>
			
<fill>0</fill>
		
</PolyStyle>

   <BalloonStyle>
    <text>


<![CDATA[<?xml version="1.0"?>
<table border="0"  width="560" cellpadding="2" cellspacing="2" dir="rtl" xmlns:fo="http://www.w3.org/1999/XSL/Format">
<tr>
<td align="center" colspan="2" height="20" style="border-bottom: Solid 1px #b4b5b4">
<font face="Arial" size="3" color="#b50027">
<b>פרטי גבול תכנית</b>
</font>
</td>
</tr>


<tr>
<td  align="right"><font face="Arial" size="3">מספר תכנית</font>
</td>
<td align="right" bgcolor="#efefef" height="20">
<font face="Arial" size="3" color="#202520">
<b>$[PL_NUMBER]</b>
</font>
</td>
</tr>

<tr>
<td  align="right"><font face="Arial" size="3">שם תכנית</font>
</td>
<td align="right" bgcolor="#efefef" height="20">
<font face="Arial" size="3" color="#202520">
<b>$[PL_NAME]</b>
</font>
</td>
</tr>

<tr>
<td  align="right"><font face="Arial" size="3">שטח התכנית</font>
</td>
<td align="right" bgcolor="#efefef" height="20">
<font face="Arial" size="3" color="#202520">
<b>$[PL_AREA]</b>
</font>
</td>
</tr>

<tr>
<td  align="right"><font face="Arial" size="3">קישור לתכנית</font>
</td>
<td align="right" bgcolor="#efefef" height="20">
<font face="Arial" size="3" color="#202520">
<b>$[PL_URL]</b>
</font>
</td>
</tr>


<tr>
<td  align="right"><font face="Arial" size="3">תאריך יצור הקובץ</font>
</td>
<td align="right" bgcolor="#efefef" height="20">
<font face="Arial" size="3" color="#202520">
<b>$[CREATE_DATE]</b>
</font>
</td>
</tr>

</table>]]> 

</text>
     </BalloonStyle>
  </Style>

  <Placemark>
   <name name="name"><value>גבול תכנית</value></name>
   <description/>   
   <styleUrl>#Plan</styleUrl>
<MultiGeometry>
<Polygon><outerBoundaryIs><LinearRing><coordinates>34.8504392635882,31.9891096227642,0 34.8505873845256,31.9893726858903,0 34.851511487161,31.9890134116315,0 34.8515623887101,31.9889757902374,0 34.8516060361705,31.9889325123842,0 34.8516200523783,31.9888558981543,0 34.851623368712,31.9888102536275,0 34.8514732456127,31.9885082958761,0 34.8510855368565,31.9886391052993,0 34.8506325336419,31.9878188934738,0 34.8504319342118,31.9874452131184,0 34.8503269497882,31.9874883194046,0 34.8503941969626,31.9876282864701,0 34.8497393508813,31.9878789621824,0 34.8499474107872,31.9882464645517,0 34.8504392635882,31.9891096227642,0 </coordinates></LinearRing></outerBoundaryIs></Polygon>
</MultiGeometry>

   <ExtendedData>
  
    <Data name="PL_NUMBER"><value>גז/ 525/ 21</value></Data>
	 <Data name="PL_NAME"><value>מעון יום</value></Data>
	  <Data name="PL_AREA"><value>16.3</value></Data>
	   <Data name="PL_URL"><value>http://mavat.moin.gov.il/MavatPS/Forms/SV3.aspx?tid=3&amp;tnumb=%D7%92%D7%96/%20525/%2021</value></Data>
	    <Data name="CREATE_DATE"><value>06/10/2019 20:32:14</value></Data>
   </ExtendedData>
  </Placemark>

</Document>
</kml>