{"type": "FeatureCollection", "features": [{"type": "Feature", "properties": {"OBJECTID": 5553954, "LAYER_ID": 2322324, "GROUP_ID": 242125, "DEFQ": 0, "MAVAT_CODE": 22340, "MAVAT_NAME": "מלבן הדפסה", "PAGE_SIZE": 3, "SCALE": 250, "PAGE": 1, "PAGES": 1, "PLAN_NAME": "", "VER_ID": 4000239175.0, "AGAM_ID": 4000907927.0, "SHAPE_AREA": 3881.25, "SHAPE_LEN": 250.0}, "geometry": {"type": "Polygon", "coordinates": [[[34.858445924753866, 31.984695264575837], [34.85783753459694, 31.984693604707864], [34.8578352463451, 31.98530231640226], [34.858443640518935, 31.98530397630933], [34.858445924753866, 31.984695264575837]]]}}]}