{"type": "FeatureCollection", "features": [{"type": "Feature", "properties": {"OBJECTID": 11496487, "LAYER_ID": 2322321, "GROUP_ID": 242125, "SCENARIO": "", "DEFQ": 0, "PLAN_NAME": "", "DATA_DATE": null, "MAVAT_CODE": 23505, "MAVAT_NAME": "בלוק מידות - מספר", "BLOCKNAME": "", "ROTATION": 340.91061071, "TYPE_CODE": 0, "TYPE_NAME": "", "SOURCE_COD": 0, "STATUS": "", "PL_CHANGE": "", "PLACE_NO": 0, "ADDRESS": "", "RADIUS": 0.0, "LENGTH": 0.0, "WIDTH": 0.0, "REMARKS": "", "DATE_DEC": "", "TAG1": "", "TAG2": "", "TAG3": "", "STAGE": "", "NAME": "0.44", "LABEL": "", "AGAM_ID": 4000907927.0}, "geometry": {"type": "Point", "coordinates": [34.857899659418905, 31.984911322020334]}}, {"type": "Feature", "properties": {"OBJECTID": 11496488, "LAYER_ID": 2322321, "GROUP_ID": 242125, "SCENARIO": "", "DEFQ": 0, "PLAN_NAME": "", "DATA_DATE": null, "MAVAT_CODE": 23505, "MAVAT_NAME": "בלוק מידות - מספר", "BLOCKNAME": "", "ROTATION": 340.91061071, "TYPE_CODE": 0, "TYPE_NAME": "", "SOURCE_COD": 0, "STATUS": "", "PL_CHANGE": "", "PLACE_NO": 0, "ADDRESS": "", "RADIUS": 0.0, "LENGTH": 0.0, "WIDTH": 0.0, "REMARKS": "", "DATE_DEC": "", "TAG1": "", "TAG2": "", "TAG3": "", "STAGE": "", "NAME": "1.53", "LABEL": "", "AGAM_ID": 4000907927.0}, "geometry": {"type": "Point", "coordinates": [34.8579201529243, 31.984947212068874]}}, {"type": "Feature", "properties": {"OBJECTID": 11496489, "LAYER_ID": 2322321, "GROUP_ID": 242125, "SCENARIO": "", "DEFQ": 0, "PLAN_NAME": "", "DATA_DATE": null, "MAVAT_CODE": 23505, "MAVAT_NAME": "בלוק מידות - מספר", "BLOCKNAME": "", "ROTATION": 70.70995378, "TYPE_CODE": 0, "TYPE_NAME": "", "SOURCE_COD": 0, "STATUS": "", "PL_CHANGE": "", "PLACE_NO": 0, "ADDRESS": "", "RADIUS": 0.0, "LENGTH": 0.0, "WIDTH": 0.0, "REMARKS": "", "DATE_DEC": "", "TAG1": "", "TAG2": "", "TAG3": "", "STAGE": "", "NAME": "3", "LABEL": "", "AGAM_ID": 4000907927.0}, "geometry": {"type": "Point", "coordinates": [34.858160402634915, 31.985004351351236]}}, {"type": "Feature", "properties": {"OBJECTID": 11496490, "LAYER_ID": 2322321, "GROUP_ID": 242125, "SCENARIO": "", "DEFQ": 0, "PLAN_NAME": "", "DATA_DATE": null, "MAVAT_CODE": 23505, "MAVAT_NAME": "בלוק מידות - מספר", "BLOCKNAME": "", "ROTATION": 340.91061071, "TYPE_CODE": 0, "TYPE_NAME": "", "SOURCE_COD": 0, "STATUS": "", "PL_CHANGE": "", "PLACE_NO": 0, "ADDRESS": "", "RADIUS": 0.0, "LENGTH": 0.0, "WIDTH": 0.0, "REMARKS": "", "DATE_DEC": "", "TAG1": "", "TAG2": "", "TAG3": "", "STAGE": "", "NAME": "3", "LABEL": "", "AGAM_ID": 4000907927.0}, "geometry": {"type": "Point", "coordinates": [34.85797972084534, 31.985016499786898]}}, {"type": "Feature", "properties": {"OBJECTID": 11496491, "LAYER_ID": 2322321, "GROUP_ID": 242125, "SCENARIO": "", "DEFQ": 0, "PLAN_NAME": "", "DATA_DATE": null, "MAVAT_CODE": 23505, "MAVAT_NAME": "בלוק מידות - מספר", "BLOCKNAME": "", "ROTATION": 70.70995378, "TYPE_CODE": 0, "TYPE_NAME": "", "SOURCE_COD": 0, "STATUS": "", "PL_CHANGE": "", "PLACE_NO": 0, "ADDRESS": "", "RADIUS": 0.0, "LENGTH": 0.0, "WIDTH": 0.0, "REMARKS": "", "DATE_DEC": "", "TAG1": "", "TAG2": "", "TAG3": "", "STAGE": "", "NAME": "3", "LABEL": "", "AGAM_ID": 4000907927.0}, "geometry": {"type": "Point", "coordinates": [34.85809759916712, 31.985022894241883]}}, {"type": "Feature", "properties": {"OBJECTID": 11496492, "LAYER_ID": 2322321, "GROUP_ID": 242125, "SCENARIO": "", "DEFQ": 0, "PLAN_NAME": "", "DATA_DATE": null, "MAVAT_CODE": 23505, "MAVAT_NAME": "בלוק מידות - מספר", "BLOCKNAME": "", "ROTATION": 340.68859966, "TYPE_CODE": 0, "TYPE_NAME": "", "SOURCE_COD": 0, "STATUS": "", "PL_CHANGE": "", "PLACE_NO": 0, "ADDRESS": "", "RADIUS": 0.0, "LENGTH": 0.0, "WIDTH": 0.0, "REMARKS": "", "DATE_DEC": "", "TAG1": "", "TAG2": "", "TAG3": "", "STAGE": "", "NAME": "3", "LABEL": "", "AGAM_ID": 4000907927.0}, "geometry": {"type": "Point", "coordinates": [34.858194603606584, 31.984939691490812]}}, {"type": "Feature", "properties": {"OBJECTID": 11496493, "LAYER_ID": 2322321, "GROUP_ID": 242125, "SCENARIO": "", "DEFQ": 0, "PLAN_NAME": "", "DATA_DATE": null, "MAVAT_CODE": 23505, "MAVAT_NAME": "בלוק מידות - מספר", "BLOCKNAME": "", "ROTATION": 70.85881034, "TYPE_CODE": 0, "TYPE_NAME": "", "SOURCE_COD": 0, "STATUS": "", "PL_CHANGE": "", "PLACE_NO": 0, "ADDRESS": "", "RADIUS": 0.0, "LENGTH": 0.0, "WIDTH": 0.0, "REMARKS": "", "DATE_DEC": "", "TAG1": "", "TAG2": "", "TAG3": "", "STAGE": "", "NAME": "3", "LABEL": "", "AGAM_ID": 4000907927.0}, "geometry": {"type": "Point", "coordinates": [34.85804947166188, 31.984775473718567]}}]}