{"type": "FeatureCollection", "features": [{"type": "Feature", "properties": {"OBJECTID": 5853278, "LAYER_ID": 2322316, "GROUP_ID": 242125, "SCENARIO": "", "DEFQ": 0, "PLAN_NAME": "425-0589184", "DATA_DATE": null, "MAVAT_CODE": 20010, "MAVAT_NAME": "גבול תכנית אמיתי", "NAME": "", "LABEL": "", "TYPE_CODE": 0, "TYPE_NAME": "", "SOURCE_COD": 0, "LEGAL_AREA": 0.0, "IS_ANALITY": 0, "HASAVA": 0, "STATUS": "", "PL_CHANGE": "", "ADDRESS": "", "PLACE_NO": 0, "REMARKS": "", "AGAM_ID": 4000907927.0, "VER_ID": 4000239175.0, "SHAPE_AREA": 758.8762, "SHAPE_LEN": 110.734207157}, "geometry": {"type": "Polygon", "coordinates": [[[34.857994064425505, 31.98507445822495], [34.85824404962232, 31.985000651266358], [34.858138684651294, 31.984741726340108], [34.85788965572979, 31.984814633903323], [34.857994064425505, 31.98507445822495]]]}}]}