{"type": "FeatureCollection", "features": [{"type": "Feature", "properties": {"OBJECTID": 11959303, "LAYER_ID": 2322317, "GROUP_ID": 242125, "SCENARIO": "", "DEFQ": 0, "PLAN_NAME": "", "DATA_DATE": null, "MAVAT_CODE": 10, "MAVAT_NAME": "מגורים", "NAME": "", "LABEL": "", "NUM": "101", "LEGAL_AREA": 0.0, "TYPE_CODE": 0, "TYPE_NAME": "", "SOURCE_COD": 0, "HASAVA": 0, "STATUS": "", "PL_CHANGE": "", "ADDRESS": "", "PLACE_NO": 0, "CALC_AREA": 0.0, "OLD_MIG": "", "AGAM_ID": 4000907927.0, "SHAPE_AREA": 758.8762, "SHAPE_LEN": 110.734207157}, "geometry": {"type": "Polygon", "coordinates": [[[34.857994064425505, 31.985074458224965], [34.85824404962233, 31.985000651266375], [34.858138684651294, 31.984741726340108], [34.85788965572979, 31.984814633903323], [34.857994064425505, 31.985074458224965]]]}}]}