{"type": "FeatureCollection", "features": [{"type": "Feature", "properties": {"OBJECTID": 20983301, "LAYER_ID": 2322319, "GROUP_ID": 242125, "SCENARIO": "", "DEFQ": 0, "PLAN_NAME": "", "DATA_DATE": null, "MAVAT_CODE": 21010, "MAVAT_NAME": "קו בנין", "NAME": "", "LABEL": "", "TYPE_CODE": 0, "TYPE_NAME": "", "SOURCE_COD": 0, "PL_CHANGE": "", "PLACE_NO": 0, "ADDRESS": "", "LENGTH": 0.0, "WIDTH": 0.0, "REMARKS": "", "DATE_DEC": "", "STATUS": "", "STAGE": "", "AGAM_ID": 4000907927.0, "SHAPE_LEN": 91.8557419772}, "geometry": {"type": "LineString", "coordinates": [[34.85790433727501, 31.984838898545313], [34.85811906351677, 31.98477607481323], [34.85820365339376, 31.984983946273374], [34.85801377294845, 31.985040007242123], [34.8579656814897, 31.98492033296939], [34.857950935208756, 31.98492463715831], [34.85794347968233, 31.98490600004656], [34.85793257633862, 31.984909169838247], [34.85790433727501, 31.984838898545313]]}}, {"type": "Feature", "properties": {"OBJECTID": 20983314, "LAYER_ID": 2322319, "GROUP_ID": 242125, "SCENARIO": "", "DEFQ": 0, "PLAN_NAME": "", "DATA_DATE": null, "MAVAT_CODE": 23500, "MAVAT_NAME": "מידות - קו", "NAME": "", "LABEL": "", "TYPE_CODE": 0, "TYPE_NAME": "", "SOURCE_COD": 0, "PL_CHANGE": "", "PLACE_NO": 0, "ADDRESS": "", "LENGTH": 0.0, "WIDTH": 0.0, "REMARKS": "", "DATE_DEC": "", "STATUS": "", "STAGE": "", "AGAM_ID": 4000907927.0, "SHAPE_LEN": 3.00000140282}, "geometry": {"type": "LineString", "coordinates": [[34.85812146356673, 31.98503684342024], [34.85811107428866, 31.985011279535414]]}}, {"type": "Feature", "properties": {"OBJECTID": 20983315, "LAYER_ID": 2322319, "GROUP_ID": 242125, "SCENARIO": "", "DEFQ": 0, "PLAN_NAME": "", "DATA_DATE": null, "MAVAT_CODE": 23500, "MAVAT_NAME": "מידות - קו", "NAME": "", "LABEL": "", "TYPE_CODE": 0, "TYPE_NAME": "", "SOURCE_COD": 0, "PL_CHANGE": "", "PLACE_NO": 0, "ADDRESS": "", "LENGTH": 0.0, "WIDTH": 0.0, "REMARKS": "", "DATE_DEC": "", "STATUS": "", "STAGE": "", "AGAM_ID": 4000907927.0, "SHAPE_LEN": 2.99999881279}, "geometry": {"type": "LineString", "coordinates": [[34.858210963664206, 31.98491934440021], [34.85818097418049, 31.984928210205478]]}}, {"type": "Feature", "properties": {"OBJECTID": 20983316, "LAYER_ID": 2322319, "GROUP_ID": 242125, "SCENARIO": "", "DEFQ": 0, "PLAN_NAME": "", "DATA_DATE": null, "MAVAT_CODE": 23500, "MAVAT_NAME": "מידות - קו", "NAME": "", "LABEL": "", "TYPE_CODE": 0, "TYPE_NAME": "", "SOURCE_COD": 0, "PL_CHANGE": "", "PLACE_NO": 0, "ADDRESS": "", "LENGTH": 0.0, "WIDTH": 0.0, "REMARKS": "", "DATE_DEC": "", "STATUS": "", "STAGE": "", "AGAM_ID": 4000907927.0, "SHAPE_LEN": 3.00001530669}, "geometry": {"type": "LineString", "coordinates": [[34.857966142285775, 31.985004973617503], [34.857996172125226, 31.984996207081767]]}}, {"type": "Feature", "properties": {"OBJECTID": 20983317, "LAYER_ID": 2322319, "GROUP_ID": 242125, "SCENARIO": "", "DEFQ": 0, "PLAN_NAME": "", "DATA_DATE": null, "MAVAT_CODE": 23500, "MAVAT_NAME": "מידות - קו", "NAME": "", "LABEL": "", "TYPE_CODE": 0, "TYPE_NAME": "", "SOURCE_COD": 0, "PL_CHANGE": "", "PLACE_NO": 0, "ADDRESS": "", "LENGTH": 0.0, "WIDTH": 0.0, "REMARKS": "", "DATE_DEC": "", "STATUS": "", "STAGE": "", "AGAM_ID": 4000907927.0, "SHAPE_LEN": 3.00000140282}, "geometry": {"type": "LineString", "coordinates": [[34.85812146356673, 31.98503684342024], [34.85811107428866, 31.985011279535414]]}}, {"type": "Feature", "properties": {"OBJECTID": 20983318, "LAYER_ID": 2322319, "GROUP_ID": 242125, "SCENARIO": "", "DEFQ": 0, "PLAN_NAME": "", "DATA_DATE": null, "MAVAT_CODE": 23500, "MAVAT_NAME": "מידות - קו", "NAME": "", "LABEL": "", "TYPE_CODE": 0, "TYPE_NAME": "", "SOURCE_COD": 0, "PL_CHANGE": "", "PLACE_NO": 0, "ADDRESS": "", "LENGTH": 0.0, "WIDTH": 0.0, "REMARKS": "", "DATE_DEC": "", "STATUS": "", "STAGE": "", "AGAM_ID": 4000907927.0, "SHAPE_LEN": 2.99999881279}, "geometry": {"type": "LineString", "coordinates": [[34.858210963664206, 31.98491934440021], [34.85818097418049, 31.984928210205478]]}}, {"type": "Feature", "properties": {"OBJECTID": 20983319, "LAYER_ID": 2322319, "GROUP_ID": 242125, "SCENARIO": "", "DEFQ": 0, "PLAN_NAME": "", "DATA_DATE": null, "MAVAT_CODE": 23500, "MAVAT_NAME": "מידות - קו", "NAME": "", "LABEL": "", "TYPE_CODE": 0, "TYPE_NAME": "", "SOURCE_COD": 0, "PL_CHANGE": "", "PLACE_NO": 0, "ADDRESS": "", "LENGTH": 0.0, "WIDTH": 0.0, "REMARKS": "", "DATE_DEC": "", "STATUS": "", "STAGE": "", "AGAM_ID": 4000907927.0, "SHAPE_LEN": 3.00001530669}, "geometry": {"type": "LineString", "coordinates": [[34.857966142285775, 31.985004973617503], [34.857996172125226, 31.984996207081767]]}}, {"type": "Feature", "properties": {"OBJECTID": 20983320, "LAYER_ID": 2322319, "GROUP_ID": 242125, "SCENARIO": "", "DEFQ": 0, "PLAN_NAME": "", "DATA_DATE": null, "MAVAT_CODE": 23500, "MAVAT_NAME": "מידות - קו", "NAME": "", "LABEL": "", "TYPE_CODE": 0, "TYPE_NAME": "", "SOURCE_COD": 0, "PL_CHANGE": "", "PLACE_NO": 0, "ADDRESS": "", "LENGTH": 0.0, "WIDTH": 0.0, "REMARKS": "", "DATE_DEC": "", "STATUS": "", "STAGE": "", "AGAM_ID": 4000907927.0, "SHAPE_LEN": 3.00000140282}, "geometry": {"type": "LineString", "coordinates": [[34.85812146356673, 31.98503684342024], [34.85811107428866, 31.985011279535414]]}}, {"type": "Feature", "properties": {"OBJECTID": 20983321, "LAYER_ID": 2322319, "GROUP_ID": 242125, "SCENARIO": "", "DEFQ": 0, "PLAN_NAME": "", "DATA_DATE": null, "MAVAT_CODE": 23500, "MAVAT_NAME": "מידות - קו", "NAME": "", "LABEL": "", "TYPE_CODE": 0, "TYPE_NAME": "", "SOURCE_COD": 0, "PL_CHANGE": "", "PLACE_NO": 0, "ADDRESS": "", "LENGTH": 0.0, "WIDTH": 0.0, "REMARKS": "", "DATE_DEC": "", "STATUS": "", "STAGE": "", "AGAM_ID": 4000907927.0, "SHAPE_LEN": 2.99999881279}, "geometry": {"type": "LineString", "coordinates": [[34.858210963664206, 31.98491934440021], [34.85818097418049, 31.984928210205478]]}}, {"type": "Feature", "properties": {"OBJECTID": 20983322, "LAYER_ID": 2322319, "GROUP_ID": 242125, "SCENARIO": "", "DEFQ": 0, "PLAN_NAME": "", "DATA_DATE": null, "MAVAT_CODE": 23500, "MAVAT_NAME": "מידות - קו", "NAME": "", "LABEL": "", "TYPE_CODE": 0, "TYPE_NAME": "", "SOURCE_COD": 0, "PL_CHANGE": "", "PLACE_NO": 0, "ADDRESS": "", "LENGTH": 0.0, "WIDTH": 0.0, "REMARKS": "", "DATE_DEC": "", "STATUS": "", "STAGE": "", "AGAM_ID": 4000907927.0, "SHAPE_LEN": 3.00001530669}, "geometry": {"type": "LineString", "coordinates": [[34.857966142285775, 31.985004973617503], [34.857996172125226, 31.984996207081767]]}}, {"type": "Feature", "properties": {"OBJECTID": 20983323, "LAYER_ID": 2322319, "GROUP_ID": 242125, "SCENARIO": "", "DEFQ": 0, "PLAN_NAME": "", "DATA_DATE": null, "MAVAT_CODE": 23500, "MAVAT_NAME": "מידות - קו", "NAME": "", "LABEL": "", "TYPE_CODE": 0, "TYPE_NAME": "", "SOURCE_COD": 0, "PL_CHANGE": "", "PLACE_NO": 0, "ADDRESS": "", "LENGTH": 0.0, "WIDTH": 0.0, "REMARKS": "", "DATE_DEC": "", "STATUS": "", "STAGE": "", "AGAM_ID": 4000907927.0, "SHAPE_LEN": 3.00000140282}, "geometry": {"type": "LineString", "coordinates": [[34.85812146356673, 31.98503684342024], [34.85811107428866, 31.985011279535414]]}}, {"type": "Feature", "properties": {"OBJECTID": 20983324, "LAYER_ID": 2322319, "GROUP_ID": 242125, "SCENARIO": "", "DEFQ": 0, "PLAN_NAME": "", "DATA_DATE": null, "MAVAT_CODE": 23500, "MAVAT_NAME": "מידות - קו", "NAME": "", "LABEL": "", "TYPE_CODE": 0, "TYPE_NAME": "", "SOURCE_COD": 0, "PL_CHANGE": "", "PLACE_NO": 0, "ADDRESS": "", "LENGTH": 0.0, "WIDTH": 0.0, "REMARKS": "", "DATE_DEC": "", "STATUS": "", "STAGE": "", "AGAM_ID": 4000907927.0, "SHAPE_LEN": 2.99999881279}, "geometry": {"type": "LineString", "coordinates": [[34.858210963664206, 31.98491934440021], [34.85818097418049, 31.984928210205478]]}}, {"type": "Feature", "properties": {"OBJECTID": 20983325, "LAYER_ID": 2322319, "GROUP_ID": 242125, "SCENARIO": "", "DEFQ": 0, "PLAN_NAME": "", "DATA_DATE": null, "MAVAT_CODE": 23500, "MAVAT_NAME": "מידות - קו", "NAME": "", "LABEL": "", "TYPE_CODE": 0, "TYPE_NAME": "", "SOURCE_COD": 0, "PL_CHANGE": "", "PLACE_NO": 0, "ADDRESS": "", "LENGTH": 0.0, "WIDTH": 0.0, "REMARKS": "", "DATE_DEC": "", "STATUS": "", "STAGE": "", "AGAM_ID": 4000907927.0, "SHAPE_LEN": 3.00001530669}, "geometry": {"type": "LineString", "coordinates": [[34.857966142285775, 31.985004973617503], [34.857996172125226, 31.984996207081767]]}}, {"type": "Feature", "properties": {"OBJECTID": 20983326, "LAYER_ID": 2322319, "GROUP_ID": 242125, "SCENARIO": "", "DEFQ": 0, "PLAN_NAME": "", "DATA_DATE": null, "MAVAT_CODE": 23500, "MAVAT_NAME": "מידות - קו", "NAME": "", "LABEL": "", "TYPE_CODE": 0, "TYPE_NAME": "", "SOURCE_COD": 0, "PL_CHANGE": "", "PLACE_NO": 0, "ADDRESS": "", "LENGTH": 0.0, "WIDTH": 0.0, "REMARKS": "", "DATE_DEC": "", "STATUS": "", "STAGE": "", "AGAM_ID": 4000907927.0, "SHAPE_LEN": 3.00000140282}, "geometry": {"type": "LineString", "coordinates": [[34.85812146356673, 31.98503684342024], [34.85811107428866, 31.985011279535414]]}}, {"type": "Feature", "properties": {"OBJECTID": 20983327, "LAYER_ID": 2322319, "GROUP_ID": 242125, "SCENARIO": "", "DEFQ": 0, "PLAN_NAME": "", "DATA_DATE": null, "MAVAT_CODE": 23500, "MAVAT_NAME": "מידות - קו", "NAME": "", "LABEL": "", "TYPE_CODE": 0, "TYPE_NAME": "", "SOURCE_COD": 0, "PL_CHANGE": "", "PLACE_NO": 0, "ADDRESS": "", "LENGTH": 0.0, "WIDTH": 0.0, "REMARKS": "", "DATE_DEC": "", "STATUS": "", "STAGE": "", "AGAM_ID": 4000907927.0, "SHAPE_LEN": 2.99999881279}, "geometry": {"type": "LineString", "coordinates": [[34.858210963664206, 31.98491934440021], [34.85818097418049, 31.984928210205478]]}}, {"type": "Feature", "properties": {"OBJECTID": 20983302, "LAYER_ID": 2322319, "GROUP_ID": 242125, "SCENARIO": "", "DEFQ": 0, "PLAN_NAME": "", "DATA_DATE": null, "MAVAT_CODE": 23500, "MAVAT_NAME": "מידות - קו", "NAME": "", "LABEL": "", "TYPE_CODE": 0, "TYPE_NAME": "", "SOURCE_COD": 0, "PL_CHANGE": "", "PLACE_NO": 0, "ADDRESS": "", "LENGTH": 0.0, "WIDTH": 0.0, "REMARKS": "", "DATE_DEC": "", "STATUS": "", "STAGE": "", "AGAM_ID": 4000907927.0, "SHAPE_LEN": 0.441052444331}, "geometry": {"type": "LineString", "coordinates": [[34.85791990893337, 31.984889921817953], [34.85792432391857, 31.98488863324364]]}}, {"type": "Feature", "properties": {"OBJECTID": 20983303, "LAYER_ID": 2322319, "GROUP_ID": 242125, "SCENARIO": "", "DEFQ": 0, "PLAN_NAME": "", "DATA_DATE": null, "MAVAT_CODE": 23500, "MAVAT_NAME": "מידות - קו", "NAME": "", "LABEL": "", "TYPE_CODE": 0, "TYPE_NAME": "", "SOURCE_COD": 0, "PL_CHANGE": "", "PLACE_NO": 0, "ADDRESS": "", "LENGTH": 0.0, "WIDTH": 0.0, "REMARKS": "", "DATE_DEC": "", "STATUS": "", "STAGE": "", "AGAM_ID": 4000907927.0, "SHAPE_LEN": 1.52673223592}, "geometry": {"type": "LineString", "coordinates": [[34.85793496830628, 31.984927396874674], [34.8579502511996, 31.984922936697455]]}}, {"type": "Feature", "properties": {"OBJECTID": 20983304, "LAYER_ID": 2322319, "GROUP_ID": 242125, "SCENARIO": "", "DEFQ": 0, "PLAN_NAME": "", "DATA_DATE": null, "MAVAT_CODE": 23500, "MAVAT_NAME": "מידות - קו", "NAME": "", "LABEL": "", "TYPE_CODE": 0, "TYPE_NAME": "", "SOURCE_COD": 0, "PL_CHANGE": "", "PLACE_NO": 0, "ADDRESS": "", "LENGTH": 0.0, "WIDTH": 0.0, "REMARKS": "", "DATE_DEC": "", "STATUS": "", "STAGE": "", "AGAM_ID": 4000907927.0, "SHAPE_LEN": 3.00000140282}, "geometry": {"type": "LineString", "coordinates": [[34.858184269155345, 31.98501830056871], [34.858173879861866, 31.98499273668884]]}}, {"type": "Feature", "properties": {"OBJECTID": 20983305, "LAYER_ID": 2322319, "GROUP_ID": 242125, "SCENARIO": "", "DEFQ": 0, "PLAN_NAME": "", "DATA_DATE": null, "MAVAT_CODE": 23500, "MAVAT_NAME": "מידות - קו", "NAME": "", "LABEL": "", "TYPE_CODE": 0, "TYPE_NAME": "", "SOURCE_COD": 0, "PL_CHANGE": "", "PLACE_NO": 0, "ADDRESS": "", "LENGTH": 0.0, "WIDTH": 0.0, "REMARKS": "", "DATE_DEC": "", "STATUS": "", "STAGE": "", "AGAM_ID": 4000907927.0, "SHAPE_LEN": 3.00001530669}, "geometry": {"type": "LineString", "coordinates": [[34.857966142285775, 31.985004973617503], [34.857996172125226, 31.984996207081767]]}}, {"type": "Feature", "properties": {"OBJECTID": 20983306, "LAYER_ID": 2322319, "GROUP_ID": 242125, "SCENARIO": "", "DEFQ": 0, "PLAN_NAME": "", "DATA_DATE": null, "MAVAT_CODE": 23500, "MAVAT_NAME": "מידות - קו", "NAME": "", "LABEL": "", "TYPE_CODE": 0, "TYPE_NAME": "", "SOURCE_COD": 0, "PL_CHANGE": "", "PLACE_NO": 0, "ADDRESS": "", "LENGTH": 0.0, "WIDTH": 0.0, "REMARKS": "", "DATE_DEC": "", "STATUS": "", "STAGE": "", "AGAM_ID": 4000907927.0, "SHAPE_LEN": 3.00000140282}, "geometry": {"type": "LineString", "coordinates": [[34.85812146356673, 31.98503684342024], [34.85811107428866, 31.985011279535414]]}}, {"type": "Feature", "properties": {"OBJECTID": 20983307, "LAYER_ID": 2322319, "GROUP_ID": 242125, "SCENARIO": "", "DEFQ": 0, "PLAN_NAME": "", "DATA_DATE": null, "MAVAT_CODE": 23500, "MAVAT_NAME": "מידות - קו", "NAME": "", "LABEL": "", "TYPE_CODE": 0, "TYPE_NAME": "", "SOURCE_COD": 0, "PL_CHANGE": "", "PLACE_NO": 0, "ADDRESS": "", "LENGTH": 0.0, "WIDTH": 0.0, "REMARKS": "", "DATE_DEC": "", "STATUS": "", "STAGE": "", "AGAM_ID": 4000907927.0, "SHAPE_LEN": 2.99999881279}, "geometry": {"type": "LineString", "coordinates": [[34.858210963664206, 31.98491934440021], [34.85818097418049, 31.984928210205478]]}}, {"type": "Feature", "properties": {"OBJECTID": 20983308, "LAYER_ID": 2322319, "GROUP_ID": 242125, "SCENARIO": "", "DEFQ": 0, "PLAN_NAME": "", "DATA_DATE": null, "MAVAT_CODE": 23500, "MAVAT_NAME": "מידות - קו", "NAME": "", "LABEL": "", "TYPE_CODE": 0, "TYPE_NAME": "", "SOURCE_COD": 0, "PL_CHANGE": "", "PLACE_NO": 0, "ADDRESS": "", "LENGTH": 0.0, "WIDTH": 0.0, "REMARKS": "", "DATE_DEC": "", "STATUS": "", "STAGE": "", "AGAM_ID": 4000907927.0, "SHAPE_LEN": 3.00004513347}, "geometry": {"type": "LineString", "coordinates": [[34.85806298267167, 31.984763888017394], [34.85807329368188, 31.984789475320675]]}}, {"type": "Feature", "properties": {"OBJECTID": 20983309, "LAYER_ID": 2322319, "GROUP_ID": 242125, "SCENARIO": "", "DEFQ": 0, "PLAN_NAME": "", "DATA_DATE": null, "MAVAT_CODE": 23500, "MAVAT_NAME": "מידות - קו", "NAME": "", "LABEL": "", "TYPE_CODE": 0, "TYPE_NAME": "", "SOURCE_COD": 0, "PL_CHANGE": "", "PLACE_NO": 0, "ADDRESS": "", "LENGTH": 0.0, "WIDTH": 0.0, "REMARKS": "", "DATE_DEC": "", "STATUS": "", "STAGE": "", "AGAM_ID": 4000907927.0, "SHAPE_LEN": 3.00004513347}, "geometry": {"type": "LineString", "coordinates": [[34.85806298267167, 31.984763888017394], [34.85807329368188, 31.984789475320675]]}}, {"type": "Feature", "properties": {"OBJECTID": 20983310, "LAYER_ID": 2322319, "GROUP_ID": 242125, "SCENARIO": "", "DEFQ": 0, "PLAN_NAME": "", "DATA_DATE": null, "MAVAT_CODE": 23500, "MAVAT_NAME": "מידות - קו", "NAME": "", "LABEL": "", "TYPE_CODE": 0, "TYPE_NAME": "", "SOURCE_COD": 0, "PL_CHANGE": "", "PLACE_NO": 0, "ADDRESS": "", "LENGTH": 0.0, "WIDTH": 0.0, "REMARKS": "", "DATE_DEC": "", "STATUS": "", "STAGE": "", "AGAM_ID": 4000907927.0, "SHAPE_LEN": 0.441052444331}, "geometry": {"type": "LineString", "coordinates": [[34.85791990893337, 31.984889921817953], [34.85792432391857, 31.98488863324364]]}}, {"type": "Feature", "properties": {"OBJECTID": 20983311, "LAYER_ID": 2322319, "GROUP_ID": 242125, "SCENARIO": "", "DEFQ": 0, "PLAN_NAME": "", "DATA_DATE": null, "MAVAT_CODE": 23500, "MAVAT_NAME": "מידות - קו", "NAME": "", "LABEL": "", "TYPE_CODE": 0, "TYPE_NAME": "", "SOURCE_COD": 0, "PL_CHANGE": "", "PLACE_NO": 0, "ADDRESS": "", "LENGTH": 0.0, "WIDTH": 0.0, "REMARKS": "", "DATE_DEC": "", "STATUS": "", "STAGE": "", "AGAM_ID": 4000907927.0, "SHAPE_LEN": 1.52673223592}, "geometry": {"type": "LineString", "coordinates": [[34.85793496830628, 31.984927396874674], [34.8579502511996, 31.984922936697455]]}}, {"type": "Feature", "properties": {"OBJECTID": 20983312, "LAYER_ID": 2322319, "GROUP_ID": 242125, "SCENARIO": "", "DEFQ": 0, "PLAN_NAME": "", "DATA_DATE": null, "MAVAT_CODE": 23500, "MAVAT_NAME": "מידות - קו", "NAME": "", "LABEL": "", "TYPE_CODE": 0, "TYPE_NAME": "", "SOURCE_COD": 0, "PL_CHANGE": "", "PLACE_NO": 0, "ADDRESS": "", "LENGTH": 0.0, "WIDTH": 0.0, "REMARKS": "", "DATE_DEC": "", "STATUS": "", "STAGE": "", "AGAM_ID": 4000907927.0, "SHAPE_LEN": 3.00000140282}, "geometry": {"type": "LineString", "coordinates": [[34.858184269155345, 31.98501830056871], [34.858173879861866, 31.98499273668884]]}}, {"type": "Feature", "properties": {"OBJECTID": 20983313, "LAYER_ID": 2322319, "GROUP_ID": 242125, "SCENARIO": "", "DEFQ": 0, "PLAN_NAME": "", "DATA_DATE": null, "MAVAT_CODE": 23500, "MAVAT_NAME": "מידות - קו", "NAME": "", "LABEL": "", "TYPE_CODE": 0, "TYPE_NAME": "", "SOURCE_COD": 0, "PL_CHANGE": "", "PLACE_NO": 0, "ADDRESS": "", "LENGTH": 0.0, "WIDTH": 0.0, "REMARKS": "", "DATE_DEC": "", "STATUS": "", "STAGE": "", "AGAM_ID": 4000907927.0, "SHAPE_LEN": 3.00001530669}, "geometry": {"type": "LineString", "coordinates": [[34.857966142285775, 31.985004973617503], [34.857996172125226, 31.984996207081767]]}}]}