{"type": "FeatureCollection", "name": "עברות בניה שטחים פתוחים", "features": [{"type": "Feature", "properties": {"OBJECTID": 2, "Yeud": "חקלאי משקי", "migrash": "37", "area": 177, "internalI": 920, "Permit": 2, "gushtxt": "6875", "helkatxt": "19", "tabamig": "משמ/53/גז", "Hitertext": "ללא היתר", "VaadHeb": "יגל", "tabaYeud": "משמ/53/גז", "Legalproc": "יש תיק פיקוח", "LegalStat": "אין הליך משפטי", "LegalSt1": -2209161600000, "status23": "מבנה פורק"}, "geometry": {"type": "Polygon", "coordinates": [[[34.87578304791457, 31.99332075044559], [34.875892495232, 31.993396240664335], [34.87598047995179, 31.993302966667812], [34.87587342065739, 31.993226974088955], [34.87578304791457, 31.99332075044559]]]}}, {"type": "Feature", "properties": {"OBJECTID": 4, "Yeud": "אזור חקלאי/נוף כפרי פתוח", "migrash": " ", "area": 18, "internalI": 304, "Permit": 1, "gushtxt": "6465", "helkatxt": "132", "tabamig": " ", "Hitertext": "קיים היתר", "VaadHeb": "יגל", "tabaYeud": "תמ\"מ/21/3", "Legalproc": " ", "LegalStat": " ", "LegalSt1": null, "status23": "קיים היתר"}, "geometry": {"type": "Polygon", "coordinates": [[[34.872501042269015, 31.993466971037602], [34.87255990309104, 31.993508270672223], [34.87257551089992, 31.99349221248514], [34.87251357610567, 31.993448256220372], [34.872498849077616, 31.993465091353073], [34.872501042269015, 31.993466971037602]]]}}, {"type": "Feature", "properties": {"OBJECTID": 8, "Yeud": "חקלאי משקי", "migrash": "51", "area": 99, "internalI": 727, "Permit": 2, "gushtxt": "6875", "helkatxt": "5", "tabamig": "משמ/53/גז", "Hitertext": "ללא היתר", "VaadHeb": "יגל", "tabaYeud": "משמ/53/גז", "Legalproc": "אין תיק פיקוח", "LegalStat": "אין הליך משפטי", "LegalSt1": -2209161600000, "status23": "ללא היתר"}, "geometry": {"type": "Polygon", "coordinates": [[[34.87960844386198, 31.989525444657236], [34.8797202565921, 31.989415973030837], [34.87965710904183, 31.989359840051097], [34.879616422927995, 31.989399712030227], [34.87964574574261, 31.989426210848208], [34.879571033268356, 31.98949576159922], [34.87960844386198, 31.989525444657236]]]}}, {"type": "Feature", "properties": {"OBJECTID": 13, "Yeud": "חקלאי משקי", "migrash": "17", "area": 196, "internalI": 646, "Permit": 2, "gushtxt": "6876", "helkatxt": "4", "tabamig": "משמ/53/גז", "Hitertext": "ללא היתר", "VaadHeb": "יגל", "tabaYeud": "משמ/53/גז", "Legalproc": "יש תיק פיקוח", "LegalStat": "אין הליך משפטי", "LegalSt1": -2209161600000, "status23": "ללא היתר"}, "geometry": {"type": "Polygon", "coordinates": [[[34.87839723899671, 31.988115260435098], [34.87854948991153, 31.988225414610078], [34.878631630276935, 31.9881531266955], [34.87846742093657, 31.98805242799103], [34.87839723899671, 31.988115260435098]]]}}, {"type": "Feature", "properties": {"OBJECTID": 17, "Yeud": "חקלאי משקי", "migrash": "18", "area": 1574, "internalI": 552, "Permit": 2, "gushtxt": "6839", "helkatxt": "9", "tabamig": "משמ/63/גז", "Hitertext": "ללא היתר", "VaadHeb": "צפריה", "tabaYeud": "משמ/63/גז", "Legalproc": "אין תיק פיקוח", "LegalStat": "הוגש כתב אישום בתיק עמק 90583/05 ובתיק 51371-11-11  ניתן צו הריסה ואיסור שימוש    לביצוע עד ליום 09/04/2017", "LegalSt1": -2209161600000, "status23": "ללא היתר"}, "geometry": {"type": "Polygon", "coordinates": [[[34.86174489876154, 32.003838367874586], [34.86228656619277, 32.00400379342592], [34.86239876298534, 32.00376695358], [34.86183804393159, 32.00359334642314], [34.86174489876154, 32.003838367874586]]]}}, {"type": "Feature", "properties": {"OBJECTID": 45, "Yeud": "חקלאי משקי", "migrash": "26", "area": 14, "internalI": 907, "Permit": 2, "gushtxt": "6875", "helkatxt": "30", "tabamig": "משמ/53/גז", "Hitertext": "ללא היתר", "VaadHeb": "יגל", "tabaYeud": "משמ/53/גז", "Legalproc": "אין תיק פיקוח", "LegalStat": "אין הליך משפטי", "LegalSt1": -2209161600000, "status23": "ללא היתר"}, "geometry": {"type": "Polygon", "coordinates": [[[34.876404776833844, 31.990962117547195], [34.87643729458154, 31.9909874990024], [34.876461903774164, 31.99096438262152], [34.87643108957461, 31.990939023611297], [34.876404776833844, 31.990962117547195]]]}}, {"type": "Feature", "properties": {"OBJECTID": 53, "Yeud": "אזור חקלאי/נוף כפרי פתוח", "migrash": " ", "area": 21, "internalI": 305, "Permit": 1, "gushtxt": "6465", "helkatxt": "134", "tabamig": " ", "Hitertext": "קיים היתר", "VaadHeb": "יגל", "tabaYeud": "תמ\"מ/21/3", "Legalproc": " ", "LegalStat": " ", "LegalSt1": null, "status23": "קיים היתר"}, "geometry": {"type": "Polygon", "coordinates": [[[34.872404496324656, 31.993397807151414], [34.87242289442085, 31.993379732635184], [34.87235267415067, 31.993330802811293], [34.87233501505657, 31.99334700530301], [34.87240450308153, 31.993395931417222], [34.872404496324656, 31.993397807151414]]]}}, {"type": "Feature", "properties": {"OBJECTID": 57, "Yeud": "חקלאי משקי", "migrash": "40", "area": 56, "internalI": 749, "Permit": 2, "gushtxt": "6875", "helkatxt": "16", "tabamig": "משמ/53/גז", "Hitertext": "ללא היתר", "VaadHeb": "יגל", "tabaYeud": "משמ/53/גז", "Legalproc": "יש תיק פיקוח", "LegalStat": "הוגש כתב אישום בתיק עמק 14434-09-14 ,  התיק נגמר במחיקת נאשמים ללא צווים והרשעות", "LegalSt1": -2209161600000, "status23": "ללא היתר"}, "geometry": {"type": "Polygon", "coordinates": [[[34.87724881505212, 31.992842369291633], [34.87735153576352, 31.99290903299839], [34.8773822596717, 31.992876590417914], [34.87727675840656, 31.99280924141138], [34.87724881505212, 31.992842369291633]]]}}, {"type": "Feature", "properties": {"OBJECTID": 62, "Yeud": "חקלאי משקי", "migrash": "52", "area": 407, "internalI": 720, "Permit": 1, "gushtxt": "6875", "helkatxt": "4", "tabamig": "משמ/53/גז", "Hitertext": "קיים היתר", "VaadHeb": "יגל", "tabaYeud": "משמ/53/גז", "Legalproc": " ", "LegalStat": " ", "LegalSt1": -2209161600000, "status23": "קיים היתר"}, "geometry": {"type": "Polygon", "coordinates": [[[34.88020255391382, 31.989433717171327], [34.880382441663144, 31.989557632742045], [34.8803700848571, 31.989568433669373], [34.88048069053128, 31.989642922828697], [34.88057311664389, 31.98954598655054], [34.88045228847454, 31.98946995724678], [34.8804437217199, 31.989480518056233], [34.88027190724359, 31.98936091938846], [34.88020255391382, 31.989433717171327]]]}}, {"type": "Feature", "properties": {"OBJECTID": 79, "Yeud": "חקלאי משקי", "migrash": "48", "area": 163, "internalI": 728, "Permit": 2, "gushtxt": "6875", "helkatxt": "8", "tabamig": "משמ/53/גז", "Hitertext": "ללא היתר", "VaadHeb": "יגל", "tabaYeud": "משמ/53/גז", "Legalproc": "אין תיק פיקוח", "LegalStat": "אין הליך משפטי", "LegalSt1": -2209161600000, "status23": "ללא היתר"}, "geometry": {"type": "Polygon", "coordinates": [[[34.879110140640265, 31.990225269101426], [34.87917963582715, 31.99015106728269], [34.87905554546538, 31.99006103409512], [34.878986330056826, 31.990138402799833], [34.879110140640265, 31.990225269101426]]]}}, {"type": "Feature", "properties": {"OBJECTID": 83, "Yeud": "חקלאי משקי", "migrash": "22", "area": 34, "internalI": 636, "Permit": 2, "gushtxt": "6875", "helkatxt": "34", "tabamig": "משמ/53/גז", "Hitertext": "ללא היתר", "VaadHeb": "יגל", "tabaYeud": "משמ/53/גז", "Legalproc": "אין תיק פיקוח", "LegalStat": "הוגש כתב אישום בתיק עמק 42957-12-10 , ניתנו צוי הריסה והפסקת שימוש", "LegalSt1": -2209161600000, "status23": "ללא היתר"}, "geometry": {"type": "Polygon", "coordinates": [[[34.87738990361593, 31.98950194573597], [34.87742707885217, 31.989524696656346], [34.87747705161363, 31.989463799386105], [34.87744368800767, 31.989443673533565], [34.87738990361593, 31.98950194573597]]]}}, {"type": "Feature", "properties": {"OBJECTID": 88, "Yeud": "חקלאי משקי", "migrash": "43", "area": 622, "internalI": 740, "Permit": 1, "gushtxt": "6875", "helkatxt": "13", "tabamig": "משמ/53/גז", "Hitertext": "קיים היתר", "VaadHeb": "יגל", "tabaYeud": "משמ/53/גז", "Legalproc": " ", "LegalStat": " ", "LegalSt1": null, "status23": "קיים היתר"}, "geometry": {"type": "Polygon", "coordinates": [[[34.877713431742244, 31.991685970753604], [34.877961635926354, 31.991866835946624], [34.878105226580786, 31.991729662955155], [34.877853036351425, 31.991551496802522], [34.877713431742244, 31.991685970753604]]]}}, {"type": "Feature", "properties": {"OBJECTID": 111, "Yeud": "חקלאי משקי", "migrash": "43", "area": 359, "internalI": 739, "Permit": 2, "gushtxt": "6875", "helkatxt": "13", "tabamig": "משמ/53/גז", "Hitertext": "ללא היתר", "VaadHeb": "יגל", "tabaYeud": "משמ/53/גז", "Legalproc": "אין תיק פיקוח", "LegalStat": "אין הליך משפטי", "LegalSt1": -2209161600000, "status23": "ללא היתר"}, "geometry": {"type": "Polygon", "coordinates": [[[34.877429902097454, 31.991602580261674], [34.87746639595547, 31.991624356364113], [34.877498290299634, 31.99159801476267], [34.87762756423258, 31.9916871050853], [34.87769702575082, 31.991603945494873], [34.87768832336075, 31.991591727090118], [34.877722631523, 31.991557260077307], [34.8776425509897, 31.991496074803095], [34.87765210942897, 31.99149067866915], [34.877588678835004, 31.99144240948573], [34.877429902097454, 31.991602580261674]]]}}, {"type": "Feature", "properties": {"OBJECTID": 125, "Yeud": "חקלאי משקי", "migrash": "33", "area": 480, "internalI": 915, "Permit": 1, "gushtxt": "6875", "helkatxt": "23", "tabamig": "משמ/53/גז", "Hitertext": "קיים היתר", "VaadHeb": "יגל", "tabaYeud": "משמ/53/גז", "Legalproc": " ", "LegalStat": " ", "LegalSt1": null, "status23": "קיים היתר"}, "geometry": {"type": "Polygon", "coordinates": [[[34.87455385558398, 31.992891220038675], [34.87463711610087, 31.99295241550895], [34.874694532130036, 31.99290378071302], [34.874739737508825, 31.99293540448049], [34.874902504002016, 31.992773213924455], [34.87477287575736, 31.992672261202753], [34.87455385558398, 31.992891220038675]]]}}, {"type": "Feature", "properties": {"OBJECTID": 126, "Yeud": "חקלאי משקי", "migrash": "19", "area": 34, "internalI": 815, "Permit": 2, "gushtxt": "6839", "helkatxt": "10", "tabamig": "משמ/63/גז", "Hitertext": "ללא היתר", "VaadHeb": "צפריה", "tabaYeud": "משמ/63/גז", "Legalproc": "אין תיק פיקוח", "LegalStat": "אין הליך משפטי", "LegalSt1": -2209161600000, "status23": "ללא היתר"}, "geometry": {"type": "Polygon", "coordinates": [[[34.86107469824994, 32.003224649236564], [34.86113033224197, 32.00312452210006], [34.86110532754469, 32.003113274807895], [34.861048905073865, 32.00321170621574], [34.86107469824994, 32.003224649236564]]]}}, {"type": "Feature", "properties": {"OBJECTID": 146, "Yeud": "חקלאי משקי", "migrash": "52", "area": 1023, "internalI": 722, "Permit": 1, "gushtxt": "6875", "helkatxt": "4", "tabamig": "משמ/53/גז", "Hitertext": "קיים היתר", "VaadHeb": "יגל", "tabaYeud": "משמ/53/גז", "Legalproc": " ", "LegalStat": " ", "LegalSt1": null, "status23": "קיים היתר"}, "geometry": {"type": "Polygon", "coordinates": [[[34.880578689580304, 31.98965269057271], [34.880983130826216, 31.9899423553176], [34.881117162002035, 31.989808541661706], [34.8807254882515, 31.989505358484028], [34.880578689580304, 31.98965269057271]]]}}, {"type": "Feature", "properties": {"OBJECTID": 152, "Yeud": "חקלאי משקי", "migrash": "27", "area": 105, "internalI": 909, "Permit": 1, "gushtxt": "6875", "helkatxt": "29", "tabamig": "משמ/53/גז", "Hitertext": "קיים היתר", "VaadHeb": "יגל", "tabaYeud": "משמ/53/גז", "Legalproc": " ", "LegalStat": " ", "LegalSt1": null, "status23": "קיים היתר"}, "geometry": {"type": "Polygon", "coordinates": [[[34.87633539745889, 31.99108473870105], [34.87640554332729, 31.991144883690716], [34.876489261649034, 31.991077005703996], [34.876410778921965, 31.99101379111465], [34.87633539745889, 31.99108473870105]]]}}, {"type": "Feature", "properties": {"OBJECTID": 171, "Yeud": "חקלאי משקי", "migrash": "19", "area": 2707, "internalI": 640, "Permit": 2, "gushtxt": "6876", "helkatxt": "2", "tabamig": "משמ/53/גז", "Hitertext": "ללא היתר", "VaadHeb": "יגל", "tabaYeud": "משמ/53/גז", "Legalproc": "יש תיק פיקוח", "LegalStat": "הוגשו כתבי אישום בתיק 2720/99, בתיק חע\"מ 40807/08 ניתנו צוי הריסה והפסקת שימוש אשר לא בוצעו", "LegalSt1": -2209161600000, "status23": "ללא היתר"}, "geometry": {"type": "Polygon", "coordinates": [[[34.87744673999019, 31.98836215884291], [34.87840146752457, 31.989057065624664], [34.878584915029506, 31.98888814895865], [34.87812496969175, 31.988560389551296], [34.87801806160982, 31.988667168786762], [34.87784205187724, 31.98853120632434], [34.877948959996175, 31.98842442903879], [34.877627011960286, 31.98819187904929], [34.87753766642451, 31.98827837642736], [34.877491700141356, 31.98823760467366], [34.87742948969232, 31.98829435910772], [34.877481844074204, 31.98832701666836], [34.87744673999019, 31.98836215884291]]]}}, {"type": "Feature", "properties": {"OBJECTID": 174, "Yeud": "חקלאי משקי", "migrash": "41", "area": 634, "internalI": 746, "Permit": 1, "gushtxt": "6875", "helkatxt": "15", "tabamig": "משמ/53/גז", "Hitertext": "קיים היתר", "VaadHeb": "יגל", "tabaYeud": "משמ/53/גז", "Legalproc": " ", "LegalStat": " ", "LegalSt1": null, "status23": "קיים היתר"}, "geometry": {"type": "Polygon", "coordinates": [[[34.8768750027865, 31.99221027023857], [34.87709904919551, 31.992365667321295], [34.87717644722389, 31.992286592929506], [34.877082857788906, 31.992223339806955], [34.87721609499079, 31.99209156007287], [34.87708126327292, 31.99200042233426], [34.87691928822148, 31.992164987709717], [34.87690066090456, 31.992149018286604], [34.876855977460394, 31.992194637056503], [34.8768750027865, 31.99221027023857]]]}}, {"type": "Feature", "properties": {"OBJECTID": 179, "Yeud": "חקלאי", "migrash": "132", "area": 68, "internalI": 558, "Permit": 2, "gushtxt": "4980", "helkatxt": "10", "tabamig": "משמ/62/גז", "Hitertext": "ללא היתר", "VaadHeb": "אחיעזר", "tabaYeud": "משמ/62/גז", "Legalproc": "אין תיק פיקוח", "LegalStat": "אין הליך משפטי", "LegalSt1": -2209161600000, "status23": "ללא היתר"}, "geometry": {"type": "Polygon", "coordinates": [[[34.86635487127967, 31.988152586860394], [34.86639477552912, 31.98811034622095], [34.86630516812993, 31.988048450271748], [34.866263657372066, 31.9880950910151], [34.86635487127967, 31.988152586860394]]]}}, {"type": "Feature", "properties": {"OBJECTID": 189, "Yeud": "חקלאי משקי", "migrash": "22", "area": 53, "internalI": 637, "Permit": 2, "gushtxt": "6875", "helkatxt": "34", "tabamig": "משמ/53/גז", "Hitertext": "ללא היתר", "VaadHeb": "יגל", "tabaYeud": "משמ/53/גז", "Legalproc": "אין תיק פיקוח", "LegalStat": "הוגש כתב אישום בתיק עמק 42957-12-10 , ניתנו צוי הריסה והפסקת שימוש", "LegalSt1": -2209161600000, "status23": "ללא היתר"}, "geometry": {"type": "Polygon", "coordinates": [[[34.87760152244894, 31.98977863512181], [34.87766492415047, 31.989835034901738], [34.87770562330149, 31.989791776411074], [34.87764857961886, 31.98973607117862], [34.87760152244894, 31.98977863512181]]]}}, {"type": "Feature", "properties": {"OBJECTID": 192, "Yeud": "חקלאי משקי", "migrash": "40", "area": 35, "internalI": 747, "Permit": 2, "gushtxt": "6875", "helkatxt": "16", "tabamig": "משמ/53/גז", "Hitertext": "ללא היתר", "VaadHeb": "יגל", "tabaYeud": "משמ/53/גז", "Legalproc": "יש תיק פיקוח", "LegalStat": "הוגש כתב אישום בתיק עמק 14434-09-14 ,  התיק נגמר במחיקת נאשמים ללא צווים והרשעות", "LegalSt1": -2209161600000, "status23": "ללא היתר"}, "geometry": {"type": "Polygon", "coordinates": [[[34.87725235227594, 31.992629289324444], [34.87732092880107, 31.99257187418185], [34.87726659942253, 31.992534807966358], [34.8772502414887, 31.992551704382706], [34.877260926185556, 31.99256562151417], [34.87725255924779, 31.992570681610545], [34.877269609514876, 31.99258292156343], [34.877235312825626, 31.99261400039758], [34.87725235227594, 31.992629289324444]]]}}, {"type": "Feature", "properties": {"OBJECTID": 196, "Yeud": "חקלאי משקי", "migrash": "55", "area": 30, "internalI": 652, "Permit": 2, "gushtxt": "6877", "helkatxt": "34", "tabamig": "משמ/53/גז", "Hitertext": "ללא היתר", "VaadHeb": "יגל", "tabaYeud": "משמ/53/גז", "Legalproc": "אין תיק פיקוח", "LegalStat": "אין הליך משפטי", "LegalSt1": -2209161600000, "status23": "מבנה פורק"}, "geometry": {"type": "Polygon", "coordinates": [[[34.88341339439754, 31.988009416064976], [34.883426958095704, 31.987989153445497], [34.88336782934717, 31.987960885607404], [34.883307481002845, 31.98794040715298], [34.88329747479097, 31.987960031264866], [34.883360601258694, 31.98798187126285], [34.88341339439754, 31.988009416064976]]]}}, {"type": "Feature", "properties": {"OBJECTID": 199, "Yeud": "חקלאי משקי", "migrash": "53", "area": 1141, "internalI": 719, "Permit": 1, "gushtxt": "6875", "helkatxt": "3", "tabamig": "משמ/53/גז", "Hitertext": "קיים היתר", "VaadHeb": "יגל", "tabaYeud": "משמ/53/גז", "Legalproc": "אין תיק פיקוח", "LegalStat": "אין הליך משפטי", "LegalSt1": -2209161600000, "status23": "קיים היתר"}, "geometry": {"type": "Polygon", "coordinates": [[[34.88112176164244, 31.989501127269858], [34.88154132856324, 31.989790010839965], [34.88168699352165, 31.98963366662565], [34.881269365092244, 31.989340933251743], [34.88112176164244, 31.989501127269858]]]}}, {"type": "Feature", "properties": {"OBJECTID": 205, "Yeud": "חקלאי משקי", "migrash": "17", "area": 853, "internalI": 556, "Permit": 1, "gushtxt": "6839", "helkatxt": "8", "tabamig": "משמ/63/גז", "Hitertext": "קיים היתר", "VaadHeb": "צפריה", "tabaYeud": "משמ/63/גז", "Legalproc": " ", "LegalStat": " ", "LegalSt1": null, "status23": "קיים היתר"}, "geometry": {"type": "Polygon", "coordinates": [[[34.862036933588335, 32.00420774069425], [34.86211154835953, 32.00402771421405], [34.86172079645522, 32.003905380603925], [34.86163425154332, 32.00408605187808], [34.862036933588335, 32.00420774069425]]]}}, {"type": "Feature", "properties": {"OBJECTID": 218, "Yeud": "חקלאי", "migrash": "131", "area": 144, "internalI": 560, "Permit": 1, "gushtxt": "4980", "helkatxt": "11", "tabamig": "משמ/62/גז", "Hitertext": "קיים היתר", "VaadHeb": "אחיעזר", "tabaYeud": "משמ/62/גז", "Legalproc": " ", "LegalStat": " ", "LegalSt1": null, "status23": "קיים היתר"}, "geometry": {"type": "Polygon", "coordinates": [[[34.86648241774627, 31.98786695086889], [34.8665719370978, 31.987933512395603], [34.86666023125006, 31.987849614467745], [34.86656727219914, 31.987778950556258], [34.86648241774627, 31.98786695086889]]]}}, {"type": "Feature", "properties": {"OBJECTID": 226, "Yeud": "חקלאי משקי", "migrash": "22", "area": 135, "internalI": 634, "Permit": 2, "gushtxt": "6875", "helkatxt": "34", "tabamig": "משמ/53/גז", "Hitertext": "ללא היתר", "VaadHeb": "יגל", "tabaYeud": "משמ/53/גז", "Legalproc": "אין תיק פיקוח", "LegalStat": "הוגש כתב אישום בתיק עמק 42957-12-10 , ניתנו צוי הריסה והפסקת שימוש", "LegalSt1": -2209161600000, "status23": "ללא היתר"}, "geometry": {"type": "Polygon", "coordinates": [[[34.87741169111831, 31.989842755021087], [34.87743992436554, 31.989815626635696], [34.877136650157105, 31.989598525467283], [34.877113852528794, 31.989619697858597], [34.87741169111831, 31.989842755021087]]]}}, {"type": "Feature", "properties": {"OBJECTID": 232, "Yeud": "חקלאי משקי", "migrash": "45", "area": 25, "internalI": 737, "Permit": 2, "gushtxt": "6875", "helkatxt": "11", "tabamig": "משמ/53/גז", "Hitertext": "ללא היתר", "VaadHeb": "יגל", "tabaYeud": "משמ/53/גז", "Legalproc": "אין תיק פיקוח", "LegalStat": "אין הליך משפטי", "LegalSt1": -2209161600000, "status23": "ללא היתר"}, "geometry": {"type": "Polygon", "coordinates": [[[34.87867322684392, 31.991315303796604], [34.87870777540717, 31.991337544390714], [34.878747641930744, 31.991296393661965], [34.87871299628686, 31.991272580984518], [34.87867322684392, 31.991315303796604]]]}}, {"type": "Feature", "properties": {"OBJECTID": 242, "Yeud": "חקלאי", "migrash": " ", "area": 208, "internalI": 359, "Permit": 1, "gushtxt": "6875", "helkatxt": "55", "tabamig": " ", "Hitertext": "קיים היתר", "VaadHeb": "שטח כללי", "tabaYeud": "משמ/53/גז", "Legalproc": " ", "LegalStat": " ", "LegalSt1": null, "status23": "קיים היתר"}, "geometry": {"type": "Polygon", "coordinates": [[[34.871781870504904, 31.992396905003396], [34.871858635398894, 31.992460849295146], [34.87201039175809, 31.99226751775942], [34.871963602325934, 31.992228024239772], [34.871781870504904, 31.992396905003396]]]}}, {"type": "Feature", "properties": {"OBJECTID": 254, "Yeud": "חקלאי משקי", "migrash": "49", "area": 85, "internalI": 724, "Permit": 1, "gushtxt": "6875", "helkatxt": "7", "tabamig": "משמ/53/גז", "Hitertext": "קיים היתר", "VaadHeb": "יגל", "tabaYeud": "משמ/53/גז", "Legalproc": " ", "LegalStat": " ", "LegalSt1": null, "status23": "קיים היתר"}, "geometry": {"type": "Polygon", "coordinates": [[[34.87905826525543, 31.9899814865782], [34.87911855658821, 31.990018227339675], [34.879200766379704, 31.98992629164422], [34.87914682116514, 31.989893630717592], [34.87905826525543, 31.9899814865782]]]}}, {"type": "Feature", "properties": {"OBJECTID": 261, "Yeud": "חקלאי משקי", "migrash": "23", "area": 1176, "internalI": 631, "Permit": 2, "gushtxt": "6875", "helkatxt": "33", "tabamig": "משמ/53/גז", "Hitertext": "ללא היתר", "VaadHeb": "יגל", "tabaYeud": "משמ/53/גז", "Legalproc": "יש תיק פיקוח", "LegalStat": "הוגש כתב אישום בתיק עמק 43231-12-10 , ניתנו צוי הריסה והפסקת שימוש", "LegalSt1": -2209161600000, "status23": "ללא היתר"}, "geometry": {"type": "Polygon", "coordinates": [[[34.87687261739668, 31.989856371813982], [34.8771181755211, 31.98961568335204], [34.877048575679275, 31.989558703683393], [34.87702146398971, 31.98958167034271], [34.876866028202244, 31.989472862450395], [34.87689795807909, 31.989436356841587], [34.87678214323017, 31.989364238198704], [34.87668789459416, 31.98948730940749], [34.87676559842891, 31.98954577833355], [34.87663165291335, 31.989653841078077], [34.87687261739668, 31.989856371813982]]]}}, {"type": "Feature", "properties": {"OBJECTID": 268, "Yeud": "חקלאי משקי", "migrash": "31", "area": 200, "internalI": 914, "Permit": 1, "gushtxt": "6875", "helkatxt": "25", "tabamig": "משמ/53/גז", "Hitertext": "קיים היתר", "VaadHeb": "יגל", "tabaYeud": "משמ/53/גז", "Legalproc": " ", "LegalStat": " ", "LegalSt1": null, "status23": "קיים היתר"}, "geometry": {"type": "Polygon", "coordinates": [[[34.87503894506659, 31.99230148454893], [34.87514838072885, 31.99238002528514], [34.875223194591236, 31.99230145400446], [34.875206551594516, 31.99228667355009], [34.875225703091054, 31.992266906085714], [34.87511329317168, 31.992186832746743], [34.875092337794754, 31.99221066174779], [34.87510243939591, 31.99222034267527], [34.87506653157669, 31.992257346103408], [34.87507724269, 31.992263471899495], [34.87503894506659, 31.99230148454893]]]}}, {"type": "Feature", "properties": {"OBJECTID": 276, "Yeud": "חקלאי משקי", "migrash": "35", "area": 177, "internalI": 923, "Permit": 2, "gushtxt": "6875", "helkatxt": "21", "tabamig": "משמ/53/גז", "Hitertext": "ללא היתר", "VaadHeb": "יגל", "tabaYeud": "משמ/53/גז", "Legalproc": "למחוק", "LegalStat": "משטח בטון", "LegalSt1": -2209161600000, "status23": "ללא היתר"}, "geometry": {"type": "Polygon", "coordinates": [[[34.87519097168098, 31.99381366044751], [34.875270647438526, 31.993876878864175], [34.87531853877054, 31.993824153757988], [34.87534588430486, 31.993847600327204], [34.87535427580464, 31.993835426091717], [34.87536975738045, 31.993841564232223], [34.87540211627466, 31.993796929482485], [34.875287916781986, 31.9937163448557], [34.87519097168098, 31.99381366044751]]]}}, {"type": "Feature", "properties": {"OBJECTID": 286, "Yeud": "חקלאי משקי", "migrash": "46", "area": 90, "internalI": 733, "Permit": 1, "gushtxt": "6875", "helkatxt": "10", "tabamig": "משמ/53/גז", "Hitertext": "קיים היתר", "VaadHeb": "יגל", "tabaYeud": "משמ/53/גז", "Legalproc": " ", "LegalStat": " ", "LegalSt1": null, "status23": "קיים היתר"}, "geometry": {"type": "Polygon", "coordinates": [[[34.87851594165407, 31.99069237091008], [34.878636860308745, 31.99078381140704], [34.87868389731116, 31.990746666879463], [34.87855343965866, 31.990654863757584], [34.87851594165407, 31.99069237091008]]]}}, {"type": "Feature", "properties": {"OBJECTID": 297, "Yeud": "חקלאי", "migrash": "44", "area": 1195, "internalI": 561, "Permit": 2, "gushtxt": "4980", "helkatxt": "13", "tabamig": "משמ/62/גז", "Hitertext": "ללא היתר", "VaadHeb": "אחיעזר", "tabaYeud": "משמ/62/גז", "Legalproc": "קיים דו\"ח פיקוח", "LegalStat": "אין הליך משפטי", "LegalSt1": -2209161600000, "status23": "ללא היתר"}, "geometry": {"type": "Polygon", "coordinates": [[[34.86686941493977, 31.98746375322779], [34.8669381382547, 31.987510305865268], [34.86720570495442, 31.987697041266287], [34.867254856445186, 31.98773352087884], [34.86739137567062, 31.987589662411658], [34.867365276213796, 31.987571431663483], [34.86740239488081, 31.987535245231854], [34.8670451196843, 31.987283384275916], [34.86686941493977, 31.98746375322779]]]}}, {"type": "Feature", "properties": {"OBJECTID": 312, "Yeud": "חקלאי משקי", "migrash": "47", "area": 41, "internalI": 730, "Permit": 2, "gushtxt": "6875", "helkatxt": "9", "tabamig": "משמ/53/גז", "Hitertext": "ללא היתר", "VaadHeb": "יגל", "tabaYeud": "משמ/53/גז", "Legalproc": "אין תיק פיקוח", "LegalStat": "הוגש כתב אישום בתיק עמק 12318-06-14 , ניתנו צוי הריסה והפסקת שימוש", "LegalSt1": -2209161600000, "status23": "ללא היתר"}, "geometry": {"type": "Polygon", "coordinates": [[[34.878741305962386, 31.990404422518065], [34.87881392163919, 31.990450463794424], [34.87884364790436, 31.990417887520938], [34.87877005466326, 31.990367909180183], [34.878741305962386, 31.990404422518065]]]}}, {"type": "Feature", "properties": {"OBJECTID": 313, "Yeud": "חקלאי משקי", "migrash": "24", "area": 341, "internalI": 820, "Permit": 2, "gushtxt": "6839", "helkatxt": "15", "tabamig": "משמ/63/גז", "Hitertext": "ללא היתר", "VaadHeb": "צפריה", "tabaYeud": "משמ/63/גז", "Legalproc": "אין תיק פיקוח", "LegalStat": "הוגש כתב אישום על אי קיום צו בתיק עמק 60211/01 ניתן צו הריסה לקירות.", "LegalSt1": -2209161600000, "status23": "ללא היתר"}, "geometry": {"type": "Polygon", "coordinates": [[[34.861134581628065, 32.00155397860219], [34.86133943085273, 32.00163211017321], [34.861392299061066, 32.00152723283565], [34.861327970947215, 32.00150673319563], [34.86138321831345, 32.00140321770118], [34.86132606644225, 32.001377315825934], [34.861134581628065, 32.00155397860219]]]}}, {"type": "Feature", "properties": {"OBJECTID": 327, "Yeud": "חקלאי משקי", "migrash": "49", "area": 123, "internalI": 725, "Permit": 2, "gushtxt": "6875", "helkatxt": "7", "tabamig": "משמ/53/גז", "Hitertext": "ללא היתר", "VaadHeb": "יגל", "tabaYeud": "משמ/53/גז", "Legalproc": "אין תיק פיקוח", "LegalStat": "אין הליך משפטי", "LegalSt1": -2209161600000, "status23": "ללא היתר"}, "geometry": {"type": "Polygon", "coordinates": [[[34.87922930216768, 31.989932641324412], [34.879316928309045, 31.98999224604077], [34.8793960008644, 31.98991190840571], [34.879309086126455, 31.989852216287026], [34.87922930216768, 31.989932641324412]]]}}, {"type": "Feature", "properties": {"OBJECTID": 337, "Yeud": "חקלאי משקי", "migrash": "39", "area": 54, "internalI": 751, "Permit": 1, "gushtxt": "6875", "helkatxt": "17", "tabamig": "משמ/53/גז", "Hitertext": "קיים היתר", "VaadHeb": "יגל", "tabaYeud": "משמ/53/גז", "Legalproc": " ", "LegalStat": " ", "LegalSt1": null, "status23": "קיים היתר"}, "geometry": {"type": "Polygon", "coordinates": [[[34.876292698719226, 31.99275351787951], [34.876333134520706, 31.992784789671557], [34.87640017812207, 31.99271110973746], [34.876359748208884, 31.99267848347203], [34.876292698719226, 31.99275351787951]]]}}, {"type": "Feature", "properties": {"OBJECTID": 341, "Yeud": "חקלאי משקי", "migrash": "55", "area": 61, "internalI": 650, "Permit": 2, "gushtxt": "6877", "helkatxt": "34", "tabamig": "משמ/53/גז", "Hitertext": "ללא היתר", "VaadHeb": "יגל", "tabaYeud": "משמ/53/גז", "Legalproc": "אין תיק פיקוח", "LegalStat": "אין הליך משפטי", "LegalSt1": -2209161600000, "status23": "מבנה פורק"}, "geometry": {"type": "Polygon", "coordinates": [[[34.88315357159152, 31.98811671191073], [34.88326213378983, 31.98817532533221], [34.88329472767424, 31.988139321178146], [34.8831882139066, 31.988080740023104], [34.88315357159152, 31.98811671191073]]]}}, {"type": "Feature", "properties": {"OBJECTID": 343, "Yeud": "חקלאי משקי", "migrash": "30", "area": 50, "internalI": 913, "Permit": 2, "gushtxt": "6875", "helkatxt": "26", "tabamig": "משמ/53/גז", "Hitertext": "ללא היתר", "VaadHeb": "יגל", "tabaYeud": "משמ/53/גז", "Legalproc": "אין תיק פיקוח", "LegalStat": "אין הליך משפטי", "LegalSt1": -2209161600000, "status23": "ללא היתר"}, "geometry": {"type": "Polygon", "coordinates": [[[34.87516250704533, 31.991929829944326], [34.87520711712548, 31.991960944288678], [34.875264579417816, 31.99189909610975], [34.87522118184318, 31.991862397352335], [34.87516250704533, 31.991929829944326]]]}}, {"type": "Feature", "properties": {"OBJECTID": 359, "Yeud": "חקלאי משקי", "migrash": "23", "area": 733, "internalI": 630, "Permit": 2, "gushtxt": "6875", "helkatxt": "33", "tabamig": "משמ/53/גז", "Hitertext": "ללא היתר", "VaadHeb": "יגל", "tabaYeud": "משמ/53/גז", "Legalproc": "יש תיק פיקוח", "LegalStat": "הוגש כתב אישום בתיק עמק 43231-12-10 , ניתנו צוי הריסה והפסקת שימוש", "LegalSt1": -2209161600000, "status23": "ללא היתר"}, "geometry": {"type": "Polygon", "coordinates": [[[34.87732668746971, 31.990152002794854], [34.877526625966645, 31.9899828109671], [34.87744888220868, 31.989922529777733], [34.877471612088804, 31.98990375144359], [34.87735906597432, 31.989823249556512], [34.87733849108175, 31.989841257872733], [34.877322630095634, 31.989826194735784], [34.87712008850304, 31.99000195278559], [34.87732668746971, 31.990152002794854]]]}}, {"type": "Feature", "properties": {"OBJECTID": 365, "Yeud": "חקלאי משקי", "migrash": "47", "area": 115, "internalI": 732, "Permit": 2, "gushtxt": "6875", "helkatxt": "9", "tabamig": "משמ/53/גז", "Hitertext": "ללא היתר", "VaadHeb": "יגל", "tabaYeud": "משמ/53/גז", "Legalproc": "אין תיק פיקוח", "LegalStat": "הוגש כתב אישום בתיק עמק 12318-06-14 , ניתנו צוי הריסה והפסקת שימוש", "LegalSt1": -2209161600000, "status23": "ללא היתר"}, "geometry": {"type": "Polygon", "coordinates": [[[34.87854335315893, 31.990606135911023], [34.87864915446437, 31.990679161510272], [34.87870820877396, 31.990624360729473], [34.87860635083763, 31.99054096102451], [34.87854335315893, 31.990606135911023]]]}}, {"type": "Feature", "properties": {"OBJECTID": 398, "Yeud": "חקלאי משקי", "migrash": "39", "area": 122, "internalI": 750, "Permit": 1, "gushtxt": "6875", "helkatxt": "17", "tabamig": "משמ/53/גז", "Hitertext": "קיים היתר", "VaadHeb": "יגל", "tabaYeud": "משמ/53/גז", "Legalproc": " ", "LegalStat": " ", "LegalSt1": -2209161600000, "status23": "קיים היתר"}, "geometry": {"type": "Polygon", "coordinates": [[[34.87655007779442, 31.992701332864385], [34.87663663582031, 31.99261787896472], [34.87656251076042, 31.992558401988305], [34.87647117393815, 31.992644554311983], [34.87655007779442, 31.992701332864385]]]}}, {"type": "Feature", "properties": {"OBJECTID": 403, "Yeud": "חקלאי משקי", "migrash": "25", "area": 87, "internalI": 905, "Permit": 1, "gushtxt": "6875", "helkatxt": "31", "tabamig": "משמ/53/גז", "Hitertext": "קיים היתר", "VaadHeb": "יגל", "tabaYeud": "משמ/53/גז", "Legalproc": " ", "LegalStat": " ", "LegalSt1": null, "status23": "קיים היתר"}, "geometry": {"type": "Polygon", "coordinates": [[[34.87666206875844, 31.990447935880447], [34.87676676862524, 31.99034809873033], [34.87671860035012, 31.990311894973956], [34.876615670651184, 31.990416819226493], [34.87666206875844, 31.990447935880447]]]}}, {"type": "Feature", "properties": {"OBJECTID": 414, "Yeud": "חקלאי משקי", "migrash": "19", "area": 32, "internalI": 816, "Permit": 2, "gushtxt": "6839", "helkatxt": "10", "tabamig": "משמ/63/גז", "Hitertext": "ללא היתר", "VaadHeb": "צפריה", "tabaYeud": "משמ/63/גז", "Legalproc": "אין תיק פיקוח", "LegalStat": "הוגש כתב אישום על אי קיום הצו בתיק חע\"מ 40740/08 ניתן צו הריסה עד ליום 20/04/2013", "LegalSt1": -2209161600000, "status23": "ללא היתר"}, "geometry": {"type": "Polygon", "coordinates": [[[34.86112551849322, 32.003028975785874], [34.86113672375898, 32.00300935673937], [34.861012859070954, 32.002962271250425], [34.86099847219018, 32.0029825580263], [34.86112551849322, 32.003028975785874]]]}}, {"type": "Feature", "properties": {"OBJECTID": 425, "Yeud": "חקלאי משקי", "migrash": "22", "area": 113, "internalI": 635, "Permit": 2, "gushtxt": "6875", "helkatxt": "34", "tabamig": "משמ/53/גז", "Hitertext": "ללא היתר", "VaadHeb": "יגל", "tabaYeud": "משמ/53/גז", "Legalproc": "אין תיק פיקוח", "LegalStat": "אין הליך משפטי", "LegalSt1": -2209161600000, "status23": "ללא היתר"}, "geometry": {"type": "Polygon", "coordinates": [[[34.877662279949504, 31.989709633079645], [34.87774092347721, 31.989630663410075], [34.87765978457074, 31.989572099661892], [34.877584344557455, 31.98965360078076], [34.877662279949504, 31.989709633079645]]]}}, {"type": "Feature", "properties": {"OBJECTID": 427, "Yeud": "חקלאי משקי", "migrash": "51", "area": 117, "internalI": 726, "Permit": 1, "gushtxt": "6875", "helkatxt": "5", "tabamig": "משמ/53/גז", "Hitertext": "קיים היתר", "VaadHeb": "יגל", "tabaYeud": "משמ/53/גז", "Legalproc": " ", "LegalStat": " ", "LegalSt1": null, "status23": "קיים היתר"}, "geometry": {"type": "Polygon", "coordinates": [[[34.87988041652817, 31.989385479643477], [34.879957003082865, 31.989309789503814], [34.87988249720947, 31.98924590995219], [34.87979711274836, 31.98933648437544], [34.87988041652817, 31.989385479643477]]]}}, {"type": "Feature", "properties": {"OBJECTID": 434, "Yeud": "חקלאי משקי", "migrash": "28", "area": 518, "internalI": 910, "Permit": 1, "gushtxt": "6875", "helkatxt": "28", "tabamig": "משמ/53/גז", "Hitertext": "קיים היתר", "VaadHeb": "יגל", "tabaYeud": "משמ/53/גז", "Legalproc": " ", "LegalStat": " ", "LegalSt1": null, "status23": "קיים היתר"}, "geometry": {"type": "Polygon", "coordinates": [[[34.87583846375083, 31.991463462550104], [34.87596406250123, 31.991548240735213], [34.876050271577405, 31.99145089672676], [34.87608001615419, 31.9914702831166], [34.8761972960425, 31.991354725388074], [34.876051001867594, 31.99124560018152], [34.87583846375083, 31.991463462550104]]]}}, {"type": "Feature", "properties": {"OBJECTID": 438, "Yeud": "חקלאי משקי", "migrash": "38", "area": 45, "internalI": 919, "Permit": 2, "gushtxt": "6875", "helkatxt": "18", "tabamig": "משמ/53/גז", "Hitertext": "ללא היתר", "VaadHeb": "יגל", "tabaYeud": "משמ/53/גז", "Legalproc": "אין תיק פיקוח", "LegalStat": "אין הליך משפטי", "LegalSt1": -2209161600000, "status23": "ללא היתר"}, "geometry": {"type": "Polygon", "coordinates": [[[34.87644775978919, 31.993025192174333], [34.876472143351535, 31.99304304056621], [34.87648948187701, 31.993029873040395], [34.87651089468928, 31.99304517246468], [34.87656287513919, 31.993015834006194], [34.87651068408905, 31.99297141427336], [34.87644775978919, 31.993025192174333]]]}}, {"type": "Feature", "properties": {"OBJECTID": 439, "Yeud": "אזור חקלאי/נוף כפרי פתוח", "migrash": " ", "area": 14, "internalI": 357, "Permit": 1, "gushtxt": "6465", "helkatxt": "132", "tabamig": " ", "Hitertext": "קיים היתר", "VaadHeb": "יגל", "tabaYeud": "תמ\"מ/21/3", "Legalproc": " ", "LegalStat": " ", "LegalSt1": null, "status23": "קיים היתר"}, "geometry": {"type": "Polygon", "coordinates": [[[34.87255947961781, 31.99353007427811], [34.8725628033906, 31.993533007519417], [34.87257577166895, 31.99354322550068], [34.87261764659329, 31.993502520255664], [34.872598213434415, 31.993487723149663], [34.87255947961781, 31.99353007427811]]]}}, {"type": "Feature", "properties": {"OBJECTID": 454, "Yeud": "חקלאי משקי", "migrash": "40", "area": 370, "internalI": 748, "Permit": 2, "gushtxt": "6875", "helkatxt": "16", "tabamig": "משמ/53/גז", "Hitertext": "ללא היתר", "VaadHeb": "יגל", "tabaYeud": "משמ/53/גז", "Legalproc": "יש תיק פיקוח", "LegalStat": "הוגש כתב אישום בתיק עמק 14434-09-14 ,  התיק נגמר במחיקת נאשמים ללא צווים והרשעות", "LegalSt1": -2209161600000, "status23": "ללא היתר"}, "geometry": {"type": "Polygon", "coordinates": [[[34.87728791715578, 31.992689004684173], [34.87732912871445, 31.99272569890434], [34.87727086418504, 31.992789915886735], [34.87739136977094, 31.992885760892705], [34.87752545129837, 31.99274043251733], [34.87735097690733, 31.992618024796986], [34.87728791715578, 31.992689004684173]]]}}, {"type": "Feature", "properties": {"OBJECTID": 459, "Yeud": "חקלאי", "migrash": "131", "area": 425, "internalI": 559, "Permit": 1, "gushtxt": "4980", "helkatxt": "11", "tabamig": "משמ/62/גז", "Hitertext": "קיים היתר", "VaadHeb": "אחיעזר", "tabaYeud": "משמ/62/גז", "Legalproc": " ", "LegalStat": " ", "LegalSt1": null, "status23": "קיים היתר"}, "geometry": {"type": "Polygon", "coordinates": [[[34.86658534540862, 31.988046165409], [34.86674174144586, 31.98817366297622], [34.866894141503806, 31.988039292810313], [34.86674061372956, 31.987911013079138], [34.86658534540862, 31.988046165409]]]}}, {"type": "Feature", "properties": {"OBJECTID": 468, "Yeud": "חקלאי משקי", "migrash": "22", "area": 461, "internalI": 639, "Permit": 2, "gushtxt": "6875", "helkatxt": "34", "tabamig": "משמ/53/גז", "Hitertext": "ללא היתר", "VaadHeb": "יגל", "tabaYeud": "משמ/53/גז", "Legalproc": "אין תיק פיקוח", "LegalStat": "הוגש כתב אישום בתיק עמק 42957-12-10 , ניתנו צוי הריסה והפסקת שימוש", "LegalSt1": -2209161600000, "status23": "ללא היתר"}, "geometry": {"type": "Polygon", "coordinates": [[[34.87451336984618, 31.98764383207589], [34.87467833586295, 31.98775402393202], [34.874833952857756, 31.987587749383977], [34.87466977052099, 31.98748094874591], [34.87451336984618, 31.98764383207589]]]}}, {"type": "Feature", "properties": {"OBJECTID": 472, "Yeud": "חקלאי משקי", "migrash": "45", "area": 128, "internalI": 735, "Permit": 2, "gushtxt": "6875", "helkatxt": "11", "tabamig": "משמ/53/גז", "Hitertext": "ללא היתר", "VaadHeb": "יגל", "tabaYeud": "משמ/53/גז", "Legalproc": "אין תיק פיקוח", "LegalStat": "אין הליך משפטי", "LegalSt1": -2209161600000, "status23": "ללא היתר"}, "geometry": {"type": "Polygon", "coordinates": [[[34.878166559634884, 31.991240009255247], [34.87824906957723, 31.991289004444052], [34.87833206751563, 31.991199781285488], [34.87824959117442, 31.991141300156688], [34.878166559634884, 31.991240009255247]]]}}, {"type": "Feature", "properties": {"OBJECTID": 501, "Yeud": "חקלאי משקי", "migrash": "23", "area": 89, "internalI": 632, "Permit": 2, "gushtxt": "6875", "helkatxt": "33", "tabamig": "משמ/53/גז", "Hitertext": "ללא היתר", "VaadHeb": "יגל", "tabaYeud": "משמ/53/גז", "Legalproc": "יש תיק פיקוח", "LegalStat": "הוגש כתב אישום בתיק עמק 43231-12-10 , ניתנו צוי הריסה והפסקת שימוש", "LegalSt1": -2209161600000, "status23": "ללא היתר"}, "geometry": {"type": "Polygon", "coordinates": [[[34.87652486899677, 31.989579699332605], [34.876559762898594, 31.989604180585577], [34.87658091818098, 31.98957950505042], [34.87659163029241, 31.98958529164453], [34.87667305342625, 31.989491999243114], [34.87662069279821, 31.989460696749283], [34.87652486899677, 31.989579699332605]]]}}, {"type": "Feature", "properties": {"OBJECTID": 503, "Yeud": "חקלאי משקי", "migrash": "20", "area": 207, "internalI": 641, "Permit": 2, "gushtxt": "6875", "helkatxt": "36", "tabamig": "משמ/53/גז", "Hitertext": "ללא היתר", "VaadHeb": "יגל", "tabaYeud": "משמ/53/גז", "Legalproc": "תיק פיקוח ישן", "LegalStat": "אין הליך משפטי", "LegalSt1": -2209161600000, "status23": "ללא היתר"}, "geometry": {"type": "Polygon", "coordinates": [[[34.87787503368701, 31.989096368292234], [34.87799280092684, 31.989186227657267], [34.87804590119947, 31.989133633902075], [34.877991185164646, 31.98909568322099], [34.87807256327477, 31.98901458669861], [34.87801064886444, 31.98896527191144], [34.87787503368701, 31.989096368292234]]]}}, {"type": "Feature", "properties": {"OBJECTID": 507, "Yeud": "חקלאי משקי", "migrash": "44", "area": 23, "internalI": 738, "Permit": 1, "gushtxt": "6875", "helkatxt": "12", "tabamig": "משמ/53/גז", "Hitertext": "קיים היתר", "VaadHeb": "יגל", "tabaYeud": "משמ/53/גז", "Legalproc": " ", "LegalStat": " ", "LegalSt1": null, "status23": "קיים היתר"}, "geometry": {"type": "Polygon", "coordinates": [[[34.87786229577969, 31.99118157886813], [34.877835972618065, 31.99120590313534], [34.87787639012843, 31.991242595141163], [34.87790987462118, 31.991216256623368], [34.87786229577969, 31.99118157886813]]]}}, {"type": "Feature", "properties": {"OBJECTID": 513, "Yeud": "חקלאי משקי", "migrash": "19", "area": 46, "internalI": 808, "Permit": 2, "gushtxt": "6839", "helkatxt": "10", "tabamig": "משמ/63/גז", "Hitertext": "ללא היתר", "VaadHeb": "צפריה", "tabaYeud": "משמ/63/גז", "Legalproc": "אין תיק פיקוח", "LegalStat": "הוגש כתב אישום על אי קיום הצו בתיק חע\"מ 40740/08 ניתן צו הריסה עד ליום 20/04/2013", "LegalSt1": -2209161600000, "status23": "ללא היתר"}, "geometry": {"type": "Polygon", "coordinates": [[[34.86114108154097, 32.00312048585913], [34.86118031983663, 32.00304606258898], [34.86113108904157, 32.00302763544895], [34.861091871968895, 32.003096638931744], [34.86114108154097, 32.00312048585913]]]}}, {"type": "Feature", "properties": {"OBJECTID": 529, "Yeud": "חקלאי משקי", "migrash": "45", "area": 29, "internalI": 736, "Permit": 2, "gushtxt": "6875", "helkatxt": "11", "tabamig": "משמ/53/גז", "Hitertext": "ללא היתר", "VaadHeb": "יגל", "tabaYeud": "משמ/53/גז", "Legalproc": "אין תיק פיקוח", "LegalStat": "אין הליך משפטי", "LegalSt1": -2209161600000, "status23": "ללא היתר"}, "geometry": {"type": "Polygon", "coordinates": [[[34.87832284674168, 31.991228495391407], [34.878423204009074, 31.991289054169684], [34.878443523923686, 31.991275555852454], [34.878337220779954, 31.99121023832223], [34.87832284674168, 31.991228495391407]]]}}, {"type": "Feature", "properties": {"OBJECTID": 534, "Yeud": "חקלאי משקי", "migrash": "21", "area": 16, "internalI": 644, "Permit": 2, "gushtxt": "6875", "helkatxt": "35", "tabamig": "משמ/53/גז", "Hitertext": "ללא היתר", "VaadHeb": "יגל", "tabaYeud": "משמ/53/גז", "Legalproc": "אין תיק פיקוח", "LegalStat": "אין הליך משפטי", "LegalSt1": -2209161600000, "status23": "ללא היתר"}, "geometry": {"type": "Polygon", "coordinates": [[[34.87790360947376, 31.989292079301354], [34.87792391888372, 31.989306538780184], [34.87796615927403, 31.989264505209263], [34.877944455795586, 31.989248994254083], [34.87790360947376, 31.989292079301354]]]}}, {"type": "Feature", "properties": {"OBJECTID": 536, "Yeud": "חקלאי משקי", "migrash": "52", "area": 133, "internalI": 723, "Permit": 2, "gushtxt": "6875", "helkatxt": "4", "tabamig": "משמ/53/גז", "Hitertext": "ללא היתר", "VaadHeb": "יגל", "tabaYeud": "משמ/53/גז", "Legalproc": "אין תיק פיקוח", "LegalStat": "אין הליך משפטי", "LegalSt1": -2209161600000, "status23": "ללא היתר"}, "geometry": {"type": "Polygon", "coordinates": [[[34.8810530279383, 31.990025772700605], [34.88115058249702, 31.990092420196795], [34.881224017423854, 31.990008590600933], [34.88112247192081, 31.989946675584513], [34.8810530279383, 31.990025772700605]]]}}, {"type": "Feature", "properties": {"OBJECTID": 556, "Yeud": "חקלאי משקי", "migrash": "38", "area": 41, "internalI": 918, "Permit": 2, "gushtxt": "6875", "helkatxt": "18", "tabamig": "משמ/53/גז", "Hitertext": "ללא היתר", "VaadHeb": "יגל", "tabaYeud": "משמ/53/גז", "Legalproc": "יש תיק פיקוח", "LegalStat": "אין הליך משפטי", "LegalSt1": -2209161600000, "status23": "ללא היתר"}, "geometry": {"type": "Polygon", "coordinates": [[[34.87634955673199, 31.992904188592714], [34.876449732527824, 31.99297336428429], [34.87646877825237, 31.99294998102833], [34.876377315889286, 31.99288069170292], [34.87634955673199, 31.992904188592714]]]}}, {"type": "Feature", "properties": {"OBJECTID": 563, "Yeud": "חקלאי משקי", "migrash": "27", "area": 138, "internalI": 908, "Permit": 2, "gushtxt": "6875", "helkatxt": "29", "tabamig": "משמ/53/גז", "Hitertext": "ללא היתר", "VaadHeb": "יגל", "tabaYeud": "משמ/53/גז", "Legalproc": "אין תיק פיקוח", "LegalStat": "הוגש כתב אישום בתיק עמק 8503-06-15 , ניתנו צוי הריסה והפסקת שימוש", "LegalSt1": -2209161600000, "status23": "ללא היתר"}, "geometry": {"type": "Polygon", "coordinates": [[[34.87620679087895, 31.991169885486936], [34.876314924312496, 31.991252392505874], [34.87638631816779, 31.99118548733549], [34.87627213187868, 31.991101853703256], [34.87620679087895, 31.991169885486936]]]}}, {"type": "Feature", "properties": {"OBJECTID": 567, "Yeud": "חקלאי משקי", "migrash": "37", "area": 44, "internalI": 922, "Permit": 2, "gushtxt": "6875", "helkatxt": "19", "tabamig": "משמ/53/גז", "Hitertext": "ללא היתר", "VaadHeb": "יגל", "tabaYeud": "משמ/53/גז", "Legalproc": "יש תיק פיקוח", "LegalStat": "אין הליך משפטי", "LegalSt1": -2209161600000, "status23": "ללא היתר"}, "geometry": {"type": "Polygon", "coordinates": [[[34.876284855957714, 31.99373010078364], [34.876345546482376, 31.99376684478052], [34.87638624091625, 31.993725280324895], [34.87631721331305, 31.993685465793803], [34.876284855957714, 31.99373010078364]]]}}, {"type": "Feature", "properties": {"OBJECTID": 582, "Yeud": "חקלאי משקי", "migrash": "17", "area": 198, "internalI": 645, "Permit": 1, "gushtxt": "6876", "helkatxt": "4", "tabamig": "משמ/53/גז", "Hitertext": "קיים היתר", "VaadHeb": "יגל", "tabaYeud": "משמ/53/גז", "Legalproc": " ", "LegalStat": " ", "LegalSt1": -2209161600000, "status23": "קיים היתר"}, "geometry": {"type": "Polygon", "coordinates": [[[34.87851897386692, 31.988086776657], [34.87859077391034, 31.9881286297978], [34.8787356880262, 31.98795216053288], [34.87866508878238, 31.987908277887197], [34.87851897386692, 31.988086776657]]]}}, {"type": "Feature", "properties": {"OBJECTID": 584, "Yeud": "חקלאי משקי", "migrash": "47", "area": 67, "internalI": 731, "Permit": 2, "gushtxt": "6875", "helkatxt": "9", "tabamig": "משמ/53/גז", "Hitertext": "ללא היתר", "VaadHeb": "יגל", "tabaYeud": "משמ/53/גז", "Legalproc": "אין תיק פיקוח", "LegalStat": "הוגש כתב אישום בתיק עמק 12318-06-14 , ניתנו צוי הריסה והפסקת שימוש", "LegalSt1": -2209161600000, "status23": "ללא היתר"}, "geometry": {"type": "Polygon", "coordinates": [[[34.878852004825234, 31.99045453123813], [34.878953499105016, 31.990530676601825], [34.87899057321867, 31.990494777952073], [34.87888745386498, 31.99041886652572], [34.878852004825234, 31.99045453123813]]]}}, {"type": "Feature", "properties": {"OBJECTID": 598, "Yeud": "חקלאי משקי", "migrash": "22", "area": 89, "internalI": 633, "Permit": 2, "gushtxt": "6875", "helkatxt": "34", "tabamig": "משמ/53/גז", "Hitertext": "ללא היתר", "VaadHeb": "יגל", "tabaYeud": "משמ/53/גז", "Legalproc": "אין תיק פיקוח", "LegalStat": "אין הליך משפטי", "LegalSt1": -2209161600000, "status23": "ללא היתר"}, "geometry": {"type": "Polygon", "coordinates": [[[34.877536892405715, 31.989791739629858], [34.87763377941549, 31.9897127908633], [34.877583919909966, 31.989666826454002], [34.87748492133241, 31.98974802876386], [34.877536892405715, 31.989791739629858]]]}}, {"type": "Feature", "properties": {"OBJECTID": 600, "Yeud": "חקלאי משקי", "migrash": "43", "area": 47, "internalI": 741, "Permit": 2, "gushtxt": "6875", "helkatxt": "13", "tabamig": "משמ/53/גז", "Hitertext": "ללא היתר", "VaadHeb": "יגל", "tabaYeud": "משמ/53/גז", "Legalproc": "אין תיק פיקוח", "LegalStat": "אין הליך משפטי", "LegalSt1": -2209161600000, "status23": "ללא היתר"}, "geometry": {"type": "Polygon", "coordinates": [[[34.87777434818443, 31.99188329442551], [34.87782033680544, 31.99191830629539], [34.87787657358197, 31.991865262595635], [34.877827008548756, 31.99182990246385], [34.87777434818443, 31.99188329442551]]]}}, {"type": "Feature", "properties": {"OBJECTID": 606, "Yeud": "חקלאי משקי", "migrash": "54", "area": 102, "internalI": 718, "Permit": 2, "gushtxt": "6875", "helkatxt": "2", "tabamig": "משמ/53/גז", "Hitertext": "ללא היתר", "VaadHeb": "יגל", "tabaYeud": "משמ/53/גז", "Legalproc": "יש תיק פיקוח", "LegalStat": "אין הליך משפטי", "LegalSt1": -2209161600000, "status23": "ללא היתר"}, "geometry": {"type": "Polygon", "coordinates": [[[34.88157709913059, 31.988873286578723], [34.88161827636499, 31.988906795969704], [34.88167655935195, 31.98885266185966], [34.88170867124479, 31.988876604368215], [34.88175571326358, 31.988834371613816], [34.881684515097604, 31.988779311252326], [34.88157709913059, 31.988873286578723]]]}}, {"type": "Feature", "properties": {"OBJECTID": 611, "Yeud": "חקלאי משקי", "migrash": "38", "area": 142, "internalI": 916, "Permit": 2, "gushtxt": "6875", "helkatxt": "18", "tabamig": "משמ/53/גז", "Hitertext": "ללא היתר", "VaadHeb": "יגל", "tabaYeud": "משמ/53/גז", "Legalproc": "אין תיק פיקוח", "LegalStat": "אין הליך משפטי", "LegalSt1": -2209161600000, "status23": "ללא היתר"}, "geometry": {"type": "Polygon", "coordinates": [[[34.87662264760345, 31.99349390032539], [34.87669556044748, 31.993411512255122], [34.876599232379945, 31.99334001733948], [34.87652141311501, 31.993421401595572], [34.87662264760345, 31.99349390032539]]]}}, {"type": "Feature", "properties": {"OBJECTID": 617, "Yeud": "חקלאי משקי", "migrash": "52", "area": 163, "internalI": 721, "Permit": 1, "gushtxt": "6875", "helkatxt": "4", "tabamig": "משמ/53/גז", "Hitertext": "קיים היתר", "VaadHeb": "יגל", "tabaYeud": "משמ/53/גז", "Legalproc": " ", "LegalStat": " ", "LegalSt1": null, "status23": "קיים היתר"}, "geometry": {"type": "Polygon", "coordinates": [[[34.88042802521518, 31.98931556406567], [34.880561281341365, 31.989402630731725], [34.880629860545184, 31.989343180190946], [34.880489508917925, 31.98923915779055], [34.88042802521518, 31.98931556406567]]]}}, {"type": "Feature", "properties": {"OBJECTID": 639, "Yeud": "חקלאי משקי", "migrash": "45", "area": 169, "internalI": 734, "Permit": 2, "gushtxt": "6875", "helkatxt": "11", "tabamig": "משמ/53/גז", "Hitertext": "ללא היתר", "VaadHeb": "יגל", "tabaYeud": "משמ/53/גז", "Legalproc": "אין תיק פיקוח", "LegalStat": "אין הליך משפטי", "LegalSt1": -2209161600000, "status23": "ללא היתר"}, "geometry": {"type": "Polygon", "coordinates": [[[34.87807632386539, 31.990979794277216], [34.87821271297342, 31.99108042105397], [34.87829185038808, 31.991001429787186], [34.87821269499045, 31.990941680212337], [34.87818297540306, 31.990969567870096], [34.87812476562727, 31.99092882440181], [34.87807632386539, 31.990979794277216]]]}}, {"type": "Feature", "properties": {"OBJECTID": 645, "Yeud": "חקלאי משקי", "migrash": "25", "area": 24, "internalI": 906, "Permit": 1, "gushtxt": "6875", "helkatxt": "31", "tabamig": "משמ/53/גז", "Hitertext": "קיים היתר", "VaadHeb": "יגל", "tabaYeud": "משמ/53/גז", "Legalproc": " ", "LegalStat": " ", "LegalSt1": null, "status23": "קיים היתר"}, "geometry": {"type": "Polygon", "coordinates": [[[34.876853005110156, 31.990436333840645], [34.876896986423354, 31.990398379482794], [34.87686760452467, 31.990373160445383], [34.876821910685166, 31.990412133018864], [34.876853005110156, 31.990436333840645]]]}}, {"type": "Feature", "properties": {"OBJECTID": 649, "Yeud": "חקלאי משקי", "migrash": "18", "area": 2173, "internalI": 551, "Permit": 2, "gushtxt": "6839", "helkatxt": "9", "tabamig": "משמ/63/גז", "Hitertext": "ללא היתר", "VaadHeb": "צפריה", "tabaYeud": "משמ/63/גז", "Legalproc": "אין תיק פיקוח", "LegalStat": "הוגש כתב אישום בתיק עמק 90583/05 ובתיק 51371-11-11  ניתן צו הריסה ואיסור שימוש    לביצוע עד ליום 09/04/2017", "LegalSt1": -2209161600000, "status23": "ללא היתר"}, "geometry": {"type": "Polygon", "coordinates": [[[34.86049646222209, 32.00343253302204], [34.8615813601419, 32.0037688174127], [34.86165512521189, 32.00360369387652], [34.86057343038235, 32.00326199896592], [34.86049646222209, 32.00343253302204]]]}}, {"type": "Feature", "properties": {"OBJECTID": 656, "Yeud": "חקלאי משקי", "migrash": "19", "area": 1066, "internalI": 807, "Permit": 2, "gushtxt": "6839", "helkatxt": "10", "tabamig": "משמ/63/גז", "Hitertext": "ללא היתר", "VaadHeb": "צפריה", "tabaYeud": "משמ/63/גז", "Legalproc": "קיים תיק פיקוח ישן", "LegalStat": "הוגש כתב אישום בתיק עמק 5089/03  ניתן צו הריסה והפסקת שימוש לביצוע עד ליום 05/12/2007 הוגש כתב אישום על אי קיום הצו בתיק חע\"מ 40740/08 ניתן צו הריסה עד ליו", "LegalSt1": -2209161600000, "status23": "ללא היתר"}, "geometry": {"type": "Polygon", "coordinates": [[[34.860181669065796, 32.0028351256942], [34.86089445754238, 32.00315640810101], [34.86097440387111, 32.00304008556069], [34.86054259646924, 32.00284107420809], [34.86052023736193, 32.002866760956785], [34.86023815675732, 32.00273726749034], [34.860181669065796, 32.0028351256942]]]}}, {"type": "Feature", "properties": {"OBJECTID": 659, "Yeud": "חקלאי משקי", "migrash": "17", "area": 147, "internalI": 555, "Permit": 1, "gushtxt": "6839", "helkatxt": "8", "tabamig": "משמ/63/גז", "Hitertext": "קיים היתר", "VaadHeb": "צפריה", "tabaYeud": "משמ/63/גז", "Legalproc": " ", "LegalStat": " ", "LegalSt1": null, "status23": "קיים היתר"}, "geometry": {"type": "Polygon", "coordinates": [[[34.86158090485064, 32.00389145221638], [34.861616630196046, 32.00390645462468], [34.86158942975826, 32.003951098780995], [34.861629125028045, 32.003967467320415], [34.861591385077695, 32.00406696485755], [34.86162948580199, 32.00408468359469], [34.86171524602563, 32.00390130028983], [34.861592925070035, 32.003866415505186], [34.86158090485064, 32.00389145221638]]]}}, {"type": "Feature", "properties": {"OBJECTID": 669, "Yeud": "חקלאי משקי", "migrash": "21", "area": 29, "internalI": 642, "Permit": 2, "gushtxt": "6875", "helkatxt": "35", "tabamig": "משמ/53/גז", "Hitertext": "ללא היתר", "VaadHeb": "יגל", "tabaYeud": "משמ/53/גז", "Legalproc": "אין תיק פיקוח", "LegalStat": "אין הליך משפטי", "LegalSt1": -2209161600000, "status23": "ללא היתר"}, "geometry": {"type": "Polygon", "coordinates": [[[34.877832610760706, 31.989238918307752], [34.87786852287301, 31.989269355537036], [34.877914310080826, 31.98923062359764], [34.87787545978705, 31.989200711787902], [34.877832610760706, 31.989238918307752]]]}}, {"type": "Feature", "properties": {"OBJECTID": 672, "Yeud": "חקלאי משקי", "migrash": "48", "area": 49, "internalI": 729, "Permit": 2, "gushtxt": "6875", "helkatxt": "8", "tabamig": "משמ/53/גז", "Hitertext": "ללא היתר", "VaadHeb": "יגל", "tabaYeud": "משמ/53/גז", "Legalproc": "אין תיק פיקוח", "LegalStat": "אין הליך משפטי", "LegalSt1": -2209161600000, "status23": "ללא היתר"}, "geometry": {"type": "Polygon", "coordinates": [[[34.879050087089155, 31.990423605927624], [34.87909767422792, 31.990456249694066], [34.879154314545204, 31.990400834697887], [34.87910037624145, 31.990366142005147], [34.879050087089155, 31.990423605927624]]]}}, {"type": "Feature", "properties": {"OBJECTID": 676, "Yeud": "חקלאי משקי", "migrash": "55", "area": 32, "internalI": 651, "Permit": 2, "gushtxt": "6877", "helkatxt": "34", "tabamig": "משמ/53/גז", "Hitertext": "ללא היתר", "VaadHeb": "יגל", "tabaYeud": "משמ/53/גז", "Legalproc": "אין תיק פיקוח", "LegalStat": "אין הליך משפטי", "LegalSt1": -2209161600000, "status23": "מבנה פורק"}, "geometry": {"type": "Polygon", "coordinates": [[[34.88332601397639, 31.988079844233088], [34.88333910755317, 31.988057857986476], [34.88322651655634, 31.988002157184336], [34.883212165932136, 31.98802019033229], [34.88332601397639, 31.988079844233088]]]}}, {"type": "Feature", "properties": {"OBJECTID": 677, "Yeud": "חקלאי", "migrash": "130", "area": 152, "internalI": 629, "Permit": 2, "gushtxt": "4980", "helkatxt": "23", "tabamig": "משמ/62/גז", "Hitertext": "ללא היתר", "VaadHeb": "אחיעזר", "tabaYeud": "משמ/62/גז", "Legalproc": "קיים תיק פיקוח ישן", "LegalStat": "אין הליך משפטי", "LegalSt1": -2209161600000, "status23": "ללא היתר"}, "geometry": {"type": "Polygon", "coordinates": [[[34.86487113235989, 31.987672740274007], [34.86491342079338, 31.987630845556083], [34.86470487761459, 31.987483938219604], [34.86466419446613, 31.987521771832434], [34.86487113235989, 31.987672740274007]]]}}, {"type": "Feature", "properties": {"OBJECTID": 678, "Yeud": "חקלאי משקי", "migrash": "29", "area": 123, "internalI": 912, "Permit": 1, "gushtxt": "6875", "helkatxt": "27", "tabamig": "משמ/53/גז", "Hitertext": "קיים היתר", "VaadHeb": "יגל", "tabaYeud": "משמ/53/גז", "Legalproc": " ", "LegalStat": " ", "LegalSt1": null, "status23": "קיים היתר"}, "geometry": {"type": "Polygon", "coordinates": [[[34.875806489887026, 31.99167998591067], [34.875896660112126, 31.991597737646753], [34.87581921343361, 31.9915356706698], [34.875732024563895, 31.991624300552836], [34.875806489887026, 31.99167998591067]]]}}, {"type": "Feature", "properties": {"OBJECTID": 694, "Yeud": "חקלאי משקי", "migrash": "38", "area": 171, "internalI": 917, "Permit": 2, "gushtxt": "6875", "helkatxt": "18", "tabamig": "משמ/53/גז", "Hitertext": "ללא היתר", "VaadHeb": "יגל", "tabaYeud": "משמ/53/גז", "Legalproc": "אין תיק פיקוח", "LegalStat": "אין הליך משפטי", "LegalSt1": -2209161600000, "status23": "ללא היתר"}, "geometry": {"type": "Polygon", "coordinates": [[[34.87613754760714, 31.99289836659506], [34.87616728648282, 31.992919786515266], [34.876160080485604, 31.992933997441515], [34.876180292369945, 31.992951326481325], [34.87620536495144, 31.992943260663367], [34.87623748066968, 31.992966719380433], [34.87632488591489, 31.99286836106977], [34.87624046179491, 31.992799033929654], [34.87613754760714, 31.99289836659506]]]}}, {"type": "Feature", "properties": {"OBJECTID": 705, "Yeud": "חקלאי משקי", "migrash": "25", "area": 1443, "internalI": 1120, "Permit": 1, "gushtxt": "6839", "helkatxt": "16", "tabamig": "משמ/63/גז", "Hitertext": "קיים היתר", "VaadHeb": "צפריה", "tabaYeud": "משמ/63/גז", "Legalproc": " ", "LegalStat": " ", "LegalSt1": null, "status23": "קיים היתר"}, "geometry": {"type": "Polygon", "coordinates": [[[34.86125807039409, 32.00008127003391], [34.861495005306736, 31.999812966047806], [34.86114339318505, 31.99960835136497], [34.86092790734041, 31.999876713666822], [34.86125807039409, 32.00008127003391]]]}}, {"type": "Feature", "properties": {"OBJECTID": 773, "Yeud": "חקלאי", "migrash": " ", "area": 274, "internalI": 99, "Permit": 2, "gushtxt": "6875", "helkatxt": "60", "tabamig": " ", "Hitertext": "ללא היתר", "VaadHeb": "יגל", "tabaYeud": "גז/13/391", "Legalproc": " ", "LegalStat": " ", "LegalSt1": null, "status23": "ללא היתר"}, "geometry": {"type": "Polygon", "coordinates": [[[34.874631285273885, 31.99404110666499], [34.87473464535389, 31.993963775011068], [34.87462161778271, 31.993862454050852], [34.874499285294334, 31.993960234291787], [34.87455746197106, 31.994026273111345], [34.87453680249453, 31.994037932036864], [34.874511100796354, 31.99401883085139], [34.874490447613184, 31.994029026158213], [34.8745383637626, 31.994081861153294], [34.874578020831635, 31.99404243186196], [34.874602036560454, 31.994052744181584], [34.87461927478841, 31.99403668276632], [34.874631285273885, 31.99404110666499]]]}}, {"type": "Feature", "properties": {"OBJECTID": 788, "Yeud": "אזור חקלאי/נוף כפרי פתוח", "migrash": " ", "area": 25, "internalI": 111, "Permit": 2, "gushtxt": "6465", "helkatxt": "128", "tabamig": " ", "Hitertext": "ללא היתר", "VaadHeb": "יגל", "tabaYeud": "תמ\"מ/21/3", "Legalproc": " ", "LegalStat": " ", "LegalSt1": null, "status23": "ללא היתר"}, "geometry": {"type": "Polygon", "coordinates": [[[34.87269559799704, 31.993667352826527], [34.87273144165719, 31.99369181956525], [34.872768997075134, 31.99364817302097], [34.87273901769246, 31.993624345668007], [34.87269486468215, 31.99366735090968], [34.87269559799704, 31.993667352826527]]]}}]}