{"type": "FeatureCollection", "name": "התראות פוליגונלי", "features": [{"type": "Feature", "properties": {"OBJECTID": 9, "LAYER": "NOTE_PL_DERECH_LBITUL"}, "geometry": {"type": "Polygon", "coordinates": [[[34.88157668472504, 31.98822658955706], [34.88281170579332, 31.98907320394161], [34.88269421219414, 31.989201963437814], [34.88303203441693, 31.989433128573697], [34.883315452058824, 31.98912751098741], [34.88177632573105, 31.988025300351072], [34.88157668472504, 31.98822658955706]]]}}, {"type": "Feature", "properties": {"OBJECTID": 10, "LAYER": "NOTE_PL_DERECH_LBITUL"}, "geometry": {"type": "Polygon", "coordinates": [[[34.88307826690688, 31.98883744665174], [34.88341581152874, 31.989079858286424], [34.883582334001474, 31.988904137934046], [34.88325344534058, 31.988669239032262], [34.88307826690688, 31.98883744665174]]]}}, {"type": "Feature", "properties": {"OBJECTID": 14, "LAYER": "NOTE_PL_DERECH_LBITUL"}, "geometry": {"type": "Polygon", "coordinates": [[[34.87930043977309, 31.988072849631862], [34.87915184993181, 31.987964915157153], [34.87913852505367, 31.98794571765467], [34.87913115111482, 31.98792709903113], [34.87913094428701, 31.98789215356407], [34.879142618245595, 31.98786343845483], [34.87913991481242, 31.987864921307747], [34.87913727353072, 31.98786648277694], [34.879134695468174, 31.9878681201597], [34.87913218486356, 31.9878698316633], [34.87912974489757, 31.987871615492278], [34.87912737769595, 31.987873468946674], [34.87912508643625, 31.987875391132835], [34.87912287324736, 31.987877378449006], [34.87912074130683, 31.98787943000153], [34.87911869380488, 31.987881541289575], [34.87911673179961, 31.987883712315792], [34.879114857423176, 31.987885938576728], [34.87911307385625, 31.987888218276844], [34.87911138322461, 31.987890548716212], [34.87910978765404, 31.987892927194885], [34.87910828715724, 31.98789535010565], [34.87910688596984, 31.987897816557567], [34.87910558411098, 31.987900321139893], [34.87910438370001, 31.987902862956226], [34.8791032858078, 31.9879054384021], [34.87910229256014, 31.98790804477756], [34.879101403972925, 31.98791067757361], [34.87910062216876, 31.98791333499207], [34.87909994715717, 31.987916014327602], [34.879099381070326, 31.987918711076595], [34.87909892179839, 31.987921423430098], [34.87909857358968, 31.987924146889934], [34.87909833327948, 31.987926878742567], [34.87909820404845, 31.987929617192545], [34.879098183799464, 31.98793235682368], [34.87909827465516, 31.987935095837813], [34.879098474512034, 31.987937830622318], [34.879098784440934, 31.987940557572696], [34.87909920445141, 31.9879432739836], [34.87909973244, 31.98794597624239], [34.87910036841305, 31.987948662545495], [34.87910111238969, 31.987951327482094], [34.879101963314994, 31.987953970147718], [34.879102919088666, 31.987956586027927], [34.87910397972026, 31.987959172417362], [34.879105143103104, 31.98796172660517], [34.87910640924675, 31.98796424588597], [34.8791077749928, 31.98796672574265], [34.879109239289505, 31.987969164368913], [34.87911080214324, 31.98797155996111], [34.879112459340654, 31.98797390709767], [34.87925711541828, 31.98808413925843], [34.87925827432349, 31.98808316467115], [34.879259473319216, 31.988082223553338], [34.879260708160274, 31.988081319501337], [34.87926197991117, 31.98808045071429], [34.87926328538478, 31.988079620791197], [34.87926462352306, 31.988078829729417], [34.87926599326787, 31.988078077526175], [34.87926739249348, 31.98807736688149], [34.8792688190868, 31.98807669688812], [34.879270271983394, 31.988076069346953], [34.879271750121944, 31.988075485157044], [34.87927325032814, 31.9880749443103], [34.87927477153752, 31.98807444860757], [34.87927631269513, 31.988073997144358], [34.87927786956537, 31.98807359081164], [34.87927944320316, 31.98807323051391], [34.87928103043098, 31.9880729171448], [34.87928262913263, 31.98807265069893], [34.87928423719508, 31.98807243026906], [34.87928585355382, 31.988072257656096], [34.879287476092664, 31.988072132854573], [34.87928910269537, 31.9880720558591], [34.87929073124892, 31.988072025762467], [34.879292359630725, 31.988072044362806], [34.879293986789044, 31.988072109853857], [34.87929561060129, 31.98807222403378], [34.87929722789948, 31.988072385090828], [34.87929883868047, 31.988072593926844], [34.87930043977309, 31.988072849631862]]]}}, {"type": "Feature", "properties": {"OBJECTID": 186, "LAYER": "NOTE_PL_DERECH_LBITUL"}, "geometry": {"type": "Polygon", "coordinates": [[[34.86265962473641, 31.98984086820568], [34.8628534869314, 31.98978908096958], [34.86305239699313, 31.98973594528979], [34.86323414167189, 31.989687393914714], [34.86338392907916, 31.989632049692016], [34.863514019684594, 31.98958398314894], [34.863668865208545, 31.989526770109343], [34.86377517000932, 31.989487491539474], [34.86395137425229, 31.98942238607709], [34.86406104099726, 31.989381828508893], [34.8640056310362, 31.989343344209505], [34.863208120110976, 31.989639320934064], [34.86299390479218, 31.98969491548668], [34.86280067838459, 31.989746533307912], [34.86263526499615, 31.989790720926905], [34.86259683473917, 31.989800910615443], [34.862379146677604, 31.989859137959392], [34.862229113734145, 31.989899412087304], [34.86198404231559, 31.98997709347663], [34.86189926363579, 31.99000396480483], [34.86102181726028, 31.990281549615425], [34.860868225053174, 31.99033019295756], [34.86089074432372, 31.990380781978804], [34.862255557435546, 31.989948807545623], [34.86226988194013, 31.98994498103332], [34.86233985422516, 31.989926289490437], [34.86243547266176, 31.98990074657583], [34.86254855814274, 31.989870537814898], [34.86265962473641, 31.98984086820568]]]}}, {"type": "Feature", "properties": {"OBJECTID": 187, "LAYER": "NOTE_PL_DERECH_LBITUL"}, "geometry": {"type": "Polygon", "coordinates": [[[34.862316262329955, 31.99324225249668], [34.86356223528761, 31.992984462754645], [34.86366017253235, 31.99288575193293], [34.86364571584948, 31.99288887213167], [34.863543644284555, 31.992910904112744], [34.8634269963047, 31.992936082015735], [34.863249828336976, 31.992974322073405], [34.862300946337534, 31.99319889578759], [34.862316262329955, 31.99324225249668]]]}}, {"type": "Feature", "properties": {"OBJECTID": 207, "LAYER": "NOTE_PL_DERECH_LBITUL"}, "geometry": {"type": "Polygon", "coordinates": [[[34.85929916526097, 31.993602370749098], [34.85996586100303, 31.993534072306552], [34.86014216237601, 31.993516010541228], [34.86024864987764, 31.993505101693675], [34.860488326595295, 31.993480546981484], [34.86064092179363, 31.99346491375863], [34.86078569399461, 31.99345008161366], [34.86084855175017, 31.99344364158675], [34.860967094672716, 31.99342939834093], [34.86118578523574, 31.993407382704675], [34.8612763380781, 31.99339826776985], [34.861410642292576, 31.993380662418055], [34.86168577182274, 31.993346104670305], [34.861842790649995, 31.99332511711865], [34.86214879765387, 31.993273145827118], [34.86228521161457, 31.993248677103345], [34.86226053212757, 31.993198109575935], [34.86213613873903, 31.993220123521866], [34.86183166299874, 31.99327183468939], [34.86167622384952, 31.993292610963216], [34.86140118763503, 31.993327158121787], [34.861267785510584, 31.99334464415987], [34.86117833681421, 31.993353648448075], [34.86095964637717, 31.99337566407254], [34.86081588093226, 31.993390136617712], [34.86075675088384, 31.993396088928037], [34.86059500860154, 31.993412370254223], [34.86045514179176, 31.99342644984659], [34.860221437192024, 31.993449975504944], [34.86010425986589, 31.993461770657344], [34.85993249578453, 31.99347906011846], [34.85926684758315, 31.99354606173857], [34.85907805908449, 31.993565064057428], [34.85900636451112, 31.993572279955433], [34.85890874522231, 31.993582112606212], [34.85855325582264, 31.993641413559978], [34.8584836081539, 31.99365639656057], [34.858388365749754, 31.993676565444712], [34.8582584285263, 31.99370408581207], [34.85799263176259, 31.9937603815219], [34.85758557286126, 31.993846594867218], [34.85748623160602, 31.993867635636505], [34.85739888489345, 31.993886134479837], [34.857313941082374, 31.993904125807475], [34.85721863045096, 31.99392429362398], [34.856719878605816, 31.994018243258413], [34.85643992552183, 31.994035905158974], [34.85611512627661, 31.994057220113465], [34.85605979980371, 31.994115217409167], [34.856717927887374, 31.994071383871912], [34.8569142560928, 31.994034226271662], [34.85704853013447, 31.99400880232221], [34.857224420329295, 31.993975556227685], [34.85761446190119, 31.993892845235845], [34.85802525961086, 31.993805770862867], [34.858221285548844, 31.993764281753876], [34.85828966562863, 31.993751273095032], [34.85841905699471, 31.993726824552976], [34.85850779524591, 31.993710480500756], [34.85858958071757, 31.99369708437165], [34.858935939920926, 31.993639579202423], [34.85905058942549, 31.993627835065066], [34.85911527030793, 31.993621208775547], [34.85929916526097, 31.993602370749098]]]}}, {"type": "Feature", "properties": {"OBJECTID": 216, "LAYER": "NOTE_PL_DERECH_LBITUL"}, "geometry": {"type": "Polygon", "coordinates": [[[34.866589554867595, 31.993679875429635], [34.8665458409948, 31.99373681796295], [34.866833029381944, 31.99429492835853], [34.86686328562256, 31.994231823985068], [34.86682680200088, 31.99415826061656], [34.866793660864445, 31.994091448012263], [34.866589554867595, 31.993679875429635]]]}}, {"type": "Feature", "properties": {"OBJECTID": 217, "LAYER": "NOTE_PL_DERECH_LBITUL"}, "geometry": {"type": "Polygon", "coordinates": [[[34.86305593160748, 31.993474245644567], [34.86272380888539, 31.99372705435978], [34.862717599115804, 31.99399630077821], [34.86305887537829, 31.994001118640295], [34.86305593160748, 31.993474245644567]]]}}]}