{"type": "FeatureCollection", "name": "התראות נקודתי", "features": [{"type": "Feature", "properties": {"OBJECTID": 1, "BLOCKNAME": "tree-SH", "LAYER": "NOTE_POINT_TREE_LESHIMUR"}, "geometry": {"type": "Point", "coordinates": [34.87096034240235, 31.957513896395053]}}, {"type": "Feature", "properties": {"OBJECTID": 2, "BLOCKNAME": "tree-SH", "LAYER": "NOTE_POINT_TREE_LESHIMUR"}, "geometry": {"type": "Point", "coordinates": [34.87122097354829, 31.95739115358266]}}, {"type": "Feature", "properties": {"OBJECTID": 3, "BLOCKNAME": "tree-SH", "LAYER": "NOTE_POINT_TREE_LESHIMUR"}, "geometry": {"type": "Point", "coordinates": [34.871256145552934, 31.957401659956076]}}, {"type": "Feature", "properties": {"OBJECTID": 4, "BLOCKNAME": "tree-SH", "LAYER": "NOTE_POINT_TREE_LESHIMUR"}, "geometry": {"type": "Point", "coordinates": [34.87125332736282, 31.957417272792803]}}, {"type": "Feature", "properties": {"OBJECTID": 5, "BLOCKNAME": "tree-SH", "LAYER": "NOTE_POINT_TREE_LESHIMUR"}, "geometry": {"type": "Point", "coordinates": [34.87125213076009, 31.957351999435144]}}, {"type": "Feature", "properties": {"OBJECTID": 6, "BLOCKNAME": "tree-SH", "LAYER": "NOTE_POINT_TREE_LESHIMUR"}, "geometry": {"type": "Point", "coordinates": [34.870862047167094, 31.955529935414166]}}, {"type": "Feature", "properties": {"OBJECTID": 7, "BLOCKNAME": "tree-SH", "LAYER": "NOTE_POINT_TREE_LESHIMUR"}, "geometry": {"type": "Point", "coordinates": [34.87084663846604, 31.955524220756423]}}, {"type": "Feature", "properties": {"OBJECTID": 8, "BLOCKNAME": "tree-SH", "LAYER": "NOTE_POINT_TREE_LESHIMUR"}, "geometry": {"type": "Point", "coordinates": [34.870697824622404, 31.95554893792985]}}, {"type": "Feature", "properties": {"OBJECTID": 9, "BLOCKNAME": "tree-SH", "LAYER": "NOTE_POINT_TREE_LESHIMUR"}, "geometry": {"type": "Point", "coordinates": [34.870636855813295, 31.955551645442263]}}, {"type": "Feature", "properties": {"OBJECTID": 10, "BLOCKNAME": "tree-SH", "LAYER": "NOTE_POINT_TREE_LESHIMUR"}, "geometry": {"type": "Point", "coordinates": [34.87092362440008, 31.95617504120983]}}, {"type": "Feature", "properties": {"OBJECTID": 11, "BLOCKNAME": "tree-SH", "LAYER": "NOTE_POINT_TREE_LESHIMUR"}, "geometry": {"type": "Point", "coordinates": [34.86417894931745, 31.953568978991527]}}, {"type": "Feature", "properties": {"OBJECTID": 12, "BLOCKNAME": "tree-SH", "LAYER": "NOTE_POINT_TREE_LESHIMUR"}, "geometry": {"type": "Point", "coordinates": [34.86417687136494, 31.95360127802913]}}, {"type": "Feature", "properties": {"OBJECTID": 13, "BLOCKNAME": "tree-SH", "LAYER": "NOTE_POINT_TREE_LESHIMUR"}, "geometry": {"type": "Point", "coordinates": [34.864175776084096, 31.953630981587427]}}, {"type": "Feature", "properties": {"OBJECTID": 14, "BLOCKNAME": "tree-SH", "LAYER": "NOTE_POINT_TREE_LESHIMUR"}, "geometry": {"type": "Point", "coordinates": [34.86420496466564, 31.953653760126386]}}, {"type": "Feature", "properties": {"OBJECTID": 15, "BLOCKNAME": "tree-SH", "LAYER": "NOTE_POINT_TREE_LESHIMUR"}, "geometry": {"type": "Point", "coordinates": [34.86422723656419, 31.953589923011336]}}, {"type": "Feature", "properties": {"OBJECTID": 16, "BLOCKNAME": "tree-SH", "LAYER": "NOTE_POINT_TREE_LESHIMUR"}, "geometry": {"type": "Point", "coordinates": [34.86427978031001, 31.95363349217826]}}, {"type": "Feature", "properties": {"OBJECTID": 17, "BLOCKNAME": "tree-SH", "LAYER": "NOTE_POINT_TREE_LESHIMUR"}, "geometry": {"type": "Point", "coordinates": [34.8643392927289, 31.953686159399346]}}, {"type": "Feature", "properties": {"OBJECTID": 18, "BLOCKNAME": "tree-SH", "LAYER": "NOTE_POINT_TREE_LESHIMUR"}, "geometry": {"type": "Point", "coordinates": [34.86427352766418, 31.953545197339164]}}, {"type": "Feature", "properties": {"OBJECTID": 19, "BLOCKNAME": "tree-SH", "LAYER": "NOTE_POINT_TREE_LESHIMUR"}, "geometry": {"type": "Point", "coordinates": [34.864328790894795, 31.95354338301317]}}, {"type": "Feature", "properties": {"OBJECTID": 20, "BLOCKNAME": "tree-SH", "LAYER": "NOTE_POINT_TREE_LESHIMUR"}, "geometry": {"type": "Point", "coordinates": [34.8643731792453, 31.953547425651713]}}, {"type": "Feature", "properties": {"OBJECTID": 21, "BLOCKNAME": "tree-SH", "LAYER": "NOTE_POINT_TREE_LESHIMUR"}, "geometry": {"type": "Point", "coordinates": [34.86440792073223, 31.953580588014372]}}, {"type": "Feature", "properties": {"OBJECTID": 22, "BLOCKNAME": "tree-SH", "LAYER": "NOTE_POINT_TREE_LESHIMUR"}, "geometry": {"type": "Point", "coordinates": [34.86441497846318, 31.953624076814453]}}, {"type": "Feature", "properties": {"OBJECTID": 23, "BLOCKNAME": "tree-SH", "LAYER": "NOTE_POINT_TREE_LESHIMUR"}, "geometry": {"type": "Point", "coordinates": [34.864452434973614, 31.953721627485898]}}, {"type": "Feature", "properties": {"OBJECTID": 24, "BLOCKNAME": "tree-SH", "LAYER": "NOTE_POINT_TREE_LESHIMUR"}, "geometry": {"type": "Point", "coordinates": [34.864481833501245, 31.95362221950899]}}, {"type": "Feature", "properties": {"OBJECTID": 25, "BLOCKNAME": "tree-SH", "LAYER": "NOTE_POINT_TREE_LESHIMUR"}, "geometry": {"type": "Point", "coordinates": [34.864492078064366, 31.953591349148727]}}, {"type": "Feature", "properties": {"OBJECTID": 26, "BLOCKNAME": "tree-SH", "LAYER": "NOTE_POINT_TREE_LESHIMUR"}, "geometry": {"type": "Point", "coordinates": [34.864489116848866, 31.95354097067494]}}, {"type": "Feature", "properties": {"OBJECTID": 27, "BLOCKNAME": "tree-SH", "LAYER": "NOTE_POINT_TREE_LESHIMUR"}, "geometry": {"type": "Point", "coordinates": [34.86456825711804, 31.953543468579287]}}, {"type": "Feature", "properties": {"OBJECTID": 28, "BLOCKNAME": "tree-SH", "LAYER": "NOTE_POINT_TREE_LESHIMUR"}, "geometry": {"type": "Point", "coordinates": [34.864513338981496, 31.953864637975553]}}, {"type": "Feature", "properties": {"OBJECTID": 29, "BLOCKNAME": "tree-SH", "LAYER": "NOTE_POINT_TREE_LESHIMUR"}, "geometry": {"type": "Point", "coordinates": [34.86451300835996, 31.953811948896202]}}, {"type": "Feature", "properties": {"OBJECTID": 30, "BLOCKNAME": "tree-SH", "LAYER": "NOTE_POINT_TREE_LESHIMUR"}, "geometry": {"type": "Point", "coordinates": [34.864595278482305, 31.9538130627688]}}, {"type": "Feature", "properties": {"OBJECTID": 31, "BLOCKNAME": "tree-SH", "LAYER": "NOTE_POINT_TREE_LESHIMUR"}, "geometry": {"type": "Point", "coordinates": [34.864595117402466, 31.95385681901539]}}, {"type": "Feature", "properties": {"OBJECTID": 32, "BLOCKNAME": "tree-SH", "LAYER": "NOTE_POINT_TREE_LESHIMUR"}, "geometry": {"type": "Point", "coordinates": [34.8644920378132, 31.953951273666135]}}, {"type": "Feature", "properties": {"OBJECTID": 33, "BLOCKNAME": "tree-SH", "LAYER": "NOTE_POINT_TREE_LESHIMUR"}, "geometry": {"type": "Point", "coordinates": [34.86450686338411, 31.953909787749126]}}, {"type": "Feature", "properties": {"OBJECTID": 34, "BLOCKNAME": "tree-SH", "LAYER": "NOTE_POINT_TREE_LESHIMUR"}, "geometry": {"type": "Point", "coordinates": [34.86454777069706, 31.953900967525083]}}, {"type": "Feature", "properties": {"OBJECTID": 35, "BLOCKNAME": "tree-SH", "LAYER": "NOTE_POINT_TREE_LESHIMUR"}, "geometry": {"type": "Point", "coordinates": [34.86459593214805, 31.95391449098312]}}, {"type": "Feature", "properties": {"OBJECTID": 36, "BLOCKNAME": "tree-SH", "LAYER": "NOTE_POINT_TREE_LESHIMUR"}, "geometry": {"type": "Point", "coordinates": [34.86459102009657, 31.95396188864565]}}, {"type": "Feature", "properties": {"OBJECTID": 37, "BLOCKNAME": "tree-SH", "LAYER": "NOTE_POINT_TREE_LESHIMUR"}, "geometry": {"type": "Point", "coordinates": [34.86457723512264, 31.95400516293899]}}, {"type": "Feature", "properties": {"OBJECTID": 38, "BLOCKNAME": "tree-SH", "LAYER": "NOTE_POINT_TREE_LESHIMUR"}, "geometry": {"type": "Point", "coordinates": [34.864582385712964, 31.954029733884482]}}, {"type": "Feature", "properties": {"OBJECTID": 39, "BLOCKNAME": "tree-SH", "LAYER": "NOTE_POINT_TREE_LESHIMUR"}, "geometry": {"type": "Point", "coordinates": [34.86449647682021, 31.954020574242342]}}, {"type": "Feature", "properties": {"OBJECTID": 40, "BLOCKNAME": "tree-SH", "LAYER": "NOTE_POINT_TREE_LESHIMUR"}, "geometry": {"type": "Point", "coordinates": [34.864343469717674, 31.95398618261787]}}, {"type": "Feature", "properties": {"OBJECTID": 41, "BLOCKNAME": "tree-SH", "LAYER": "NOTE_POINT_TREE_LESHIMUR"}, "geometry": {"type": "Point", "coordinates": [34.86436141034643, 31.95395274288432]}}, {"type": "Feature", "properties": {"OBJECTID": 42, "BLOCKNAME": "tree-SH", "LAYER": "NOTE_POINT_TREE_LESHIMUR"}, "geometry": {"type": "Point", "coordinates": [34.86428378572138, 31.953970841718615]}}, {"type": "Feature", "properties": {"OBJECTID": 43, "BLOCKNAME": "tree-SH", "LAYER": "NOTE_POINT_TREE_LESHIMUR"}, "geometry": {"type": "Point", "coordinates": [34.864253670013575, 31.954037736604754]}}, {"type": "Feature", "properties": {"OBJECTID": 44, "BLOCKNAME": "tree-SH", "LAYER": "NOTE_POINT_TREE_LESHIMUR"}, "geometry": {"type": "Point", "coordinates": [34.864306630703446, 31.954028501448217]}}, {"type": "Feature", "properties": {"OBJECTID": 45, "BLOCKNAME": "tree-SH", "LAYER": "NOTE_POINT_TREE_LESHIMUR"}, "geometry": {"type": "Point", "coordinates": [34.86435227419603, 31.954014335423043]}}, {"type": "Feature", "properties": {"OBJECTID": 46, "BLOCKNAME": "tree-SH", "LAYER": "NOTE_POINT_TREE_LESHIMUR"}, "geometry": {"type": "Point", "coordinates": [34.864413502041096, 31.9540372718521]}}, {"type": "Feature", "properties": {"OBJECTID": 47, "BLOCKNAME": "tree-SH", "LAYER": "NOTE_POINT_TREE_LESHIMUR"}, "geometry": {"type": "Point", "coordinates": [34.86442049077681, 31.95398951452476]}}, {"type": "Feature", "properties": {"OBJECTID": 48, "BLOCKNAME": "tree-SH", "LAYER": "NOTE_POINT_TREE_LESHIMUR"}, "geometry": {"type": "Point", "coordinates": [34.86441807744168, 31.953928237353537]}}, {"type": "Feature", "properties": {"OBJECTID": 49, "BLOCKNAME": "tree-SH", "LAYER": "NOTE_POINT_TREE_LESHIMUR"}, "geometry": {"type": "Point", "coordinates": [34.86433588065484, 31.953907477652134]}}, {"type": "Feature", "properties": {"OBJECTID": 50, "BLOCKNAME": "tree-SH", "LAYER": "NOTE_POINT_TREE_LESHIMUR"}, "geometry": {"type": "Point", "coordinates": [34.864375354964466, 31.9538607001104]}}, {"type": "Feature", "properties": {"OBJECTID": 51, "BLOCKNAME": "tree-SH", "LAYER": "NOTE_POINT_TREE_LESHIMUR"}, "geometry": {"type": "Point", "coordinates": [34.86429347960911, 31.95388362577444]}}, {"type": "Feature", "properties": {"OBJECTID": 52, "BLOCKNAME": "tree-SH", "LAYER": "NOTE_POINT_TREE_LESHIMUR"}, "geometry": {"type": "Point", "coordinates": [34.864310388491695, 31.953845717525734]}}, {"type": "Feature", "properties": {"OBJECTID": 53, "BLOCKNAME": "tree-SH", "LAYER": "NOTE_POINT_TREE_LESHIMUR"}, "geometry": {"type": "Point", "coordinates": [34.864340927792206, 31.953806507492622]}}, {"type": "Feature", "properties": {"OBJECTID": 54, "BLOCKNAME": "tree-SH", "LAYER": "NOTE_POINT_TREE_LESHIMUR"}, "geometry": {"type": "Point", "coordinates": [34.864309604939585, 31.95375407719793]}}, {"type": "Feature", "properties": {"OBJECTID": 55, "BLOCKNAME": "tree-SH", "LAYER": "NOTE_POINT_TREE_LESHIMUR"}, "geometry": {"type": "Point", "coordinates": [34.8642613843884, 31.95375662641613]}}, {"type": "Feature", "properties": {"OBJECTID": 56, "BLOCKNAME": "tree-SH", "LAYER": "NOTE_POINT_TREE_LESHIMUR"}, "geometry": {"type": "Point", "coordinates": [34.864264709958505, 31.953707520096806]}}, {"type": "Feature", "properties": {"OBJECTID": 57, "BLOCKNAME": "tree-SH", "LAYER": "NOTE_POINT_TREE_LESHIMUR"}, "geometry": {"type": "Point", "coordinates": [34.86422219638343, 31.953725712937832]}}, {"type": "Feature", "properties": {"OBJECTID": 58, "BLOCKNAME": "tree-SH", "LAYER": "NOTE_POINT_TREE_LESHIMUR"}, "geometry": {"type": "Point", "coordinates": [34.86422082595798, 31.95367078909426]}}, {"type": "Feature", "properties": {"OBJECTID": 59, "BLOCKNAME": "tree-SH", "LAYER": "NOTE_POINT_TREE_LESHIMUR"}, "geometry": {"type": "Point", "coordinates": [34.86416787863165, 31.95367645218646]}}, {"type": "Feature", "properties": {"OBJECTID": 60, "BLOCKNAME": "tree-SH", "LAYER": "NOTE_POINT_TREE_LESHIMUR"}, "geometry": {"type": "Point", "coordinates": [34.864120125719914, 31.953694184559787]}}, {"type": "Feature", "properties": {"OBJECTID": 61, "BLOCKNAME": "tree-SH", "LAYER": "NOTE_POINT_TREE_LESHIMUR"}, "geometry": {"type": "Point", "coordinates": [34.86426280247447, 31.953788002348205]}}, {"type": "Feature", "properties": {"OBJECTID": 62, "BLOCKNAME": "tree-SH", "LAYER": "NOTE_POINT_TREE_LESHIMUR"}, "geometry": {"type": "Point", "coordinates": [34.86422039582049, 31.953777172553774]}}, {"type": "Feature", "properties": {"OBJECTID": 63, "BLOCKNAME": "tree-SH", "LAYER": "NOTE_POINT_TREE_LESHIMUR"}, "geometry": {"type": "Point", "coordinates": [34.8641241159866, 31.953738515560694]}}, {"type": "Feature", "properties": {"OBJECTID": 64, "BLOCKNAME": "tree-SH", "LAYER": "NOTE_POINT_TREE_LESHIMUR"}, "geometry": {"type": "Point", "coordinates": [34.86407276566654, 31.953737037859277]}}, {"type": "Feature", "properties": {"OBJECTID": 65, "BLOCKNAME": "tree-SH", "LAYER": "NOTE_POINT_TREE_LESHIMUR"}, "geometry": {"type": "Point", "coordinates": [34.86402975646044, 31.953747638780392]}}, {"type": "Feature", "properties": {"OBJECTID": 66, "BLOCKNAME": "tree-SH", "LAYER": "NOTE_POINT_TREE_LESHIMUR"}, "geometry": {"type": "Point", "coordinates": [34.86422186391841, 31.953805306616594]}}, {"type": "Feature", "properties": {"OBJECTID": 67, "BLOCKNAME": "tree-SH", "LAYER": "NOTE_POINT_TREE_LESHIMUR"}, "geometry": {"type": "Point", "coordinates": [34.86417162041417, 31.95378820447098]}}, {"type": "Feature", "properties": {"OBJECTID": 68, "BLOCKNAME": "tree-SH", "LAYER": "NOTE_POINT_TREE_LESHIMUR"}, "geometry": {"type": "Point", "coordinates": [34.86411920046949, 31.95379252886724]}}, {"type": "Feature", "properties": {"OBJECTID": 69, "BLOCKNAME": "tree-SH", "LAYER": "NOTE_POINT_TREE_LESHIMUR"}, "geometry": {"type": "Point", "coordinates": [34.8640736525327, 31.953780797815103]}}, {"type": "Feature", "properties": {"OBJECTID": 70, "BLOCKNAME": "tree-SH", "LAYER": "NOTE_POINT_TREE_LESHIMUR"}, "geometry": {"type": "Point", "coordinates": [34.86402749542421, 31.95379228308956]}}, {"type": "Feature", "properties": {"OBJECTID": 71, "BLOCKNAME": "tree-SH", "LAYER": "NOTE_POINT_TREE_LESHIMUR"}, "geometry": {"type": "Point", "coordinates": [34.86421127933976, 31.953833407488823]}}, {"type": "Feature", "properties": {"OBJECTID": 72, "BLOCKNAME": "tree-SH", "LAYER": "NOTE_POINT_TREE_LESHIMUR"}, "geometry": {"type": "Point", "coordinates": [34.864157853373605, 31.9538265675152]}}, {"type": "Feature", "properties": {"OBJECTID": 73, "BLOCKNAME": "tree-SH", "LAYER": "NOTE_POINT_TREE_LESHIMUR"}, "geometry": {"type": "Point", "coordinates": [34.86411693618063, 31.953838066861902]}}, {"type": "Feature", "properties": {"OBJECTID": 74, "BLOCKNAME": "tree-SH", "LAYER": "NOTE_POINT_TREE_LESHIMUR"}, "geometry": {"type": "Point", "coordinates": [34.864070311450675, 31.953834369845183]}}, {"type": "Feature", "properties": {"OBJECTID": 75, "BLOCKNAME": "tree-SH", "LAYER": "NOTE_POINT_TREE_LESHIMUR"}, "geometry": {"type": "Point", "coordinates": [34.86401423484017, 31.953835558727494]}}, {"type": "Feature", "properties": {"OBJECTID": 76, "BLOCKNAME": "tree-SH", "LAYER": "NOTE_POINT_TREE_LESHIMUR"}, "geometry": {"type": "Point", "coordinates": [34.86416716430562, 31.953859632942635]}}, {"type": "Feature", "properties": {"OBJECTID": 77, "BLOCKNAME": "tree-SH", "LAYER": "NOTE_POINT_TREE_LESHIMUR"}, "geometry": {"type": "Point", "coordinates": [34.864115267298786, 31.95386440603547]}}, {"type": "Feature", "properties": {"OBJECTID": 78, "BLOCKNAME": "tree-SH", "LAYER": "NOTE_POINT_TREE_LESHIMUR"}, "geometry": {"type": "Point", "coordinates": [34.864071815721864, 31.95385268060038]}}, {"type": "Feature", "properties": {"OBJECTID": 79, "BLOCKNAME": "tree-SH", "LAYER": "NOTE_POINT_TREE_LESHIMUR"}, "geometry": {"type": "Point", "coordinates": [34.86402359840557, 31.953854336945685]}}, {"type": "Feature", "properties": {"OBJECTID": 80, "BLOCKNAME": "tree-SH", "LAYER": "NOTE_POINT_TREE_LESHIMUR"}, "geometry": {"type": "Point", "coordinates": [34.864115632019534, 31.953902906142485]}}, {"type": "Feature", "properties": {"OBJECTID": 81, "BLOCKNAME": "tree-SH", "LAYER": "NOTE_POINT_TREE_LESHIMUR"}, "geometry": {"type": "Point", "coordinates": [34.86406850073678, 31.953894296515568]}}, {"type": "Feature", "properties": {"OBJECTID": 82, "BLOCKNAME": "tree-SH", "LAYER": "NOTE_POINT_TREE_LESHIMUR"}, "geometry": {"type": "Point", "coordinates": [34.86402134147632, 31.95389327642104]}}, {"type": "Feature", "properties": {"OBJECTID": 83, "BLOCKNAME": "tree-SH", "LAYER": "NOTE_POINT_TREE_LESHIMUR"}, "geometry": {"type": "Point", "coordinates": [34.86400865325054, 31.953923605417813]}}, {"type": "Feature", "properties": {"OBJECTID": 84, "BLOCKNAME": "tree-SH", "LAYER": "NOTE_POINT_TREE_LESHIMUR"}, "geometry": {"type": "Point", "coordinates": [34.86413312981613, 31.953957476405293]}}, {"type": "Feature", "properties": {"OBJECTID": 85, "BLOCKNAME": "tree-SH", "LAYER": "NOTE_POINT_TREE_LESHIMUR"}, "geometry": {"type": "Point", "coordinates": [34.8641455018902, 31.953977323203382]}}, {"type": "Feature", "properties": {"OBJECTID": 86, "BLOCKNAME": "tree-SH", "LAYER": "NOTE_POINT_TREE_LESHIMUR"}, "geometry": {"type": "Point", "coordinates": [34.864096634040244, 31.953995610798625]}}, {"type": "Feature", "properties": {"OBJECTID": 87, "BLOCKNAME": "tree-SH", "LAYER": "NOTE_POINT_TREE_LESHIMUR"}, "geometry": {"type": "Point", "coordinates": [34.86406085267025, 31.954017840086646]}}, {"type": "Feature", "properties": {"OBJECTID": 88, "BLOCKNAME": "tree-SH", "LAYER": "NOTE_POINT_TREE_LESHIMUR"}, "geometry": {"type": "Point", "coordinates": [34.86400463077463, 31.953987550029215]}}, {"type": "Feature", "properties": {"OBJECTID": 89, "BLOCKNAME": "tree-SH", "LAYER": "NOTE_POINT_TREE_LESHIMUR"}, "geometry": {"type": "Point", "coordinates": [34.86456716362247, 31.95409072487773]}}, {"type": "Feature", "properties": {"OBJECTID": 90, "BLOCKNAME": "tree-SH", "LAYER": "NOTE_POINT_TREE_LESHIMUR"}, "geometry": {"type": "Point", "coordinates": [34.86441542713811, 31.954088093043175]}}, {"type": "Feature", "properties": {"OBJECTID": 91, "BLOCKNAME": "tree-SH", "LAYER": "NOTE_POINT_TREE_LESHIMUR"}, "geometry": {"type": "Point", "coordinates": [34.864410048737454, 31.954130551142217]}}, {"type": "Feature", "properties": {"OBJECTID": 92, "BLOCKNAME": "tree-SH", "LAYER": "NOTE_POINT_TREE_LESHIMUR"}, "geometry": {"type": "Point", "coordinates": [34.8643000957551, 31.954100063233142]}}, {"type": "Feature", "properties": {"OBJECTID": 93, "BLOCKNAME": "tree-SH", "LAYER": "NOTE_POINT_TREE_LESHIMUR"}, "geometry": {"type": "Point", "coordinates": [34.864252670621184, 31.954139876423987]}}, {"type": "Feature", "properties": {"OBJECTID": 94, "BLOCKNAME": "tree-SH", "LAYER": "NOTE_POINT_TREE_LESHIMUR"}, "geometry": {"type": "Point", "coordinates": [34.86424339651311, 31.954079294204227]}}, {"type": "Feature", "properties": {"OBJECTID": 95, "BLOCKNAME": "tree-SH", "LAYER": "NOTE_POINT_TREE_LESHIMUR"}, "geometry": {"type": "Point", "coordinates": [34.86419629327656, 31.95415172576632]}}, {"type": "Feature", "properties": {"OBJECTID": 96, "BLOCKNAME": "tree-SH", "LAYER": "NOTE_POINT_TREE_LESHIMUR"}, "geometry": {"type": "Point", "coordinates": [34.86419061562496, 31.954092827837616]}}, {"type": "Feature", "properties": {"OBJECTID": 97, "BLOCKNAME": "tree-SH", "LAYER": "NOTE_POINT_TREE_LESHIMUR"}, "geometry": {"type": "Point", "coordinates": [34.86414169111624, 31.954126184526356]}}, {"type": "Feature", "properties": {"OBJECTID": 98, "BLOCKNAME": "tree-SH", "LAYER": "NOTE_POINT_TREE_LESHIMUR"}, "geometry": {"type": "Point", "coordinates": [34.86409655541491, 31.954109319686452]}}, {"type": "Feature", "properties": {"OBJECTID": 99, "BLOCKNAME": "tree-SH", "LAYER": "NOTE_POINT_TREE_LESHIMUR"}, "geometry": {"type": "Point", "coordinates": [34.86404703684631, 31.95412620951768]}}, {"type": "Feature", "properties": {"OBJECTID": 100, "BLOCKNAME": "tree-SH", "LAYER": "NOTE_POINT_TREE_LESHIMUR"}, "geometry": {"type": "Point", "coordinates": [34.86448527639849, 31.954181744427395]}}, {"type": "Feature", "properties": {"OBJECTID": 101, "BLOCKNAME": "tree-SH", "LAYER": "NOTE_POINT_TREE_LESHIMUR"}, "geometry": {"type": "Point", "coordinates": [34.86440940304205, 31.954172320305048]}}, {"type": "Feature", "properties": {"OBJECTID": 102, "BLOCKNAME": "tree-SH", "LAYER": "NOTE_POINT_TREE_LESHIMUR"}, "geometry": {"type": "Point", "coordinates": [34.86430263282666, 31.954194625604575]}}, {"type": "Feature", "properties": {"OBJECTID": 103, "BLOCKNAME": "tree-SH", "LAYER": "NOTE_POINT_TREE_LESHIMUR"}, "geometry": {"type": "Point", "coordinates": [34.86424874499437, 31.954191360104293]}}, {"type": "Feature", "properties": {"OBJECTID": 104, "BLOCKNAME": "tree-SH", "LAYER": "NOTE_POINT_TREE_LESHIMUR"}, "geometry": {"type": "Point", "coordinates": [34.86418698258395, 31.954195207694756]}}, {"type": "Feature", "properties": {"OBJECTID": 105, "BLOCKNAME": "tree-SH", "LAYER": "NOTE_POINT_TREE_LESHIMUR"}, "geometry": {"type": "Point", "coordinates": [34.864143565835455, 31.95419063191915]}}, {"type": "Feature", "properties": {"OBJECTID": 106, "BLOCKNAME": "tree-SH", "LAYER": "NOTE_POINT_TREE_LESHIMUR"}, "geometry": {"type": "Point", "coordinates": [34.864107469927475, 31.95418741493397]}}, {"type": "Feature", "properties": {"OBJECTID": 107, "BLOCKNAME": "tree-SH", "LAYER": "NOTE_POINT_TREE_LESHIMUR"}, "geometry": {"type": "Point", "coordinates": [34.86399341296086, 31.954181312400298]}}, {"type": "Feature", "properties": {"OBJECTID": 108, "BLOCKNAME": "tree-SH", "LAYER": "NOTE_POINT_TREE_LESHIMUR"}, "geometry": {"type": "Point", "coordinates": [34.864249109187554, 31.954234610937565]}}, {"type": "Feature", "properties": {"OBJECTID": 109, "BLOCKNAME": "tree-SH", "LAYER": "NOTE_POINT_TREE_LESHIMUR"}, "geometry": {"type": "Point", "coordinates": [34.86419781184217, 31.95423848656575]}}, {"type": "Feature", "properties": {"OBJECTID": 110, "BLOCKNAME": "tree-SH", "LAYER": "NOTE_POINT_TREE_LESHIMUR"}, "geometry": {"type": "Point", "coordinates": [34.86414549200451, 31.954235670716077]}}, {"type": "Feature", "properties": {"OBJECTID": 111, "BLOCKNAME": "tree-SH", "LAYER": "NOTE_POINT_TREE_LESHIMUR"}, "geometry": {"type": "Point", "coordinates": [34.864092659517226, 31.95423017870555]}}, {"type": "Feature", "properties": {"OBJECTID": 112, "BLOCKNAME": "tree-SH", "LAYER": "NOTE_POINT_TREE_LESHIMUR"}, "geometry": {"type": "Point", "coordinates": [34.864041897249024, 31.954230934543826]}}, {"type": "Feature", "properties": {"OBJECTID": 113, "BLOCKNAME": "tree-SH", "LAYER": "NOTE_POINT_TREE_LESHIMUR"}, "geometry": {"type": "Point", "coordinates": [34.863996894387775, 31.954230813912105]}}, {"type": "Feature", "properties": {"OBJECTID": 114, "BLOCKNAME": "tree-SH", "LAYER": "NOTE_POINT_TREE_LESHIMUR"}, "geometry": {"type": "Point", "coordinates": [34.86414119976583, 31.95426464155202]}}, {"type": "Feature", "properties": {"OBJECTID": 115, "BLOCKNAME": "tree-SH", "LAYER": "NOTE_POINT_TREE_LESHIMUR"}, "geometry": {"type": "Point", "coordinates": [34.86409408228861, 31.95427031121476]}}, {"type": "Feature", "properties": {"OBJECTID": 116, "BLOCKNAME": "tree-SH", "LAYER": "NOTE_POINT_TREE_LESHIMUR"}, "geometry": {"type": "Point", "coordinates": [34.864041209269466, 31.954275519939515]}}, {"type": "Feature", "properties": {"OBJECTID": 117, "BLOCKNAME": "tree-SH", "LAYER": "NOTE_POINT_TREE_LESHIMUR"}, "geometry": {"type": "Point", "coordinates": [34.86442170861887, 31.95426050057325]}}, {"type": "Feature", "properties": {"OBJECTID": 118, "BLOCKNAME": "tree-SH", "LAYER": "NOTE_POINT_TREE_LESHIMUR"}, "geometry": {"type": "Point", "coordinates": [34.86435165760152, 31.9542411405424]}}, {"type": "Feature", "properties": {"OBJECTID": 119, "BLOCKNAME": "tree-SH", "LAYER": "NOTE_POINT_TREE_LESHIMUR"}, "geometry": {"type": "Point", "coordinates": [34.86434786001801, 31.95427769241478]}}, {"type": "Feature", "properties": {"OBJECTID": 120, "BLOCKNAME": "tree-SH", "LAYER": "NOTE_POINT_TREE_LESHIMUR"}, "geometry": {"type": "Point", "coordinates": [34.864293964979254, 31.954276656186092]}}, {"type": "Feature", "properties": {"OBJECTID": 121, "BLOCKNAME": "tree-SH", "LAYER": "NOTE_POINT_TREE_LESHIMUR"}, "geometry": {"type": "Point", "coordinates": [34.86424584800918, 31.95426939309083]}}, {"type": "Feature", "properties": {"OBJECTID": 122, "BLOCKNAME": "tree-SH", "LAYER": "NOTE_POINT_TREE_LESHIMUR"}, "geometry": {"type": "Point", "coordinates": [34.86424880165756, 31.954319785070936]}}, {"type": "Feature", "properties": {"OBJECTID": 123, "BLOCKNAME": "tree-SH", "LAYER": "NOTE_POINT_TREE_LESHIMUR"}, "geometry": {"type": "Point", "coordinates": [34.86434092475665, 31.954313789488722]}}, {"type": "Feature", "properties": {"OBJECTID": 124, "BLOCKNAME": "tree-SH", "LAYER": "NOTE_POINT_TREE_LESHIMUR"}, "geometry": {"type": "Point", "coordinates": [34.86429160125922, 31.954349773036675]}}, {"type": "Feature", "properties": {"OBJECTID": 125, "BLOCKNAME": "tree-SH", "LAYER": "NOTE_POINT_TREE_LESHIMUR"}, "geometry": {"type": "Point", "coordinates": [34.86424765205755, 31.954347871537568]}}, {"type": "Feature", "properties": {"OBJECTID": 126, "BLOCKNAME": "tree-SH", "LAYER": "NOTE_POINT_TREE_LESHIMUR"}, "geometry": {"type": "Point", "coordinates": [34.86418204742029, 31.954343228221063]}}, {"type": "Feature", "properties": {"OBJECTID": 127, "BLOCKNAME": "tree-SH", "LAYER": "NOTE_POINT_TREE_LESHIMUR"}, "geometry": {"type": "Point", "coordinates": [34.86413790625923, 31.954307895209123]}}, {"type": "Feature", "properties": {"OBJECTID": 128, "BLOCKNAME": "tree-SH", "LAYER": "NOTE_POINT_TREE_LESHIMUR"}, "geometry": {"type": "Point", "coordinates": [34.86409553824757, 31.954302876733497]}}, {"type": "Feature", "properties": {"OBJECTID": 129, "BLOCKNAME": "tree-SH", "LAYER": "NOTE_POINT_TREE_LESHIMUR"}, "geometry": {"type": "Point", "coordinates": [34.8640468664708, 31.954304083669566]}}, {"type": "Feature", "properties": {"OBJECTID": 130, "BLOCKNAME": "tree-SH", "LAYER": "NOTE_POINT_TREE_LESHIMUR"}, "geometry": {"type": "Point", "coordinates": [34.86462125052941, 31.953645082849913]}}, {"type": "Feature", "properties": {"OBJECTID": 131, "BLOCKNAME": "tree-SH", "LAYER": "NOTE_POINT_TREE_LESHIMUR"}, "geometry": {"type": "Point", "coordinates": [34.86474654309974, 31.953582194009286]}}, {"type": "Feature", "properties": {"OBJECTID": 132, "BLOCKNAME": "tree-SH", "LAYER": "NOTE_POINT_TREE_LESHIMUR"}, "geometry": {"type": "Point", "coordinates": [34.86467818716989, 31.953579169553468]}}, {"type": "Feature", "properties": {"OBJECTID": 133, "BLOCKNAME": "tree-SH", "LAYER": "NOTE_POINT_TREE_LESHIMUR"}, "geometry": {"type": "Point", "coordinates": [34.86466882331791, 31.953631712757964]}}, {"type": "Feature", "properties": {"OBJECTID": 134, "BLOCKNAME": "tree-SH", "LAYER": "NOTE_POINT_TREE_LESHIMUR"}, "geometry": {"type": "Point", "coordinates": [34.86466531316649, 31.953679299949037]}}, {"type": "Feature", "properties": {"OBJECTID": 135, "BLOCKNAME": "tree-SH", "LAYER": "NOTE_POINT_TREE_LESHIMUR"}, "geometry": {"type": "Point", "coordinates": [34.86467675970878, 31.953729350315676]}}, {"type": "Feature", "properties": {"OBJECTID": 136, "BLOCKNAME": "tree-SH", "LAYER": "NOTE_POINT_TREE_LESHIMUR"}, "geometry": {"type": "Point", "coordinates": [34.864659901799804, 31.95377903277029]}}, {"type": "Feature", "properties": {"OBJECTID": 137, "BLOCKNAME": "tree-SH", "LAYER": "NOTE_POINT_TREE_LESHIMUR"}, "geometry": {"type": "Point", "coordinates": [34.86465725126669, 31.953819517808025]}}, {"type": "Feature", "properties": {"OBJECTID": 138, "BLOCKNAME": "tree-SH", "LAYER": "NOTE_POINT_TREE_LESHIMUR"}, "geometry": {"type": "Point", "coordinates": [34.86466624493538, 31.95386784817468]}}, {"type": "Feature", "properties": {"OBJECTID": 139, "BLOCKNAME": "tree-SH", "LAYER": "NOTE_POINT_TREE_LESHIMUR"}, "geometry": {"type": "Point", "coordinates": [34.86465858984048, 31.953909030448]}}, {"type": "Feature", "properties": {"OBJECTID": 140, "BLOCKNAME": "tree-SH", "LAYER": "NOTE_POINT_TREE_LESHIMUR"}, "geometry": {"type": "Point", "coordinates": [34.86465505875743, 31.953962299879446]}}, {"type": "Feature", "properties": {"OBJECTID": 141, "BLOCKNAME": "tree-SH", "LAYER": "NOTE_POINT_TREE_LESHIMUR"}, "geometry": {"type": "Point", "coordinates": [34.86464394054256, 31.954038280910872]}}, {"type": "Feature", "properties": {"OBJECTID": 142, "BLOCKNAME": "tree-SH", "LAYER": "NOTE_POINT_TREE_LESHIMUR"}, "geometry": {"type": "Point", "coordinates": [34.86473622764217, 31.953682656808912]}}, {"type": "Feature", "properties": {"OBJECTID": 143, "BLOCKNAME": "tree-SH", "LAYER": "NOTE_POINT_TREE_LESHIMUR"}, "geometry": {"type": "Point", "coordinates": [34.864729385164644, 31.953729523560593]}}, {"type": "Feature", "properties": {"OBJECTID": 144, "BLOCKNAME": "tree-SH", "LAYER": "NOTE_POINT_TREE_LESHIMUR"}, "geometry": {"type": "Point", "coordinates": [34.864726692837216, 31.953781374890056]}}, {"type": "Feature", "properties": {"OBJECTID": 145, "BLOCKNAME": "tree-SH", "LAYER": "NOTE_POINT_TREE_LESHIMUR"}, "geometry": {"type": "Point", "coordinates": [34.8647240146359, 31.953829674030885]}}, {"type": "Feature", "properties": {"OBJECTID": 146, "BLOCKNAME": "tree-SH", "LAYER": "NOTE_POINT_TREE_LESHIMUR"}, "geometry": {"type": "Point", "coordinates": [34.864722223750576, 31.953863057819284]}}, {"type": "Feature", "properties": {"OBJECTID": 147, "BLOCKNAME": "tree-SH", "LAYER": "NOTE_POINT_TREE_LESHIMUR"}, "geometry": {"type": "Point", "coordinates": [34.86472203814667, 31.953913494601892]}}, {"type": "Feature", "properties": {"OBJECTID": 148, "BLOCKNAME": "tree-SH", "LAYER": "NOTE_POINT_TREE_LESHIMUR"}, "geometry": {"type": "Point", "coordinates": [34.864716842751236, 31.95396604895762]}}, {"type": "Feature", "properties": {"OBJECTID": 149, "BLOCKNAME": "tree-SH", "LAYER": "NOTE_POINT_TREE_LESHIMUR"}, "geometry": {"type": "Point", "coordinates": [34.86471505447528, 31.953998722126624]}}, {"type": "Feature", "properties": {"OBJECTID": 150, "BLOCKNAME": "tree-SH", "LAYER": "NOTE_POINT_TREE_LESHIMUR"}, "geometry": {"type": "Point", "coordinates": [34.86470391172799, 31.95406212466502]}}, {"type": "Feature", "properties": {"OBJECTID": 151, "BLOCKNAME": "tree-SH", "LAYER": "NOTE_POINT_TREE_LESHIMUR"}, "geometry": {"type": "Point", "coordinates": [34.864641125227095, 31.954131575442418]}}, {"type": "Feature", "properties": {"OBJECTID": 152, "BLOCKNAME": "tree-SH", "LAYER": "NOTE_POINT_TREE_LESHIMUR"}, "geometry": {"type": "Point", "coordinates": [34.86470629558803, 31.954094099270623]}}, {"type": "Feature", "properties": {"OBJECTID": 153, "BLOCKNAME": "tree-SH", "LAYER": "NOTE_POINT_TREE_LESHIMUR"}, "geometry": {"type": "Point", "coordinates": [34.86469549323961, 31.95419002555838]}}, {"type": "Feature", "properties": {"OBJECTID": 154, "BLOCKNAME": "tree-SH", "LAYER": "NOTE_POINT_TREE_LESHIMUR"}, "geometry": {"type": "Point", "coordinates": [34.86469204059782, 31.954221983647837]}}, {"type": "Feature", "properties": {"OBJECTID": 155, "BLOCKNAME": "tree-SH", "LAYER": "NOTE_POINT_TREE_LESHIMUR"}, "geometry": {"type": "Point", "coordinates": [34.864689930717816, 31.954296627949564]}}, {"type": "Feature", "properties": {"OBJECTID": 156, "BLOCKNAME": "tree-SH", "LAYER": "NOTE_POINT_TREE_LESHIMUR"}, "geometry": {"type": "Point", "coordinates": [34.864690476818026, 31.954329307361466]}}, {"type": "Feature", "properties": {"OBJECTID": 157, "BLOCKNAME": "tree-SH", "LAYER": "NOTE_POINT_TREE_LESHIMUR"}, "geometry": {"type": "Point", "coordinates": [34.86462371691825, 31.95430977862862]}}, {"type": "Feature", "properties": {"OBJECTID": 158, "BLOCKNAME": "tree-SH", "LAYER": "NOTE_POINT_TREE_LESHIMUR"}, "geometry": {"type": "Point", "coordinates": [34.86453858654556, 31.954324382862616]}}, {"type": "Feature", "properties": {"OBJECTID": 159, "BLOCKNAME": "tree-SH", "LAYER": "NOTE_POINT_TREE_LESHIMUR"}, "geometry": {"type": "Point", "coordinates": [34.86454405271524, 31.954370974123183]}}, {"type": "Feature", "properties": {"OBJECTID": 160, "BLOCKNAME": "tree-SH", "LAYER": "NOTE_POINT_TREE_LESHIMUR"}, "geometry": {"type": "Point", "coordinates": [34.864682551372596, 31.954370939814368]}}, {"type": "Feature", "properties": {"OBJECTID": 161, "BLOCKNAME": "tree-SH", "LAYER": "NOTE_POINT_TREE_LESHIMUR"}, "geometry": {"type": "Point", "coordinates": [34.86461045390354, 31.954370434884357]}}, {"type": "Feature", "properties": {"OBJECTID": 162, "BLOCKNAME": "tree-SH", "LAYER": "NOTE_POINT_TREE_LESHIMUR"}, "geometry": {"type": "Point", "coordinates": [34.86461198304783, 31.9543986854373]}}, {"type": "Feature", "properties": {"OBJECTID": 163, "BLOCKNAME": "tree-SH", "LAYER": "NOTE_POINT_TREE_LESHIMUR"}, "geometry": {"type": "Point", "coordinates": [34.86432459074981, 31.954393162651176]}}, {"type": "Feature", "properties": {"OBJECTID": 164, "BLOCKNAME": "tree-SH", "LAYER": "NOTE_POINT_TREE_LESHIMUR"}, "geometry": {"type": "Point", "coordinates": [34.86428286142544, 31.954388754669495]}}, {"type": "Feature", "properties": {"OBJECTID": 165, "BLOCKNAME": "tree-SH", "LAYER": "NOTE_POINT_TREE_LESHIMUR"}, "geometry": {"type": "Point", "coordinates": [34.8642304618454, 31.95439607226838]}}, {"type": "Feature", "properties": {"OBJECTID": 166, "BLOCKNAME": "tree-SH", "LAYER": "NOTE_POINT_TREE_LESHIMUR"}, "geometry": {"type": "Point", "coordinates": [34.86417966911189, 31.954382111459104]}}, {"type": "Feature", "properties": {"OBJECTID": 167, "BLOCKNAME": "tree-SH", "LAYER": "NOTE_POINT_TREE_LESHIMUR"}, "geometry": {"type": "Point", "coordinates": [34.864091366327514, 31.95437953825359]}}, {"type": "Feature", "properties": {"OBJECTID": 168, "BLOCKNAME": "tree-SH", "LAYER": "NOTE_POINT_TREE_LESHIMUR"}, "geometry": {"type": "Point", "coordinates": [34.8646809539696, 31.9544399753315]}}, {"type": "Feature", "properties": {"OBJECTID": 169, "BLOCKNAME": "tree-SH", "LAYER": "NOTE_POINT_TREE_LESHIMUR"}, "geometry": {"type": "Point", "coordinates": [34.864603513793824, 31.95443976812959]}}, {"type": "Feature", "properties": {"OBJECTID": 170, "BLOCKNAME": "tree-SH", "LAYER": "NOTE_POINT_TREE_LESHIMUR"}, "geometry": {"type": "Point", "coordinates": [34.864534901241846, 31.95443301482935]}}, {"type": "Feature", "properties": {"OBJECTID": 171, "BLOCKNAME": "tree-SH", "LAYER": "NOTE_POINT_TREE_LESHIMUR"}, "geometry": {"type": "Point", "coordinates": [34.86445989669353, 31.95443146405075]}}, {"type": "Feature", "properties": {"OBJECTID": 172, "BLOCKNAME": "tree-SH", "LAYER": "NOTE_POINT_TREE_LESHIMUR"}, "geometry": {"type": "Point", "coordinates": [34.86439099805292, 31.954430594210493]}}, {"type": "Feature", "properties": {"OBJECTID": 173, "BLOCKNAME": "tree-SH", "LAYER": "NOTE_POINT_TREE_LESHIMUR"}, "geometry": {"type": "Point", "coordinates": [34.864338041660424, 31.954431137777352]}}, {"type": "Feature", "properties": {"OBJECTID": 174, "BLOCKNAME": "tree-SH", "LAYER": "NOTE_POINT_TREE_LESHIMUR"}, "geometry": {"type": "Point", "coordinates": [34.86425319521623, 31.95442203943257]}}, {"type": "Feature", "properties": {"OBJECTID": 175, "BLOCKNAME": "tree-SH", "LAYER": "NOTE_POINT_TREE_LESHIMUR"}, "geometry": {"type": "Point", "coordinates": [34.864183745988655, 31.95442821293664]}}, {"type": "Feature", "properties": {"OBJECTID": 176, "BLOCKNAME": "tree-SH", "LAYER": "NOTE_POINT_TREE_LESHIMUR"}, "geometry": {"type": "Point", "coordinates": [34.864140888465315, 31.95443574454163]}}, {"type": "Feature", "properties": {"OBJECTID": 177, "BLOCKNAME": "tree-SH", "LAYER": "NOTE_POINT_TREE_LESHIMUR"}, "geometry": {"type": "Point", "coordinates": [34.86408105182775, 31.954424726410213]}}, {"type": "Feature", "properties": {"OBJECTID": 178, "BLOCKNAME": "tree-SH", "LAYER": "NOTE_POINT_TREE_LESHIMUR"}, "geometry": {"type": "Point", "coordinates": [34.86402710525619, 31.95441756394152]}}, {"type": "Feature", "properties": {"OBJECTID": 179, "BLOCKNAME": "tree-SH", "LAYER": "NOTE_POINT_TREE_LESHIMUR"}, "geometry": {"type": "Point", "coordinates": [34.863968943768974, 31.95454285957193]}}, {"type": "Feature", "properties": {"OBJECTID": 180, "BLOCKNAME": "tree-SH", "LAYER": "NOTE_POINT_TREE_LESHIMUR"}, "geometry": {"type": "Point", "coordinates": [34.86239474673222, 31.95237050742783]}}, {"type": "Feature", "properties": {"OBJECTID": 181, "BLOCKNAME": "tree-SH", "LAYER": "NOTE_POINT_TREE_LESHIMUR"}, "geometry": {"type": "Point", "coordinates": [34.86301617183057, 31.95246768115074]}}, {"type": "Feature", "properties": {"OBJECTID": 182, "BLOCKNAME": "tree-SH", "LAYER": "NOTE_POINT_TREE_LESHIMUR"}, "geometry": {"type": "Point", "coordinates": [34.86298850580315, 31.952611387620365]}}, {"type": "Feature", "properties": {"OBJECTID": 183, "BLOCKNAME": "tree-SH", "LAYER": "NOTE_POINT_TREE_LESHIMUR"}, "geometry": {"type": "Point", "coordinates": [34.862871088528465, 31.954133264249094]}}, {"type": "Feature", "properties": {"OBJECTID": 184, "BLOCKNAME": "tree-SH", "LAYER": "NOTE_POINT_TREE_LESHIMUR"}, "geometry": {"type": "Point", "coordinates": [34.86280731885027, 31.954206765099684]}}, {"type": "Feature", "properties": {"OBJECTID": 185, "BLOCKNAME": "tree-SH", "LAYER": "NOTE_POINT_TREE_LESHIMUR"}, "geometry": {"type": "Point", "coordinates": [34.86457381782052, 31.95337187730176]}}, {"type": "Feature", "properties": {"OBJECTID": 186, "BLOCKNAME": "tree-SH", "LAYER": "NOTE_POINT_TREE_LESHIMUR"}, "geometry": {"type": "Point", "coordinates": [34.86442147191488, 31.95335640298813]}}, {"type": "Feature", "properties": {"OBJECTID": 187, "BLOCKNAME": "tree-SH", "LAYER": "NOTE_POINT_TREE_LESHIMUR"}, "geometry": {"type": "Point", "coordinates": [34.864360443784335, 31.953466007786723]}}, {"type": "Feature", "properties": {"OBJECTID": 188, "BLOCKNAME": "tree-SH", "LAYER": "NOTE_POINT_TREE_LESHIMUR"}, "geometry": {"type": "Point", "coordinates": [34.864289732530594, 31.953461514080647]}}, {"type": "Feature", "properties": {"OBJECTID": 189, "BLOCKNAME": "tree-SH", "LAYER": "NOTE_POINT_TREE_LESHIMUR"}, "geometry": {"type": "Point", "coordinates": [34.86401390808153, 31.95370732240829]}}, {"type": "Feature", "properties": {"OBJECTID": 190, "BLOCKNAME": "tree-SH", "LAYER": "NOTE_POINT_TREE_LESHIMUR"}, "geometry": {"type": "Point", "coordinates": [34.8640285182128, 31.95366980843771]}}, {"type": "Feature", "properties": {"OBJECTID": 191, "BLOCKNAME": "tree-SH", "LAYER": "NOTE_POINT_TREE_LESHIMUR"}, "geometry": {"type": "Point", "coordinates": [34.86405526532833, 31.953641294584994]}}, {"type": "Feature", "properties": {"OBJECTID": 192, "BLOCKNAME": "tree-SH", "LAYER": "NOTE_POINT_TREE_LESHIMUR"}, "geometry": {"type": "Point", "coordinates": [34.864029418954644, 31.953603952637526]}}, {"type": "Feature", "properties": {"OBJECTID": 193, "BLOCKNAME": "tree-SH", "LAYER": "NOTE_POINT_TREE_LESHIMUR"}, "geometry": {"type": "Point", "coordinates": [34.864082742625556, 31.953592885167865]}}, {"type": "Feature", "properties": {"OBJECTID": 194, "BLOCKNAME": "tree-SH", "LAYER": "NOTE_POINT_TREE_LESHIMUR"}, "geometry": {"type": "Point", "coordinates": [34.86404767031577, 31.953558539558394]}}, {"type": "Feature", "properties": {"OBJECTID": 195, "BLOCKNAME": "tree-SH", "LAYER": "NOTE_POINT_TREE_LESHIMUR"}, "geometry": {"type": "Point", "coordinates": [34.86409176688416, 31.953552211610567]}}, {"type": "Feature", "properties": {"OBJECTID": 196, "BLOCKNAME": "tree-SH", "LAYER": "NOTE_POINT_TREE_LESHIMUR"}, "geometry": {"type": "Point", "coordinates": [34.86405905808663, 31.953502800402784]}}, {"type": "Feature", "properties": {"OBJECTID": 197, "BLOCKNAME": "tree-SH", "LAYER": "NOTE_POINT_TREE_LESHIMUR"}, "geometry": {"type": "Point", "coordinates": [34.86413168767668, 31.95361987942026]}}, {"type": "Feature", "properties": {"OBJECTID": 198, "BLOCKNAME": "tree-SH", "LAYER": "NOTE_POINT_TREE_LESHIMUR"}, "geometry": {"type": "Point", "coordinates": [34.86413419398211, 31.953563202024636]}}, {"type": "Feature", "properties": {"OBJECTID": 199, "BLOCKNAME": "tree-SH", "LAYER": "NOTE_POINT_TREE_LESHIMUR"}, "geometry": {"type": "Point", "coordinates": [34.86412256259776, 31.953506280230325]}}, {"type": "Feature", "properties": {"OBJECTID": 200, "BLOCKNAME": "tree-SH", "LAYER": "NOTE_POINT_TREE_LESHIMUR"}, "geometry": {"type": "Point", "coordinates": [34.864166473759255, 31.953472191370132]}}, {"type": "Feature", "properties": {"OBJECTID": 201, "BLOCKNAME": "tree-SH", "LAYER": "NOTE_POINT_TREE_LESHIMUR"}, "geometry": {"type": "Point", "coordinates": [34.86418210621308, 31.95351399062225]}}, {"type": "Feature", "properties": {"OBJECTID": 202, "BLOCKNAME": "ETZ_AKIRA", "LAYER": "NOTE_POINT_ETZ_AKIRA"}, "geometry": {"type": "Point", "coordinates": [34.83116379381696, 32.006129556878264]}}, {"type": "Feature", "properties": {"OBJECTID": 203, "BLOCKNAME": "ETZ_haataka", "LAYER": "NOTE_POINT_ETZ_LEHAATAKA"}, "geometry": {"type": "Point", "coordinates": [34.82750732065498, 32.005609196835856]}}, {"type": "Feature", "properties": {"OBJECTID": 204, "BLOCKNAME": "ETZ_haataka", "LAYER": "NOTE_POINT_ETZ_LEHAATAKA"}, "geometry": {"type": "Point", "coordinates": [34.82751568569206, 32.00560477941816]}}, {"type": "Feature", "properties": {"OBJECTID": 205, "BLOCKNAME": "ETZ_haataka", "LAYER": "NOTE_POINT_ETZ_LEHAATAKA"}, "geometry": {"type": "Point", "coordinates": [34.82752405981532, 32.00559814089323]}}, {"type": "Feature", "properties": {"OBJECTID": 206, "BLOCKNAME": "ETZ_haataka", "LAYER": "NOTE_POINT_ETZ_LEHAATAKA"}, "geometry": {"type": "Point", "coordinates": [34.827530870521336, 32.00559105313614]}}, {"type": "Feature", "properties": {"OBJECTID": 207, "BLOCKNAME": "ETZ_haataka", "LAYER": "NOTE_POINT_ETZ_LEHAATAKA"}, "geometry": {"type": "Point", "coordinates": [34.827538205848306, 32.0055835223496]}}, {"type": "Feature", "properties": {"OBJECTID": 208, "BLOCKNAME": "ETZ_haataka", "LAYER": "NOTE_POINT_ETZ_LEHAATAKA"}, "geometry": {"type": "Point", "coordinates": [34.827548670581365, 32.0055760017599]}}, {"type": "Feature", "properties": {"OBJECTID": 209, "BLOCKNAME": "ETZ_haataka", "LAYER": "NOTE_POINT_ETZ_LEHAATAKA"}, "geometry": {"type": "Point", "coordinates": [34.82755757113649, 32.00556847652325]}}, {"type": "Feature", "properties": {"OBJECTID": 210, "BLOCKNAME": "ETZ_haataka", "LAYER": "NOTE_POINT_ETZ_LEHAATAKA"}, "geometry": {"type": "Point", "coordinates": [34.82756437820406, 32.005562277026634]}}, {"type": "Feature", "properties": {"OBJECTID": 211, "BLOCKNAME": "ETZ_haataka", "LAYER": "NOTE_POINT_ETZ_LEHAATAKA"}, "geometry": {"type": "Point", "coordinates": [34.827571714282655, 32.00555430255467]}}, {"type": "Feature", "properties": {"OBJECTID": 212, "BLOCKNAME": "ETZ_haataka", "LAYER": "NOTE_POINT_ETZ_LEHAATAKA"}, "geometry": {"type": "Point", "coordinates": [34.8275795702861, 32.00554677421394]}}, {"type": "Feature", "properties": {"OBJECTID": 213, "BLOCKNAME": "ETZ_haataka", "LAYER": "NOTE_POINT_ETZ_LEHAATAKA"}, "geometry": {"type": "Point", "coordinates": [34.82758377513752, 32.00553923412677]}}, {"type": "Feature", "properties": {"OBJECTID": 214, "BLOCKNAME": "ETZ_haataka", "LAYER": "NOTE_POINT_ETZ_LEHAATAKA"}, "geometry": {"type": "Point", "coordinates": [34.82758694012876, 32.00553080357968]}}, {"type": "Feature", "properties": {"OBJECTID": 215, "BLOCKNAME": "ETZ_SHIMUR", "LAYER": "NOTE_POINT_TREE_LESHIMUR"}, "geometry": {"type": "Point", "coordinates": [34.830273117832064, 32.0070897502683]}}, {"type": "Feature", "properties": {"OBJECTID": 216, "BLOCKNAME": "ETZ_SHIMUR", "LAYER": "NOTE_POINT_TREE_LESHIMUR"}, "geometry": {"type": "Point", "coordinates": [34.830370958501284, 32.00719384856626]}}, {"type": "Feature", "properties": {"OBJECTID": 217, "BLOCKNAME": "ETZ_SHIMUR", "LAYER": "NOTE_POINT_TREE_LESHIMUR"}, "geometry": {"type": "Point", "coordinates": [34.83085998297498, 32.00701677714102]}}, {"type": "Feature", "properties": {"OBJECTID": 218, "BLOCKNAME": "ETZ_SHIMUR", "LAYER": "NOTE_POINT_TREE_LESHIMUR"}, "geometry": {"type": "Point", "coordinates": [34.83104590193526, 32.0068856787342]}}, {"type": "Feature", "properties": {"OBJECTID": 219, "BLOCKNAME": "ETZ_SHIMUR", "LAYER": "NOTE_POINT_TREE_LESHIMUR"}, "geometry": {"type": "Point", "coordinates": [34.8312349531934, 32.00675245019318]}}, {"type": "Feature", "properties": {"OBJECTID": 220, "BLOCKNAME": "ETZ_SHIMUR", "LAYER": "NOTE_POINT_TREE_LESHIMUR"}, "geometry": {"type": "Point", "coordinates": [34.83144633411907, 32.00660080371349]}}, {"type": "Feature", "properties": {"OBJECTID": 221, "BLOCKNAME": "ETZ_SHIMUR", "LAYER": "NOTE_POINT_TREE_LESHIMUR"}, "geometry": {"type": "Point", "coordinates": [34.83150581692942, 32.00655521941707]}}, {"type": "Feature", "properties": {"OBJECTID": 222, "BLOCKNAME": "ETZ_SHIMUR", "LAYER": "NOTE_POINT_TREE_LESHIMUR"}, "geometry": {"type": "Point", "coordinates": [34.831571503690355, 32.00650281677676]}}, {"type": "Feature", "properties": {"OBJECTID": 223, "BLOCKNAME": "ETZ_AKIRA", "LAYER": "NOTE_POINT_ETZ_AKIRA"}, "geometry": {"type": "Point", "coordinates": [34.851840668851246, 31.986149359260732]}}, {"type": "Feature", "properties": {"OBJECTID": 224, "BLOCKNAME": "ETZ_AKIRA", "LAYER": "NOTE_POINT_ETZ_AKIRA"}, "geometry": {"type": "Point", "coordinates": [34.834415821996295, 32.023061759015846]}}, {"type": "Feature", "properties": {"OBJECTID": 225, "BLOCKNAME": "ETZ_AKIRA", "LAYER": "NOTE_POINT_ETZ_AKIRA"}, "geometry": {"type": "Point", "coordinates": [34.83438815158962, 32.02303480471683]}}, {"type": "Feature", "properties": {"OBJECTID": 226, "BLOCKNAME": "ETZ_AKIRA", "LAYER": "NOTE_POINT_ETZ_AKIRA"}, "geometry": {"type": "Point", "coordinates": [34.83435421253035, 32.022997082691035]}}, {"type": "Feature", "properties": {"OBJECTID": 227, "BLOCKNAME": "ETZ_SHIMUR", "LAYER": "NOTE_POINT_TREE_LESHIMUR"}, "geometry": {"type": "Point", "coordinates": [34.834433449576885, 32.02313760294575]}}, {"type": "Feature", "properties": {"OBJECTID": 228, "BLOCKNAME": "ETZ_SHIMUR", "LAYER": "NOTE_POINT_TREE_LESHIMUR"}, "geometry": {"type": "Point", "coordinates": [34.834463545899915, 32.02306821531656]}}, {"type": "Feature", "properties": {"OBJECTID": 229, "BLOCKNAME": "ETZ_SHIMUR", "LAYER": "NOTE_POINT_TREE_LESHIMUR"}, "geometry": {"type": "Point", "coordinates": [34.83451277078068, 32.023055443331806]}}, {"type": "Feature", "properties": {"OBJECTID": 230, "BLOCKNAME": "ETZ_SHIMUR", "LAYER": "NOTE_POINT_TREE_LESHIMUR"}, "geometry": {"type": "Point", "coordinates": [34.83446065041315, 32.02286444832701]}}, {"type": "Feature", "properties": {"OBJECTID": 231, "BLOCKNAME": "ETZ_SHIMUR", "LAYER": "NOTE_POINT_TREE_LESHIMUR"}, "geometry": {"type": "Point", "coordinates": [34.83425612044756, 32.02299211522887]}}, {"type": "Feature", "properties": {"OBJECTID": 232, "BLOCKNAME": "ETZ_SHIMUR", "LAYER": "NOTE_POINT_TREE_LESHIMUR"}, "geometry": {"type": "Point", "coordinates": [34.83411885652529, 32.02287800596506]}}, {"type": "Feature", "properties": {"OBJECTID": 233, "BLOCKNAME": "ETZ_SHIMUR", "LAYER": "NOTE_POINT_TREE_LESHIMUR"}, "geometry": {"type": "Point", "coordinates": [34.83582304624515, 32.02236568486957]}}, {"type": "Feature", "properties": {"OBJECTID": 234, "BLOCKNAME": "ETZ_SHIMUR", "LAYER": "NOTE_POINT_TREE_LESHIMUR"}, "geometry": {"type": "Point", "coordinates": [34.83582040106989, 32.022332361153346]}}, {"type": "Feature", "properties": {"OBJECTID": 235, "BLOCKNAME": "ETZ_SHIMUR", "LAYER": "NOTE_POINT_TREE_LESHIMUR"}, "geometry": {"type": "Point", "coordinates": [34.835856652740034, 32.02232501944605]}}, {"type": "Feature", "properties": {"OBJECTID": 236, "BLOCKNAME": "ETZ_SHIMUR", "LAYER": "NOTE_POINT_TREE_LESHIMUR"}, "geometry": {"type": "Point", "coordinates": [34.83607390925319, 32.02214164494381]}}, {"type": "Feature", "properties": {"OBJECTID": 237, "BLOCKNAME": "ETZ_SHIMUR", "LAYER": "NOTE_POINT_TREE_LESHIMUR"}, "geometry": {"type": "Point", "coordinates": [34.836060354411, 32.02216746283848]}}, {"type": "Feature", "properties": {"OBJECTID": 238, "BLOCKNAME": "ETZ_SHIMUR", "LAYER": "NOTE_POINT_TREE_LESHIMUR"}, "geometry": {"type": "Point", "coordinates": [34.8360567062364, 32.02221178013161]}}, {"type": "Feature", "properties": {"OBJECTID": 239, "BLOCKNAME": "ETZ_SHIMUR", "LAYER": "NOTE_POINT_TREE_LESHIMUR"}, "geometry": {"type": "Point", "coordinates": [34.83621264429863, 32.02222173694821]}}, {"type": "Feature", "properties": {"OBJECTID": 240, "BLOCKNAME": "ETZ_SHIMUR", "LAYER": "NOTE_POINT_TREE_LESHIMUR"}, "geometry": {"type": "Point", "coordinates": [34.83616988691603, 32.02219736617452]}}, {"type": "Feature", "properties": {"OBJECTID": 241, "BLOCKNAME": "ETZ_SHIMUR", "LAYER": "NOTE_POINT_TREE_LESHIMUR"}, "geometry": {"type": "Point", "coordinates": [34.83613801075353, 32.02223260427467]}}, {"type": "Feature", "properties": {"OBJECTID": 242, "BLOCKNAME": "ETZ_SHIMUR", "LAYER": "NOTE_POINT_TREE_LESHIMUR"}, "geometry": {"type": "Point", "coordinates": [34.83627316890616, 32.02234799573308]}}, {"type": "Feature", "properties": {"OBJECTID": 243, "BLOCKNAME": "ETZ_SHIMUR", "LAYER": "NOTE_POINT_TREE_LESHIMUR"}, "geometry": {"type": "Point", "coordinates": [34.836246300649236, 32.022283952303944]}}, {"type": "Feature", "properties": {"OBJECTID": 244, "BLOCKNAME": "ETZ_SHIMUR", "LAYER": "NOTE_POINT_TREE_LESHIMUR"}, "geometry": {"type": "Point", "coordinates": [34.83632501878915, 32.02226917124023]}}, {"type": "Feature", "properties": {"OBJECTID": 245, "BLOCKNAME": "ETZ_SHIMUR", "LAYER": "NOTE_POINT_TREE_LESHIMUR"}, "geometry": {"type": "Point", "coordinates": [34.83649502118011, 32.022369772183595]}}, {"type": "Feature", "properties": {"OBJECTID": 246, "BLOCKNAME": "ETZ_SHIMUR", "LAYER": "NOTE_POINT_TREE_LESHIMUR"}, "geometry": {"type": "Point", "coordinates": [34.836133043506415, 32.02245478659789]}}, {"type": "Feature", "properties": {"OBJECTID": 247, "BLOCKNAME": "ETZ_SHIMUR", "LAYER": "NOTE_POINT_TREE_LESHIMUR"}, "geometry": {"type": "Point", "coordinates": [34.83627611872317, 32.02238300127642]}}, {"type": "Feature", "properties": {"OBJECTID": 248, "BLOCKNAME": "ETZ_SHIMUR", "LAYER": "NOTE_POINT_TREE_LESHIMUR"}, "geometry": {"type": "Point", "coordinates": [34.8362963294309, 32.02241437126688]}}, {"type": "Feature", "properties": {"OBJECTID": 249, "BLOCKNAME": "ETZ_SHIMUR", "LAYER": "NOTE_POINT_TREE_LESHIMUR"}, "geometry": {"type": "Point", "coordinates": [34.836286468600264, 32.022499805153764]}}, {"type": "Feature", "properties": {"OBJECTID": 250, "BLOCKNAME": "ETZ_SHIMUR", "LAYER": "NOTE_POINT_TREE_LESHIMUR"}, "geometry": {"type": "Point", "coordinates": [34.836324717897455, 32.0225678693523]}}, {"type": "Feature", "properties": {"OBJECTID": 251, "BLOCKNAME": "ETZ_SHIMUR", "LAYER": "NOTE_POINT_TREE_LESHIMUR"}, "geometry": {"type": "Point", "coordinates": [34.836349310309124, 32.02258562317472]}}, {"type": "Feature", "properties": {"OBJECTID": 252, "BLOCKNAME": "ETZ_SHIMUR", "LAYER": "NOTE_POINT_TREE_LESHIMUR"}, "geometry": {"type": "Point", "coordinates": [34.836329832617196, 32.022608910597974]}}, {"type": "Feature", "properties": {"OBJECTID": 253, "BLOCKNAME": "ETZ_SHIMUR", "LAYER": "NOTE_POINT_TREE_LESHIMUR"}, "geometry": {"type": "Point", "coordinates": [34.836246861173336, 32.02265039959427]}}, {"type": "Feature", "properties": {"OBJECTID": 254, "BLOCKNAME": "ETZ_SHIMUR", "LAYER": "NOTE_POINT_TREE_LESHIMUR"}, "geometry": {"type": "Point", "coordinates": [34.83607891037128, 32.02257747054294]}}, {"type": "Feature", "properties": {"OBJECTID": 255, "BLOCKNAME": "ETZ_SHIMUR", "LAYER": "NOTE_POINT_TREE_LESHIMUR"}, "geometry": {"type": "Point", "coordinates": [34.836136328298196, 32.02261005420502]}}, {"type": "Feature", "properties": {"OBJECTID": 256, "BLOCKNAME": "ETZ_SHIMUR", "LAYER": "NOTE_POINT_TREE_LESHIMUR"}, "geometry": {"type": "Point", "coordinates": [34.83619243422339, 32.0226459490421]}}, {"type": "Feature", "properties": {"OBJECTID": 257, "BLOCKNAME": "ETZ_SHIMUR", "LAYER": "NOTE_POINT_TREE_LESHIMUR"}, "geometry": {"type": "Point", "coordinates": [34.836343084531855, 32.02273590148356]}}, {"type": "Feature", "properties": {"OBJECTID": 258, "BLOCKNAME": "ETZ_SHIMUR", "LAYER": "NOTE_POINT_TREE_LESHIMUR"}, "geometry": {"type": "Point", "coordinates": [34.83635652146318, 32.022730046322955]}}]}