{"type": "FeatureCollection", "name": "רוזטות טקסט", "features": [{"type": "Feature", "properties": {"OBJECTID": 1, "TABA": "על/מק/51/391", "Contents": "20", "Rotation": "0.6717", "TEXTSTRING": "20", "TEXT_SIZE": 2.99065529559, "TEXT_ANGLE": 38.4857184001}, "geometry": {"type": "Point", "coordinates": [34.86498970849864, 31.9884680546925]}}, {"type": "Feature", "properties": {"OBJECTID": 2, "TABA": "על/מק/51/391", "Contents": "157", "Rotation": "0.6717", "TEXTSTRING": "157", "TEXT_SIZE": 2.99065529559, "TEXT_ANGLE": 38.4857184001}, "geometry": {"type": "Point", "coordinates": [34.864911098128, 31.988535339059442]}}, {"type": "Feature", "properties": {"OBJECTID": 3, "TABA": "על/מק/51/391", "Contents": "5", "Rotation": "0.6717", "TEXTSTRING": "5", "TEXT_SIZE": 2.99065529559, "TEXT_ANGLE": 38.4857184001}, "geometry": {"type": "Point", "coordinates": [34.86502148991073, 31.988546914985854]}}, {"type": "Feature", "properties": {"OBJECTID": 4, "TABA": "על/מק/51/391", "Contents": "5", "Rotation": "0.6717", "TEXTSTRING": "5", "TEXT_SIZE": 2.99065529559, "TEXT_ANGLE": 38.4857184001}, "geometry": {"type": "Point", "coordinates": [34.864915689130875, 31.988475919740814]}}, {"type": "Feature", "properties": {"OBJECTID": 16, "TABA": "??/?÷/24/391", "Contents": "12", "Rotation": "5.3940", "TEXTSTRING": "12", "TEXT_SIZE": 1.8104625, "TEXT_ANGLE": 309.054237818}, "geometry": {"type": "Point", "coordinates": [34.86399338971328, 31.988830389583548]}}, {"type": "Feature", "properties": {"OBJECTID": 17, "TABA": "??/?÷/24/391", "Contents": "159", "Rotation": "5.3940", "TEXTSTRING": "159", "TEXT_SIZE": 1.8104625, "TEXT_ANGLE": 309.054237818}, "geometry": {"type": "Point", "coordinates": [34.86403984145994, 31.98887225417523]}}, {"type": "Feature", "properties": {"OBJECTID": 18, "TABA": "??/?÷/24/391", "Contents": "5", "Rotation": "5.3940", "TEXTSTRING": "5", "TEXT_SIZE": 1.8104625, "TEXT_ANGLE": 309.054237818}, "geometry": {"type": "Point", "coordinates": [34.86404843922292, 31.98881567189346]}}, {"type": "Feature", "properties": {"OBJECTID": 19, "TABA": "??/?÷/24/391", "Contents": "5", "Rotation": "5.3940", "TEXTSTRING": "5", "TEXT_SIZE": 1.8104625, "TEXT_ANGLE": 309.054237818}, "geometry": {"type": "Point", "coordinates": [34.86399737712055, 31.988869828956847]}}, {"type": "Feature", "properties": {"OBJECTID": 20, "TABA": "??/?÷/24/391", "Contents": "12", "Rotation": "0.6665", "TEXTSTRING": "12", "TEXT_SIZE": 1.815, "TEXT_ANGLE": 38.1852857828}, "geometry": {"type": "Point", "coordinates": [34.86384559371193, 31.98773852506865]}}, {"type": "Feature", "properties": {"OBJECTID": 21, "TABA": "??/?÷/24/391", "Contents": "160", "Rotation": "0.6665", "TEXTSTRING": "160", "TEXT_SIZE": 1.815, "TEXT_ANGLE": 38.1852857828}, "geometry": {"type": "Point", "coordinates": [34.86379670351932, 31.98777860351239]}}, {"type": "Feature", "properties": {"OBJECTID": 22, "TABA": "??/?÷/24/391", "Contents": "5", "Rotation": "0.6665", "TEXTSTRING": "5", "TEXT_SIZE": 1.815, "TEXT_ANGLE": 38.1852857828}, "geometry": {"type": "Point", "coordinates": [34.86386374102624, 31.98778533051]}}, {"type": "Feature", "properties": {"OBJECTID": 23, "TABA": "??/?÷/24/391", "Contents": "5", "Rotation": "0.6665", "TEXTSTRING": "5", "TEXT_SIZE": 1.815, "TEXT_ANGLE": 38.1852857828}, "geometry": {"type": "Point", "coordinates": [34.86379926835184, 31.987742531012533]}}, {"type": "Feature", "properties": {"OBJECTID": 71, "TABA": "???/62/??", "Contents": "16", "Rotation": "5.4105", "TEXTSTRING": "16", "TEXT_SIZE": 2.34, "TEXT_ANGLE": 310}, "geometry": {"type": "Point", "coordinates": [34.867422284250495, 31.98960511196348]}}, {"type": "Feature", "properties": {"OBJECTID": 72, "TABA": "???/62/??", "Contents": "156", "Rotation": "5.4105", "TEXTSTRING": "156", "TEXT_SIZE": 2.34, "TEXT_ANGLE": 310}, "geometry": {"type": "Point", "coordinates": [34.8674808901243, 31.98966044084535]}}, {"type": "Feature", "properties": {"OBJECTID": 73, "TABA": "???/62/??", "Contents": "5", "Rotation": "5.4105", "TEXTSTRING": "5", "TEXT_SIZE": 2.34, "TEXT_ANGLE": 310}, "geometry": {"type": "Point", "coordinates": [34.86749341428746, 31.989587474855565]}}, {"type": "Feature", "properties": {"OBJECTID": 74, "TABA": "???/62/??", "Contents": "5", "Rotation": "5.4105", "TEXTSTRING": "5", "TEXT_SIZE": 2.34, "TEXT_ANGLE": 310}, "geometry": {"type": "Point", "coordinates": [34.86742607273996, 31.989656535678918]}}, {"type": "Feature", "properties": {"OBJECTID": 75, "TABA": "???/62/??", "Contents": "30", "Rotation": "0.6691", "TEXTSTRING": "30", "TEXT_SIZE": 4.2, "TEXT_ANGLE": 38.3365597579}, "geometry": {"type": "Point", "coordinates": [34.87236037324376, 31.98856028365621]}}, {"type": "Feature", "properties": {"OBJECTID": 76, "TABA": "???/62/??", "Contents": "1404", "Rotation": "0.6691", "TEXTSTRING": "1404", "TEXT_SIZE": 4.2, "TEXT_ANGLE": 38.3365597579}, "geometry": {"type": "Point", "coordinates": [34.872232884446944, 31.9886432343803]}}, {"type": "Feature", "properties": {"OBJECTID": 77, "TABA": "???/62/??", "Contents": "35", "Rotation": "0.6691", "TEXTSTRING": "35", "TEXT_SIZE": 4.2, "TEXT_ANGLE": 38.3365597579}, "geometry": {"type": "Point", "coordinates": [34.87238879513422, 31.988659699892263]}}, {"type": "Feature", "properties": {"OBJECTID": 78, "TABA": "???/62/??", "Contents": "35", "Rotation": "0.6691", "TEXTSTRING": "35", "TEXT_SIZE": 4.2, "TEXT_ANGLE": 38.3365597579}, "geometry": {"type": "Point", "coordinates": [34.87223989909203, 31.988560335428115]}}, {"type": "Feature", "properties": {"OBJECTID": 441, "TABA": "גז/12/525", "Contents": "50", "Rotation": "4.5928", "TEXTSTRING": "50", "TEXT_SIZE": 7.48689958109, "TEXT_ANGLE": 263.148036179}, "geometry": {"type": "Point", "coordinates": [34.86130767091729, 31.990781585648687]}}, {"type": "Feature", "properties": {"OBJECTID": 442, "TABA": "גז/12/525", "Contents": "10", "Rotation": "4.5928", "TEXTSTRING": "10", "TEXT_SIZE": 7.48689958109, "TEXT_ANGLE": 263.148036179}, "geometry": {"type": "Point", "coordinates": [34.86158219640611, 31.99074775059375]}}, {"type": "Feature", "properties": {"OBJECTID": 443, "TABA": "גז/12/525", "Contents": "125", "Rotation": "4.5928", "TEXTSTRING": "125", "TEXT_SIZE": 7.48689958109, "TEXT_ANGLE": 263.148036179}, "geometry": {"type": "Point", "coordinates": [34.86142180650799, 31.990650984738185]}}, {"type": "Feature", "properties": {"OBJECTID": 444, "TABA": "גז/12/525", "Contents": "125", "Rotation": "4.5928", "TEXTSTRING": "125", "TEXT_SIZE": 7.48689958109, "TEXT_ANGLE": 263.148036179}, "geometry": {"type": "Point", "coordinates": [34.86146359662041, 31.990936073956618]}}, {"type": "Feature", "properties": {"OBJECTID": 445, "TABA": "מח/112", "Contents": "110", "Rotation": "4.9481", "TEXTSTRING": "110", "TEXT_SIZE": 8.25446285865, "TEXT_ANGLE": 283.504444274}, "geometry": {"type": "Point", "coordinates": [34.86497076560185, 31.990987648894595]}}, {"type": "Feature", "properties": {"OBJECTID": 446, "TABA": "מח/112", "Contents": "1", "Rotation": "4.9481", "TEXTSTRING": "1", "TEXT_SIZE": 8.25446285865, "TEXT_ANGLE": 283.504444274}, "geometry": {"type": "Point", "coordinates": [34.86528796522878, 31.990978679880293]}}, {"type": "Feature", "properties": {"OBJECTID": 447, "TABA": "מח/112", "Contents": "45", "Rotation": "4.9481", "TEXTSTRING": "45", "TEXT_SIZE": 8.25446285865, "TEXT_ANGLE": 283.504444274}, "geometry": {"type": "Point", "coordinates": [34.865161286648245, 31.99084173515819]}}, {"type": "Feature", "properties": {"OBJECTID": 448, "TABA": "מח/112", "Contents": "45", "Rotation": "4.9481", "TEXTSTRING": "45", "TEXT_SIZE": 8.25446285865, "TEXT_ANGLE": 283.504444274}, "geometry": {"type": "Point", "coordinates": [34.86507620303332, 31.991150083306614]}}, {"type": "Feature", "properties": {"OBJECTID": 1058, "TABA": "גז/13/391", "Contents": "16", "Rotation": "5.4447", "TEXTSTRING": "16", "TEXT_SIZE": 2.376, "TEXT_ANGLE": 311.959092956}, "geometry": {"type": "Point", "coordinates": [34.872485433046045, 31.993029454365313]}}, {"type": "Feature", "properties": {"OBJECTID": 1059, "TABA": "גז/13/391", "Contents": "85", "Rotation": "5.4447", "TEXTSTRING": "85", "TEXT_SIZE": 2.376, "TEXT_ANGLE": 311.959092956}, "geometry": {"type": "Point", "coordinates": [34.87254868068066, 31.993081657467485]}}, {"type": "Feature", "properties": {"OBJECTID": 1060, "TABA": "גז/13/391", "Contents": "5", "Rotation": "5.4447", "TEXTSTRING": "5", "TEXT_SIZE": 2.376, "TEXT_ANGLE": 311.959092956}, "geometry": {"type": "Point", "coordinates": [34.872558334834544, 31.993013656945084]}}, {"type": "Feature", "properties": {"OBJECTID": 1061, "TABA": "גז/13/391", "Contents": "5", "Rotation": "5.4447", "TEXTSTRING": "5", "TEXT_SIZE": 2.376, "TEXT_ANGLE": 311.959092956}, "geometry": {"type": "Point", "coordinates": [34.87248718540699, 31.993081750945578]}}, {"type": "Feature", "properties": {"OBJECTID": 1062, "TABA": "גז/13/391", "Contents": "16", "Rotation": "0.6198", "TEXTSTRING": "16", "TEXT_SIZE": 2.33266847175, "TEXT_ANGLE": 35.5115334817}, "geometry": {"type": "Point", "coordinates": [34.87441977816565, 31.99387841973605]}}, {"type": "Feature", "properties": {"OBJECTID": 1063, "TABA": "גז/13/391", "Contents": "85", "Rotation": "0.6198", "TEXTSTRING": "85", "TEXT_SIZE": 2.33266847175, "TEXT_ANGLE": 35.5115334817}, "geometry": {"type": "Point", "coordinates": [34.874366994292984, 31.9939367590315]}}, {"type": "Feature", "properties": {"OBJECTID": 1064, "TABA": "גז/13/391", "Contents": "5", "Rotation": "0.6198", "TEXTSTRING": "5", "TEXT_SIZE": 2.33266847175, "TEXT_ANGLE": 35.5115334817}, "geometry": {"type": "Point", "coordinates": [34.87444590039193, 31.993937287071567]}}, {"type": "Feature", "properties": {"OBJECTID": 1065, "TABA": "גז/13/391", "Contents": "5", "Rotation": "0.6198", "TEXTSTRING": "5", "TEXT_SIZE": 2.33266847175, "TEXT_ANGLE": 35.5115334817}, "geometry": {"type": "Point", "coordinates": [34.8743601075931, 31.993885643114474]}}, {"type": "Feature", "properties": {"OBJECTID": 1066, "TABA": "גז/38/391", "Contents": "10", "Rotation": "5.4889", "TEXTSTRING": "10", "TEXT_SIZE": 0.864, "TEXT_ANGLE": 314.489025166}, "geometry": {"type": "Point", "coordinates": [34.879188631732916, 31.988765872467226]}}, {"type": "Feature", "properties": {"OBJECTID": 1067, "TABA": "גז/38/391", "Contents": "6", "Rotation": "5.4889", "TEXTSTRING": "6", "TEXT_SIZE": 0.864, "TEXT_ANGLE": 314.489025166}, "geometry": {"type": "Point", "coordinates": [34.87921399144513, 31.98878279759161]}}, {"type": "Feature", "properties": {"OBJECTID": 1068, "TABA": "גז/38/391", "Contents": "3", "Rotation": "5.4889", "TEXTSTRING": "3", "TEXT_SIZE": 0.864, "TEXT_ANGLE": 314.489025166}, "geometry": {"type": "Point", "coordinates": [34.87921556454229, 31.988760997788273]}}, {"type": "Feature", "properties": {"OBJECTID": 1069, "TABA": "גז/38/391", "Contents": "3", "Rotation": "5.4889", "TEXTSTRING": "3", "TEXT_SIZE": 0.864, "TEXT_ANGLE": 314.489025166}, "geometry": {"type": "Point", "coordinates": [34.879188438111804, 31.988784762975985]}}, {"type": "Feature", "properties": {"OBJECTID": 1077, "TABA": "גז/10/391", "Contents": "16", "Rotation": "0.5934", "TEXTSTRING": "16", "TEXT_SIZE": 2.145, "TEXT_ANGLE": 34}, "geometry": {"type": "Point", "coordinates": [34.88156447699083, 31.988101253616314]}}, {"type": "Feature", "properties": {"OBJECTID": 1078, "TABA": "גז/10/391", "Contents": "5", "Rotation": "0.5934", "TEXTSTRING": "5", "TEXT_SIZE": 2.145, "TEXT_ANGLE": 34}, "geometry": {"type": "Point", "coordinates": [34.88152656635705, 31.98816114884108]}}, {"type": "Feature", "properties": {"OBJECTID": 1079, "TABA": "גז/10/391", "Contents": "5", "Rotation": "0.5934", "TEXTSTRING": "5", "TEXT_SIZE": 2.145, "TEXT_ANGLE": 34}, "geometry": {"type": "Point", "coordinates": [34.88159016679409, 31.9881548257536]}}, {"type": "Feature", "properties": {"OBJECTID": 1080, "TABA": "גז/10/391", "Contents": "5", "Rotation": "0.5934", "TEXTSTRING": "5", "TEXT_SIZE": 2.145, "TEXT_ANGLE": 34}, "geometry": {"type": "Point", "coordinates": [34.88150983554985, 31.988109129848286]}}, {"type": "Feature", "properties": {"OBJECTID": 1081, "TABA": "גז/10/391", "Contents": "16", "Rotation": "5.3407", "TEXTSTRING": "16", "TEXT_SIZE": 2.25, "TEXT_ANGLE": 306}, "geometry": {"type": "Point", "coordinates": [34.88028630944615, 31.98890261573805]}}, {"type": "Feature", "properties": {"OBJECTID": 1082, "TABA": "גז/10/391", "Contents": "6", "Rotation": "5.3407", "TEXTSTRING": "6", "TEXT_SIZE": 2.25, "TEXT_ANGLE": 306}, "geometry": {"type": "Point", "coordinates": [34.88035892836504, 31.988938289902418]}}, {"type": "Feature", "properties": {"OBJECTID": 1083, "TABA": "גז/10/391", "Contents": "5", "Rotation": "5.3407", "TEXTSTRING": "5", "TEXT_SIZE": 2.25, "TEXT_ANGLE": 306}, "geometry": {"type": "Point", "coordinates": [34.88035314489543, 31.988881624663595]}}, {"type": "Feature", "properties": {"OBJECTID": 1084, "TABA": "גז/10/391", "Contents": "5", "Rotation": "5.3407", "TEXTSTRING": "5", "TEXT_SIZE": 2.25, "TEXT_ANGLE": 306}, "geometry": {"type": "Point", "coordinates": [34.88029399657272, 31.988951723306855]}}, {"type": "Feature", "properties": {"OBJECTID": 1085, "TABA": "גז/10/391", "Contents": "10", "Rotation": "0.6458", "TEXTSTRING": "10", "TEXT_SIZE": 1.42779084371, "TEXT_ANGLE": 37}, "geometry": {"type": "Point", "coordinates": [34.88082017625104, 31.98798624918826]}}, {"type": "Feature", "properties": {"OBJECTID": 1086, "TABA": "גז/10/391", "Contents": "10", "Rotation": "0.6458", "TEXTSTRING": "10", "TEXT_SIZE": 1.42779084371, "TEXT_ANGLE": 37}, "geometry": {"type": "Point", "coordinates": [34.880788227243464, 31.98802215875703]}}, {"type": "Feature", "properties": {"OBJECTID": 1087, "TABA": "גז/10/391", "Contents": "5", "Rotation": "0.6458", "TEXTSTRING": "5", "TEXT_SIZE": 1.42779084371, "TEXT_ANGLE": 37}, "geometry": {"type": "Point", "coordinates": [34.88083534939781, 31.988022807364427]}}, {"type": "Feature", "properties": {"OBJECTID": 1088, "TABA": "גז/10/391", "Contents": "5", "Rotation": "0.6458", "TEXTSTRING": "5", "TEXT_SIZE": 1.42779084371, "TEXT_ANGLE": 37}, "geometry": {"type": "Point", "coordinates": [34.8807838186284, 31.98799004686888]}}, {"type": "Feature", "properties": {"OBJECTID": 1108, "TABA": "גז/מק/18/487א'", "Contents": "20", "Rotation": "5.0235", "TEXTSTRING": "20", "TEXT_SIZE": 1.5, "TEXT_ANGLE": 287.826032759}, "geometry": {"type": "Point", "coordinates": [34.86198933084972, 32.00110719519057]}}, {"type": "Feature", "properties": {"OBJECTID": 1109, "TABA": "גז/מק/18/487א'", "Contents": "5", "Rotation": "5.0235", "TEXTSTRING": "5", "TEXT_SIZE": 1.5, "TEXT_ANGLE": 287.826032759}, "geometry": {"type": "Point", "coordinates": [34.862027138193234, 32.00108052901822]}}, {"type": "Feature", "properties": {"OBJECTID": 1110, "TABA": "גז/מק/18/487א'", "Contents": "5", "Rotation": "5.0235", "TEXTSTRING": "5", "TEXT_SIZE": 1.5, "TEXT_ANGLE": 287.826032759}, "geometry": {"type": "Point", "coordinates": [34.86200676258237, 32.00113540912353]}}, {"type": "Feature", "properties": {"OBJECTID": 1111, "TABA": "גז/מק/18/487א'", "Contents": "20", "Rotation": "5.1683", "TEXTSTRING": "20", "TEXT_SIZE": 1.5, "TEXT_ANGLE": 296.123586159}, "geometry": {"type": "Point", "coordinates": [34.86232080702873, 32.000372148269115]}}, {"type": "Feature", "properties": {"OBJECTID": 1112, "TABA": "גז/מק/18/487א'", "Contents": "5", "Rotation": "5.1683", "TEXTSTRING": "5", "TEXT_SIZE": 1.5, "TEXT_ANGLE": 296.123586159}, "geometry": {"type": "Point", "coordinates": [34.862362733479706, 32.00035040972367]}}, {"type": "Feature", "properties": {"OBJECTID": 1113, "TABA": "גז/מק/18/487א'", "Contents": "5", "Rotation": "5.1683", "TEXTSTRING": "5", "TEXT_SIZE": 1.5, "TEXT_ANGLE": 296.123586159}, "geometry": {"type": "Point", "coordinates": [34.862333277086755, 32.00040221010351]}}, {"type": "Feature", "properties": {"OBJECTID": 1114, "TABA": "גז/172", "Contents": "10", "Rotation": "0.3348", "TEXTSTRING": "10", "TEXT_SIZE": 1.5, "TEXT_ANGLE": 19.1805614748}, "geometry": {"type": "Point", "coordinates": [34.86164279257499, 32.00605621582954]}}, {"type": "Feature", "properties": {"OBJECTID": 1115, "TABA": "גז/172", "Contents": "5", "Rotation": "0.3348", "TEXTSTRING": "5", "TEXT_SIZE": 1.5, "TEXT_ANGLE": 19.1805614748}, "geometry": {"type": "Point", "coordinates": [34.86167175796481, 32.00608862727242]}}, {"type": "Feature", "properties": {"OBJECTID": 1116, "TABA": "גז/172", "Contents": "5", "Rotation": "0.3348", "TEXTSTRING": "5", "TEXT_SIZE": 1.5, "TEXT_ANGLE": 19.1805614748}, "geometry": {"type": "Point", "coordinates": [34.86160785260708, 32.00606997129777]}}, {"type": "Feature", "properties": {"OBJECTID": 1121, "TABA": "משמ/63/גז", "Contents": "30", "Rotation": "0.3706", "TEXTSTRING": "30", "TEXT_SIZE": 4.61940263751, "TEXT_ANGLE": 21.2348423666}, "geometry": {"type": "Point", "coordinates": [34.862437917235376, 32.00412866814027]}}, {"type": "Feature", "properties": {"OBJECTID": 1122, "TABA": "משמ/63/גז", "Contents": "4404", "Rotation": "0.3706", "TEXTSTRING": "4404", "TEXT_SIZE": 4.61940263751, "TEXT_ANGLE": 21.2348423666}, "geometry": {"type": "Point", "coordinates": [34.86233101250769, 32.004249554167835]}}, {"type": "Feature", "properties": {"OBJECTID": 1123, "TABA": "משמ/63/גז", "Contents": "35", "Rotation": "0.3706", "TEXTSTRING": "35", "TEXT_SIZE": 4.61940263751, "TEXT_ANGLE": 21.2348423666}, "geometry": {"type": "Point", "coordinates": [34.86250552377836, 32.00422534854848]}}, {"type": "Feature", "properties": {"OBJECTID": 1124, "TABA": "משמ/63/גז", "Contents": "35", "Rotation": "0.3706", "TEXTSTRING": "35", "TEXT_SIZE": 4.61940263751, "TEXT_ANGLE": 21.2348423666}, "geometry": {"type": "Point", "coordinates": [34.862311266092775, 32.00416192244282]}}]}