{"type": "FeatureCollection", "name": "רוזטות קווי", "features": [{"type": "Feature", "properties": {"OBJECTID": 1, "Shape_Leng": 19.9377844718}, "geometry": {"type": "LineString", "coordinates": [[34.86486160635762, 31.988521573180385], [34.86507214043253, 31.988533067952012]]}}, {"type": "Feature", "properties": {"OBJECTID": 2, "Shape_Leng": 19.9376317632}, "geometry": {"type": "LineString", "coordinates": [[34.86493720752475, 31.988441050425877], [34.86499653930628, 31.98861359078604]]}}, {"type": "Feature", "properties": {"OBJECTID": 3, "Shape_Leng": 62.6162692339}, "geometry": {"type": "LineString", "coordinates": [[34.86507235524578, 31.988527602691313], [34.86507192537954, 31.988535436416527], [34.86507069579422, 31.988543209386183], [34.86506867518028, 31.988550860300766], [34.865065880673185, 31.988558333294236], [34.865062332596025, 31.988565568901766], [34.86505805759742, 31.988572513988153], [34.865053089732804, 31.988579115437908], [34.8650474641058, 31.988585322843782], [34.865041226394574, 31.98859108763044], [34.86503442225079, 31.98859636843687], [34.865027104736285, 31.988601123020047], [34.86501932794446, 31.988605316354214], [34.86501115230752, 31.988608916135952], [34.86500263929921, 31.98861189457364], [34.86499385460586, 31.9886142292978], [34.86498486389721, 31.98861590244793], [34.86497573705555, 31.988616901585594], [34.864966542885135, 31.988617219680417], [34.86495735018033, 31.988616852407336], [34.864948230876585, 31.988615804467766], [34.86493925266692, 31.988614083257243], [34.864930485340665, 31.98861170158778], [34.86492199443472, 31.988608677670747], [34.86491384546939, 31.988605034226616], [34.864906100770604, 31.988600799378062], [34.86489881735716, 31.98859600574273], [34.864892052237785, 31.988590688643487], [34.86488585710408, 31.98858489060356], [34.864880278360275, 31.988578653230114], [34.864875358151565, 31.988572025333433], [34.864871134384, 31.988565057516013], [34.86486763966308, 31.988557803071675], [34.864864900245536, 31.988550315277074], [34.864862937074285, 31.98854265370743], [34.86486176369866, 31.988534874310876], [34.864861391531896, 31.988527038440626], [34.86486182141596, 31.98851920471622], [34.86486305207666, 31.988511431751544], [34.86486507164864, 31.988503780837462], [34.86486786616697, 31.988496308750275], [34.86487141425993, 31.98848907224635], [34.8648756892686, 31.98848212716624], [34.86488065819868, 31.988475525726212], [34.86488628276864, 31.98846931922661], [34.86489252048449, 31.988463553545675], [34.86489932462645, 31.988458272746747], [34.86490664319419, 31.988453518173632], [34.864914418920094, 31.98844932484339], [34.86492259454321, 31.988445725969502], [34.86493110754196, 31.988442746635247], [34.864939892220484, 31.988440411915242], [34.864948882912785, 31.988438738768167], [34.86495800973706, 31.988437739632257], [34.864967204944364, 31.988437422442555], [34.864976396576544, 31.988437788810202], [34.86498551586303, 31.988438836747648], [34.86499449405657, 31.9884405579548], [34.86500326136829, 31.988442939619837], [34.86501175225841, 31.9884459644332], [34.865019901216996, 31.988449606969294], [34.86502764696654, 31.98845384181375], [34.865034929317474, 31.988458635438935], [34.86504169443554, 31.988463952530676], [34.86504788956775, 31.98846975146493], [34.86505346937789, 31.98847598793218], [34.86505838853629, 31.98848261581928], [34.86506261231434, 31.988489583630614], [34.86506610704482, 31.988496838971574], [34.86506884648052, 31.988504325860163], [34.865070810726245, 31.98851198742961], [34.86507198306113, 31.988519766821565], [34.86507235524578, 31.988527602691313]]}}, {"type": "Feature", "properties": {"OBJECTID": 13, "Shape_Leng": 12.0698077764}, "geometry": {"type": "LineString", "coordinates": [[34.86402947829121, 31.988898005352517], [34.86403890916654, 31.988789457042135]]}}, {"type": "Feature", "properties": {"OBJECTID": 14, "Shape_Leng": 12.0697903376}, "geometry": {"type": "LineString", "coordinates": [[34.863972739096745, 31.988858517371355], [34.86409564834741, 31.988828944994033]]}}, {"type": "Feature", "properties": {"OBJECTID": 15, "Shape_Leng": 37.9062013121}, "geometry": {"type": "LineString", "coordinates": [[34.86409805010284, 31.98884390244424], [34.86409778922417, 31.988848645234178], [34.86409704492192, 31.988853349753832], [34.864095821555004, 31.988857981746346], [34.8640941298344, 31.98886250607004], [34.864091982590615, 31.98886688668719], [34.86408939476044, 31.988871090271], [34.86408638655794, 31.988875087116188], [34.864082981384875, 31.988878843918688], [34.86407920473264, 31.98888233459454], [34.864075085273626, 31.988885531264664], [34.86407065589941, 31.988888409668476], [34.86406594737537, 31.988890948245217], [34.864060997867035, 31.988893127257473], [34.86405584447189, 31.988894929670437], [34.864050526386976, 31.988896342964], [34.86404508386084, 31.988897356424367], [34.86403955925157, 31.988897961147096], [34.864033992781096, 31.988898153632864], [34.864028427842335, 31.988897931292627], [34.86402290780827, 31.988897296948153], [34.86401747287411, 31.988896254314408], [34.8640121642733, 31.98889481252007], [34.86400702429068, 31.98889298250024], [34.864002092030056, 31.988890776985077], [34.86399740234613, 31.988888213202344], [34.863992994316064, 31.988885311096592], [34.863988898545365, 31.98888209239325], [34.863985147745844, 31.98887858152882], [34.86398177038342, 31.988874806535584], [34.86397879175634, 31.988870793633744], [34.863976235019955, 31.988866576252217], [34.863974120168585, 31.98886218420419], [34.86397246189259, 31.988857650895845], [34.863971272756125, 31.98885301243305], [34.86397056321041, 31.988848304014223], [34.8639703373613, 31.988843559918923], [34.86397059824651, 31.988838817129324], [34.86397134255508, 31.988834112610448], [34.8639725659279, 31.988829480619145], [34.863974257650504, 31.988824957198865], [34.863976404898885, 31.988820576583738], [34.86397899273609, 31.98881637210042], [34.86398200094127, 31.988812375257748], [34.86398540611594, 31.98880861845793], [34.863989182768655, 31.988805127784836], [34.86399330222701, 31.988801931117475], [34.863997731599426, 31.988799052716303], [34.86400244012062, 31.988796514142038], [34.86400738856365, 31.988794336030967], [34.864012541957415, 31.988792532718115], [34.86401786109499, 31.988791119428917], [34.86402330361515, 31.98879010596968], [34.86402882821804, 31.988789501247577], [34.86403439468195, 31.98878930876199], [34.86403995961417, 31.988789531101922], [34.86404547964192, 31.98879016544563], [34.864050914570164, 31.98879120807816], [34.86405622210752, 31.988792649868014], [34.86406136208224, 31.988794480787643], [34.86406629540061, 31.988796685401567], [34.86407098508185, 31.988799249181742], [34.864075393110305, 31.98880215128479], [34.86407948888052, 31.988805369985386], [34.86408323968072, 31.988808880847103], [34.864086617044954, 31.98881265583771], [34.86408959567488, 31.988816668737055], [34.86409215241178, 31.98882088701815], [34.86409426726786, 31.98882527906427], [34.864095925552625, 31.988829811469294], [34.864097114695085, 31.98883444993098], [34.86409782424718, 31.988839158349165], [34.86409805010284, 31.98884390244424]]}}, {"type": "Feature", "properties": {"OBJECTID": 16, "Shape_Leng": 12.0999916105}, "geometry": {"type": "LineString", "coordinates": [[34.863766617783895, 31.987770383981], [34.86389442832349, 31.987776789797284]]}}, {"type": "Feature", "properties": {"OBJECTID": 17, "Shape_Leng": 12.1000140213}, "geometry": {"type": "LineString", "coordinates": [[34.863812197570645, 31.987721311087462], [34.86384884749441, 31.987825862717226]]}}, {"type": "Feature", "properties": {"OBJECTID": 18, "Shape_Leng": 38.0011974489}, "geometry": {"type": "LineString", "coordinates": [[34.86389453792627, 31.98777375822555], [34.86389427699737, 31.987778512739148], [34.86389353053106, 31.98778322987784], [34.863892305009145, 31.987787873586846], [34.86389060796821, 31.98779240871604], [34.86388845540969, 31.9877968001379], [34.86388586121216, 31.98780101452296], [34.86388284559287, 31.98780502126404], [34.86387943195002, 31.98780878795898], [34.86387564578143, 31.987812286720192], [34.863871516810654, 31.98781549147511], [34.86386707475797, 31.987818377052925], [34.86386235567894, 31.987820921907062], [34.863857393506294, 31.987823106288808], [34.86385222745001, 31.9878249140709], [34.86384689671334, 31.98782633092967], [34.86384144048629, 31.98782734614856], [34.86383590111982, 31.987827952626827], [34.86383032095827, 31.987828145067237], [34.86382474232928, 31.987827922681575], [34.86381920755386, 31.987827286485203], [34.863813759994464, 31.98782624200535], [34.86380843877442, 31.987824796561462], [34.8638032861781, 31.98782296108866], [34.86379834024406, 31.987820750117937], [34.8637936400623, 31.987818179986697], [34.863789219418926, 31.987815270625344], [34.86378511420964, 31.987812043773562], [34.86378135396811, 31.987808524761146], [34.86377796822468, 31.987804739819705], [34.86377498332867, 31.987800716975926], [34.86377241926412, 31.987796488748423], [34.863770299196, 31.987792085860757], [34.863768636756376, 31.98778754171628], [34.863767444512476, 31.987782891519092], [34.863766732915344, 31.987778170467653], [34.863766507122136, 31.987773414647947], [34.86376676805426, 31.987768661036483], [34.863767514526934, 31.987763943898546], [34.8637687411129, 31.98775930019361], [34.863770437101095, 31.98775476506323], [34.86377258966421, 31.987750373643376], [34.86377518492688, 31.987746158361695], [34.86377819948745, 31.987742152522085], [34.863781613131906, 31.98773838582984], [34.86378539930431, 31.9877348861696], [34.86378952827109, 31.98773168231923], [34.86379397032198, 31.987728796744072], [34.86379868939813, 31.987726251892436], [34.863803651566904, 31.987724067512932], [34.86380881761846, 31.987722259732735], [34.863814149407766, 31.987720842878364], [34.863819604570686, 31.987719827657713], [34.86382514393076, 31.987719221180125], [34.86383072408907, 31.987719027838107], [34.86383630270814, 31.987719251125263], [34.8638418374772, 31.987719887320846], [34.86384728608877, 31.987720931802293], [34.86385260624533, 31.987722377241724], [34.86385775883706, 31.98772421271252], [34.86386270476738, 31.98772642368093], [34.86386740494645, 31.98772899380962], [34.86387182558819, 31.98773190316828], [34.86387593080033, 31.987735129115496], [34.863879691039195, 31.987738649026966], [34.86388307678443, 31.987742433965735], [34.86388606274476, 31.98774645590808], [34.86388862575174, 31.9877506850323], [34.863890745824605, 31.987755087918046], [34.86389240932778, 31.98775963206381], [34.863893600519596, 31.987764282257043], [34.86389431212315, 31.987769003307854], [34.86389453792627, 31.98777375822555]]}}, {"type": "Feature", "properties": {"OBJECTID": 55, "Shape_Leng": 15.5999689887}, "geometry": {"type": "LineString", "coordinates": [[34.86746685359394, 31.98969353135308], [34.86748175320991, 31.989553425140738]]}}, {"type": "Feature", "properties": {"OBJECTID": 56, "Shape_Leng": 15.6000610903}, "geometry": {"type": "LineString", "coordinates": [[34.867394514880054, 31.989641472011286], [34.867554091904886, 31.98960548443339]]}}, {"type": "Feature", "properties": {"OBJECTID": 57, "Shape_Leng": 48.9933051628}, "geometry": {"type": "LineString", "coordinates": [[34.86755683682067, 31.989623697340665], [34.86755650121248, 31.98962982691422], [34.86755553830596, 31.989635907928978], [34.867553958847004, 31.98964189532314], [34.86755177253332, 31.989647741326863], [34.86754899539161, 31.98965340359787], [34.86754565086206, 31.989658838009916], [34.86754176343316, 31.98966400314501], [34.86753736287743, 31.98966885940268], [34.867532482128645, 31.98967337079818], [34.86752715834979, 31.989677502259756], [34.86752143186181, 31.98968122323301], [34.86751534721486, 31.989684504076624], [34.86750895105564, 31.9896873205657], [34.86750229002097, 31.989689651180658], [34.867495416025136, 31.98969147802323], [34.86748838202406, 31.989692787706883], [34.867481240963876, 31.98969356955051], [34.867474045770834, 31.98969381828381], [34.86746685359394, 31.98969353135308], [34.86745971838791, 31.989692711606946], [34.86745269409765, 31.989691364599533], [34.867445833590175, 31.98968950129284], [34.86743918972247, 31.989687135354316], [34.8674328132189, 31.98968428495475], [34.86742675373239, 31.989680971869333], [34.86742105455729, 31.989677220561795], [34.8674157610843, 31.989673060912228], [34.86741091341024, 31.98966852368852], [34.867406548440975, 31.98966364415904], [34.867402698846576, 31.989658458482776], [34.867399393051365, 31.989653006414677], [34.86739665841492, 31.989647329510348], [34.867394514880054, 31.989641472011286], [34.8673929781636, 31.98963547634396], [34.86739206078825, 31.989629390337285], [34.86739176893777, 31.98962325909794], [34.86739210561499, 31.989617129527687], [34.86739306747726, 31.989611047609657], [34.867394648000925, 31.989605061122134], [34.86739683432681, 31.989599214219325], [34.86739961041805, 31.989593551948854], [34.867402956008604, 31.989588118445237], [34.867406843441984, 31.98958295331438], [34.8674112440037, 31.989578096159395], [34.86741612475329, 31.98957358476848], [34.86742144853104, 31.989569453311503], [34.86742717501274, 31.989565733244483], [34.867433258596755, 31.98956245240217], [34.86743965580768, 31.989559635919633], [34.86744631683449, 31.989557305307855], [34.867453190821244, 31.989555478467846], [34.867460224812305, 31.989554168786043], [34.867467365861856, 31.989553386943506], [34.86747455998578, 31.989553138207704], [34.86748175320991, 31.989553425140738], [34.86748888840535, 31.98955424488556], [34.867495912685726, 31.989555591890937], [34.86750277318433, 31.989557455194923], [34.867509417044374, 31.989559821130094], [34.867515792483644, 31.98956267152302], [34.867521853023774, 31.989565984607], [34.8675275521995, 31.989569735008295], [34.867532845671676, 31.98957389465325], [34.86753769334684, 31.9895784318724], [34.8675420583158, 31.989583312299242], [34.867545907914995, 31.989588497971354], [34.86754921266181, 31.98959394913114], [34.86755194836423, 31.989599626035066], [34.867554091904886, 31.98960548443339], [34.86755562757653, 31.98961147919426], [34.86755654601737, 31.989617566104435], [34.86755683682067, 31.989623697340665]]}}, {"type": "Feature", "properties": {"OBJECTID": 58, "Shape_Leng": 27.9999616498}, "geometry": {"type": "LineString", "coordinates": [[34.87218070730864, 31.988635853607033], [34.87247642444837, 31.98865132319385]]}}, {"type": "Feature", "properties": {"OBJECTID": 59, "Shape_Leng": 27.9999496741}, "geometry": {"type": "LineString", "coordinates": [[34.872286524062694, 31.988522527556526], [34.872370608838345, 31.988764648501956]]}}, {"type": "Feature", "properties": {"OBJECTID": 60, "Shape_Leng": 87.9366961409}, "geometry": {"type": "LineString", "coordinates": [[34.87247670273825, 31.98864397601902], [34.87247609914302, 31.988654977356454], [34.872474373184275, 31.98866589279237], [34.87247153680285, 31.988676638490112], [34.87246761357248, 31.98868713244703], [34.872462631289615, 31.988697295377], [34.87245662832548, 31.988707049825006], [34.87244965150981, 31.988716320161874], [34.87244175293698, 31.988725037986566], [34.87243299316318, 31.98873313582196], [34.872423438015744, 31.988740551615575], [34.872413160706195, 31.988747229646926], [34.872402240778634, 31.988753118720997], [34.87239075880932, 31.988758174860067], [34.8723788038233, 31.988762358617485], [34.872366466936015, 31.98876563776655], [34.87235384134658, 31.988767989104076], [34.87234102341562, 31.988769393042425], [34.87232811158422, 31.98876983991929], [34.872315202157765, 31.988769325477573], [34.87230239458358, 31.988767854486603], [34.87228978617313, 31.98876543712089], [34.87227747314409, 31.988762093472], [34.87226554852667, 31.988757847230378], [34.872254104260456, 31.988752731101773], [34.87224322591029, 31.98874678498962], [34.8722329969084, 31.98874005330083], [34.87222349642853, 31.988732587645725], [34.87221479410501, 31.988724444118553], [34.872206958491184, 31.98871568512342], [34.872200048597826, 31.988706378450313], [34.872194117083616, 31.98869659277436], [34.87218920811627, 31.988686403962845], [34.87218535950823, 31.98867588967011], [34.87218260165855, 31.98866512933458], [34.87218095331721, 31.988654205069604], [34.87218043005333, 31.988643200783823], [34.87218103262885, 31.98863219854344], [34.87218275967976, 31.988621283114448], [34.87218559503491, 31.988610537420545], [34.8721895193521, 31.98860004347516], [34.87219450165959, 31.98858988055594], [34.87220050358225, 31.988580127019308], [34.87220748041566, 31.98857085579423], [34.87221537899717, 31.988562137983973], [34.87222413982842, 31.988554041067967], [34.872233693917416, 31.988546624384544], [34.87224397121733, 31.988539946367485], [34.87225489218761, 31.988534057309487], [34.87226637307488, 31.988529002081435], [34.872278328035506, 31.988524818334277], [34.872290664896795, 31.98852153829166], [34.87230329045072, 31.9885191878619], [34.87231610835065, 31.98851778302527], [34.87232902120165, 31.988517337053967], [34.87234192953803, 31.98851785058945], [34.87235473707495, 31.98851932247807], [34.8723673454568, 31.988521738935425], [34.872379658453916, 31.988525083477334], [34.872391583046685, 31.988529329708204], [34.872403028354384, 31.98853444492542], [34.87241390563192, 31.98854039102124], [34.87242413462513, 31.988547122695564], [34.87243363615728, 31.988554589240408], [34.872442337429526, 31.988562731848262], [34.872450173052975, 31.988571490829127], [34.8724570829585, 31.98858079839073], [34.87246301555476, 31.98859058315569], [34.872467924547465, 31.988600771956918], [34.87247177212664, 31.988611286238623], [34.872474531066715, 31.98862204657095], [34.87247617838421, 31.98863297082965], [34.87247670273825, 31.98864397601902]]}}, {"type": "Feature", "properties": {"OBJECTID": 370, "Shape_Leng": 49.9126976541}, "geometry": {"type": "LineString", "coordinates": [[34.86164627671513, 31.99087842009095], [34.861295140445556, 31.990542194129176]]}}, {"type": "Feature", "properties": {"OBJECTID": 371, "Shape_Leng": 49.9127022428}, "geometry": {"type": "LineString", "coordinates": [[34.86134539284952, 31.99090840817891], [34.86159602313306, 31.99051220524859]]}}, {"type": "Feature", "properties": {"OBJECTID": 372, "Shape_Leng": 156.755487902}, "geometry": {"type": "LineString", "coordinates": [[34.8617347817355, 31.990711020107543], [34.86173370358172, 31.99073063232897], [34.861730623980186, 31.990750090348346], [34.861725566765266, 31.990769244530426], [34.861718569507154, 31.990787950687896], [34.861709685644875, 31.99080606557791], [34.86169898340814, 31.990823452310185], [34.861686543711095, 31.990839977635847], [34.86167246225197, 31.99085551646206], [34.86165684423238, 31.9908699491326], [34.861639809624535, 31.99088316775445], [34.86162148895885, 31.990895070775824], [34.8616020201328, 31.99090556748652], [34.861581551585225, 31.990914578026473], [34.86156024018006, 31.99092203338007], [34.86153824696374, 31.990927878070263], [34.861515739294774, 31.990932066556812], [34.86149288976886, 31.990934567742762], [34.86146987093819, 31.990935362254532], [34.861446858482395, 31.990934443352344], [34.86142402802745, 31.990931818725326], [34.86140155197791, 31.99092750867925], [34.861379603752724, 31.990921545246156], [34.86135834719372, 31.99091397486123], [34.861337947163825, 31.990904853882302], [34.86131855683583, 31.990894252162764], [34.861300324051335, 31.990882250363388], [34.861283388146255, 31.990868939943432], [34.86126787889276, 31.990854423158225], [34.861253912283345, 31.990838808538335], [34.86124159580152, 31.990822216314772], [34.86123102315457, 31.99080477209216], [34.861222274263554, 31.990786609553982], [34.86121541739628, 31.990767865959366], [34.86121050175041, 31.990748684828468], [34.86120756805504, 31.990729210560183], [34.86120663585619, 31.990709592907013], [34.86120771412179, 31.990689980690796], [34.86121079276997, 31.99067052358361], [34.86121585114418, 31.99065136942531], [34.86122284743529, 31.990632663292917], [34.861231731379235, 31.99061454753526], [34.86124243367577, 31.99059716174405], [34.86125487341883, 31.990580636461647], [34.86126895596358, 31.990565097684122], [34.86128457293657, 31.99055066415605], [34.86130160752964, 31.990537446482932], [34.8613199292228, 31.990525543509694], [34.861339397999856, 31.990515046841335], [34.8613598654235, 31.990506036336562], [34.861381177806166, 31.990498581018414], [34.86140316987136, 31.99049273635157], [34.86142567744112, 31.990488546982178], [34.86144852685469, 31.9904860467092], [34.86147154557326, 31.990485252200465], [34.86149455791724, 31.990486171097476], [34.86151738826739, 31.99048879480941], [34.86153986421241, 31.99049310573636], [34.86156181340463, 31.990499069144352], [34.86158306882717, 31.990506639492303], [34.86160346985207, 31.990515760434768], [34.861622860134034, 31.99052636211107], [34.86164109183289, 31.990538363861777], [34.861658027733135, 31.99055167333278], [34.86167353805285, 31.99056619097572], [34.861687503634805, 31.990581805547475], [34.861699820165605, 31.990598397728693], [34.8617103928817, 31.99061584101149], [34.86171914185001, 31.990634004418872], [34.86172599986842, 31.99065274799016], [34.8617309145587, 31.99067192909924], [34.86173384942454, 31.990691402457408], [34.8617347817355, 31.990711020107543]]}}, {"type": "Feature", "properties": {"OBJECTID": 373, "Shape_Leng": 55.0297405518}, "geometry": {"type": "LineString", "coordinates": [[34.86528310603525, 31.991177744596435], [34.865071436259136, 31.99071543538498]]}}, {"type": "Feature", "properties": {"OBJECTID": 374, "Shape_Leng": 55.0297569106}, "geometry": {"type": "LineString", "coordinates": [[34.86495859447321, 31.991110406847593], [34.865395946518454, 31.990782772840383]]}}, {"type": "Feature", "properties": {"OBJECTID": 375, "Shape_Leng": 172.826233392}, "geometry": {"type": "LineString", "coordinates": [[34.865468418239836, 31.99094736796508], [34.86546723084233, 31.990968990951643], [34.86546383570676, 31.990990443011558], [34.86545826094026, 31.991011561894993], [34.865450547344444, 31.9910321862878], [34.86544075369625, 31.991052158530835], [34.86542895567993, 31.991071327322807], [34.86541524165448, 31.991089547708743], [34.86539971583474, 31.99110667928505], [34.865382497206774, 31.99112259341095], [34.865363717434754, 31.991137166890432], [34.86534351871157, 31.991150290984464], [34.8653220537853, 31.99116186419665], [34.86529948804903, 31.99117179949335], [34.86527599109217, 31.991180019772106], [34.86525174408424, 31.991186464193884], [34.86522692920998, 31.991191083645976], [34.865201737073015, 31.9911938416636], [34.86517635821728, 31.991194718014395], [34.86515098631149, 31.9911937060015], [34.865125814971215, 31.991190813357107], [34.86510103458773, 31.991186061331764], [34.865076834434326, 31.991179487405795], [34.86505339950507, 31.99117114167345], [34.86503090628551, 31.991161085929736], [34.865009528026704, 31.991149398193635], [34.86498942630341, 31.991136166372826], [34.86497075311355, 31.991121492778273], [34.86495365302123, 31.99110548691556], [34.86493825360677, 31.99108827267372], [34.8649246739651, 31.991069979329858], [34.86491301621737, 31.991050747839147], [34.86490337082828, 31.99103072363454], [34.86489580919245, 31.99101005841051], [34.86489038892518, 31.99098891013725], [34.86488715281433, 31.990967440352357], [34.864886124597774, 31.990945811444195], [34.8648873121312, 31.990924188463943], [34.864890706340084, 31.990902736417315], [34.86489628228771, 31.99088161756213], [34.864903995991, 31.990860994105113], [34.86491378867958, 31.9908410209989], [34.86492558783079, 31.990821852257504], [34.86493930191221, 31.9908036319241], [34.86495482776541, 31.990786500403573], [34.86497204534187, 31.990770587233907], [34.864990826161495, 31.99075601291248], [34.86501102484742, 31.990742888873545], [34.86503248865602, 31.990731315709965], [34.86505505536713, 31.990721381364107], [34.8650785511712, 31.9907131602204], [34.86510279912422, 31.990706715833284], [34.86512761387385, 31.990702096404263], [34.86515280587834, 31.99069933840021], [34.865178184597774, 31.990698462053135], [34.86520355636765, 31.99069947405968], [34.865228727576465, 31.990702366688016], [34.86525350783697, 31.990707118687936], [34.86527770682143, 31.990713692577092], [34.865301142710294, 31.990722039172574], [34.8653236347983, 31.990732093963928], [34.86534501405928, 31.990743781650313], [34.86536511574911, 31.99075701341538], [34.865383787867565, 31.990771687851623], [34.8654008890352, 31.990787692758314], [34.865416288486905, 31.99080490694509], [34.8654298681881, 31.990823200237536], [34.86544152495765, 31.99084243167915], [34.86545117149957, 31.990862456748744], [34.86545873325174, 31.990883121039133], [34.865464152585545, 31.990904269286503], [34.865467389887016, 31.990925739060618], [34.865468418239836, 31.99094736796508]]}}, {"type": "Feature", "properties": {"OBJECTID": 937, "Shape_Leng": 15.8399965767}, "geometry": {"type": "LineString", "coordinates": [[34.87252706616472, 31.99312049754426], [34.87254788507074, 31.992978758667537]]}}, {"type": "Feature", "properties": {"OBJECTID": 938, "Shape_Leng": 15.8400157163}, "geometry": {"type": "LineString", "coordinates": [[34.87245577256352, 31.99306553099959], [34.872619179715656, 31.99303372606567]]}}, {"type": "Feature", "properties": {"OBJECTID": 939, "Shape_Leng": 49.747022693}, "geometry": {"type": "LineString", "coordinates": [[34.87262128247793, 31.99304984769973], [34.87262094156015, 31.99305607196027], [34.872619964855716, 31.993062246762918], [34.87261836099865, 31.99306832523642], [34.872616140732816, 31.993074262318675], [34.87261332221579, 31.993080011163336], [34.872609926763396, 31.993085529441263], [34.87260597886928, 31.993090773929936], [34.87260151041799, 31.993095705935072], [34.87259655435232, 31.993100286765152], [34.872591148889654, 31.993104482251542], [34.87258533541545, 31.993108260037502], [34.87257915636033, 31.993111591376127], [34.87257266154918, 31.993114451147203], [34.872565897616134, 31.99311681873111], [34.87255891860255, 31.993118673527658], [34.8725517753428, 31.993120003946263], [34.87254452396537, 31.99312079750846], [34.872537218449956, 31.99312105074816], [34.87252991595399, 31.993120759305846], [34.87252266936979, 31.993119927828836], [34.87251553688375, 31.99311856007657], [34.872508570300724, 31.993116668809755], [34.87250182460336, 31.993114265895723], [34.87249534945098, 31.993111372205867], [34.87248919556098, 31.99310800861436], [34.87248340940191, 31.99310420049331], [34.872478034254755, 31.9930999768137], [34.87247311127116, 31.993095370148133], [34.87246867842174, 31.99309041486456], [34.87246476836999, 31.993085149826012], [34.87246141272126, 31.99307961389278], [34.8724586356574, 31.993073850414767], [34.87245645818905, 31.99306790183171], [34.87245489813605, 31.993061815084094], [34.87245396591754, 31.99305563528935], [34.87245366877171, 31.993049409360246], [34.872454010758915, 31.993043185102994], [34.872454987474256, 31.993037010301695], [34.87245659134476, 31.99303093092848], [34.872458811616525, 31.99302499475084], [34.8724616301447, 31.99301924500782], [34.87246502560019, 31.99301372763562], [34.87246897349894, 31.993008483151325], [34.87247344195302, 31.99300355115083], [34.87247839801951, 31.99299897032546], [34.87248380348103, 31.992994774843805], [34.87248961695217, 31.992990997062417], [34.872495794944186, 31.992987665725295], [34.87250229081011, 31.99298480505903], [34.872509053673625, 31.99298243837742], [34.87251603373604, 31.992980583586306], [34.872523175927284, 31.992979253166826], [34.872530428355155, 31.992978458706727], [34.87253773279785, 31.99297820636636], [34.87254503634397, 31.992978496909135], [34.87255228185585, 31.99297932928384], [34.87255941538988, 31.992980697036778], [34.87256638090557, 31.99298258829799], [34.87257312765644, 31.992984990309573], [34.87257960174105, 31.99298788489452], [34.87258575668458, 31.99299124848442], [34.872591542840865, 31.992995056600865], [34.87259691798719, 31.992999280275715], [34.87260184097193, 31.99300388693655], [34.872606273824445, 31.99300884221556], [34.872610183881115, 31.99301410724984], [34.87261353953972, 31.99301964227744], [34.87261631660844, 31.99302540665397], [34.87261849408941, 31.993031354332583], [34.87262005414949, 31.9930374419801], [34.87262098637896, 31.99304362177371], [34.87262128247793, 31.99304984769973]]}}, {"type": "Feature", "properties": {"OBJECTID": 940, "Shape_Leng": 15.5511194352}, "geometry": {"type": "LineString", "coordinates": [[34.874320149730345, 31.993923072257182], [34.8744846971524, 31.993924751869407]]}}, {"type": "Feature", "properties": {"OBJECTID": 941, "Shape_Leng": 15.5511364743}, "geometry": {"type": "LineString", "coordinates": [[34.87437521049379, 31.99385773819994], [34.87442963642568, 31.993990085973728]]}}, {"type": "Feature", "properties": {"OBJECTID": 942, "Shape_Leng": 48.8397881814}, "geometry": {"type": "LineString", "coordinates": [[34.874484702567315, 31.99392412603167], [34.8744843674692, 31.99393023668469], [34.87448340927222, 31.993936298823957], [34.87448183448996, 31.993942266474356], [34.87447965492044, 31.993948095478185], [34.874476887659085, 31.99395373988781], [34.87447355402105, 31.993959157373904], [34.87446967849288, 31.993964306517007], [34.87446529190371, 31.993969147718], [34.87446042612802, 31.993973644987467], [34.87445511938288, 31.993977764156202], [34.87444941093387, 31.993981473763107], [34.87444334533108, 31.99398474416444], [34.87443696816017, 31.993987552031793], [34.874430328174896, 31.99398987584861], [34.874423476232465, 31.993991697711003], [34.87441646423538, 31.99399300332504], [34.87440934406683, 31.99399378380763], [34.8744021718394, 31.993994031188397], [34.87439500257528, 31.993993746512253], [34.87438788812855, 31.993992929012233], [34.87438088561191, 31.993991586953115], [34.87437404578574, 31.993989729484944], [34.87436742256557, 31.99398737117688], [34.87436106667947, 31.993984530196936], [34.874355024609834, 31.993981228309355], [34.87434934283257, 31.993977489081935], [34.87434406568466, 31.99397334238959], [34.87433923220564, 31.993968819897034], [34.8743348803672, 31.99396395597164], [34.874331041785474, 31.99395878676786], [34.87432774700542, 31.9939533520445], [34.874325020216546, 31.993947693347533], [34.874322882430484, 31.993941853116407], [34.87432135041325, 31.99393587738677], [34.874320435646474, 31.99392981037692], [34.874320144314346, 31.993923698094907], [34.874320479423304, 31.99391758744237], [34.87432143763078, 31.993911525304387], [34.874323012426096, 31.993905556754225], [34.87432519200122, 31.993899728654934], [34.8743279592702, 31.9938940842486], [34.87433129291437, 31.993888666766324], [34.87433516844701, 31.993883517627367], [34.87433955503886, 31.993878676430864], [34.87434442081856, 31.993874178264182], [34.8743497275594, 31.993870060001793], [34.87435543600541, 31.993866350399294], [34.87436150160345, 31.99386308000208], [34.874367877713034, 31.993860271233864], [34.87437451769049, 31.99385794742021], [34.874381370678826, 31.9938561264649], [34.874388382665956, 31.993854820852697], [34.87439550282393, 31.99385404037121], [34.874402673985536, 31.993853792086195], [34.874409844293744, 31.993854077666384], [34.874416958729974, 31.99385489516512], [34.874423961236786, 31.993856237222218], [34.874430799999146, 31.993858093783114], [34.87443742321171, 31.99386045208787], [34.87444378014664, 31.993863293968577], [34.87444982221181, 31.993866595851955], [34.87445550398639, 31.993870335074927], [34.87446078113673, 31.99387448086089], [34.87446561461362, 31.993879004250687], [34.87446996645503, 31.99388386817167], [34.87447380504152, 31.993889037371368], [34.87447709982794, 31.993894472091025], [34.87447982662464, 31.993900130784848], [34.87448196442297, 31.993905970111584], [34.874483496446906, 31.993911946741157], [34.874484411224294, 31.99391801374994], [34.874484702567315, 31.99392412603167]]}}, {"type": "Feature", "properties": {"OBJECTID": 943, "Shape_Leng": 5.76001506895}, "geometry": {"type": "LineString", "coordinates": [[34.87920219616792, 31.988799384020577], [34.87921242480458, 31.988748176901822]]}}, {"type": "Feature", "properties": {"OBJECTID": 944, "Shape_Leng": 5.75996072331}, "geometry": {"type": "LineString", "coordinates": [[34.879177332074946, 31.988778441722232], [34.87923728995561, 31.988769119196075]]}}, {"type": "Feature", "properties": {"OBJECTID": 945, "Shape_Leng": 18.0897868576}, "geometry": {"type": "LineString", "coordinates": [[34.87923778431377, 31.988773858544672], [34.879237660994356, 31.988776121758498], [34.879237306007305, 31.98877836724448], [34.87923672258741, 31.988780577876575], [34.879235915027564, 31.988782736531526], [34.87923489079183, 31.988784826995953], [34.87923365628304, 31.98878683395556], [34.879232221081466, 31.988788741202416], [34.879230595819195, 31.988790534334886], [34.87922879429952, 31.988792199861248], [34.87922682926118, 31.988793726090684], [34.87922471450749, 31.988795099531472], [34.87922246805827, 31.988796311211733], [34.87922010687842, 31.988797351255112], [34.8792176468652, 31.988798212487847], [34.879215109209625, 31.988798886848045], [34.87921251191249, 31.98879937077452], [34.87920987509395, 31.98879965980989], [34.879207218864664, 31.988799752202013], [34.87920456333529, 31.988799646198878], [34.87920192860373, 31.988799343655547], [34.879199334767904, 31.988798846427144], [34.87919680191619, 31.98879815907415], [34.87919434908202, 31.98879728525261], [34.87919199422482, 31.98879623312472], [34.87918975636525, 31.98879500995373], [34.87918765239828, 31.98879362570278], [34.87918569816385, 31.9887920894305], [34.8791839073698, 31.988790414699082], [34.87918229584655, 31.9887886132726], [34.87918087412758, 31.988786698705088], [34.87917965380126, 31.988784685455165], [34.87917864327528, 31.988782589776815], [34.8791778520186, 31.988780427025016], [34.879177284206435, 31.988778213442977], [34.8791769450689, 31.988775966178366], [34.87917683666175, 31.988773702370747], [34.87917696104077, 31.988771439159688], [34.879177316029256, 31.988769193673892], [34.87917789945051, 31.988766983042044], [34.87917870595346, 31.988764824384774], [34.879179731251526, 31.988762733021733], [34.87918096575799, 31.98876072696441], [34.87918240096017, 31.988758819718143], [34.87918402516468, 31.988757026583556], [34.87918582774578, 31.988755360158756], [34.879187792780776, 31.98875383483175], [34.87918990647912, 31.98875246048703], [34.87919215292769, 31.988751248807336], [34.879194515164784, 31.98875020876717], [34.879196974115644, 31.98874934843394], [34.879199511773145, 31.988748673172342], [34.87920210906893, 31.988748189246095], [34.879204745886014, 31.98874790021087], [34.879207402110616, 31.988747808720582], [34.879210057641686, 31.988747913821854], [34.879212692371816, 31.988748216365018], [34.87921528620629, 31.988748713593147], [34.879217819053615, 31.988749401847553], [34.87922027294804, 31.98875027476959], [34.879222626746284, 31.988751326894196], [34.87922486460521, 31.98875255006465], [34.87922696962677, 31.98875393521949], [34.87922892386427, 31.988755470589357], [34.87923071359717, 31.98875714621921], [34.87923232617894, 31.988758947647806], [34.879233747898574, 31.98876086221474], [34.87923496822894, 31.98876287456241], [34.879235977694705, 31.988764971139364], [34.879236770010735, 31.988767133893546], [34.87923733782428, 31.98876934747533], [34.879237676963264, 31.988771594739777], [34.87923778431377, 31.988773858544672]]}}, {"type": "Feature", "properties": {"OBJECTID": 952, "Shape_Leng": 14.2999784963}, "geometry": {"type": "LineString", "coordinates": [[34.88147417512471, 31.98814436461512], [34.881625469741074, 31.98814249859456]]}}, {"type": "Feature", "properties": {"OBJECTID": 953, "Shape_Leng": 14.3000136401}, "geometry": {"type": "LineString", "coordinates": [[34.8815229212715, 31.98808316681135], [34.88157672468838, 31.98820369644008]]}}, {"type": "Feature", "properties": {"OBJECTID": 954, "Shape_Leng": 44.9104988931}, "geometry": {"type": "LineString", "coordinates": [[34.8816254774396, 31.988143624066627], [34.881625169958, 31.988149242430868], [34.881624289124844, 31.988154817853854], [34.8816228414466, 31.988160305261843], [34.88162083764322, 31.98816566500269], [34.881618293731535, 31.988170855634085], [34.88161522889647, 31.988175837525393], [34.88161166655219, 31.98818057195848], [34.881607632213345, 31.988185024729614], [34.88160315880455, 31.98818916075214], [34.88159828029593, 31.988192948549223], [34.88159303170626, 31.988196359352152], [34.88158745439036, 31.98819936801552], [34.881581591816186, 31.98820195030112], [34.88157548637459, 31.98820408737886], [34.88156918574076, 31.988205762235676], [34.881562737570874, 31.98820696326931], [34.88155619162793, 31.988207681588268], [34.88154959661046, 31.988207910102005], [34.88154300436926, 31.988207648040614], [34.88153646251636, 31.988206896427034], [34.88153002393221, 31.988205662610227], [34.881523735142295, 31.988203955726608], [34.881517644778796, 31.98820178762343], [34.88151179933876, 31.988199175553294], [34.881506244254716, 31.988196138569748], [34.881501019649754, 31.98819270112362], [34.88149616670178, 31.9881888885703], [34.88149172234369, 31.98818472986151], [34.88148772032453, 31.988180256646366], [34.88148419014817, 31.988175504170368], [34.88148116026359, 31.988170506774516], [34.88147865275525, 31.988165303292615], [34.88147668758819, 31.988159933455012], [34.88147527837248, 31.988154438779315], [34.88147443555016, 31.988148858971524], [34.88147416742803, 31.988143239143024], [34.88147447492198, 31.98813761987744], [34.881475356818946, 31.988132045360015], [34.88147680450866, 31.98812655705194], [34.881478807261416, 31.98812119731069], [34.88148135117637, 31.988116007583873], [34.881484416016626, 31.988111025695822], [34.88148797942597, 31.98810629036716], [34.88149201270896, 31.988101837597103], [34.881496486115275, 31.988097702480214], [34.881501365681075, 31.98809391468968], [34.881506614271395, 31.988090502988697], [34.881512190522, 31.988087495227884], [34.88151805414891, 31.988084912948107], [34.88152415958388, 31.988082775873064], [34.88153046021325, 31.98808110011659], [34.8815369073166, 31.988079899081818], [34.881543454305564, 31.988079181668272], [34.88155004825572, 31.98807895315209], [34.88155664154585, 31.988079215215777], [34.881563182334915, 31.988079965923788], [34.88156962196887, 31.988081199741597], [34.88157591074815, 31.988082907524696], [34.88158200110521, 31.988085075625058], [34.88158784548196, 31.988087687689287], [34.88159340162348, 31.988090723770192], [34.88159862622305, 31.988094162114358], [34.881603478112204, 31.988097974661105], [34.88160792247437, 31.988102132464267], [34.88161192555418, 31.988106605678382], [34.881615454673266, 31.98811135905], [34.88161848456323, 31.98811635644272], [34.88162099208136, 31.988121559020136], [34.88162295831415, 31.988126928858307], [34.88162436753511, 31.98813242443424], [34.88162520931144, 31.98813800333661], [34.8816254774396, 31.988143624066627]]}}, {"type": "Feature", "properties": {"OBJECTID": 955, "Shape_Leng": 14.9999848178}, "geometry": {"type": "LineString", "coordinates": [[34.88033602960514, 31.98898487367368], [34.88033927523917, 31.988849631993567]]}}, {"type": "Feature", "properties": {"OBJECTID": 956, "Shape_Leng": 15.0000129361}, "geometry": {"type": "LineString", "coordinates": [[34.880262539421786, 31.988939080825652], [34.88041276539013, 31.98889542479757]]}}, {"type": "Feature", "properties": {"OBJECTID": 957, "Shape_Leng": 47.1089322737}, "geometry": {"type": "LineString", "coordinates": [[34.88041701147673, 31.98891745590548], [34.880416689196224, 31.988923349278462], [34.88041576500019, 31.98892919692635], [34.88041424539572, 31.988934953775562], [34.88041214429363, 31.9889405756731], [34.88040947559834, 31.98894602026963], [34.88040626061799, 31.988951246136512], [34.880402522773814, 31.988956212752292], [34.88039829182312, 31.988960883218855], [34.88039359963631, 31.98896522154537], [34.880388481248644, 31.988969194454466], [34.88038297591522, 31.988972772286743], [34.880377126059194, 31.98897592719453], [34.88037097514286, 31.98897863674363], [34.88036457086098, 31.988980878510652], [34.88035796194747, 31.988982635485737], [34.88035119923661, 31.988983895173348], [34.8803443324951, 31.988984647780708], [34.88033741464814, 31.988984888032103], [34.880330498614626, 31.98898461245546], [34.88032363728804, 31.98898382479306], [34.88031688355557, 31.988982530590807], [34.880310286056016, 31.98898073989275], [34.880303898709286, 31.98897846546193], [34.88029776695442, 31.988975724548684], [34.88029193938583, 31.98897253982227], [34.88028645930726, 31.988968933938438], [34.8802813689453, 31.98896493496104], [34.8802767073458, 31.988960572749388], [34.8802725093094, 31.988955880759185], [34.880268806452946, 31.988950895143443], [34.8802656282737, 31.98894565295148], [34.88026299790756, 31.988940194823716], [34.88026093531293, 31.988934562294126], [34.88025945727057, 31.988928797790404], [34.88025857420621, 31.9889229455277], [34.88025829336802, 31.988917050614692], [34.880258615661816, 31.988911156340404], [34.88025953986761, 31.988905308693674], [34.8802610584231, 31.988899551843645], [34.88026316059154, 31.98889392995134], [34.880265829293926, 31.988888485357872], [34.88026904427681, 31.98888326039635], [34.88027278212831, 31.988878292882674], [34.88027701307833, 31.98887362332205], [34.88028170526588, 31.988869284999755], [34.880286823655716, 31.988865311193113], [34.880292328986364, 31.98886173336494], [34.88029817883797, 31.988858578460967], [34.880304329745194, 31.98885586981713], [34.88031073296168, 31.98885362805031], [34.8803173429281, 31.988851870178546], [34.88032410562971, 31.988850610492644], [34.88033097236137, 31.988849857886297], [34.88033789019502, 31.98884961853697], [34.88034480622162, 31.988849893211352], [34.88035166753842, 31.988850680872563], [34.88035842126176, 31.988851975072926], [34.88036501769178, 31.988853766667535], [34.88037140608957, 31.988856041098003], [34.88037753784188, 31.988858781105904], [34.88038336540631, 31.988861965828423], [34.8803888454824, 31.988865571708118], [34.88039393584045, 31.98886957158305], [34.88039859744099, 31.988873933790465], [34.880402795483285, 31.988878624874765], [34.88040649834101, 31.98888361138849], [34.880409676529354, 31.98888885267519], [34.88041230690274, 31.988894310800035], [34.88041436844767, 31.988899943324565], [34.88041584755741, 31.988905707829268], [34.880416730631595, 31.988911560090965], [34.88041701147673, 31.98891745590548]]}}, {"type": "Feature", "properties": {"OBJECTID": 958, "Shape_Leng": 9.51859867268}, "geometry": {"type": "LineString", "coordinates": [[34.88075867432352, 31.98801240883284], [34.88085931973414, 31.988015661251524]]}}, {"type": "Feature", "properties": {"OBJECTID": 959, "Shape_Leng": 9.51857191246}, "geometry": {"type": "LineString", "coordinates": [[34.88079357868897, 31.98797317734374], [34.88082441537709, 31.988054893660305]]}}, {"type": "Feature", "properties": {"OBJECTID": 960, "Shape_Leng": 29.8940766119}, "geometry": {"type": "LineString", "coordinates": [[34.880859355676584, 31.988014163445243], [34.88085915102975, 31.98801790361015], [34.880858564503136, 31.988021614845568], [34.88085760149171, 31.98802526740564], [34.880856267377716, 31.988028835151773], [34.880854573898525, 31.98803229015791], [34.88085253384316, 31.98803560630429], [34.88085016211378, 31.9880387583784], [34.88084747784183, 31.988041722080194], [34.88084450015241, 31.988044474913334], [34.88084125133866, 31.988046996193145], [34.88083775792298, 31.988049266147495], [34.88083404641513, 31.988051268611436], [34.880830143324886, 31.98805298742008], [34.88082607938178, 31.98805441002652], [34.880821885309054, 31.98805552568734], [34.880817593943014, 31.988056324566468], [34.88081323598473, 31.98805680223311], [34.88080884636776, 31.98805695426734], [34.88080445789674, 31.988056779850975], [34.880800104428104, 31.98805627997212], [34.880795817689354, 31.988055459220764], [34.88079163152431, 31.988054322192202], [34.880787578699604, 31.98805287888987], [34.880783687746266, 31.988051140208153], [34.88077998930522, 31.988049118850512], [34.8807765118885, 31.988046831122134], [34.88077328189186, 31.988044293322833], [34.880770323582254, 31.988041525354248], [34.88076765910714, 31.988038548014373], [34.88076530954962, 31.988035383902062], [34.88076329281203, 31.98803205741181], [34.88076162361928, 31.98802859383163], [34.880760315634916, 31.988025019348786], [34.88075937722566, 31.98802136194054], [34.88075881676454, 31.988017647780598], [34.880758638379454, 31.988013906639065], [34.88075884303035, 31.988010166474353], [34.88075942955772, 31.988006456141207], [34.88076039363411, 31.988002802682793], [34.880761726690146, 31.98799923583679], [34.88076342017219, 31.98799578083189], [34.880765460229874, 31.987992464686926], [34.88076783196091, 31.987989312614417], [34.88077051729198, 31.98798634891696], [34.880773494981696, 31.98798359608552], [34.88077674273691, 31.98798107480474], [34.88078023615149, 31.987978804852055], [34.88078394871566, 31.987976802392332], [34.88078785180354, 31.987975083585063], [34.880791914685595, 31.98797366097712], [34.88079610875493, 31.987972545317255], [34.880800401178526, 31.98797174553973], [34.880804758071555, 31.98797126877257], [34.88080914768762, 31.98797111583668], [34.880813536151436, 31.98797129115464], [34.88081789067741, 31.98797179013391], [34.88082217635118, 31.987972611783615], [34.8808263625129, 31.98797374881114], [34.88083041639289, 31.98797519211496], [34.880834307343925, 31.987976930795217], [34.88083800472518, 31.987978952148623], [34.880841482140916, 31.987981239875324], [34.88084471319535, 31.987983777675588], [34.880847671505364, 31.98798654564248], [34.880850334923466, 31.98798952297803], [34.880852684482775, 31.98799268708877], [34.88085470122276, 31.987996013577675], [34.880856370418435, 31.987999477156656], [34.88085767946746, 31.98800305073947], [34.88085861681917, 31.988006709046086], [34.88085917728742, 31.988010422303823], [34.880859355676584, 31.988014163445243]]}}, {"type": "Feature", "properties": {"OBJECTID": 976, "Shape_Leng": 9.9999632044}, "geometry": {"type": "LineString", "coordinates": [[34.86204147637982, 32.00114896219393], [34.86201054933751, 32.0010627196514]]}}, {"type": "Feature", "properties": {"OBJECTID": 977, "Shape_Leng": 10.0000607688}, "geometry": {"type": "LineString", "coordinates": [[34.86198375003958, 32.00113297257591], [34.86206827563527, 32.001078710158936]]}}, {"type": "Feature", "properties": {"OBJECTID": 978, "Shape_Leng": 31.4059650349}, "geometry": {"type": "LineString", "coordinates": [[34.862078925256206, 32.00110598414163], [34.86207870958544, 32.001109913614016], [34.86207809294848, 32.00111381134331], [34.86207707968217, 32.00111764938534], [34.862075677308205, 32.00112139709913], [34.862073897571285, 32.001125026560516], [34.8620717532743, 32.00112850984811], [34.86206926038832, 32.00113182085269], [34.862066439117385, 32.00113493347654], [34.86206330965216, 32.00113782522905], [34.8620598964164, 32.00114047363101], [34.862056224885364, 32.00114285800971], [34.862052323695735, 32.00114496130816], [34.86204822254247, 32.00114676647218], [34.86204395216537, 32.00114826005767], [34.86203954541071, 32.00114943133163], [34.86203503617969, 32.001150270465715], [34.862030457298495, 32.00115077213764], [34.862025844768105, 32.00115093103375], [34.86202123456937, 32.00115074725112], [34.862016659508406, 32.001150220878294], [34.86201215554594, 32.00114935742314], [34.86200775758446, 32.00114816239064], [34.86200349945147, 32.00114664579189], [34.861999410738, 32.00114481852843], [34.86199552631643, 32.00114269422142], [34.86199187257953, 32.00114029007633], [34.861988479094904, 32.0011376233072], [34.8619853711837, 32.00113471472386], [34.861982573102075, 32.00113158693683], [34.861980104873155, 32.00112826254525], [34.86197798650665, 32.00112476775538], [34.8619762337792, 32.00112112876208], [34.86197485928603, 32.001117373555246], [34.861973874563986, 32.0011135301219], [34.86197328690689, 32.00110962914299], [34.8619730993856, 32.00110569858267], [34.86197331611913, 32.00110176911335], [34.8619739327638, 32.001097870482795], [34.861974946030806, 32.0010940333434], [34.86197634840841, 32.00109028563072], [34.8619781281485, 32.001086656170735], [34.861980272448, 32.00108317288474], [34.861982765335846, 32.001079861881855], [34.86198558661124, 32.00107674835805], [34.861988716076766, 32.00107385660744], [34.86199212930874, 32.001071209109156], [34.86199580084189, 32.00106882383046], [34.861999700967935, 32.0010667214327], [34.862003803180166, 32.001064915371245], [34.86200807249577, 32.0010634217842], [34.862012479243354, 32.00106225141307], [34.86201698953186, 32.00106141138082], [34.862021568405304, 32.00106091061112], [34.86202617987295, 32.00106075171229], [34.86203079112545, 32.001060935497556], [34.86203536618543, 32.00106146096805], [34.86203986908223, 32.00106232532131], [34.86204426704339, 32.00106351945091], [34.86204852623149, 32.00106503605114], [34.862052613880806, 32.00106686421194], [34.86205649936216, 32.00106898761828], [34.8620601530946, 32.001071392663356], [34.862063546582235, 32.00107405852878], [34.862066654493916, 32.00107696711026], [34.86206945257342, 32.00108009579725], [34.862071920804304, 32.001083420187136], [34.86207403917344, 32.00108691497549], [34.86207579190412, 32.00109055396747], [34.86207716640105, 32.00109430917324], [34.86207815113056, 32.001098151704035], [34.86207873878869, 32.00110205358431], [34.862078925256206, 32.00110598414163]]}}, {"type": "Feature", "properties": {"OBJECTID": 979, "Shape_Leng": 9.99997548116}, "geometry": {"type": "LineString", "coordinates": [[34.86236533285667, 32.00041989068384], [34.86234933375596, 32.00033074767621]]}}, {"type": "Feature", "properties": {"OBJECTID": 980, "Shape_Leng": 9.99996080968}, "geometry": {"type": "LineString", "coordinates": [[34.86231091961184, 32.00039696897271], [34.86240374802979, 32.000353669373744]]}}, {"type": "Feature", "properties": {"OBJECTID": 981, "Shape_Leng": 31.4059700878}, "geometry": {"type": "LineString", "coordinates": [[34.86241024634946, 32.000375461809206], [34.86241002963655, 32.000379391279864], [34.86240941301544, 32.000383289913124], [34.86240839977459, 32.000387127056605], [34.862406997425474, 32.00039087477469], [34.862405217715946, 32.000394504241314], [34.8624030734487, 32.000397987535095], [34.86240058059459, 32.00040129854682], [34.862397759354025, 32.00040441208042], [34.86239462992751, 32.000407302939855], [34.86239121672845, 32.0004099513513], [34.862387546290094, 32.000412336644764], [34.86238364514237, 32.0004144390521], [34.86237954402481, 32.00041624512911], [34.86237527368694, 32.00041773872621], [34.86237086697478, 32.0004189091103], [34.86236635672087, 32.00041974915547], [34.86236177788107, 32.00042024993789], [34.86235716644596, 32.00042040884916], [34.862352555224746, 32.00042022507596], [34.862347980194656, 32.00041969961707], [34.86234347732621, 32.000418835274836], [34.86233907939177, 32.0004176411557], [34.8623348202286, 32.000416124565234], [34.86233073260235, 32.000414296413474], [34.862326847142064, 32.00041217301546], [34.86232319342858, 32.00040976797797], [34.86231979996097, 32.000407101217526], [34.86231669206031, 32.00040419354386], [34.86231389399267, 32.00040106486208], [34.86231142577104, 32.000397740476586], [34.86230930740846, 32.00039424569188], [34.86230755468151, 32.00039060670276], [34.862306180185385, 32.00038685149905], [34.86230519545367, 32.00038300896958], [34.86230460779026, 32.00037910708991], [34.862304421314256, 32.000375176532394], [34.86230463697339, 32.00037124705909], [34.862305253595515, 32.00036734932813], [34.86230626684378, 32.0003635112837], [34.86230766919653, 32.000359763566784], [34.86230944890923, 32.00035613410151], [34.862311593179, 32.0003526508093], [34.86231408603498, 32.000349339799335], [34.86231690727328, 32.000346227169366], [34.86232003670347, 32.00034333540999], [34.86232344990207, 32.00034068700044], [34.86232712139409, 32.00033830261342], [34.862331022543195, 32.00033619930601], [34.86233512365477, 32.00033439413232], [34.8623393939894, 32.00033290053654], [34.86234380070118, 32.00033172925171], [34.862348309889384, 32.000330890106234], [34.862352888728154, 32.000330388422476], [34.862357501217, 32.00033022951416], [34.86236211137548, 32.00033041328432], [34.86236668639788, 32.00033093964446], [34.86237119032386, 32.00033180308692], [34.8623755882513, 32.00033299810676], [34.86237984741132, 32.00033451469582], [34.86238393503837, 32.00033634194419], [34.86238782049346, 32.00033846624228], [34.86239147315095, 32.00034087037327], [34.86239486661823, 32.00034353713184], [34.862397974516, 32.00034644570542], [34.86240077258822, 32.000349573483604], [34.86240324081179, 32.00035289786736], [34.862405359177046, 32.00035639265055], [34.862407111907224, 32.00036003163837], [34.862408486407084, 32.000363786841035], [34.862409471139586, 32.000367630271526], [34.8624100588107, 32.00037153124896], [34.86241024634946, 32.000375461809206]]}}, {"type": "Feature", "properties": {"OBJECTID": 982, "Shape_Leng": 9.99992827213}, "geometry": {"type": "LineString", "coordinates": [[34.86159113013924, 32.00609922384228], [34.86169304429699, 32.00607491606778]]}}, {"type": "Feature", "properties": {"OBJECTID": 983, "Shape_Leng": 9.99994046193}, "geometry": {"type": "LineString", "coordinates": [[34.86161125483776, 32.006050424923906], [34.86167291857788, 32.00612371499636]]}}, {"type": "Feature", "properties": {"OBJECTID": 984, "Shape_Leng": 31.4059601225}, "geometry": {"type": "LineString", "coordinates": [[34.86169500301924, 32.006087212913734], [34.86169478731839, 32.006091142382175], [34.86169416956817, 32.00609504100509], [34.86169315623246, 32.0060988781388], [34.861691753765164, 32.00610262584477], [34.86168997391504, 32.00610625529713], [34.861687829485845, 32.00610973857457], [34.861685336449625, 32.00611304956799], [34.86168251500827, 32.006116163081515], [34.86167938536372, 32.00611905391921], [34.86167597193108, 32.006121702307425], [34.86167230124539, 32.00612408757633], [34.86166839983844, 32.00612618995799], [34.86166429845172, 32.00612799600837], [34.86166002783682, 32.006129489578136], [34.861655620841866, 32.00613065993438], [34.86165111030154, 32.00613149995133], [34.8616465322322, 32.00613200070834], [34.861641919451785, 32.00613215958864], [34.86163730794644, 32.00613197578762], [34.86163273263731, 32.00613145030144], [34.86162822949716, 32.00613058593271], [34.861623831300236, 32.006129391788015], [34.861619571885896, 32.006127875173156], [34.86161548402171, 32.00612604699835], [34.86161159833847, 32.00612392357876], [34.86160794441873, 32.00612151852141], [34.861604550763204, 32.006118851742904], [34.861601443752626, 32.00611594405599], [34.861598644479464, 32.00611281535733], [34.861596177191046, 32.00610949096292], [34.86159405766813, 32.006105996165836], [34.86159230486303, 32.00610235716953], [34.86159093137144, 32.00609860196395], [34.861589945552545, 32.00609475942928], [34.86158935788532, 32.00609085754976], [34.86158917143063, 32.006086926994875], [34.86158938713598, 32.00608299752663], [34.86159000382887, 32.006079099803145], [34.8615910182303, 32.006075261771365], [34.86159241964295, 32.00607151406364], [34.861594199496224, 32.00606788461267], [34.86159634498626, 32.00606440133968], [34.861598836966024, 32.006061090345106], [34.86160165946345, 32.0060579777381], [34.86160478805336, 32.00605508599762], [34.86160820148555, 32.00605243761132], [34.861611873224945, 32.00605005324885], [34.86161577463329, 32.00604794996711], [34.86161987601403, 32.00604614482005], [34.86162414662905, 32.00604465034981], [34.861628553620264, 32.006043479994624], [34.86163306309478, 32.00604264087736], [34.86163764222142, 32.006042139221854], [34.86164225499733, 32.00604198034169], [34.86164686649819, 32.00604216414251], [34.861651440741305, 32.006042690527075], [34.86165594493907, 32.00604355399603], [34.861660343132314, 32.00604474813962], [34.861664602540166, 32.006046265654895], [34.861668690405175, 32.00604809292632], [34.8616725760832, 32.006050217245956], [34.86167622894686, 32.00605262139684], [34.86167962260209, 32.00605528817345], [34.86168273066809, 32.006058196763114], [34.86168552888749, 32.00606132455529], [34.8616879972362, 32.00606464895088], [34.86169011570346, 32.00606814374359], [34.861691868511805, 32.00607178273856], [34.86169324306541, 32.00607553794599], [34.86169422782678, 32.0060793813788], [34.861694816560046, 32.006083282358944], [34.86169500301924, 32.006087212913734]]}}, {"type": "Feature", "properties": {"OBJECTID": 988, "Shape_Leng": 30.7959903159}, "geometry": {"type": "LineString", "coordinates": [[34.86227768522489, 32.004257622186955], [34.86259448229909, 32.00419239471601]]}}, {"type": "Feature", "properties": {"OBJECTID": 989, "Shape_Leng": 30.7959828733}, "geometry": {"type": "LineString", "coordinates": [[34.86234594304799, 32.00410932816419], [34.862526224815326, 32.00434068797109]]}}, {"type": "Feature", "properties": {"OBJECTID": 990, "Shape_Leng": 96.7178321097}, "geometry": {"type": "LineString", "coordinates": [[34.86259903949118, 32.00422544720905], [34.86259837442919, 32.00423754759801], [34.86259647467485, 32.00424955357871], [34.86259335433343, 32.00426137140159], [34.86258903595661, 32.00427291275084], [34.86258355479231, 32.00428409024648], [34.86257695031831, 32.00429481742172], [34.86256927363362, 32.004305013251965], [34.86256058428704, 32.00431460124425], [34.862550947112226, 32.00432350672353], [34.862540435382506, 32.00433166225186], [34.86252912975928, 32.0043390058221], [34.86251711511052, 32.004345482652774], [34.86250448475386, 32.00435104249426], [34.8624913340969, 32.004355642317], [34.8624777616887, 32.00435924811797], [34.86246387345967, 32.004361833128485], [34.862449773203586, 32.004363375984916], [34.86243556784908, 32.00436386615382], [34.86242136747609, 32.00436329942279], [34.862407278956304, 32.004361680588985], [34.86239340913796, 32.00435902076205], [34.86237986482903, 32.00435534187326], [34.862366748584186, 32.0043506712532], [34.862354158698096, 32.004345043435556], [34.86234219343186, 32.004338501971766], [34.86233094255326, 32.004331097605025], [34.8623204915802, 32.00432288557598], [34.86231092071208, 32.00431392832536], [34.862302301661856, 32.00430429368191], [34.86229470188234, 32.0042940566772], [34.862288177178336, 32.00428329411509], [34.86228277804633, 32.00427208729406], [34.86227854649628, 32.00426052290047], [34.86227551395179, 32.004248688493995], [34.8622737023084, 32.00423667251029], [34.862273127091775, 32.00422456877868], [34.862273792196355, 32.004212468391685], [34.86227569304685, 32.0042004633207], [34.86227881343015, 32.00418864460396], [34.86228313078338, 32.00417710326253], [34.86228861303584, 32.00416592578275], [34.8622952175339, 32.004155198622435], [34.86230289317782, 32.00414500280583], [34.8623115835898, 32.00413541573567], [34.86232122076774, 32.00412651027433], [34.86233173249314, 32.004118354763854], [34.86234303810801, 32.0041110103091], [34.86235505167982, 32.00410453349169], [34.86236768306636, 32.00409897456935], [34.86238083369594, 32.00409437385721], [34.862394405010434, 32.004090768063335], [34.862408294258685, 32.004088183062905], [34.86242239447323, 32.00408664021074], [34.862436598726774, 32.00408615004018], [34.86245080011545, 32.004086716772065], [34.862464888594026, 32.004088335600805], [34.86247875731555, 32.004090995416924], [34.862492302648064, 32.004094674297924], [34.862505418859705, 32.00409934580676], [34.8625180076668, 32.00410497270483], [34.86252997397382, 32.004111514154985], [34.8625412248386, 32.00411891940606], [34.862551675808525, 32.00412713141717], [34.86256124668099, 32.004136088649894], [34.86256986468796, 32.00414572237146], [34.862577465544426, 32.0041559593629], [34.8625839902735, 32.00416672191051], [34.86258938837792, 32.004177928716295], [34.86259362102169, 32.00418949310274], [34.86259665360189, 32.00420132840381], [34.86259846423186, 32.004213343478604], [34.86259903949118, 32.00422544720905]]}}]}