{"type": "FeatureCollection", "name": "תוכניות בינוי", "features": [{"type": "Feature", "properties": {"OBJECTID": 7, "ישוב": "יגל", "קישור": "K:\\Users\\ועדה\\תכניות בינוי\\יגל\\בינוי.391.63", "שם_קו_": "HPSCANNER2838", "תאריך": null, "שטח_ה_": 28766, "שם": "בינוי/391/63", "status": "לא ידוע", "Shape_Length": 1042.4880826952601, "Shape_Area": 28767.72491341418}, "geometry": {"type": "Polygon", "coordinates": [[[34.88216633847075, 31.98668200656407], [34.882174553699095, 31.986668657259067], [34.88216633905438, 31.986649146588988], [34.8817607230133, 31.986354433300736], [34.88125139225144, 31.985976542704698], [34.88116513504079, 31.985943683109163], [34.88112611303647, 31.985960112906884], [34.88160874472294, 31.986313358302088], [34.88115075806143, 31.986720000644063], [34.88112816693603, 31.986703570830056], [34.881103521834405, 31.986685086878488], [34.881033694551796, 31.986633743264587], [34.881013156658064, 31.986654280948105], [34.880688664216855, 31.98641604537737], [34.87924076927166, 31.98789269389038], [34.87920174762814, 31.98794198395514], [34.879195585864494, 31.987964574610213], [34.879191478390034, 31.98799332715082], [34.87921406988222, 31.988028240699418], [34.88033131085139, 31.988837419376306], [34.88057981533488, 31.98858480797827], [34.88034979540895, 31.988420508102877], [34.88054695536253, 31.988200756362577], [34.88042783711871, 31.988118606327728], [34.881171295541506, 31.987360771928135], [34.88195993636465, 31.986543378091085], [34.88216633847075, 31.98668200656407]]]}}, {"type": "Feature", "properties": {"OBJECTID": 15, "ישוב": "יגל", "קישור": "K:\\Users\\ועדה\\תכניות בינוי\\יגל\\גז.391.7", "שם_קו_": "HPSCANNER2860", "תאריך": null, "שטח_ה_": 55681, "שם": "גז/391/7", "status": "לא ידוע", "Shape_Length": 957.8348303891253, "Shape_Area": 55683.62590983451}, "geometry": {"type": "Polygon", "coordinates": [[[34.88264178268126, 31.98701163404087], [34.88122880064465, 31.985964220628915], [34.88117540322071, 31.985947789929174], [34.881130220328565, 31.985968327992772], [34.879220231184945, 31.987919392407292], [34.87919969421695, 31.98796046749673], [34.879191478712244, 31.987997434872778], [34.879228445985405, 31.98803440259366], [34.880604460349645, 31.989048955841305], [34.8806783951924, 31.98904895598209], [34.88074000762353, 31.988999666273454], [34.88264999769348, 31.987065031811838], [34.88266231988693, 31.987023956067528], [34.88264178268126, 31.98701163404087]]]}}]}