{"type": "FeatureCollection", "name": "ישובים", "features": [{"type": "Feature", "properties": {"OBJECTID": 1, "Muni_Heb": "שדות דן", "Sug_Muni": "מועצה אזורית", "Vaad_Heb": "אחיעזר", "Machoz": "מרכז", "Nafa1": "רמלה", "Shape_Length": 7669.3866606488755, "Shape_Area": 2532259.6528670667}, "geometry": {"type": "Polygon", "coordinates": [[[34.88257724509157, 31.971315105921317], [34.88250158255291, 31.97129660835795], [34.88231004438651, 31.971110658637937], [34.882252502786855, 31.971107917228082], [34.882110139698426, 31.97109947027365], [34.881988292371574, 31.971090292497383], [34.88191730599191, 31.97108411517143], [34.88186664807941, 31.9710793313453], [34.88177557025276, 31.971069941155594], [34.88159708621235, 31.9710485835333], [34.88139718776415, 31.97101996753844], [34.881226667189885, 31.970991584739153], [34.88107111050361, 31.970962455252195], [34.88087430389714, 31.970921103772522], [34.880776438007715, 31.970898641004574], [34.88074854692284, 31.970892004742026], [34.88051386436401, 31.97083572861809], [34.88037750818002, 31.970799735817], [34.88024338896363, 31.970762421121385], [34.880170493974944, 31.970741334678625], [34.87997373019672, 31.970681438952514], [34.87981957246189, 31.970631418437662], [34.879697034478475, 31.97058967784811], [34.8795853454412, 31.97055007693231], [34.87948703108933, 31.970513973090718], [34.87940328162898, 31.970482245957974], [34.87907230727285, 31.970347937937458], [34.87896735159297, 31.970302279159885], [34.87889778697184, 31.970271172427427], [34.87882803044845, 31.970239298628538], [34.878704689949075, 31.970181228704508], [34.87858357105137, 31.970122010049216], [34.87844340316509, 31.9700509142642], [34.87813882636453, 31.970366561609858], [34.87809153927439, 31.97035049792233], [34.87805967240137, 31.97033503117519], [34.87803011829719, 31.9703165312755], [34.87802003560866, 31.97030956504474], [34.87729985702664, 31.969972958778015], [34.87663377362776, 31.969625904496432], [34.876899384324894, 31.969359063429128], [34.87672453916133, 31.969221687987414], [34.87657744846551, 31.96938149282031], [34.87585606413917, 31.970123618937976], [34.875438133756866, 31.97055414155149], [34.87520869243731, 31.97078531121509], [34.875003764928444, 31.971024570143637], [34.87487900422094, 31.971181431324023], [34.87474138675954, 31.97132419080051], [34.87415950971668, 31.971890275707274], [34.87366158331917, 31.9723502535977], [34.87335488638603, 31.972674555501964], [34.87325965336407, 31.972768004835256], [34.87321829921453, 31.972735341729482], [34.872837324318986, 31.973120500856428], [34.87259276621156, 31.973374171325688], [34.87244095380859, 31.973520137629976], [34.871191257460396, 31.97479102577888], [34.87105361031178, 31.97493892134847], [34.86911157220839, 31.976896858145945], [34.86898633403742, 31.977034593767453], [34.867679249103226, 31.978349483055794], [34.86700556462826, 31.979057324975795], [34.86668521465413, 31.979399249326868], [34.86632294577416, 31.97977514944123], [34.865660623555904, 31.980466060299353], [34.8649607353138, 31.981155784958784], [34.864280613246706, 31.981847903302327], [34.863179841850155, 31.98295696444365], [34.86291815927408, 31.98322057965163], [34.86156008039567, 31.98460082788206], [34.86083310031547, 31.985303532043357], [34.860768346593005, 31.98539460311137], [34.86019415001988, 31.985977636402207], [34.85978624844321, 31.986391865312232], [34.860051185591374, 31.98660334784548], [34.86100555997545, 31.987265874074428], [34.86112859851603, 31.98734504265256], [34.86148595156993, 31.987593283430144], [34.8640056310362, 31.989343344209505], [34.86406104103055, 31.989381819490944], [34.864089326515405, 31.989401464491035], [34.86421086774582, 31.989500772363566], [34.86444093549503, 31.989665066307285], [34.86611963844735, 31.990796688170708], [34.86681456812795, 31.9912796048855], [34.86697731390699, 31.991361762006736], [34.8671560056547, 31.991457016591923], [34.86731292627644, 31.991544998666523], [34.8674414291054, 31.991620279839736], [34.8675882077252, 31.991715521218577], [34.86774889177886, 31.991816318356825], [34.86789424809949, 31.991912926350007], [34.868028085647076, 31.99200544552748], [34.868057534452724, 31.99202572398809], [34.868090357193466, 31.992049348057435], [34.86853062386016, 31.992407796645853], [34.868374188514224, 31.99257038886133], [34.86814689895619, 31.992808996592558], [34.86791645684933, 31.993045079639504], [34.86778489924586, 31.99318980116776], [34.86748058932483, 31.993505895447957], [34.86735062987529, 31.993657179863092], [34.8671077906773, 31.993988753771863], [34.86703125619986, 31.99409258107232], [34.86693454476764, 31.994243091765455], [34.86681967170071, 31.99437643271431], [34.86808830288026, 31.99315511229627], [34.86902142298079, 31.992262862380016], [34.869101357785674, 31.99217503465111], [34.86950650851162, 31.99172673038787], [34.86958871345978, 31.991643259898037], [34.86967452906841, 31.99155619166132], [34.869700337404836, 31.991530017238244], [34.870903969415345, 31.99030853614725], [34.87117617077643, 31.99003230711574], [34.87144837082943, 31.989755987297688], [34.871605760590214, 31.989597141495437], [34.87165960525623, 31.98954254316408], [34.87172099087126, 31.989480118880113], [34.871993187330524, 31.989203888026882], [34.87226538215605, 31.98892765656672], [34.87253757534787, 31.988651424499732], [34.87280976690601, 31.988375191825824], [34.87308195683045, 31.9880989585451], [34.87335414512126, 31.987822724657505], [34.87362592413975, 31.98754744862086], [34.873898423676536, 31.98727143888906], [34.87417060179285, 31.98699519956044], [34.874442777220764, 31.986718958720537], [34.87471495207002, 31.986442718178512], [34.874987130563376, 31.986166480650702], [34.87525920161475, 31.985890242241748], [34.87556546480033, 31.985579462514387], [34.875905288116925, 31.98523314759178], [34.87653129025399, 31.984597821349563], [34.876599672730265, 31.984529731332184], [34.87673570378241, 31.984391565317257], [34.876977287059084, 31.98414644685354], [34.877051938988764, 31.98407061723321], [34.87714389997537, 31.98397715681582], [34.8777893170993, 31.983322214873745], [34.87805170794267, 31.98305586523512], [34.87919427450202, 31.981896009816527], [34.87923600526329, 31.9818536416857], [34.87958014945034, 31.981504351718357], [34.87972483721408, 31.981339060197108], [34.8798262799409, 31.981195481625395], [34.87998239512924, 31.980909467218275], [34.88004817748634, 31.98073684933547], [34.88006051449733, 31.980688634246786], [34.880071349959074, 31.98064618687737], [34.88009774086247, 31.980542907354188], [34.88013179232432, 31.980337202241056], [34.88015153773626, 31.980167983707567], [34.88025601175268, 31.979071203501352], [34.880297270511655, 31.97862076650311], [34.88031641148204, 31.978442708651322], [34.880356950917886, 31.97822691973986], [34.88038742324741, 31.978136095458858], [34.88045007825609, 31.977949401120217], [34.88078757802413, 31.977136381785698], [34.880862741812045, 31.976958086763027], [34.880997132306916, 31.976422144051163], [34.88114130386847, 31.975737048104666], [34.88133806844521, 31.974247165540774], [34.880930147177224, 31.973952736443582], [34.88060299522099, 31.973719696303213], [34.88075455580576, 31.973492006636544], [34.880896352393975, 31.97339271841025], [34.881119978625875, 31.97321869828317], [34.881260466285966, 31.973160618889217], [34.881418005232554, 31.973127472597284], [34.88167149528473, 31.973065441717836], [34.88186227716384, 31.97302552564931], [34.882032111181736, 31.972955435742296], [34.882096572703865, 31.9729251912654], [34.88213444247546, 31.97285196934925], [34.882412747660304, 31.971841949917984], [34.882564369333146, 31.97134229130292], [34.88257724509157, 31.971315105921317]]]}}, {"type": "Feature", "properties": {"OBJECTID": 5, "Muni_Heb": "שדות דן", "Sug_Muni": "מועצה אזורית", "Vaad_Heb": "יגל", "Machoz": "מרכז", "Nafa1": "רמלה", "Shape_Length": 6439.030612994168, "Shape_Area": 1942561.7858509696}, "geometry": {"type": "Polygon", "coordinates": [[[34.870903969415345, 31.99030853614725], [34.871620896432304, 31.990826881389108], [34.87267028862534, 31.991584889804773], [34.87342903199035, 31.992133003465405], [34.87274516549404, 31.99282663239371], [34.872445494048115, 31.993096500913417], [34.87226686308055, 31.993264451678968], [34.87164405626624, 31.99380829492161], [34.87479114651511, 31.99594523947651], [34.875398903377615, 31.9959655953565], [34.87541052108888, 31.99596658363025], [34.875837304151275, 31.995905374791757], [34.87582742759954, 31.995900109739317], [34.87593864283656, 31.995897588550466], [34.876765894490255, 31.995842800840897], [34.87759127983189, 31.995707967852628], [34.87838067674224, 31.995509910764877], [34.8791440053118, 31.995248092038032], [34.87984999187939, 31.9949286320482], [34.880526446877894, 31.9945425846847], [34.88115082448369, 31.994106238171444], [34.881279000121424, 31.994001729894535], [34.88172921803001, 31.993626372290706], [34.8822460824844, 31.99310070538476], [34.883506574751536, 31.991916099357525], [34.883645675015174, 31.99188530041228], [34.88466822325901, 31.990769048370062], [34.88575457763414, 31.989668603942704], [34.88653949596519, 31.98903824928589], [34.88731232042152, 31.98824866830974], [34.887332276237224, 31.98823032134442], [34.88757174633557, 31.988009886968843], [34.887921509137676, 31.98780920620777], [34.888091023148824, 31.98774650245082], [34.88811825329401, 31.98773583180656], [34.88960159619382, 31.98705791284386], [34.89090951586015, 31.986601590032876], [34.89159875116593, 31.986354113230664], [34.89153820817024, 31.986056044948683], [34.89151348046849, 31.985923532196324], [34.89151238519142, 31.985905493384305], [34.89151083230183, 31.985885112356726], [34.89156156193425, 31.985746584801063], [34.89156275858571, 31.98573475155205], [34.8915575676143, 31.985705430073907], [34.89154061664605, 31.98563380746753], [34.891528187140544, 31.985545287148796], [34.89148274615593, 31.98544090384144], [34.89144938904845, 31.98533204128529], [34.89144233720244, 31.985315115040237], [34.891445083806474, 31.98528524949997], [34.891449275977855, 31.985267787352146], [34.89143627923585, 31.98524915556183], [34.89142510027977, 31.98523052825282], [34.89142511795872, 31.985230519544174], [34.89132137361162, 31.985210918209518], [34.89125519992635, 31.985113655083932], [34.89122705610244, 31.98500839396797], [34.89122263566275, 31.984911283187262], [34.89126661252979, 31.984774725439745], [34.89129474198332, 31.984767467666817], [34.89131525748354, 31.98476300924827], [34.89133511742714, 31.984756858323635], [34.89135432181316, 31.984749014893115], [34.891372372490395, 31.98474004135696], [34.89139888365686, 31.984722634254723], [34.89143465869646, 31.98470355910519], [34.891481174832776, 31.98468620131425], [34.89149899921377, 31.984695263317274], [34.89151998882631, 31.984697005949023], [34.89153968177022, 31.984691418209092], [34.891555268652915, 31.98467792954446], [34.891590915772085, 31.984647581463065], [34.89162788651649, 31.984617236633376], [34.89161586212095, 31.98460424354212], [34.891615586397066, 31.984587897632817], [34.89163459507227, 31.984589071734973], [34.891671983629976, 31.9845818366949], [34.89173281704346, 31.98458367746132], [34.8918136467286, 31.984587821963675], [34.89187553833058, 31.9846189739561], [34.89195957520752, 31.98465243495115], [34.89204193843004, 31.984692091686394], [34.892077488019034, 31.984690488287217], [34.89212809677401, 31.98468497653081], [34.89215108661387, 31.984682214950674], [34.89223783037226, 31.984698774761984], [34.892257976000494, 31.984704459397072], [34.89227896668863, 31.98470620190599], [34.89229980758206, 31.984703435014122], [34.89231950133091, 31.98469728352638], [34.89234253123067, 31.984682685809002], [34.89239253780063, 31.98465969997904], [34.89241206838195, 31.984652984447084], [34.892432583804215, 31.984648525847387], [34.892453747170755, 31.984648014237305], [34.89247473785009, 31.984649756713786], [34.892495828603145, 31.984655431066876], [34.89190924889975, 31.983231299873538], [34.89190903502728, 31.983230429577343], [34.89183279194227, 31.98287429900477], [34.891713064560676, 31.98251779070577], [34.89171628653511, 31.98209809808023], [34.88681007360798, 31.982412279999583], [34.88566955454996, 31.982485262889885], [34.88558800847044, 31.98242729561397], [34.88456449416718, 31.98169971552367], [34.88447111238991, 31.97973543676853], [34.88025601175268, 31.979071203501352], [34.88015153773626, 31.980167983707567], [34.88013179232432, 31.980337202241056], [34.88009774086247, 31.980542907354188], [34.880071349959074, 31.98064618687737], [34.88006051449733, 31.980688634246786], [34.88004817748634, 31.98073684933547], [34.87998239512924, 31.980909467218275], [34.8798262799409, 31.981195481625395], [34.87972483721408, 31.981339060197108], [34.87958014945034, 31.981504351718357], [34.87923600526329, 31.9818536416857], [34.87919427450202, 31.981896009816527], [34.87805170794267, 31.98305586523512], [34.8777893170993, 31.983322214873745], [34.87714389997537, 31.98397715681582], [34.877051938988764, 31.98407061723321], [34.876977287059084, 31.98414644685354], [34.87673570378241, 31.984391565317257], [34.876599672730265, 31.984529731332184], [34.87653129025399, 31.984597821349563], [34.875905288116925, 31.98523314759178], [34.87556546480033, 31.985579462514387], [34.87525920161475, 31.985890242241748], [34.874987130563376, 31.986166480650702], [34.87471495207002, 31.986442718178512], [34.874442777220764, 31.986718958720537], [34.87417060179285, 31.98699519956044], [34.873898423676536, 31.98727143888906], [34.87362592413975, 31.98754744862086], [34.87335414512126, 31.987822724657505], [34.87308195683045, 31.9880989585451], [34.87280976690601, 31.988375191825824], [34.87253757534787, 31.988651424499732], [34.87226538215605, 31.98892765656672], [34.871993187330524, 31.989203888026882], [34.87172099087126, 31.989480118880113], [34.87165960525623, 31.98954254316408], [34.871605760590214, 31.989597141495437], [34.87144837082943, 31.989755987297688], [34.87117617077643, 31.99003230711574], [34.870903969415345, 31.99030853614725]]]}}, {"type": "Feature", "properties": {"OBJECTID": 6, "Muni_Heb": "שדות דן", "Sug_Muni": "מועצה אזורית", "Vaad_Heb": "כפר חבד", "Machoz": "מרכז", "Nafa1": "רמלה", "Shape_Length": 10490.987338784114, "Shape_Area": 2929331.7963247467}, "geometry": {"type": "Polygon", "coordinates": [[[34.86681967170071, 31.99437643271431], [34.86693454476764, 31.994243091765455], [34.86703125619986, 31.99409258107232], [34.8671077906773, 31.993988753771863], [34.86735062987529, 31.993657179863092], [34.86748058932483, 31.993505895447957], [34.86778489924586, 31.99318980116776], [34.86791645684933, 31.993045079639504], [34.86814689895619, 31.992808996592558], [34.868374188514224, 31.99257038886133], [34.86853062386016, 31.992407796645853], [34.868090357193466, 31.992049348057435], [34.868057534452724, 31.99202572398809], [34.868028085647076, 31.99200544552748], [34.86789424809949, 31.991912926350007], [34.86774889177886, 31.991816318356825], [34.8675882077252, 31.991715521218577], [34.8674414291054, 31.991620279839736], [34.86731292627644, 31.991544998666523], [34.8671560056547, 31.991457016591923], [34.86697731390699, 31.991361762006736], [34.86681456812795, 31.9912796048855], [34.86611963844735, 31.990796688170708], [34.86444093549503, 31.989665066307285], [34.86421086774582, 31.989500772363566], [34.864089326515405, 31.989401464491035], [34.86406104103055, 31.989381819490944], [34.8640056310362, 31.989343344209505], [34.86148595156993, 31.987593283430144], [34.86112859851603, 31.98734504265256], [34.86100555997545, 31.987265874074428], [34.860051185591374, 31.98660334784548], [34.85978624844321, 31.986391865312232], [34.85958008089749, 31.986246072174563], [34.85956765547291, 31.98625864956142], [34.859443253361825, 31.986386125914144], [34.859381847377726, 31.986231460368156], [34.859291703287084, 31.986042113515097], [34.85918978440374, 31.985828032805927], [34.85906866100295, 31.98551908512391], [34.858880912725134, 31.985053121990724], [34.85834001394023, 31.983736480152345], [34.85823772835111, 31.983489774923935], [34.8582247624632, 31.983458502067634], [34.85819723081713, 31.983404570945467], [34.858194549546646, 31.9833993186613], [34.85819390607232, 31.983398058172938], [34.85819324718762, 31.98339676749745], [34.85819256935558, 31.98339544061403], [34.85814387652948, 31.983384578541038], [34.85804312724394, 31.983362119247392], [34.85798868859739, 31.983348353425587], [34.857918283515446, 31.98333183858028], [34.85789238253978, 31.983326086500607], [34.8577353018395, 31.983286789772674], [34.857628643266345, 31.983260165708714], [34.857495233318986, 31.9832288692361], [34.857432279847316, 31.983228516790977], [34.85719675964349, 31.9832272414531], [34.85705873926641, 31.983240210514904], [34.85658593519378, 31.983284456838824], [34.85646960168802, 31.98329829631272], [34.856415928076906, 31.983306175223653], [34.855720684329015, 31.983387323313572], [34.8550435726109, 31.983464538738517], [34.85501529343328, 31.98346571800968], [34.85498971022115, 31.983466893874905], [34.85495671627894, 31.98346807818921], [34.854875245528554, 31.983471609866854], [34.85479967287989, 31.983473070963303], [34.85442250661023, 31.98345396474184], [34.85437138155021, 31.983451550305833], [34.85436707070126, 31.9834513472344], [34.85435106397359, 31.983450590662507], [34.85435016169062, 31.983456099100852], [34.85434988329938, 31.983457802743427], [34.854347393104185, 31.98347300029805], [34.85433879165437, 31.983531760168752], [34.85427270848379, 31.983694524755872], [34.85414815987159, 31.98369327332994], [34.85410365254855, 31.983692826104487], [34.853582118631586, 31.983687584382338], [34.85307085814375, 31.983682443833423], [34.852507977581176, 31.983676781879957], [34.852478571966955, 31.983676486023437], [34.852115435836765, 31.983672831868], [34.85201836261059, 31.983671854866397], [34.85165888181237, 31.983668236195022], [34.85129613944872, 31.98366458365918], [34.850662206445875, 31.98365819795315], [34.84990532364068, 31.983656003573216], [34.8494196619794, 31.983641119083785], [34.84909664162233, 31.98364241420543], [34.84812673858573, 31.98363262612421], [34.847834146612755, 31.983624778926465], [34.84774935876917, 31.98362658328072], [34.84774670622173, 31.983626575826843], [34.8476994424649, 31.98362845492718], [34.84769850966475, 31.983628620942945], [34.847447231580546, 31.983673350079012], [34.84731024723663, 31.983698327982335], [34.847139183100865, 31.9837294097141], [34.84703413159976, 31.98374771367131], [34.846255391557975, 31.98389262535186], [34.84585270740592, 31.983966450851376], [34.84570082955126, 31.983994766701706], [34.84551371301749, 31.98402974625959], [34.84552098331097, 31.984073166133708], [34.84558353244998, 31.984568207894608], [34.84528164088522, 31.98465527990937], [34.844643261947326, 31.984840032632516], [34.84477593889443, 31.985453635222104], [34.84443904212724, 31.985571041883496], [34.84314353588275, 31.986036249165945], [34.84301330802269, 31.986051803356617], [34.8428051966818, 31.985632544659328], [34.842780070764306, 31.98559760393068], [34.842553473726106, 31.985221167481225], [34.84234214111886, 31.984789827258965], [34.84228349659831, 31.984775108442935], [34.84198532535717, 31.984364322619797], [34.84166025276887, 31.983924865704907], [34.840006687114645, 31.984715306048557], [34.83976142145191, 31.98428795650831], [34.8389677020982, 31.98470948615893], [34.83771165530689, 31.985354644248197], [34.83765724555787, 31.985411762372497], [34.837168397984044, 31.9856604892348], [34.83689229579851, 31.98630089742519], [34.83753229464734, 31.985974978757216], [34.8376371814269, 31.986442270836836], [34.83812787907514, 31.986363789983788], [34.838277779318894, 31.98629014568053], [34.838666497507816, 31.986841837235783], [34.83872448940515, 31.98708558878556], [34.84039012240189, 31.986273382800555], [34.84063914671154, 31.98665230774682], [34.84098217923815, 31.986495290033698], [34.84098258676093, 31.98653873287501], [34.84101381971945, 31.98758748973747], [34.841962356933685, 31.987099772663566], [34.84177440106677, 31.9868251353158], [34.84212897526467, 31.98661801081395], [34.84232977122517, 31.98690520762516], [34.842432063774666, 31.98696632245237], [34.843300497490226, 31.988189813790623], [34.843338721510435, 31.98823858475271], [34.84323319889881, 31.99054121909937], [34.843300039794684, 31.99054503546048], [34.84333679538895, 31.990541305576016], [34.843446000975746, 31.990535213437692], [34.84396220784797, 31.990302118078485], [34.84416081636185, 31.990409034354332], [34.84429416345012, 31.990515854426672], [34.84436749789824, 31.990545489235654], [34.84442252969142, 31.99056941507564], [34.844470466915034, 31.990604920661916], [34.844496485777846, 31.990627125602547], [34.844529072124935, 31.990635896064965], [34.844615337705115, 31.990662721310002], [34.84472785763975, 31.990786749600744], [34.84470126972966, 31.99080757082026], [34.8446086357416, 31.99096136141702], [34.845013091976966, 31.991525053046463], [34.84500180135975, 31.99157391682313], [34.84499619965749, 31.991596662463003], [34.84499561480083, 31.991621821106815], [34.84502744561948, 31.99165674789781], [34.84508948083754, 31.991728526708595], [34.84515559786417, 31.99179287717039], [34.84518000898759, 31.991825627609195], [34.84521659949283, 31.991899128915176], [34.845243631763665, 31.99203044479203], [34.84523030045265, 31.992135945044538], [34.845246287345425, 31.992215204650286], [34.84522969336158, 31.99228630090712], [34.845225379053865, 31.992377848732612], [34.845177759518, 31.992429937340386], [34.84512323899565, 31.992561175655368], [34.84513075639659, 31.99260076804281], [34.84529707800081, 31.992645824529706], [34.845372555668845, 31.993082428859918], [34.845493346586274, 31.993657382965935], [34.84569228193907, 31.994604282631467], [34.84579977600925, 31.99511593008387], [34.845801779949916, 31.99511491671027], [34.845812261745564, 31.995148827047686], [34.84581570957028, 31.995157476057937], [34.845827761317445, 31.995183065390638], [34.8458423079641, 31.995207655360357], [34.845831962690426, 31.99521480447486], [34.845677558125125, 31.99537039792164], [34.845589253268436, 31.995503019815498], [34.84555222838809, 31.995559656519433], [34.845336401368016, 31.995876282000683], [34.84523326301323, 31.996056855573112], [34.844886799911855, 31.996592491836108], [34.84468364949483, 31.99687017616291], [34.84463557380197, 31.99692652570092], [34.84463467319274, 31.996927581304476], [34.84409424180737, 31.997741545885667], [34.844067211903614, 31.997782687538923], [34.84407198202811, 31.997933372025678], [34.84407871743524, 31.997933002432806], [34.844226379873334, 31.997933694332154], [34.84430060092647, 31.997936631684038], [34.844351147823886, 31.997938683809686], [34.84450094989338, 31.99795703258095], [34.84475097407279, 31.99778916802399], [34.84483922371559, 31.99773666271013], [34.84493433450031, 31.997661451360567], [34.84505596735536, 31.997569180812086], [34.84519126659868, 31.997476545915667], [34.84520135716441, 31.997490681144633], [34.8452147841578, 31.997524363083393], [34.84533101983004, 31.997815942005946], [34.84543508747061, 31.998076995593856], [34.84550470773925, 31.998251637110666], [34.84558604497766, 31.998481306993696], [34.84578649074481, 31.99868420679903], [34.846803183114446, 31.998423888481586], [34.847574621760906, 31.998226359549665], [34.84842729362045, 31.997410082099112], [34.849402077639915, 31.996476879557765], [34.85028769288887, 31.99562901896514], [34.85161019929922, 31.99442132815954], [34.85147197119711, 31.994351942964915], [34.851674063502514, 31.994170696417548], [34.852185890267634, 31.99371165974367], [34.85223049850457, 31.993731074145533], [34.85255856556323, 31.99387385479508], [34.852778651161266, 31.994026080734287], [34.85255440056749, 31.9942197649196], [34.852519370201094, 31.994273445785762], [34.85246206330948, 31.994361263252838], [34.85241251619496, 31.994572231557687], [34.85240053637807, 31.99475026068275], [34.85238279092129, 31.995013970200823], [34.85237454140294, 31.995136563080322], [34.85236992569236, 31.995205155203593], [34.8523558612217, 31.995414160673388], [34.852263220410215, 31.995536699479693], [34.85213765253103, 31.99570279127858], [34.852106920325696, 31.99574344142962], [34.85208639637363, 31.995770588879353], [34.85214937559912, 31.99585777508089], [34.8522309900244, 31.995970758899258], [34.85225487968814, 31.996003830753235], [34.85265576196708, 31.99575302805405], [34.85270170097212, 31.99572428721165], [34.852724901230204, 31.99570977240947], [34.852770543296636, 31.995681217288922], [34.85284128079678, 31.995636961603232], [34.85296704639639, 31.995558278340898], [34.85325328798479, 31.995352807047524], [34.85336253902249, 31.995274383534248], [34.85340467001726, 31.995244140642313], [34.85341863556035, 31.995234115748968], [34.853707428083766, 31.995026810814927], [34.853764196278526, 31.995107692152402], [34.853867014775716, 31.995292646641147], [34.85391190317842, 31.995373393639504], [34.854154219874715, 31.995809279594305], [34.8538985961584, 31.996016018942427], [34.8541805300915, 31.996409316722502], [34.85425082183589, 31.99637008452542], [34.85444709868796, 31.996260535397898], [34.854481201881, 31.996311513086255], [34.85449263263191, 31.99630527993834], [34.85487024801917, 31.99689305730803], [34.854925725960605, 31.99697598476374], [34.85493398089185, 31.99698832407565], [34.854952005000314, 31.997015266151823], [34.85499696537429, 31.997082471938313], [34.85510786020802, 31.997224151180998], [34.855108725929206, 31.997225257224308], [34.85548649719587, 31.99700659007763], [34.85553212602921, 31.996980178374514], [34.8555710323674, 31.996957657882053], [34.85771532583803, 31.995723862868243], [34.85803457649044, 31.995996531527066], [34.858056401545895, 31.996015171991484], [34.858211527706494, 31.99614766267823], [34.85822829056832, 31.996161979527006], [34.85829340549448, 31.996217592912107], [34.85854918682939, 31.996436049775934], [34.858565968550295, 31.996450382597583], [34.858825926097815, 31.9966724045751], [34.858826958521924, 31.996677358392805], [34.85882806348525, 31.99668266027023], [34.85883744945915, 31.996727696386554], [34.85884224675267, 31.996750714915144], [34.85892281073452, 31.99713727789719], [34.85892888953509, 31.997166445133313], [34.85895172438349, 31.99727601089476], [34.85895792838177, 31.997305778763437], [34.85896324472039, 31.99733128747063], [34.8593285853202, 31.99755538444368], [34.85935036392327, 31.9975687431953], [34.85971151894701, 31.997790270539795], [34.85974256475864, 31.99780931350057], [34.85979231902262, 31.997839831868298], [34.85984461721021, 31.997877865518387], [34.85986837724211, 31.997895144890123], [34.860239982148066, 31.998165391393254], [34.86044789037702, 31.99831658971649], [34.86062759249269, 31.99844727486838], [34.86092133124306, 31.998660889779224], [34.86112765561709, 31.99881093354948], [34.86117218956047, 31.998843319536277], [34.86120460953333, 31.998866895974004], [34.861504534721924, 31.9990850041541], [34.861529448187234, 31.99910088948224], [34.861641425018064, 31.999180663364456], [34.861844839662574, 31.999305210536747], [34.8619263364947, 31.999355593294425], [34.86160816225296, 31.99981014435448], [34.86167348926514, 31.999829799758782], [34.86172487498512, 31.99984771307238], [34.861886694685495, 31.999904124872376], [34.86208247236035, 31.999972378571258], [34.86227073583882, 32.000038014516434], [34.86227826087666, 32.00004064101576], [34.862474060334954, 32.00010888515208], [34.862669870668135, 32.00017712901603], [34.86286567067791, 32.00024538156852], [34.8630614710136, 32.00031362480216], [34.863257271708534, 32.00038184969906], [34.86345316773823, 32.00045012865861], [34.86347041624349, 32.00045616297403], [34.86387583271659, 32.00059746390826], [34.863860408954956, 32.00063027517486], [34.863842888162026, 32.000667557273914], [34.8638547535131, 32.00066976149839], [34.86391034770095, 32.00068008920631], [34.8639575943279, 32.00068886617053], [34.86396445245393, 32.00067266477241], [34.86401044936451, 32.00056400311252], [34.8640456143254, 32.000474885731116], [34.86407488082486, 32.00040383515486], [34.86419015529305, 32.000123547893494], [34.86435502154682, 31.99975845097229], [34.864481585613774, 31.999453379014824], [34.864656599588386, 31.999069220643655], [34.8647977775105, 31.99874891690156], [34.864937830965495, 31.998429564383603], [34.865111714074416, 31.998047311100873], [34.86551704597407, 31.997159838592427], [34.86587833494611, 31.996369596980987], [34.86628264057953, 31.995452532272257], [34.866529884527026, 31.99491299455502], [34.86663715619369, 31.99471476436229], [34.86681967170071, 31.99437643271431]]]}}, {"type": "Feature", "properties": {"OBJECTID": 9, "Muni_Heb": "שדות דן", "Sug_Muni": "מועצה אזורית", "Vaad_Heb": "צפריה", "Machoz": "מרכז", "Nafa1": "רמלה", "Shape_Length": 5985.897054673807, "Shape_Area": 1918549.0233452576}, "geometry": {"type": "Polygon", "coordinates": [[[34.8538985961584, 31.996016018942427], [34.85384128560564, 31.99593607024655], [34.85378259774494, 31.995854016052437], [34.853739001253544, 31.995885995497872], [34.85343779573365, 31.996106919642862], [34.85329533022365, 31.996211791138485], [34.85320884936887, 31.99627413240872], [34.85299684929016, 31.996430019954506], [34.852527065719634, 31.996774377190285], [34.851670647726536, 31.99739785297232], [34.85159957285173, 31.997470590443847], [34.851581432815195, 31.99741003808752], [34.8515106771863, 31.997155943385664], [34.85136692206497, 31.996396528878183], [34.85129810341217, 31.99646247558671], [34.85125624410414, 31.99650155143172], [34.85123538827748, 31.99651880348522], [34.85109828489201, 31.99662585805564], [34.85103020991397, 31.99667604588464], [34.850885641995355, 31.99676363026044], [34.85083374878963, 31.996792383933787], [34.850734716922915, 31.99684215528006], [34.8507109638299, 31.99685325969976], [34.85066629421626, 31.99687587412817], [34.85050986623515, 31.99701744567329], [34.85044993950498, 31.997033879805194], [34.850344182628234, 31.99705075597759], [34.85026075169484, 31.997071314208203], [34.85019698555781, 31.99708887467733], [34.85013179178905, 31.997099020116956], [34.84993922746165, 31.9970964253308], [34.84984239904262, 31.99711539926856], [34.84978653738124, 31.997133873499905], [34.84961740776553, 31.997201257741175], [34.84935709769997, 31.9973315349047], [34.849464842437726, 31.998114005183773], [34.849029231329304, 31.998317994432384], [34.847989464970134, 31.998801482160626], [34.84797665361563, 31.99849596344939], [34.84797716586508, 31.998480079645557], [34.84799233349057, 31.998315129450265], [34.848005632518344, 31.998235466440345], [34.84804630648188, 31.99810914441851], [34.84806835299912, 31.998057613333224], [34.848105346658386, 31.998013021197888], [34.848122395717134, 31.99799745526816], [34.84817138139984, 31.99797307190072], [34.84821390064563, 31.997955690891885], [34.84820050421233, 31.997892248480788], [34.84818569036663, 31.99782591361635], [34.84815250970046, 31.997856527727706], [34.84791946055972, 31.998068289087506], [34.84790367760667, 31.998082630292327], [34.847746761079, 31.99822658497538], [34.847695216415104, 31.9982665296936], [34.847182307137174, 31.998736665179198], [34.84627202703631, 31.999577436375468], [34.84407622992175, 32.001605483897535], [34.84382656719887, 32.001834513952794], [34.84322299436113, 32.00239888563712], [34.84348023356326, 32.00258143094503], [34.844190521479014, 32.00310745280328], [34.84486484981844, 32.00360374371146], [34.844927742889894, 32.00364942951267], [34.845089340315944, 32.00376946519222], [34.845350168115935, 32.0039607803262], [34.84573962840249, 32.00425079462094], [34.84582973292858, 32.004316201730944], [34.84594470337238, 32.0044001479195], [34.846110739055504, 32.00452909921897], [34.846243015775734, 32.0046306647007], [34.84625902254487, 32.00464295454116], [34.846314630132945, 32.00465689372567], [34.84642945405156, 32.004685898633475], [34.84645662031983, 32.00470864475548], [34.84681103613852, 32.00501359621744], [34.846970922782276, 32.00513011125742], [34.847164087957474, 32.00526698237052], [34.84725164793778, 32.00532835656634], [34.84726413256439, 32.00533717976142], [34.84728651484342, 32.00534675315789], [34.84786804490974, 32.00576087248287], [34.84819744050431, 32.00599536417946], [34.84820820566093, 32.0060030597117], [34.84849484849982, 32.00620965512806], [34.848720490710825, 32.00637234154875], [34.84878899693794, 32.0064187959765], [34.8490827602575, 32.0066183759736], [34.84938676278041, 32.006825198349624], [34.84940111843873, 32.00683497796979], [34.84940544644229, 32.0068378758431], [34.849472648279544, 32.00689343444056], [34.84963775151539, 32.007030068162756], [34.849681446378234, 32.00706130247033], [34.84998636152938, 32.007279218109886], [34.850077868141035, 32.007344583730145], [34.850282726100374, 32.00749178852382], [34.85054721663897, 32.00768181450538], [34.85087009922062, 32.00790717289745], [34.85118251482785, 32.008130156642984], [34.85120098560581, 32.00814328417935], [34.85150918569199, 32.008362016919136], [34.851805249434896, 32.00857205789181], [34.85193169698705, 32.00866177771985], [34.8521020474391, 32.00878417435322], [34.85239768125075, 32.00899664760918], [34.85269522834668, 32.009207321877874], [34.85299235484091, 32.00941763356227], [34.85306721220365, 32.00947061874128], [34.853803092298236, 32.00954388428293], [34.85752662421898, 32.00937731414751], [34.85778484442069, 32.00931489162256], [34.85803294794998, 32.009257515812216], [34.85832233221646, 32.00917263447912], [34.85844385262572, 32.00913252556013], [34.85874404977525, 32.009033441424656], [34.85898136183843, 32.008955784406105], [34.85925687099151, 32.008865627293325], [34.85933972878329, 32.00883851278433], [34.85939656771936, 32.00881991261226], [34.85948267449926, 32.00878914733611], [34.85956860978989, 32.008760072412024], [34.859908550025914, 32.0086191083703], [34.86006250477173, 32.008555126907765], [34.86016077518293, 32.008514051424896], [34.860378685506056, 32.00842296902466], [34.860439183828646, 32.00839216431044], [34.86051085839366, 32.00835566883597], [34.86052789917185, 32.008345114353915], [34.860544720750354, 32.008334307672854], [34.86056131782391, 32.00832325238569], [34.86057768720403, 32.008311952091226], [34.860593821468726, 32.00830041037647], [34.8606097174329, 32.00828862993836], [34.86062536978798, 32.00827661527161], [34.86064077322877, 32.00826436996909], [34.86065592457014, 32.00825189672769], [34.86067081744181, 32.008239200941055], [34.86068544760373, 32.0082262844014], [34.860699810798934, 32.00821315340989], [34.86071390384239, 32.008199810663356], [34.86072772037056, 32.00818625975186], [34.86074125824664, 32.00817250608053], [34.86075451216887, 32.008158552340504], [34.8607674778837, 32.00814440393113], [34.860784579381445, 32.008124930764396], [34.860833478821675, 32.00805953561698], [34.86089085016424, 32.00797401985482], [34.86093841309849, 32.007902004530145], [34.86098829579941, 32.0078288682143], [34.86103022409999, 32.007760219355376], [34.861122426767324, 32.00755756358183], [34.86117107774887, 32.00744622625741], [34.861202734930664, 32.007373778214834], [34.86129388474383, 32.00716518018907], [34.861370580028634, 32.00699335363891], [34.86162254980033, 32.00642884143575], [34.86171727671446, 32.006216614863995], [34.86174223431494, 32.00616537337386], [34.86182580286285, 32.00597759236858], [34.86194514032789, 32.005708091905376], [34.862072769438974, 32.00542196011742], [34.86213130965641, 32.00529225861913], [34.86217667792956, 32.00518819044457], [34.86219568471353, 32.00514532587121], [34.86226454758151, 32.00499248756581], [34.86238638963234, 32.004710720768735], [34.862523758371744, 32.00439845255292], [34.862576966101955, 32.00427943993948], [34.86263594079574, 32.00414776710884], [34.86273384958979, 32.00392382482847], [34.86277067693602, 32.003844335470596], [34.86285290548438, 32.00366316932033], [34.86290122001342, 32.0035566739191], [34.862961415078345, 32.0034215656321], [34.86306361924426, 32.00319526288494], [34.86325269899277, 32.002780063229764], [34.864322691942874, 32.00082965445045], [34.86396445245393, 32.00067266477241], [34.8639575943279, 32.00068886617053], [34.86391034770095, 32.00068008920631], [34.8638547535131, 32.00066976149839], [34.863842888162026, 32.000667557273914], [34.863860408954956, 32.00063027517486], [34.86387583271659, 32.00059746390826], [34.86347041624349, 32.00045616297403], [34.86345316773823, 32.00045012865861], [34.863257271708534, 32.00038184969906], [34.8630614710136, 32.00031362480216], [34.86286567067791, 32.00024538156852], [34.862669870668135, 32.00017712901603], [34.862474060334954, 32.00010888515208], [34.86227826087666, 32.00004064101576], [34.86227073583882, 32.000038014516434], [34.86208247236035, 31.999972378571258], [34.861886694685495, 31.999904124872376], [34.86172487498512, 31.99984771307238], [34.86167348926514, 31.999829799758782], [34.86160816225296, 31.99981014435448], [34.8619263364947, 31.999355593294425], [34.861844839662574, 31.999305210536747], [34.861641425018064, 31.999180663364456], [34.861529448187234, 31.99910088948224], [34.861504534721924, 31.9990850041541], [34.86120460953333, 31.998866895974004], [34.86117218956047, 31.998843319536277], [34.86112765561709, 31.99881093354948], [34.86092133124306, 31.998660889779224], [34.86062759249269, 31.99844727486838], [34.86044789037702, 31.99831658971649], [34.860239982148066, 31.998165391393254], [34.85986837724211, 31.997895144890123], [34.85984461721021, 31.997877865518387], [34.85979231902262, 31.997839831868298], [34.85974256475864, 31.99780931350057], [34.85971151894701, 31.997790270539795], [34.85935036392327, 31.9975687431953], [34.8593285853202, 31.99755538444368], [34.85896324472039, 31.99733128747063], [34.85895792838177, 31.997305778763437], [34.85895172438349, 31.99727601089476], [34.85892888953509, 31.997166445133313], [34.85892281073452, 31.99713727789719], [34.85884224675267, 31.996750714915144], [34.85883744945915, 31.996727696386554], [34.85882806348525, 31.99668266027023], [34.858826958521924, 31.996677358392805], [34.858825926097815, 31.9966724045751], [34.858565968550295, 31.996450382597583], [34.85854918682939, 31.996436049775934], [34.85829340549448, 31.996217592912107], [34.85822829056832, 31.996161979527006], [34.858211527706494, 31.99614766267823], [34.858056401545895, 31.996015171991484], [34.85803457649044, 31.995996531527066], [34.85771532583803, 31.995723862868243], [34.8555710323674, 31.996957657882053], [34.85553212602921, 31.996980178374514], [34.85548649719587, 31.99700659007763], [34.855108725929206, 31.997225257224308], [34.85510786020802, 31.997224151180998], [34.85499696537429, 31.997082471938313], [34.854952005000314, 31.997015266151823], [34.85493398089185, 31.99698832407565], [34.854925725960605, 31.99697598476374], [34.85487024801917, 31.99689305730803], [34.85449263263191, 31.99630527993834], [34.854481201881, 31.996311513086255], [34.85444709868796, 31.996260535397898], [34.85425082183589, 31.99637008452542], [34.8541805300915, 31.996409316722502], [34.8538985961584, 31.996016018942427]]]}}]}