{"type": "FeatureCollection", "name": "מפות הכרזה", "features": [{"type": "Feature", "properties": {"OBJECTID": 2, "Name": "c862_clip", "Shape_Length": 20599.695399997756, "Shape_Area": 26511735.840602025}, "geometry": {"type": "Polygon", "coordinates": [[[34.83965940367564, 31.987161664141677], [34.8394790127896, 32.0327022709539], [34.89505486248781, 32.03285001961996], [34.89520778077298, 31.987309152716758], [34.83965940367564, 31.987161664141677]]]}}, {"type": "Feature", "properties": {"OBJECTID": 5, "Name": "c873_clip", "Shape_Length": 20127.47500000149, "Shape_Area": 25319572.991877746}, "geometry": {"type": "Polygon", "coordinates": [[[34.89287907705401, 31.94244305280335], [34.8927254812855, 31.987923371473954], [34.94584767867832, 31.988042713891492], [34.94597509493606, 31.94256218518286], [34.89287907705401, 31.94244305280335]]]}}]}