{"type": "FeatureCollection", "name": "אתרי רשות העתיקות", "features": [{"type": "Feature", "properties": {"OBJECTID": 869, "ATA_SHEM": "ט'הר אל-ח'רבה", "status_des": "מוכרז תקין"}, "geometry": {"type": "Polygon", "coordinates": [[[34.887448347310986, 31.992222650725925], [34.887445159023095, 31.993124467277468], [34.88850343937623, 31.993127106126604], [34.88850653030501, 31.99222528926566], [34.887448347310986, 31.992222650725925]]]}}, {"type": "Feature", "properties": {"OBJECTID": 12148, "ATA_SHEM": "ט'הר אל-ח'רבה (צפון)?", "status_des": "מוכרז תקין"}, "geometry": {"type": "Polygon", "coordinates": [[[34.887445159023095, 31.993124467277468], [34.88744369532772, 31.993575377834983], [34.888501893853025, 31.993578016512842], [34.88850343937623, 31.993127106126604], [34.887445159023095, 31.993124467277468]]]}}, {"type": "Feature", "properties": {"OBJECTID": 20101, "ATA_SHEM": "אונו", "status_des": "מוכרז תקין"}, "geometry": {"type": "Polygon", "coordinates": [[[34.86406531020175, 32.02011795055896], [34.86403530258105, 32.02823396145416], [34.87144539050914, 32.02825370618017], [34.87147483240408, 32.02013754104487], [34.86406531020175, 32.02011795055896]]]}}, {"type": "Feature", "properties": {"OBJECTID": 20684, "ATA_SHEM": "גבעת דני", "status_des": "מוכרז תקין"}, "geometry": {"type": "Polygon", "coordinates": [[[34.86894188292205, 31.989018834902943], [34.86892218971601, 31.99442951590013], [34.87421314521481, 31.994443465594546], [34.87423252809062, 31.989032709548006], [34.86894188292205, 31.989018834902943]]]}}, {"type": "Feature", "properties": {"OBJECTID": 22673, "ATA_SHEM": "ט'הר אל-ח'רבה (מזרח)?", "status_des": "מוכרז תקין"}, "geometry": {"type": "Polygon", "coordinates": [[[34.886919253266115, 31.99222140028493], [34.88691459376568, 31.993574055180993], [34.88744369532772, 31.993575377834983], [34.887448347310986, 31.992222650725925], [34.886919253266115, 31.99222140028493]]]}}]}