{"type": "FeatureCollection", "name": "שימושי מבנים", "features": [{"type": "Feature", "properties": {"OBJECTID_1": 45, "OBJECTID": 78, "UNIQ_ID": 54013278, "PARENT": 0, "FCODE": 223, "USG_GROUP": 20, "USG_CODE": 5521, "USG_SP_NAM": "בית כנסת", "USG_SP_NM_": "Synagogue", "USG_PRIORI": 1, "BLDG_ID": 52514292, "CMPLX_ID": 0, "CMLX_FCD": 0, "E_ORD": 188796.734427, "N_ORD": 655059.301094, "DATA_YEAR": 0, "PRDCT_VER": " "}, "geometry": {"type": "Point", "coordinates": [34.880020069693934, 31.988227994253588]}}, {"type": "Feature", "properties": {"OBJECTID_1": 46, "OBJECTID": 79, "UNIQ_ID": 65932308, "PARENT": 0, "FCODE": 222, "USG_GROUP": 13, "USG_CODE": 5305, "USG_SP_NAM": "גן ילדים - גן אחיעזר", "USG_SP_NM_": " ", "USG_PRIORI": 1, "BLDG_ID": 65963836, "CMPLX_ID": 0, "CMLX_FCD": 0, "E_ORD": 187338.284027, "N_ORD": 655070.160094, "DATA_YEAR": 2018, "PRDCT_VER": "2019-03"}, "geometry": {"type": "Point", "coordinates": [34.86458767401486, 31.98828553763891]}}, {"type": "Feature", "properties": {"OBJECTID_1": 48, "OBJECTID": 81, "UNIQ_ID": 65932182, "PARENT": 0, "FCODE": 223, "USG_GROUP": 20, "USG_CODE": 5521, "USG_SP_NAM": "בית כנסת אחיעזר", "USG_SP_NM_": " ", "USG_PRIORI": 1, "BLDG_ID": 52549465, "CMPLX_ID": 0, "CMLX_FCD": 0, "E_ORD": 187308.862327, "N_ORD": 655082.066394, "DATA_YEAR": 2018, "PRDCT_VER": "2019-03"}, "geometry": {"type": "Point", "coordinates": [34.86427596338096, 31.988392074125112]}}, {"type": "Feature", "properties": {"OBJECTID_1": 53, "OBJECTID": 95, "UNIQ_ID": 65932062, "PARENT": 0, "FCODE": 223, "USG_GROUP": 20, "USG_CODE": 5521, "USG_SP_NAM": "בית כנסת", "USG_SP_NM_": "Synagogue", "USG_PRIORI": 1, "BLDG_ID": 65965469, "CMPLX_ID": 0, "CMLX_FCD": 0, "E_ORD": 188593.085527, "N_ORD": 655361.423594, "DATA_YEAR": 2018, "PRDCT_VER": "2019-03"}, "geometry": {"type": "Point", "coordinates": [34.87785558325425, 31.990946997781357]}}, {"type": "Feature", "properties": {"OBJECTID_1": 62, "OBJECTID": 111, "UNIQ_ID": 65932178, "PARENT": 0, "FCODE": 225, "USG_GROUP": 16, "USG_CODE": 6520, "USG_SP_NAM": "אולם אירועים - בית רבקה כפר", "USG_SP_NM_": " ", "USG_PRIORI": 1, "BLDG_ID": 52534385, "CMPLX_ID": 0, "CMLX_FCD": 0, "E_ORD": 187344.457927, "N_ORD": 655668.446594, "DATA_YEAR": 2018, "PRDCT_VER": "2019-03"}, "geometry": {"type": "Point", "coordinates": [34.86463311298624, 31.993681029696216]}}, {"type": "Feature", "properties": {"OBJECTID_1": 65, "OBJECTID": 114, "UNIQ_ID": 65931701, "PARENT": 0, "FCODE": 223, "USG_GROUP": 20, "USG_CODE": 5521, "USG_SP_NAM": "בית כנסת - כפר חב\"ד ב", "USG_SP_NM_": " ", "USG_PRIORI": 1, "BLDG_ID": 52530156, "CMPLX_ID": 0, "CMLX_FCD": 0, "E_ORD": 187312.575527, "N_ORD": 655789.361394, "DATA_YEAR": 2018, "PRDCT_VER": "2019-03"}, "geometry": {"type": "Point", "coordinates": [34.86429171781466, 31.994770528841208]}}]}