{"type": "FeatureCollection", "name": "תחנות אוטובוס", "features": [{"type": "Feature", "properties": {"OBJECTID_1": 14, "field_12": "אין שם", "field_13": 0, "field_14": "צפריה", "field_2": "חחנת_הסעה_של_המועצה", "field_2_ot": " ", "field_3": 1, "field_11": "לא"}, "geometry": {"type": "Point", "coordinates": [34.86167222264343, 32.000444864337936]}}, {"type": "Feature", "properties": {"OBJECTID_1": 54, "field_12": " ", "field_13": 0, "field_14": "צפריה", "field_2": "חחנת_הסעה_של_המועצה", "field_2_ot": " ", "field_3": 1, "field_11": "לא"}, "geometry": {"type": "Point", "coordinates": [34.86284921161264, 32.00096962975106]}}, {"type": "Feature", "properties": {"OBJECTID_1": 75, "field_12": "חוני המעגל ג", "field_13": 33751, "field_14": "יגל", "field_2": "תחנת_אוטובוס_ארצית", "field_2_ot": " ", "field_3": 0, "field_11": "כן"}, "geometry": {"type": "Point", "coordinates": [34.88145128252791, 31.98843556047488]}}, {"type": "Feature", "properties": {"OBJECTID_1": 76, "field_12": " ", "field_13": 0, "field_14": "יגל", "field_2": "חחנת_הסעה_של_המועצה", "field_2_ot": " ", "field_3": 0, "field_11": "כן"}, "geometry": {"type": "Point", "coordinates": [34.87993856477062, 31.988766969564143]}}, {"type": "Feature", "properties": {"OBJECTID_1": 77, "field_12": " ", "field_13": 0, "field_14": "יגל", "field_2": "תחנת_אוטובוס_ארצית", "field_2_ot": " ", "field_3": 0, "field_11": "כן"}, "geometry": {"type": "Point", "coordinates": [34.8783415701868, 31.990187112728734]}}, {"type": "Feature", "properties": {"OBJECTID_1": 78, "field_12": " ", "field_13": 0, "field_14": "יגל", "field_2": "חחנת_הסעה_של_המועצה", "field_2_ot": " ", "field_3": 0, "field_11": "לא"}, "geometry": {"type": "Point", "coordinates": [34.87857042101465, 31.989827736225127]}}, {"type": "Feature", "properties": {"OBJECTID_1": 79, "field_12": " ", "field_13": 0, "field_14": "יגל", "field_2": "other", "field_2_ot": "לא ברור", "field_3": 0, "field_11": "כן"}, "geometry": {"type": "Point", "coordinates": [34.877013127060934, 31.99148590615431]}}, {"type": "Feature", "properties": {"OBJECTID_1": 80, "field_12": " ", "field_13": 0, "field_14": "יגל", "field_2": "חחנת_הסעה_של_המועצה", "field_2_ot": " ", "field_3": 0, "field_11": "לא"}, "geometry": {"type": "Point", "coordinates": [34.87628330511241, 31.991529839200265]}}, {"type": "Feature", "properties": {"OBJECTID_1": 81, "field_12": " ", "field_13": 0, "field_14": "יגל", "field_2": "חחנת_הסעה_של_המועצה", "field_2_ot": " ", "field_3": 0, "field_11": "כן"}, "geometry": {"type": "Point", "coordinates": [34.87593167501547, 31.99262379547837]}}, {"type": "Feature", "properties": {"OBJECTID_1": 82, "field_12": " ", "field_13": 0, "field_14": "יגל", "field_2": "חחנת_הסעה_של_המועצה", "field_2_ot": " ", "field_3": 0, "field_11": "לא"}, "geometry": {"type": "Point", "coordinates": [34.87493786736679, 31.99357091162133]}}, {"type": "Feature", "properties": {"OBJECTID_1": 83, "field_12": " ", "field_13": 0, "field_14": "יגל", "field_2": "חחנת_הסעה_של_המועצה", "field_2_ot": " ", "field_3": 0, "field_11": "כן"}, "geometry": {"type": "Point", "coordinates": [34.87356171895547, 31.994069970554165]}}, {"type": "Feature", "properties": {"OBJECTID_1": 84, "field_12": " ", "field_13": 0, "field_14": "יגל", "field_2": "חחנת_הסעה_של_המועצה", "field_2_ot": " ", "field_3": 0, "field_11": "לא"}, "geometry": {"type": "Point", "coordinates": [34.872659657452765, 31.99333231722974]}}, {"type": "Feature", "properties": {"OBJECTID_1": 105, "field_12": "מ.א. עמק לוד תחנת הסעה לתלמידים", "field_13": 0, "field_14": "כפר_חב\"ד", "field_2": "חחנת_הסעה_של_המועצה", "field_2_ot": " ", "field_3": 0, "field_11": "לא"}, "geometry": {"type": "Point", "coordinates": [34.86376566602017, 31.99422313454552]}}, {"type": "Feature", "properties": {"OBJECTID_1": 106, "field_12": "תיכון בית רבקה", "field_13": 0, "field_14": "כפר_חב\"ד", "field_2": "other", "field_2_ot": " ", "field_3": 0, "field_11": "לא"}, "geometry": {"type": "Point", "coordinates": [34.86358777587405, 31.993984453670244]}}, {"type": "Feature", "properties": {"OBJECTID_1": 107, "field_12": "בית ספר לבנות בית רבקה", "field_13": 33300, "field_14": "כפר_חב\"ד", "field_2": "תחנת_אוטובוס_ארצית", "field_2_ot": " ", "field_3": 5, "field_11": "כן"}, "geometry": {"type": "Point", "coordinates": [34.86268230749045, 31.994375302196424]}}]}