{"type": "FeatureCollection", "name": "גני ילדים", "features": [{"type": "Feature", "properties": {"OBJECTID": 4, "Descriptio": "גן ילדים כלנית", "yeshuv": " אחיעזר", "gush": 5990, "helka": 99, "yeud": "  בניני ציבור", "migrash": 83, "OBJECTID1": 4, "mamad": "קיים"}, "geometry": {"type": "Point", "coordinates": [34.86454057359044, 31.988269528036536]}}, {"type": "Feature", "properties": {"OBJECTID": 41, "Descriptio": "גן ילדים רעות - גיל 5", "yeshuv": " אחיעזר", "gush": 5990, "helka": 99, "yeud": "  בניני ציבור", "migrash": 0, "OBJECTID1": 41, "mamad": "   "}, "geometry": {"type": "Point", "coordinates": [34.86433211979549, 31.98811279247585]}}, {"type": "Feature", "properties": {"OBJECTID": 42, "Descriptio": "גן ילדים - אחוה - גילאי 3-4", "yeshuv": " אחיעזר", "gush": 6819, "helka": 52, "yeud": "  בניני ציבור", "migrash": 141, "OBJECTID1": 42, "mamad": "   "}, "geometry": {"type": "Point", "coordinates": [34.86419942925948, 31.988033698518752]}}]}