{"type": "FeatureCollection", "name": "בתי ספר", "features": [{"type": "Feature", "properties": {"OBJECTID": 16, "Descriptio": "בית ספר תיכון בית רבקה", "yeshuv": " כפר חבד", "gush": 6468, "helka": 26, "yeud": "  מוסדות ציבור", "migrash": 0, "OBJECTID1": 16, "mamad": "   "}, "geometry": {"type": "Point", "coordinates": [34.865419129124525, 31.993149043211776]}}, {"type": "Feature", "properties": {"OBJECTID": 17, "Descriptio": "בית ספר בית רבקה תיכון", "yeshuv": " כפר חבד", "gush": 6468, "helka": 26, "yeud": "  מוסדות ציבור", "migrash": 0, "OBJECTID1": 17, "mamad": "   "}, "geometry": {"type": "Point", "coordinates": [34.865272387996626, 31.993652698867358]}}]}