{"type": "FeatureCollection", "name": "גזם", "features": [{"type": "Feature", "properties": {"OBJECTID_1": 5, "MUN_HEB": "צפריה", "day": "יום ג", "Shape_Area": 1921903.3172681942}, "geometry": {"type": "Polygon", "coordinates": [[[34.86116637437055, 31.99886938369061], [34.85985344973253, 31.9980327834576], [34.85889404152152, 31.997421079168866], [34.85867338169191, 31.996708728565785], [34.85861633430459, 31.996659061445346], [34.85833570339476, 31.996414736611978], [34.85779193816809, 31.996110107853507], [34.85699829815521, 31.995707085284288], [34.856472869220426, 31.99545749932397], [34.85470799902858, 31.997189673133576], [34.85430848639412, 31.99658781590024], [34.8537857192714, 31.99587870906934], [34.8537424347502, 31.995908902657128], [34.85153142121476, 31.99745033854074], [34.85129810235742, 31.996462474681977], [34.85115008401609, 31.996583505731707], [34.85109828594675, 31.996625858960382], [34.851081674170146, 31.996636315999908], [34.85103021097908, 31.99667604408401], [34.85088564411869, 31.996763628462734], [34.85085243550738, 31.99678062148786], [34.850666293164984, 31.996875872321628], [34.8505098651804, 31.99701744476853], [34.85034418050836, 31.997050756873477], [34.85026458292121, 31.99707036808856], [34.850131791789046, 31.997099020116913], [34.84993922639994, 31.997096426229632], [34.84986769607427, 31.99711396845082], [34.84984239798095, 31.997115400167395], [34.84981711291012, 31.997126372983683], [34.84978653738815, 31.997133871696313], [34.84961740670732, 31.997201257738215], [34.8493704022581, 31.997320236934836], [34.84944556377693, 31.998160327162996], [34.84798946391536, 31.99880148125584], [34.8479766557251, 31.99849596525892], [34.8479771658616, 31.998480080547345], [34.8479923313741, 31.99831512944431], [34.8479995847111, 31.998287448262126], [34.84800563463826, 31.998235465544486], [34.848035101613135, 31.99815190436059], [34.84804630648537, 31.9981091435167], [34.8480554042599, 31.998094331717066], [34.84806835193392, 31.998057615133824], [34.84808520549613, 31.998045812782223], [34.84821390170386, 31.99795569089486], [34.84818569142134, 31.9978259145211], [34.847903678664885, 31.99808263029529], [34.847898617754446, 31.998087392921935], [34.847746761075506, 31.998226585877163], [34.84746191181242, 31.998498350057588], [34.847182306075446, 31.998736666077995], [34.84627202809455, 31.999577436378445], [34.84407623097295, 32.001605485704125], [34.84316891031897, 32.00244945552589], [34.843480231446705, 32.00258143093899], [34.84419052359205, 32.00310745371106], [34.84486484769834, 32.003603744607254], [34.84535016705063, 32.003960782126754], [34.845944704434174, 32.00440014702065], [34.846243016837526, 32.00463066380187], [34.846314630125924, 32.004656895529244], [34.84642945405857, 32.00468589682988], [34.84927448307502, 32.00675134044224], [34.849453982202796, 32.006887174221475], [34.849983045402034, 32.00728068419218], [34.85054341325009, 32.00768228726226], [34.851002358430435, 32.00800710560805], [34.851434639204186, 32.00831516840068], [34.85180168655655, 32.008578259593115], [34.85239105128065, 32.00900229252178], [34.8529881996748, 32.00941819559773], [34.85306071293302, 32.00946939867972], [34.85306098525562, 32.00946959151744], [34.85306125758162, 32.00946978345337], [34.853778915935116, 32.009541207588946], [34.85752663325393, 32.009377313743194], [34.85803294794656, 32.00925751671401], [34.858213389188634, 32.009200659201774], [34.858744051885154, 32.00903344323396], [34.85876685473892, 32.00902598163532], [34.85925687205659, 32.008865625492575], [34.85925981512581, 32.00886455584711], [34.859262757136605, 32.008863486198734], [34.859732655772724, 32.00869259093599], [34.860062503710026, 32.00855512780666], [34.860063102786924, 32.008554831838296], [34.86006370080549, 32.00855453586707], [34.860615065696265, 32.00828171408931], [34.86062536872628, 32.00827661617051], [34.86063371831108, 32.00826662429343], [34.86093841204014, 32.00790200452727], [34.86137057897032, 32.00699335363604], [34.86174223536651, 32.00616537518029], [34.861945140324536, 32.00570809280714], [34.86226454546488, 32.00499248756011], [34.86244796428612, 32.00457215175279], [34.86252375943339, 32.00439845165396], [34.862733849586434, 32.003923825730254], [34.86303393771293, 32.00326083962547], [34.863063619240904, 32.00319526378674], [34.86306481012174, 32.00319232621424], [34.86306599994423, 32.003189388638845], [34.86338929464287, 32.00239144440876], [34.86384676675305, 32.00172458740181], [34.864241872736, 32.0008845741266], [34.863461370650334, 32.00045147093918], [34.86166927015535, 31.99982947453517], [34.86192633755291, 31.99935559329726], [34.86116637437055, 31.99886938369061]]]}}, {"type": "Feature", "properties": {"OBJECTID_1": 6, "MUN_HEB": "כפר חבד", "day": "יום ד", "Shape_Area": 2427934.7001551474}, "geometry": {"type": "Polygon", "coordinates": [[[34.86611960500784, 31.995639271133275], [34.86668354602666, 31.994555131056927], [34.86693661926452, 31.994257550886335], [34.868010086564006, 31.993184774907025], [34.86900934675492, 31.9922095120168], [34.86810354336236, 31.991657732308582], [34.86707552617745, 31.991034636738796], [34.86623810867847, 31.99035477632143], [34.86260532596264, 31.987764316400977], [34.86084841846149, 31.986485492738943], [34.86017950666918, 31.98604206216858], [34.860176110124094, 31.986039810168936], [34.85950945563845, 31.98671857209025], [34.8594039181132, 31.986355848325424], [34.85920126539707, 31.985882571483316], [34.85855390426174, 31.984353252528052], [34.858143876529475, 31.98338457854103], [34.85801119400208, 31.983123518303742], [34.857759828507014, 31.982967739667505], [34.857297473921825, 31.983085777593946], [34.856408189257365, 31.98318538794677], [34.855140871169745, 31.98335425521581], [34.85495872616017, 31.983401474641575], [34.854776491547, 31.983472553500146], [34.854412699724904, 31.98343576002701], [34.854146752320524, 31.983435026381272], [34.85350260799684, 31.98350482785136], [34.8523476144546, 31.983560087002967], [34.849645828643126, 31.983636075495976], [34.847705436600364, 31.983627861251975], [34.847702830621365, 31.983627850320833], [34.84551371090486, 31.984029745351812], [34.84543066334509, 31.984137219249646], [34.845484887972056, 31.98459071755411], [34.84454589967941, 31.984886312232746], [34.84468349997607, 31.98549513939196], [34.84314353693374, 31.986036250972493], [34.84360874650963, 31.98694169731127], [34.84388597245576, 31.987327490272108], [34.844113831658056, 31.987552350929377], [34.843970200935196, 31.987672063305315], [34.84465813982199, 31.988226369792148], [34.845057241595704, 31.988448983381925], [34.845655968594045, 31.9888462983968], [34.846045538194446, 31.98915419252299], [34.84648658777704, 31.989475938059087], [34.84681932659247, 31.98965110443583], [34.84701887106084, 31.989765474102335], [34.847404967173404, 31.98985223211832], [34.847565990940964, 31.989940700985663], [34.847845259195104, 31.990203405658168], [34.84812224329925, 31.99046395700805], [34.84835215810019, 31.990723724595746], [34.848574933556165, 31.99103453273825], [34.84868422752332, 31.991203569209794], [34.84882492450987, 31.9915482286432], [34.84890051293649, 31.99191230982362], [34.848877375132524, 31.992466995407987], [34.8489171102768, 31.99332547966373], [34.848908047904395, 31.9934972477082], [34.848887632291614, 31.99443489849957], [34.84912270361692, 31.994464189097364], [34.84917122331296, 31.994951073797015], [34.84940601926167, 31.995051943683002], [34.84952325204488, 31.995145326799825], [34.84967460714812, 31.995102801648567], [34.849750862061754, 31.994931220495758], [34.85001104990598, 31.994982054272292], [34.85017000545292, 31.995147133893077], [34.85030875579777, 31.99551503275073], [34.85037723714781, 31.995454799448996], [34.850377551457115, 31.995454518061713], [34.85063844154471, 31.99522503078747], [34.85119944709687, 31.994714189277634], [34.851376579353314, 31.99453659508667], [34.851569119812474, 31.99435968286188], [34.85202541841214, 31.994936125978114], [34.852108939436064, 31.99496585675012], [34.8522932364548, 31.994767235801326], [34.85270682200031, 31.99460053019399], [34.85285020872986, 31.994542734179486], [34.8537857192714, 31.99587870906934], [34.85430848639412, 31.99658781590024], [34.85470799902858, 31.997189673133576], [34.856472869220426, 31.99545749932397], [34.85699829815521, 31.995707085284288], [34.85779193816809, 31.996110107853507], [34.85833570339476, 31.996414736611978], [34.85861633430459, 31.996659061445346], [34.85867338169191, 31.996708728565785], [34.85889404152152, 31.997421079168866], [34.85985344973253, 31.9980327834576], [34.86116637437055, 31.99886938369061], [34.86192633755291, 31.99935559329726], [34.86166927015535, 31.99982947453517], [34.863461370650334, 32.00045147093918], [34.864865509937815, 31.997854925178256], [34.86569700142999, 31.996353950961826], [34.86611960500784, 31.995639271133275]], [[34.85190602117443, 31.987395163685274], [34.851146159598656, 31.987470010823305], [34.851036922530646, 31.98686760931415], [34.85097561271558, 31.98623365084551], [34.85163964770417, 31.986212863020782], [34.852244996563556, 31.98625981473046], [34.85217911265908, 31.986820986795145], [34.85204632191633, 31.986820618188368], [34.85190602117443, 31.987395163685274]]]}}, {"type": "Feature", "properties": {"OBJECTID_1": 7, "MUN_HEB": "אחיעזר", "day": "יום א", "Shape_Area": 2729079.240222997}, "geometry": {"type": "Polygon", "coordinates": [[[34.882012174048356, 31.972857097158556], [34.88216497718725, 31.972385050027878], [34.88234387084273, 31.97165537654553], [34.88253925629644, 31.97101164258337], [34.88303558964432, 31.97075520765398], [34.88323479733531, 31.97061970750467], [34.883235794194036, 31.970333386158384], [34.88379892108539, 31.9693803941417], [34.88440843741129, 31.968816338007223], [34.88440166925993, 31.96881015438603], [34.88435148394069, 31.968764303519144], [34.88412649011247, 31.96855826461812], [34.884071834380975, 31.968506020268382], [34.883936836848655, 31.96838951229754], [34.88386978918165, 31.96832812471306], [34.8838333236869, 31.968295820065258], [34.88377112802404, 31.96823980502552], [34.88371688226844, 31.968191464581484], [34.88364852854268, 31.968127296012227], [34.883594074506036, 31.968076523715293], [34.88353588797843, 31.968022495453155], [34.88345228227677, 31.967944519426595], [34.88339198059173, 31.9678879282237], [34.8833307331421, 31.967830753835887], [34.883312370614895, 31.96781303827419], [34.88319732452196, 31.967702045828524], [34.88305564573585, 31.96757029749404], [34.8828580120597, 31.967385615460344], [34.88266048085743, 31.9671948299406], [34.882514354840175, 31.967056219594156], [34.88236197634437, 31.96690633865531], [34.88232348313721, 31.96692427716528], [34.88225909140864, 31.966889365328807], [34.8821932383891, 31.966851239314742], [34.882079922517036, 31.96673989583056], [34.88190563655518, 31.966566443175783], [34.881829571537175, 31.966490097660774], [34.88180488913612, 31.966465925109283], [34.88176417775149, 31.966426054629256], [34.88162299446841, 31.966284443772576], [34.881601456464736, 31.966262604938358], [34.88157362969535, 31.966233737650505], [34.8815173107961, 31.96617298391463], [34.88125605860244, 31.96589744993942], [34.880864072823826, 31.965555907257475], [34.880553921067126, 31.965286857456125], [34.87992416195573, 31.96593109014202], [34.87945025571116, 31.96641587947793], [34.87856082080086, 31.967275964339844], [34.877971634241995, 31.967886882788825], [34.87758041868403, 31.968284594259483], [34.87731404133666, 31.96857276890224], [34.87696571580064, 31.968957364806002], [34.876715427315744, 31.96923067727537], [34.87620970023567, 31.969758262839733], [34.87597679401749, 31.96999862341296], [34.87592177553507, 31.97005733751409], [34.87546022162189, 31.970536758738117], [34.87530594756418, 31.970693283256626], [34.87515108081388, 31.970854474699713], [34.874993426789835, 31.971044150407057], [34.87488301057071, 31.97117699401118], [34.87465286721685, 31.97141668829989], [34.874590375825136, 31.971472771661247], [34.874591972393496, 31.971475096158564], [34.87459338161945, 31.971477149627002], [34.87326474651984, 31.972770893080977], [34.87325962787446, 31.972766264281777], [34.87322536650048, 31.972735280808205], [34.872681671332785, 31.97328969878715], [34.87231343732598, 31.973659215282904], [34.87211030564574, 31.97386305201384], [34.871752276436084, 31.974227858156315], [34.871057618140796, 31.97493768377322], [34.86970669281412, 31.97630207882072], [34.868672093710764, 31.97735410973061], [34.86759457714427, 31.97844843178701], [34.86668754525935, 31.979388040674262], [34.865668219415774, 31.980465417744053], [34.86474665586879, 31.981379190903485], [34.86382507403267, 31.982292957113398], [34.86317708704683, 31.982955716153896], [34.861959246762346, 31.984177672278193], [34.86101281122204, 31.985219450789277], [34.86024009838107, 31.985980886665445], [34.860176110124094, 31.986039810168936], [34.86017950666918, 31.98604206216858], [34.86084841846149, 31.986485492738943], [34.86260532596264, 31.987764316400977], [34.86623810867847, 31.99035477632143], [34.86707552617745, 31.991034636738796], [34.86810354336236, 31.991657732308582], [34.86900934675492, 31.9922095120168], [34.86967393537789, 31.991556500315877], [34.87080070989209, 31.99041418344678], [34.8714427435811, 31.98975893405901], [34.87178211828749, 31.989411810517396], [34.8720884415708, 31.989102615961766], [34.872784557441626, 31.988395394913443], [34.8733614714898, 31.987820377432925], [34.87362288370448, 31.987549644706935], [34.87416892300803, 31.98699507885934], [34.87471588803998, 31.986440181127406], [34.87498583291332, 31.986161268457383], [34.87545093410988, 31.98569383563205], [34.87556590067929, 31.985578291297216], [34.87590538763225, 31.985232538229102], [34.87673684182301, 31.984388119752136], [34.87714236697492, 31.98397264383646], [34.87778795682481, 31.98332031036745], [34.878049476104906, 31.98305507672924], [34.87860004923969, 31.982495863975576], [34.878673838972475, 31.98242014117772], [34.87899762685797, 31.98209107138281], [34.879382157005125, 31.98170439203236], [34.879524046002366, 31.981545363836364], [34.87972400257919, 31.981338112969624], [34.87976318853552, 31.981277332293875], [34.8798207088419, 31.981188112250614], [34.879923342854745, 31.980997257668655], [34.8800056348587, 31.980844228657887], [34.88005929885099, 31.98069253415624], [34.88011590089689, 31.980432211986177], [34.88012579044031, 31.980352151475177], [34.88015998929492, 31.980075303251233], [34.880216273153096, 31.979668747839444], [34.88022335836064, 31.97940070137992], [34.8802554121162, 31.97906842079994], [34.88020994031801, 31.97828483259613], [34.8803514046122, 31.977888559591378], [34.880694192511605, 31.97715039581642], [34.88100859999674, 31.97609895588003], [34.88096757447365, 31.975824456858025], [34.88105230376631, 31.975609930015725], [34.88113778533262, 31.975180661402955], [34.88116958459524, 31.974125346175214], [34.88046512063797, 31.973622232378187], [34.880624268382476, 31.973519268782777], [34.88102862495908, 31.973155235404775], [34.881280723495834, 31.97310577114869], [34.88161684576538, 31.973042202981944], [34.881852222956866, 31.972971220336756], [34.882012174048356, 31.972857097158556]]]}}, {"type": "Feature", "properties": {"OBJECTID_1": 9, "MUN_HEB": "יגל", "day": "יום א", "Shape_Area": 1939700.5668782198}, "geometry": {"type": "Polygon", "coordinates": [[[34.87080070989209, 31.99041418344678], [34.86967393537789, 31.991556500315877], [34.86900934675492, 31.9922095120168], [34.868010086564006, 31.993184774907025], [34.869509786240364, 31.99172627370697], [34.87080070989209, 31.99041418344678]], [[34.87080070989209, 31.99041418344678], [34.87335645902812, 31.992182989638657], [34.87158090538204, 31.993877196715182], [34.87481348940281, 31.996002292335245], [34.87481475416743, 31.996003123475916], [34.87481601787388, 31.99600395461383], [34.87510034839116, 31.99597116374648], [34.875548389046465, 31.99595323809576], [34.876489334615165, 31.995898407709923], [34.87718396303579, 31.99582384873309], [34.87801338831478, 31.995635102767334], [34.87870862073406, 31.995388741565904], [34.87965063508631, 31.99502848015309], [34.88050358636825, 31.994515278330084], [34.88108734888351, 31.99411591424155], [34.88216606635266, 31.993087894127104], [34.883312351696915, 31.991945505497107], [34.8835813900979, 31.991869832860882], [34.885402470606664, 31.989889246807582], [34.885874394589344, 31.989432314423237], [34.88632345555904, 31.989108940665044], [34.88681770240477, 31.98867114913617], [34.88760558995537, 31.987983818203304], [34.887631247974554, 31.98796143541666], [34.88772549021863, 31.987910989161374], [34.88790456737156, 31.987815132105375], [34.88794253469313, 31.98779480811151], [34.889039826694116, 31.987264160482816], [34.8900714342336, 31.986865866322127], [34.89144337331822, 31.986406595451605], [34.891443346196944, 31.986405545683102], [34.891443319078725, 31.986404495012795], [34.891430995833566, 31.98592935828965], [34.8914736968104, 31.985720685665814], [34.891356297108935, 31.985255120345947], [34.89124464047631, 31.985159403188668], [34.89116085814825, 31.985099545595947], [34.891175403700586, 31.98493852440675], [34.89125987474498, 31.984795571189903], [34.89140696915462, 31.984760143161715], [34.89154726776594, 31.984665048268557], [34.89188306549346, 31.984707630981184], [34.89201579847461, 31.984779538582703], [34.89231045863037, 31.98473488913728], [34.89220524122106, 31.984391041449182], [34.892099896328176, 31.984085370394524], [34.891903739242366, 31.983232039789197], [34.89182641808801, 31.982875574694038], [34.89170900572876, 31.982515331401004], [34.89171097461696, 31.98210073991109], [34.886820252003965, 31.98241599565776], [34.88566341287436, 31.982486693963143], [34.884561361960095, 31.981704707242752], [34.88446348565652, 31.979740456837657], [34.8802554121162, 31.97906842079994], [34.88022335836064, 31.97940070137992], [34.880216273153096, 31.979668747839444], [34.88015998929492, 31.980075303251233], [34.88012579044031, 31.980352151475177], [34.88011590089689, 31.980432211986177], [34.88005929885099, 31.98069253415624], [34.8800056348587, 31.980844228657887], [34.879923342854745, 31.980997257668655], [34.8798207088419, 31.981188112250614], [34.87976318853552, 31.981277332293875], [34.87972400257919, 31.981338112969624], [34.879524046002366, 31.981545363836364], [34.879382157005125, 31.98170439203236], [34.87899762685797, 31.98209107138281], [34.878673838972475, 31.98242014117772], [34.87860004923969, 31.982495863975576], [34.878049476104906, 31.98305507672924], [34.87778795682481, 31.98332031036745], [34.87714236697492, 31.98397264383646], [34.87673684182301, 31.984388119752136], [34.87590538763225, 31.985232538229102], [34.87556590067929, 31.985578291297216], [34.87545093410988, 31.98569383563205], [34.87498583291332, 31.986161268457383], [34.87471588803998, 31.986440181127406], [34.87416892300803, 31.98699507885934], [34.87362288370448, 31.987549644706935], [34.8733614714898, 31.987820377432925], [34.872784557441626, 31.988395394913443], [34.8720884415708, 31.989102615961766], [34.87178211828749, 31.989411810517396], [34.8714427435811, 31.98975893405901], [34.87080070989209, 31.99041418344678]]]}}]}