{"type": "FeatureCollection", "name": "מוסדות מנהלה", "features": [{"type": "Feature", "properties": {"OBJECTID": 1, "subtype": "ועד", "Descriptio": "ועד מקומי +ועד אגודה אחיעזר", "yeshuv": "אחיעזר", "phone": " ", "layer_n": "מוסדות מנהלה", "Type_Code": 14}, "geometry": {"type": "Point", "coordinates": [34.87251601316027, 31.981953746770653]}}, {"type": "Feature", "properties": {"OBJECTID": 2, "subtype": "ועד", "Descriptio": "ועד מקומי + ועד אגודה מושב זיתן", "yeshuv": "זיתן", "phone": " ", "layer_n": "מוסדות מנהלה", "Type_Code": 14}, "geometry": {"type": "Point", "coordinates": [34.893072642765176, 31.975809809679436]}}, {"type": "Feature", "properties": {"OBJECTID": 3, "subtype": "ועד", "Descriptio": "ועד מקומי - ועד אגודה - מושב ניר צבי", "yeshuv": "ניר צבי", "phone": " ", "layer_n": "מוסדות מנהלה", "Type_Code": 14}, "geometry": {"type": "Point", "coordinates": [34.859544335551, 31.951917447376626]}}, {"type": "Feature", "properties": {"OBJECTID": 4, "subtype": "ועד", "Descriptio": "ועד מקומי + ועד אגודה כפר חב\"ד", "yeshuv": "כפר חבד", "phone": " ", "layer_n": "מוסדות מנהלה", "Type_Code": 14}, "geometry": {"type": "Point", "coordinates": [34.848186672410506, 31.99084792455321]}}, {"type": "Feature", "properties": {"OBJECTID": 5, "subtype": "ועד", "Descriptio": "ועד מקומי + ועד אגודה משמר השבעה", "yeshuv": "משמר השבעה", "phone": " ", "layer_n": "מוסדות מנהלה", "Type_Code": 14}, "geometry": {"type": "Point", "coordinates": [34.82212476860918, 32.010072976794184]}}, {"type": "Feature", "properties": {"OBJECTID": 6, "subtype": "ועד", "Descriptio": "ועד מקומי צפריה", "yeshuv": "צפריה", "phone": " ", "layer_n": "מוסדות מנהלה", "Type_Code": 14}, "geometry": {"type": "Point", "coordinates": [34.85327917954448, 32.00414021124714]}}, {"type": "Feature", "properties": {"OBJECTID": 7, "subtype": "ועד", "Descriptio": "ועד אגודה - צפריה", "yeshuv": "צפריה", "phone": " ", "layer_n": "מוסדות מנהלה", "Type_Code": 14}, "geometry": {"type": "Point", "coordinates": [34.853008296890934, 32.00422491059203]}}, {"type": "Feature", "properties": {"OBJECTID": 8, "subtype": "ועד", "Descriptio": "ועד מקומי + ועד אגודה יגל", "yeshuv": "יגל", "phone": " ", "layer_n": "מוסדות מנהלה", "Type_Code": 14}, "geometry": {"type": "Point", "coordinates": [34.87979845990816, 31.987516074035064]}}, {"type": "Feature", "properties": {"OBJECTID": 9, "subtype": "ועד", "Descriptio": "ועד מקומי + ועד אגודה מושב גנות", "yeshuv": "גנות", "phone": " ", "layer_n": "מוסדות מנהלה", "Type_Code": 14}, "geometry": {"type": "Point", "coordinates": [34.82796080973676, 32.01774088142017]}}, {"type": "Feature", "properties": {"OBJECTID": 10, "subtype": "ועד", "Descriptio": "ועד מקומי מושב חמד", "yeshuv": "חמד", "phone": " ", "layer_n": "מוסדות מנהלה", "Type_Code": 14}, "geometry": {"type": "Point", "coordinates": [34.84011187622896, 32.018283449126095]}}, {"type": "Feature", "properties": {"OBJECTID": 11, "subtype": "ועד", "Descriptio": "מזכירות זיתן", "yeshuv": "זיתן", "phone": " ", "layer_n": "מוסדות מנהלה", "Type_Code": 14}, "geometry": {"type": "Point", "coordinates": [34.889074404082564, 31.976143686780414]}}, {"type": "Feature", "properties": {"OBJECTID": 12, "subtype": "ועד", "Descriptio": "מזכירות אחיעזר", "yeshuv": "אחיעזר", "phone": " ", "layer_n": "מוסדות מנהלה", "Type_Code": 14}, "geometry": {"type": "Point", "coordinates": [34.87173272955218, 31.980762736929908]}}, {"type": "Feature", "properties": {"OBJECTID": 13, "subtype": "ועד", "Descriptio": "מזכירות יגל", "yeshuv": "יגל", "phone": " ", "layer_n": "מוסדות מנהלה", "Type_Code": 14}, "geometry": {"type": "Point", "coordinates": [34.88062817582691, 31.98703044055478]}}, {"type": "Feature", "properties": {"OBJECTID": 14, "subtype": "ועד", "Descriptio": "מועצה אזורית שדות דן", "yeshuv": "כפר חבד", "phone": " ", "layer_n": "מוסדות מנהלה", "Type_Code": 14}, "geometry": {"type": "Point", "coordinates": [34.84797597814893, 31.99113566466372]}}, {"type": "Feature", "properties": {"OBJECTID": 15, "subtype": "ועד", "Descriptio": "מועצה דתית שדות דן", "yeshuv": "צפריה", "phone": " ", "layer_n": "מוסדות מנהלה", "Type_Code": 14}, "geometry": {"type": "Point", "coordinates": [34.85298024630762, 32.00453569106044]}}, {"type": "Feature", "properties": {"OBJECTID": 133, "subtype": "מד\"א + שיטור קהילתי", "Descriptio": "מד\"א + שיטור קהילתי", "yeshuv": "יגל", "phone": " ", "layer_n": "מוסדות מנהלה", "Type_Code": 14}, "geometry": {"type": "Point", "coordinates": [34.88043725407493, 31.987443185628987]}}, {"type": "Feature", "properties": {"OBJECTID": 134, "subtype": "מד\"א + שיטור קהילתי", "Descriptio": "מד\"א + שיטור קהילתי", "yeshuv": "יגל", "phone": " ", "layer_n": "מוסדות מנהלה", "Type_Code": 14}, "geometry": {"type": "Point", "coordinates": [34.88043725407493, 31.987443185628987]}}, {"type": "Feature", "properties": {"OBJECTID": 135, "subtype": "שיטור", "Descriptio": "שיטור קהילתי", "yeshuv": "משמר השבעה", "phone": " ", "layer_n": "מוסדות מנהלה", "Type_Code": 14}, "geometry": {"type": "Point", "coordinates": [34.822115772352525, 32.00946484659905]}}, {"type": "Feature", "properties": {"OBJECTID": 138, "subtype": "דואר", "Descriptio": "סניף הדואר - מושב ניר צבי", "yeshuv": "ניר צבי", "phone": " ", "layer_n": "מוסדות מנהלה", "Type_Code": 14}, "geometry": {"type": "Point", "coordinates": [34.862147313079014, 31.95219828782312]}}, {"type": "Feature", "properties": {"OBJECTID": 139, "subtype": "דואר", "Descriptio": "סניף  דואר - כפר חב\"ד", "yeshuv": "כפר חבד", "phone": " ", "layer_n": "מוסדות מנהלה", "Type_Code": 14}, "geometry": {"type": "Point", "coordinates": [34.849626335874845, 31.99250547293053]}}]}