{"type": "FeatureCollection", "name": "בתי כנסת ומקוואות", "features": [{"type": "Feature", "properties": {"OBJECTID": 33, "Descriptio": "בית כנסת כפר חב\"ד", "subtype": "בית כנסת", "yeshuv": " ", "phone": " ", "layer_n": "בתי כנסת ומקוואות", "Type_Code": 10}, "geometry": {"type": "Point", "coordinates": [34.86429171781466, 31.994770528841208]}}, {"type": "Feature", "properties": {"OBJECTID": 88, "Descriptio": "מקווה לנשים-שירת הלויים", "subtype": "מקווה", "yeshuv": "יגל", "phone": " ", "layer_n": "בתי כנסת ומקוואות", "Type_Code": 10}, "geometry": {"type": "Point", "coordinates": [34.88011251701314, 31.98849231503268]}}]}