{"type": "FeatureCollection", "name": "מסחר וחנויות", "features": [{"type": "Feature", "properties": {"Descriptio": "צרכניה", "subtype": "צרכנייה/סופר", "yeshuv": "יגל", "OBJECTID": 38, "phone": " ", "layer_n": "מסחר וחנויות", "Type_Code": 20}, "geometry": {"type": "Point", "coordinates": [34.88078428057198, 31.986880371635795]}}, {"type": "Feature", "properties": {"Descriptio": "צרכניה", "subtype": "צרכנייה/סופר", "yeshuv": "צפריה", "OBJECTID": 39, "phone": " ", "layer_n": "מסחר וחנויות", "Type_Code": 20}, "geometry": {"type": "Point", "coordinates": [34.85480545144111, 32.00437755429188]}}, {"type": "Feature", "properties": {"Descriptio": "צרכניה- סופר סופר", "subtype": "צרכנייה/סופר", "yeshuv": "חמד", "OBJECTID": 40, "phone": " ", "layer_n": "מסחר וחנויות", "Type_Code": 20}, "geometry": {"type": "Point", "coordinates": [34.841302816604404, 32.01960683492789]}}, {"type": "Feature", "properties": {"Descriptio": "צרכניה", "subtype": "צרכנייה/סופר", "yeshuv": "זיתן", "OBJECTID": 41, "phone": " ", "layer_n": "מסחר וחנויות", "Type_Code": 20}, "geometry": {"type": "Point", "coordinates": [34.89322740784743, 31.975985562685832]}}, {"type": "Feature", "properties": {"Descriptio": "צרכניה- סופר סופר", "subtype": "צרכנייה/סופר", "yeshuv": "משמר השבעה", "OBJECTID": 42, "phone": " ", "layer_n": "מסחר וחנויות", "Type_Code": 20}, "geometry": {"type": "Point", "coordinates": [34.82164113517922, 32.00946341544754]}}, {"type": "Feature", "properties": {"Descriptio": "צרכניה", "subtype": "צרכנייה/סופר", "yeshuv": "גנות", "OBJECTID": 43, "phone": " ", "layer_n": "מסחר וחנויות", "Type_Code": 20}, "geometry": {"type": "Point", "coordinates": [34.828423071964174, 32.01850931943588]}}, {"type": "Feature", "properties": {"Descriptio": "צרכניה-מושב ניר צבי", "subtype": "צרכנייה/סופר", "yeshuv": "ניר צבי", "OBJECTID": 44, "phone": " ", "layer_n": "מסחר וחנויות", "Type_Code": 20}, "geometry": {"type": "Point", "coordinates": [34.862280158397894, 31.952221312770487]}}, {"type": "Feature", "properties": {"Descriptio": "צרכניה היפר ליפסקר", "subtype": "צרכנייה/סופר", "yeshuv": "כפר חבד", "OBJECTID": 45, "phone": "03-9606720", "layer_n": "מסחר וחנויות", "Type_Code": 20}, "geometry": {"type": "Point", "coordinates": [34.849387656308814, 31.992505700015723]}}, {"type": "Feature", "properties": {"Descriptio": "קיוסק גיטלה -", "subtype": "מזון", "yeshuv": "כפר חבד", "OBJECTID": 46, "phone": "03-9604478", "layer_n": "מסחר וחנויות", "Type_Code": 20}, "geometry": {"type": "Point", "coordinates": [34.84966982586323, 31.992299203372593]}}, {"type": "Feature", "properties": {"Descriptio": "חנות בשר - שיקייביץ", "subtype": "מזון", "yeshuv": "כפר חבד", "OBJECTID": 47, "phone": "03-9606663", "layer_n": "מסחר וחנויות", "Type_Code": 20}, "geometry": {"type": "Point", "coordinates": [34.84973920644586, 31.992276729577306]}}, {"type": "Feature", "properties": {"Descriptio": "חנות שנאורסון דגים -", "subtype": "מזון", "yeshuv": "כפר חבד", "OBJECTID": 48, "phone": "03-9606281", "layer_n": "מסחר וחנויות", "Type_Code": 20}, "geometry": {"type": "Point", "coordinates": [34.8497050701849, 31.992234878886368]}}, {"type": "Feature", "properties": {"Descriptio": "לב הזכוכית - זגג -", "subtype": "כלי בית", "yeshuv": "כפר חבד", "OBJECTID": 49, "phone": "03-9607571", "layer_n": "מסחר וחנויות", "Type_Code": 20}, "geometry": {"type": "Point", "coordinates": [34.851970150897905, 31.993126106508363]}}, {"type": "Feature", "properties": {"Descriptio": "ליפשיץ -עוף חב\"ד", "subtype": "מזון", "yeshuv": "כפר חבד", "OBJECTID": 50, "phone": "03-9606558", "layer_n": "מסחר וחנויות", "Type_Code": 20}, "geometry": {"type": "Point", "coordinates": [34.852885315600936, 31.992853059273553]}}, {"type": "Feature", "properties": {"Descriptio": "חוני הכל לבית-טמבור", "subtype": "כלי בית", "yeshuv": "כפר חבד", "OBJECTID": 51, "phone": "03-9606056", "layer_n": "מסחר וחנויות", "Type_Code": 20}, "geometry": {"type": "Point", "coordinates": [34.849551969698176, 31.992550301041447]}}, {"type": "Feature", "properties": {"Descriptio": "זלמנס פיצה", "subtype": "מסעדה", "yeshuv": "כפר חבד", "OBJECTID": 52, "phone": "03-9607092", "layer_n": "מסחר וחנויות", "Type_Code": 20}, "geometry": {"type": "Point", "coordinates": [34.84955190271409, 31.991840458353597]}}, {"type": "Feature", "properties": {"Descriptio": "מסעדת 770", "subtype": "מסעדה", "yeshuv": "כפר חבד", "OBJECTID": 53, "phone": " ", "layer_n": "מסחר וחנויות", "Type_Code": 20}, "geometry": {"type": "Point", "coordinates": [34.8479642085458, 31.989009165178693]}}, {"type": "Feature", "properties": {"Descriptio": "צרכניית סופרזול שאול ביץ", "subtype": "צרכנייה/סופר", "yeshuv": "כפר חבד", "OBJECTID": 54, "phone": "03-9607253", "layer_n": "מסחר וחנויות", "Type_Code": 20}, "geometry": {"type": "Point", "coordinates": [34.853040746816816, 31.986598521198594]}}, {"type": "Feature", "properties": {"Descriptio": "צרכניית אהרון כהן", "subtype": "צרכנייה/סופר", "yeshuv": "כפר חבד", "OBJECTID": 55, "phone": "03-9606149", "layer_n": "מסחר וחנויות", "Type_Code": 20}, "geometry": {"type": "Point", "coordinates": [34.85756829387517, 31.98568281022749]}}]}