{"type": "FeatureCollection", "name": "כתובות", "features": [{"type": "Feature", "properties": {"SETL_CODE": 594, "SETL_NAME": "צפריה", "STR_CODE": 105, "STR_NAME": "התאנה", "HOUSE_NUM": 261, "ENTRY_LETR": null, "origin": "מפי", "OBJECTID": 3, "full_address": "התאנה 261, צפריה"}, "geometry": {"type": "Point", "coordinates": [34.862824247534775, 32.00122370950882]}}, {"type": "Feature", "properties": {"SETL_CODE": 594, "SETL_NAME": "צפריה", "STR_CODE": 105, "STR_NAME": "התאנה", "HOUSE_NUM": 245, "ENTRY_LETR": null, "origin": "מפי", "OBJECTID": 18, "full_address": "התאנה 245, צפריה"}, "geometry": {"type": "Point", "coordinates": [34.86171064407491, 32.00000420777643]}}, {"type": "Feature", "properties": {"SETL_CODE": 594, "SETL_NAME": "צפריה", "STR_CODE": 105, "STR_NAME": "התאנה", "HOUSE_NUM": 243, "ENTRY_LETR": null, "origin": "מפי", "OBJECTID": 21, "full_address": "התאנה 243, צפריה"}, "geometry": {"type": "Point", "coordinates": [34.86266414948624, 32.00141193184122]}}, {"type": "Feature", "properties": {"SETL_CODE": 594, "SETL_NAME": "צפריה", "STR_CODE": 105, "STR_NAME": "התאנה", "HOUSE_NUM": 256, "ENTRY_LETR": null, "origin": "מפי", "OBJECTID": 34, "full_address": "התאנה 256, צפריה"}, "geometry": {"type": "Point", "coordinates": [34.862524053285334, 32.00093305361766]}}, {"type": "Feature", "properties": {"SETL_CODE": 594, "SETL_NAME": "צפריה", "STR_CODE": 105, "STR_NAME": "התאנה", "HOUSE_NUM": 254, "ENTRY_LETR": null, "origin": "מפי", "OBJECTID": 39, "full_address": "התאנה 254, צפריה"}, "geometry": {"type": "Point", "coordinates": [34.86267211343885, 32.00064228212955]}}, {"type": "Feature", "properties": {"SETL_CODE": 594, "SETL_NAME": "צפריה", "STR_CODE": 105, "STR_NAME": "התאנה", "HOUSE_NUM": 226, "ENTRY_LETR": null, "origin": "מפי", "OBJECTID": 45, "full_address": "התאנה 226, צפריה"}, "geometry": {"type": "Point", "coordinates": [34.86148873133682, 32.00032481582588]}}, {"type": "Feature", "properties": {"SETL_CODE": 594, "SETL_NAME": "צפריה", "STR_CODE": 105, "STR_NAME": "התאנה", "HOUSE_NUM": 246, "ENTRY_LETR": null, "origin": "מפי", "OBJECTID": 63, "full_address": "התאנה 246, צפריה"}, "geometry": {"type": "Point", "coordinates": [34.86193721020919, 32.00005240038941]}}, {"type": "Feature", "properties": {"SETL_CODE": 594, "SETL_NAME": "צפריה", "STR_CODE": 105, "STR_NAME": "התאנה", "HOUSE_NUM": 232, "ENTRY_LETR": null, "origin": "מפי", "OBJECTID": 84, "full_address": "התאנה 232, צפריה"}, "geometry": {"type": "Point", "coordinates": [34.861797545311305, 32.000909432705186]}}, {"type": "Feature", "properties": {"SETL_CODE": 594, "SETL_NAME": "צפריה", "STR_CODE": 105, "STR_NAME": "התאנה", "HOUSE_NUM": 237, "ENTRY_LETR": null, "origin": "מפי", "OBJECTID": 104, "full_address": "התאנה 237, צפריה"}, "geometry": {"type": "Point", "coordinates": [34.861447797952316, 32.00105318833395]}}, {"type": "Feature", "properties": {"SETL_CODE": 594, "SETL_NAME": "צפריה", "STR_CODE": 105, "STR_NAME": "התאנה", "HOUSE_NUM": 225, "ENTRY_LETR": null, "origin": "מפי", "OBJECTID": 116, "full_address": "התאנה 225, צפריה"}, "geometry": {"type": "Point", "coordinates": [34.86143592615244, 32.0004749575685]}}, {"type": "Feature", "properties": {"SETL_CODE": 594, "SETL_NAME": "צפריה", "STR_CODE": 105, "STR_NAME": "התאנה", "HOUSE_NUM": 251, "ENTRY_LETR": null, "origin": "מפי", "OBJECTID": 152, "full_address": "התאנה 251, צפריה"}, "geometry": {"type": "Point", "coordinates": [34.86290697708517, 32.00040874072423]}}, {"type": "Feature", "properties": {"SETL_CODE": 594, "SETL_NAME": "צפריה", "STR_CODE": 105, "STR_NAME": "התאנה", "HOUSE_NUM": 235, "ENTRY_LETR": null, "origin": "מפי", "OBJECTID": 180, "full_address": "התאנה 235, צפריה"}, "geometry": {"type": "Point", "coordinates": [34.861063117443436, 32.00095772116803]}}, {"type": "Feature", "properties": {"SETL_CODE": 594, "SETL_NAME": "צפריה", "STR_CODE": 105, "STR_NAME": "התאנה", "HOUSE_NUM": 248, "ENTRY_LETR": null, "origin": "מפי", "OBJECTID": 185, "full_address": "התאנה 248, צפריה"}, "geometry": {"type": "Point", "coordinates": [34.86231998173566, 32.00022317469254]}}, {"type": "Feature", "properties": {"SETL_CODE": 594, "SETL_NAME": "צפריה", "STR_CODE": 105, "STR_NAME": "התאנה", "HOUSE_NUM": 259, "ENTRY_LETR": null, "origin": "מפי", "OBJECTID": 194, "full_address": "התאנה 259, צפריה"}, "geometry": {"type": "Point", "coordinates": [34.862945970801746, 32.0008582228229]}}, {"type": "Feature", "properties": {"SETL_CODE": 594, "SETL_NAME": "צפריה", "STR_CODE": 105, "STR_NAME": "התאנה", "HOUSE_NUM": 250, "ENTRY_LETR": null, "origin": "מפי", "OBJECTID": 221, "full_address": "התאנה 250, צפריה"}, "geometry": {"type": "Point", "coordinates": [34.862715629793726, 32.000355057118234]}}, {"type": "Feature", "properties": {"SETL_CODE": 594, "SETL_NAME": "צפריה", "STR_CODE": 105, "STR_NAME": "התאנה", "HOUSE_NUM": 239, "ENTRY_LETR": null, "origin": "מפי", "OBJECTID": 223, "full_address": "התאנה 239, צפריה"}, "geometry": {"type": "Point", "coordinates": [34.86187508490497, 32.00118745126921]}}, {"type": "Feature", "properties": {"SETL_CODE": 594, "SETL_NAME": "צפריה", "STR_CODE": 105, "STR_NAME": "התאנה", "HOUSE_NUM": 238, "ENTRY_LETR": null, "origin": "מפי", "OBJECTID": 235, "full_address": "התאנה 238, צפריה"}, "geometry": {"type": "Point", "coordinates": [34.86163393428494, 32.00111873290092]}}, {"type": "Feature", "properties": {"SETL_CODE": 594, "SETL_NAME": "צפריה", "STR_CODE": 105, "STR_NAME": "התאנה", "HOUSE_NUM": 229, "ENTRY_LETR": null, "origin": "מפי", "OBJECTID": 266, "full_address": "התאנה 229, צפריה"}, "geometry": {"type": "Point", "coordinates": [34.8617204005349, 32.000667082334736]}}, {"type": "Feature", "properties": {"SETL_CODE": 594, "SETL_NAME": "צפריה", "STR_CODE": 105, "STR_NAME": "התאנה", "HOUSE_NUM": 241, "ENTRY_LETR": null, "origin": "מפי", "OBJECTID": 286, "full_address": "התאנה 241, צפריה"}, "geometry": {"type": "Point", "coordinates": [34.862229659336805, 32.00130487844627]}}, {"type": "Feature", "properties": {"SETL_CODE": 594, "SETL_NAME": "צפריה", "STR_CODE": 105, "STR_NAME": "התאנה", "HOUSE_NUM": 242, "ENTRY_LETR": null, "origin": "מפי", "OBJECTID": 297, "full_address": "התאנה 242, צפריה"}, "geometry": {"type": "Point", "coordinates": [34.862449515815634, 32.0013720259746]}}, {"type": "Feature", "properties": {"SETL_CODE": 594, "SETL_NAME": "צפריה", "STR_CODE": 105, "STR_NAME": "התאנה", "HOUSE_NUM": 231, "ENTRY_LETR": null, "origin": "מפי", "OBJECTID": 314, "full_address": "התאנה 231, צפריה"}, "geometry": {"type": "Point", "coordinates": [34.861924173665855, 32.00037494353627]}}, {"type": "Feature", "properties": {"SETL_CODE": 594, "SETL_NAME": "צפריה", "STR_CODE": 105, "STR_NAME": "התאנה", "HOUSE_NUM": 258, "ENTRY_LETR": null, "origin": "מפי", "OBJECTID": 324, "full_address": "התאנה 258, צפריה"}, "geometry": {"type": "Point", "coordinates": [34.86298247120819, 32.000708360326016]}}, {"type": "Feature", "properties": {"SETL_CODE": 594, "SETL_NAME": "צפריה", "STR_CODE": 105, "STR_NAME": "התאנה", "HOUSE_NUM": 247, "ENTRY_LETR": null, "origin": "מפי", "OBJECTID": 329, "full_address": "התאנה 247, צפריה"}, "geometry": {"type": "Point", "coordinates": [34.86213228114226, 32.00015375096204]}}, {"type": "Feature", "properties": {"SETL_CODE": 594, "SETL_NAME": "צפריה", "STR_CODE": 105, "STR_NAME": "התאנה", "HOUSE_NUM": 227, "ENTRY_LETR": null, "origin": "מפי", "OBJECTID": 343, "full_address": "התאנה 227, צפריה"}, "geometry": {"type": "Point", "coordinates": [34.86163760905797, 32.00020233308685]}}, {"type": "Feature", "properties": {"SETL_CODE": 594, "SETL_NAME": "צפריה", "STR_CODE": 105, "STR_NAME": "התאנה", "HOUSE_NUM": 260, "ENTRY_LETR": null, "origin": "מפי", "OBJECTID": 354, "full_address": "התאנה 260, צפריה"}, "geometry": {"type": "Point", "coordinates": [34.862839684149456, 32.00104682285851]}}, {"type": "Feature", "properties": {"SETL_CODE": 594, "SETL_NAME": "צפריה", "STR_CODE": 105, "STR_NAME": "התאנה", "HOUSE_NUM": 233, "ENTRY_LETR": null, "origin": "מפי", "OBJECTID": 362, "full_address": "התאנה 233, צפריה"}, "geometry": {"type": "Point", "coordinates": [34.86201217761318, 32.000949339668225]}}, {"type": "Feature", "properties": {"SETL_CODE": 594, "SETL_NAME": "צפריה", "STR_CODE": 105, "STR_NAME": "התאנה", "HOUSE_NUM": 224, "ENTRY_LETR": null, "origin": "מפי", "OBJECTID": 372, "full_address": "התאנה 224, צפריה"}, "geometry": {"type": "Point", "coordinates": [34.86127653881271, 32.00056911759368]}}, {"type": "Feature", "properties": {"SETL_CODE": 594, "SETL_NAME": "צפריה", "STR_CODE": 105, "STR_NAME": "התאנה", "HOUSE_NUM": 230, "ENTRY_LETR": null, "origin": "מפי", "OBJECTID": 379, "full_address": "התאנה 230, צפריה"}, "geometry": {"type": "Point", "coordinates": [34.86181085268101, 32.00050821979855]}}, {"type": "Feature", "properties": {"SETL_CODE": 594, "SETL_NAME": "צפריה", "STR_CODE": 105, "STR_NAME": "התאנה", "HOUSE_NUM": 223, "ENTRY_LETR": null, "origin": "מפי", "OBJECTID": 385, "full_address": "התאנה 223, צפריה"}, "geometry": {"type": "Point", "coordinates": [34.86116342970624, 32.0006974727063]}}, {"type": "Feature", "properties": {"SETL_CODE": 594, "SETL_NAME": "צפריה", "STR_CODE": 105, "STR_NAME": "התאנה", "HOUSE_NUM": 236, "ENTRY_LETR": null, "origin": "מפי", "OBJECTID": 421, "full_address": "התאנה 236, צפריה"}, "geometry": {"type": "Point", "coordinates": [34.86123500902434, 32.00099513392611]}}, {"type": "Feature", "properties": {"SETL_CODE": 594, "SETL_NAME": "צפריה", "STR_CODE": 105, "STR_NAME": "התאנה", "HOUSE_NUM": 253, "ENTRY_LETR": null, "origin": "מפי", "OBJECTID": 424, "full_address": "התאנה 253, צפריה"}, "geometry": {"type": "Point", "coordinates": [34.863298206902606, 32.00053935052868]}}, {"type": "Feature", "properties": {"SETL_CODE": 594, "SETL_NAME": "צפריה", "STR_CODE": 105, "STR_NAME": "התאנה", "HOUSE_NUM": 249, "ENTRY_LETR": null, "origin": "מפי", "OBJECTID": 492, "full_address": "התאנה 249, צפריה"}, "geometry": {"type": "Point", "coordinates": [34.86251296780222, 32.00028112613006]}}, {"type": "Feature", "properties": {"SETL_CODE": 594, "SETL_NAME": "צפריה", "STR_CODE": 105, "STR_NAME": "התאנה", "HOUSE_NUM": 257, "ENTRY_LETR": null, "origin": "מפי", "OBJECTID": 516, "full_address": "התאנה 257, צפריה"}, "geometry": {"type": "Point", "coordinates": [34.862522235929724, 32.00107516825986]}}, {"type": "Feature", "properties": {"SETL_CODE": 594, "SETL_NAME": "צפריה", "STR_CODE": 105, "STR_NAME": "התאנה", "HOUSE_NUM": 244, "ENTRY_LETR": null, "origin": "מפי", "OBJECTID": 528, "full_address": "התאנה 244, צפריה"}, "geometry": {"type": "Point", "coordinates": [34.86286981237818, 32.00147752718888]}}, {"type": "Feature", "properties": {"SETL_CODE": 594, "SETL_NAME": "צפריה", "STR_CODE": 105, "STR_NAME": "התאנה", "HOUSE_NUM": 252, "ENTRY_LETR": null, "origin": "מפי", "OBJECTID": 550, "full_address": "התאנה 252, צפריה"}, "geometry": {"type": "Point", "coordinates": [34.863079139971234, 32.00047026050237]}}, {"type": "Feature", "properties": {"SETL_CODE": 594, "SETL_NAME": "צפריה", "STR_CODE": 105, "STR_NAME": "התאנה", "HOUSE_NUM": 228, "ENTRY_LETR": null, "origin": "מפי", "OBJECTID": 562, "full_address": "התאנה 228, צפריה"}, "geometry": {"type": "Point", "coordinates": [34.861526213357415, 32.0007975869039]}}, {"type": "Feature", "properties": {"SETL_CODE": 594, "SETL_NAME": "צפריה", "STR_CODE": 105, "STR_NAME": "התאנה", "HOUSE_NUM": 240, "ENTRY_LETR": null, "origin": "מפי", "OBJECTID": 588, "full_address": "התאנה 240, צפריה"}, "geometry": {"type": "Point", "coordinates": [34.86206662566493, 32.00123183367081]}}, {"type": "Feature", "properties": {"SETL_CODE": 594, "SETL_NAME": "צפריה", "STR_CODE": 105, "STR_NAME": "התאנה", "HOUSE_NUM": 234, "ENTRY_LETR": null, "origin": "מפי", "OBJECTID": 610, "full_address": "התאנה 234, צפריה"}, "geometry": {"type": "Point", "coordinates": [34.862215857025205, 32.000991812117576]}}, {"type": "Feature", "properties": {"SETL_CODE": 594, "SETL_NAME": "צפריה", "STR_CODE": 105, "STR_NAME": "התאנה", "HOUSE_NUM": 255, "ENTRY_LETR": null, "origin": "מפי", "OBJECTID": 627, "full_address": "התאנה 255, צפריה"}, "geometry": {"type": "Point", "coordinates": [34.86264461819476, 32.000787063689124]}}, {"type": "Feature", "properties": {"SETL_CODE": 797, "SETL_NAME": "אחיעזר", "STR_CODE": 104, "STR_NAME": "הרימון", "HOUSE_NUM": 333, "ENTRY_LETR": null, "origin": "מספר מגרש", "OBJECTID": 1078, "full_address": "הרימון 333, אחיעזר"}, "geometry": {"type": "Point", "coordinates": [34.865290421279134, 31.988560227108927]}}, {"type": "Feature", "properties": {"SETL_CODE": 797, "SETL_NAME": "אחיעזר", "STR_CODE": 104, "STR_NAME": "הרימון", "HOUSE_NUM": 390, "ENTRY_LETR": null, "origin": "מספר מגרש", "OBJECTID": 1079, "full_address": "הרימון 390, אחיעזר"}, "geometry": {"type": "Point", "coordinates": [34.86433527892165, 31.988894385122677]}}, {"type": "Feature", "properties": {"SETL_CODE": 797, "SETL_NAME": "אחיעזר", "STR_CODE": 103, "STR_NAME": "הזית", "HOUSE_NUM": 335, "ENTRY_LETR": null, "origin": "מספר מגרש", "OBJECTID": 1080, "full_address": "הזית 335, אחיעזר"}, "geometry": {"type": "Point", "coordinates": [34.864936160390236, 31.988313253379605]}}, {"type": "Feature", "properties": {"SETL_CODE": 797, "SETL_NAME": "אחיעזר", "STR_CODE": 104, "STR_NAME": "הרימון", "HOUSE_NUM": 393, "ENTRY_LETR": null, "origin": "מספר מגרש", "OBJECTID": 1081, "full_address": "הרימון 393, אחיעזר"}, "geometry": {"type": "Point", "coordinates": [34.86474570672577, 31.988457430168985]}}, {"type": "Feature", "properties": {"SETL_CODE": 797, "SETL_NAME": "אחיעזר", "STR_CODE": 104, "STR_NAME": "הרימון", "HOUSE_NUM": 391, "ENTRY_LETR": null, "origin": "מספר מגרש", "OBJECTID": 1082, "full_address": "הרימון 391, אחיעזר"}, "geometry": {"type": "Point", "coordinates": [34.86447508940855, 31.988756976637895]}}, {"type": "Feature", "properties": {"SETL_CODE": 797, "SETL_NAME": "אחיעזר", "STR_CODE": 101, "STR_NAME": "הגפן", "HOUSE_NUM": 313, "ENTRY_LETR": null, "origin": "מספר מגרש", "OBJECTID": 1087, "full_address": "הגפן 313, אחיעזר"}, "geometry": {"type": "Point", "coordinates": [34.862159469990985, 31.987731883049506]}}, {"type": "Feature", "properties": {"SETL_CODE": 797, "SETL_NAME": "אחיעזר", "STR_CODE": 101, "STR_NAME": "הגפן", "HOUSE_NUM": 314, "ENTRY_LETR": null, "origin": "מספר מגרש", "OBJECTID": 1088, "full_address": "הגפן 314, אחיעזר"}, "geometry": {"type": "Point", "coordinates": [34.86231424916038, 31.987841346515186]}}, {"type": "Feature", "properties": {"SETL_CODE": 797, "SETL_NAME": "אחיעזר", "STR_CODE": 101, "STR_NAME": "הגפן", "HOUSE_NUM": 315, "ENTRY_LETR": null, "origin": "מספר מגרש", "OBJECTID": 1089, "full_address": "הגפן 315, אחיעזר"}, "geometry": {"type": "Point", "coordinates": [34.86247247055715, 31.987991371396514]}}, {"type": "Feature", "properties": {"SETL_CODE": 797, "SETL_NAME": "אחיעזר", "STR_CODE": 101, "STR_NAME": "הגפן", "HOUSE_NUM": 316, "ENTRY_LETR": null, "origin": "מספר מגרש", "OBJECTID": 1090, "full_address": "הגפן 316, אחיעזר"}, "geometry": {"type": "Point", "coordinates": [34.86263608676431, 31.988104580023492]}}, {"type": "Feature", "properties": {"SETL_CODE": 797, "SETL_NAME": "אחיעזר", "STR_CODE": 101, "STR_NAME": "הגפן", "HOUSE_NUM": 317, "ENTRY_LETR": null, "origin": "מספר מגרש", "OBJECTID": 1091, "full_address": "הגפן 317, אחיעזר"}, "geometry": {"type": "Point", "coordinates": [34.862799961496606, 31.988224657275577]}}, {"type": "Feature", "properties": {"SETL_CODE": 797, "SETL_NAME": "אחיעזר", "STR_CODE": 101, "STR_NAME": "הגפן", "HOUSE_NUM": 318, "ENTRY_LETR": null, "origin": "מספר מגרש", "OBJECTID": 1092, "full_address": "הגפן 318, אחיעזר"}, "geometry": {"type": "Point", "coordinates": [34.8630399315098, 31.988227596262963]}}, {"type": "Feature", "properties": {"SETL_CODE": 797, "SETL_NAME": "אחיעזר", "STR_CODE": 101, "STR_NAME": "הגפן", "HOUSE_NUM": 319, "ENTRY_LETR": null, "origin": "מספר מגרש", "OBJECTID": 1093, "full_address": "הגפן 319, אחיעזר"}, "geometry": {"type": "Point", "coordinates": [34.86328113584441, 31.98820437046244]}}, {"type": "Feature", "properties": {"SETL_CODE": 797, "SETL_NAME": "אחיעזר", "STR_CODE": 101, "STR_NAME": "הגפן", "HOUSE_NUM": 320, "ENTRY_LETR": null, "origin": "מספר מגרש", "OBJECTID": 1094, "full_address": "הגפן 320, אחיעזר"}, "geometry": {"type": "Point", "coordinates": [34.86347680140622, 31.988192383708522]}}, {"type": "Feature", "properties": {"SETL_CODE": 797, "SETL_NAME": "אחיעזר", "STR_CODE": 104, "STR_NAME": "הרימון", "HOUSE_NUM": 321, "ENTRY_LETR": null, "origin": "מספר מגרש", "OBJECTID": 1095, "full_address": "הרימון 321, אחיעזר"}, "geometry": {"type": "Point", "coordinates": [34.86346199796562, 31.98839502442897]}}, {"type": "Feature", "properties": {"SETL_CODE": 797, "SETL_NAME": "אחיעזר", "STR_CODE": 104, "STR_NAME": "הרימון", "HOUSE_NUM": 322, "ENTRY_LETR": null, "origin": "מספר מגרש", "OBJECTID": 1096, "full_address": "הרימון 322, אחיעזר"}, "geometry": {"type": "Point", "coordinates": [34.86346837316284, 31.98854980106792]}}, {"type": "Feature", "properties": {"SETL_CODE": 797, "SETL_NAME": "אחיעזר", "STR_CODE": 104, "STR_NAME": "הרימון", "HOUSE_NUM": 323, "ENTRY_LETR": null, "origin": "מספר מגרש", "OBJECTID": 1097, "full_address": "הרימון 323, אחיעזר"}, "geometry": {"type": "Point", "coordinates": [34.863641713779494, 31.988814109256893]}}, {"type": "Feature", "properties": {"SETL_CODE": 797, "SETL_NAME": "אחיעזר", "STR_CODE": 104, "STR_NAME": "הרימון", "HOUSE_NUM": 324, "ENTRY_LETR": null, "origin": "מספר מגרש", "OBJECTID": 1098, "full_address": "הרימון 324, אחיעזר"}, "geometry": {"type": "Point", "coordinates": [34.86380449666203, 31.98892711213339]}}, {"type": "Feature", "properties": {"SETL_CODE": 797, "SETL_NAME": "אחיעזר", "STR_CODE": 104, "STR_NAME": "הרימון", "HOUSE_NUM": 325, "ENTRY_LETR": null, "origin": "מספר מגרש", "OBJECTID": 1099, "full_address": "הרימון 325, אחיעזר"}, "geometry": {"type": "Point", "coordinates": [34.86396575432963, 31.989041490469546]}}, {"type": "Feature", "properties": {"SETL_CODE": 797, "SETL_NAME": "אחיעזר", "STR_CODE": 104, "STR_NAME": "הרימון", "HOUSE_NUM": 326, "ENTRY_LETR": null, "origin": "מספר מגרש", "OBJECTID": 1100, "full_address": "הרימון 326, אחיעזר"}, "geometry": {"type": "Point", "coordinates": [34.864133639845356, 31.989161216033533]}}, {"type": "Feature", "properties": {"SETL_CODE": 797, "SETL_NAME": "אחיעזר", "STR_CODE": 104, "STR_NAME": "הרימון", "HOUSE_NUM": 327, "ENTRY_LETR": null, "origin": "מספר מגרש", "OBJECTID": 1101, "full_address": "הרימון 327, אחיעזר"}, "geometry": {"type": "Point", "coordinates": [34.86429761765987, 31.98928221056261]}}, {"type": "Feature", "properties": {"SETL_CODE": 797, "SETL_NAME": "אחיעזר", "STR_CODE": 101, "STR_NAME": "הגפן", "HOUSE_NUM": 362, "ENTRY_LETR": null, "origin": "מספר מגרש", "OBJECTID": 1103, "full_address": "הגפן 362, אחיעזר"}, "geometry": {"type": "Point", "coordinates": [34.8627105581494, 31.987729523592183]}}, {"type": "Feature", "properties": {"SETL_CODE": 797, "SETL_NAME": "אחיעזר", "STR_CODE": 101, "STR_NAME": "הגפן", "HOUSE_NUM": 363, "ENTRY_LETR": null, "origin": "מספר מגרש", "OBJECTID": 1104, "full_address": "הגפן 363, אחיעזר"}, "geometry": {"type": "Point", "coordinates": [34.862998337008285, 31.987887824335633]}}, {"type": "Feature", "properties": {"SETL_CODE": 797, "SETL_NAME": "אחיעזר", "STR_CODE": 101, "STR_NAME": "הגפן", "HOUSE_NUM": 364, "ENTRY_LETR": null, "origin": "מספר מגרש", "OBJECTID": 1105, "full_address": "הגפן 364, אחיעזר"}, "geometry": {"type": "Point", "coordinates": [34.86321226697816, 31.98786730915657]}}, {"type": "Feature", "properties": {"SETL_CODE": 797, "SETL_NAME": "אחיעזר", "STR_CODE": 101, "STR_NAME": "הגפן", "HOUSE_NUM": 365, "ENTRY_LETR": null, "origin": "מספר מגרש", "OBJECTID": 1106, "full_address": "הגפן 365, אחיעזר"}, "geometry": {"type": "Point", "coordinates": [34.86345669692794, 31.9878528436988]}}, {"type": "Feature", "properties": {"SETL_CODE": 797, "SETL_NAME": "אחיעזר", "STR_CODE": 101, "STR_NAME": "הגפן", "HOUSE_NUM": 366, "ENTRY_LETR": null, "origin": "מספר מגרש", "OBJECTID": 1107, "full_address": "הגפן 366, אחיעזר"}, "geometry": {"type": "Point", "coordinates": [34.86370959839898, 31.987710030479164]}}, {"type": "Feature", "properties": {"SETL_CODE": 797, "SETL_NAME": "אחיעזר", "STR_CODE": 104, "STR_NAME": "הרימון", "HOUSE_NUM": 392, "ENTRY_LETR": null, "origin": "מספר מגרש", "OBJECTID": 1123, "full_address": "הרימון 392, אחיעזר"}, "geometry": {"type": "Point", "coordinates": [34.86462843305074, 31.988604028265662]}}, {"type": "Feature", "properties": {"SETL_CODE": 797, "SETL_NAME": "אחיעזר", "STR_CODE": 101, "STR_NAME": "הגפן", "HOUSE_NUM": 340, "ENTRY_LETR": null, "origin": "מספר מגרש", "OBJECTID": 1124, "full_address": "הגפן 340, אחיעזר"}, "geometry": {"type": "Point", "coordinates": [34.864102490860056, 31.987739166777807]}}, {"type": "Feature", "properties": {"SETL_CODE": 797, "SETL_NAME": "אחיעזר", "STR_CODE": 101, "STR_NAME": "הגפן", "HOUSE_NUM": 385, "ENTRY_LETR": null, "origin": "מספר מגרש", "OBJECTID": 1125, "full_address": "הגפן 385, אחיעזר"}, "geometry": {"type": "Point", "coordinates": [34.8638497396142, 31.988020183586922]}}, {"type": "Feature", "properties": {"SETL_CODE": 797, "SETL_NAME": "אחיעזר", "STR_CODE": 101, "STR_NAME": "הגפן", "HOUSE_NUM": 384, "ENTRY_LETR": null, "origin": "מספר מגרש", "OBJECTID": 1126, "full_address": "הגפן 384, אחיעזר"}, "geometry": {"type": "Point", "coordinates": [34.86398207664412, 31.987895207682485]}}, {"type": "Feature", "properties": {"SETL_CODE": 797, "SETL_NAME": "אחיעזר", "STR_CODE": 104, "STR_NAME": "הרימון", "HOUSE_NUM": 386, "ENTRY_LETR": null, "origin": "מספר מגרש", "OBJECTID": 1127, "full_address": "הרימון 386, אחיעזר"}, "geometry": {"type": "Point", "coordinates": [34.86382511926607, 31.988202627360902]}}, {"type": "Feature", "properties": {"SETL_CODE": 797, "SETL_NAME": "אחיעזר", "STR_CODE": 104, "STR_NAME": "הרימון", "HOUSE_NUM": 389, "ENTRY_LETR": null, "origin": "מספר מגרש", "OBJECTID": 1128, "full_address": "הרימון 389, אחיעזר"}, "geometry": {"type": "Point", "coordinates": [34.86416778812312, 31.98875722179116]}}, {"type": "Feature", "properties": {"SETL_CODE": 797, "SETL_NAME": "אחיעזר", "STR_CODE": 104, "STR_NAME": "הרימון", "HOUSE_NUM": 388, "ENTRY_LETR": null, "origin": "מספר מגרש", "OBJECTID": 1129, "full_address": "הרימון 388, אחיעזר"}, "geometry": {"type": "Point", "coordinates": [34.86399911447643, 31.98864136018814]}}, {"type": "Feature", "properties": {"SETL_CODE": 797, "SETL_NAME": "אחיעזר", "STR_CODE": 104, "STR_NAME": "הרימון", "HOUSE_NUM": 387, "ENTRY_LETR": null, "origin": "מספר מגרש", "OBJECTID": 1130, "full_address": "הרימון 387, אחיעזר"}, "geometry": {"type": "Point", "coordinates": [34.863847254930484, 31.988528343583543]}}, {"type": "Feature", "properties": {"SETL_CODE": 797, "SETL_NAME": "אחיעזר", "STR_CODE": 103, "STR_NAME": "הזית", "HOUSE_NUM": 338, "ENTRY_LETR": null, "origin": "מספר מגרש", "OBJECTID": 1131, "full_address": "הזית 338, אחיעזר"}, "geometry": {"type": "Point", "coordinates": [34.864443501755225, 31.98796003708601]}}, {"type": "Feature", "properties": {"SETL_CODE": 797, "SETL_NAME": "אחיעזר", "STR_CODE": 103, "STR_NAME": "הזית", "HOUSE_NUM": 337, "ENTRY_LETR": null, "origin": "מספר מגרש", "OBJECTID": 1132, "full_address": "הזית 337, אחיעזר"}, "geometry": {"type": "Point", "coordinates": [34.86460476958787, 31.988076585293822]}}, {"type": "Feature", "properties": {"SETL_CODE": 797, "SETL_NAME": "אחיעזר", "STR_CODE": 103, "STR_NAME": "הזית", "HOUSE_NUM": 339, "ENTRY_LETR": null, "origin": "מספר מגרש", "OBJECTID": 1133, "full_address": "הזית 339, אחיעזר"}, "geometry": {"type": "Point", "coordinates": [34.86428082668638, 31.98784415674566]}}, {"type": "Feature", "properties": {"SETL_CODE": 797, "SETL_NAME": "אחיעזר", "STR_CODE": 103, "STR_NAME": "הזית", "HOUSE_NUM": 336, "ENTRY_LETR": null, "origin": "מספר מגרש", "OBJECTID": 1134, "full_address": "הזית 336, אחיעזר"}, "geometry": {"type": "Point", "coordinates": [34.86477398060473, 31.988193279904344]}}, {"type": "Feature", "properties": {"SETL_CODE": 797, "SETL_NAME": "אחיעזר", "STR_CODE": 104, "STR_NAME": "הרימון", "HOUSE_NUM": 377, "ENTRY_LETR": null, "origin": "מספר מגרש", "OBJECTID": 1163, "full_address": "הרימון 377, אחיעזר"}, "geometry": {"type": "Point", "coordinates": [34.86452124862313, 31.98936809870571]}}, {"type": "Feature", "properties": {"SETL_CODE": 797, "SETL_NAME": "אחיעזר", "STR_CODE": 104, "STR_NAME": "הרימון", "HOUSE_NUM": 328, "ENTRY_LETR": null, "origin": "מספר מגרש", "OBJECTID": 1164, "full_address": "הרימון 328, אחיעזר"}, "geometry": {"type": "Point", "coordinates": [34.864648241276115, 31.989224964427553]}}, {"type": "Feature", "properties": {"SETL_CODE": 797, "SETL_NAME": "אחיעזר", "STR_CODE": 104, "STR_NAME": "הרימון", "HOUSE_NUM": 329, "ENTRY_LETR": null, "origin": "מספר מגרש", "OBJECTID": 1165, "full_address": "הרימון 329, אחיעזר"}, "geometry": {"type": "Point", "coordinates": [34.86477892488952, 31.98908999761505]}}, {"type": "Feature", "properties": {"SETL_CODE": 797, "SETL_NAME": "אחיעזר", "STR_CODE": 104, "STR_NAME": "הרימון", "HOUSE_NUM": 331, "ENTRY_LETR": null, "origin": "מספר מגרש", "OBJECTID": 1166, "full_address": "הרימון 331, אחיעזר"}, "geometry": {"type": "Point", "coordinates": [34.86505271082454, 31.988805240458824]}}, {"type": "Feature", "properties": {"SETL_CODE": 797, "SETL_NAME": "אחיעזר", "STR_CODE": 104, "STR_NAME": "הרימון", "HOUSE_NUM": 334, "ENTRY_LETR": null, "origin": "מספר מגרש", "OBJECTID": 1167, "full_address": "הרימון 334, אחיעזר"}, "geometry": {"type": "Point", "coordinates": [34.865411935475464, 31.988434740137393]}}, {"type": "Feature", "properties": {"SETL_CODE": 797, "SETL_NAME": "אחיעזר", "STR_CODE": 104, "STR_NAME": "הרימון", "HOUSE_NUM": 330, "ENTRY_LETR": null, "origin": "מספר מגרש", "OBJECTID": 1168, "full_address": "הרימון 330, אחיעזר"}, "geometry": {"type": "Point", "coordinates": [34.86492830671524, 31.98893797526076]}}, {"type": "Feature", "properties": {"SETL_CODE": 797, "SETL_NAME": "אחיעזר", "STR_CODE": 104, "STR_NAME": "הרימון", "HOUSE_NUM": 332, "ENTRY_LETR": null, "origin": "מספר מגרש", "OBJECTID": 1169, "full_address": "הרימון 332, אחיעזר"}, "geometry": {"type": "Point", "coordinates": [34.86517265426437, 31.988657349609436]}}, {"type": "Feature", "properties": {"SETL_CODE": 797, "SETL_NAME": "אחיעזר", "STR_CODE": 105, "STR_NAME": "האתרוג", "HOUSE_NUM": 131, "ENTRY_LETR": null, "origin": "מספר מגרש", "OBJECTID": 1195, "full_address": "האתרוג 131, אחיעזר"}, "geometry": {"type": "Point", "coordinates": [34.86623390840078, 31.987778846775687]}}, {"type": "Feature", "properties": {"SETL_CODE": 797, "SETL_NAME": "אחיעזר", "STR_CODE": 105, "STR_NAME": "האתרוג", "HOUSE_NUM": 132, "ENTRY_LETR": null, "origin": "מספר מגרש", "OBJECTID": 1196, "full_address": "האתרוג 132, אחיעזר"}, "geometry": {"type": "Point", "coordinates": [34.86589503487387, 31.9881214766956]}}, {"type": "Feature", "properties": {"SETL_CODE": 797, "SETL_NAME": "אחיעזר", "STR_CODE": 105, "STR_NAME": "האתרוג", "HOUSE_NUM": 130, "ENTRY_LETR": null, "origin": "מספר מגרש", "OBJECTID": 1197, "full_address": "האתרוג 130, אחיעזר"}, "geometry": {"type": "Point", "coordinates": [34.865287714436306, 31.987657677019858]}}, {"type": "Feature", "properties": {"SETL_CODE": 798, "SETL_NAME": "יגל", "STR_CODE": 9008, "STR_NAME": "התאנה", "HOUSE_NUM": 95, "ENTRY_LETR": null, "origin": "מספר מגרש", "OBJECTID": 1452, "full_address": "התאנה 95, יגל"}, "geometry": {"type": "Point", "coordinates": [34.88273274371542, 31.98836499545696]}}, {"type": "Feature", "properties": {"SETL_CODE": 798, "SETL_NAME": "יגל", "STR_CODE": 9008, "STR_NAME": "התאנה", "HOUSE_NUM": 96, "ENTRY_LETR": null, "origin": "מספר מגרש", "OBJECTID": 1453, "full_address": "התאנה 96, יגל"}, "geometry": {"type": "Point", "coordinates": [34.8822541566953, 31.98802304984449]}}, {"type": "Feature", "properties": {"SETL_CODE": 798, "SETL_NAME": "יגל", "STR_CODE": 102, "STR_NAME": "הדקל", "HOUSE_NUM": 6, "ENTRY_LETR": null, "origin": "מספר מגרש", "OBJECTID": 1455, "full_address": "הדקל 6, יגל"}, "geometry": {"type": "Point", "coordinates": [34.87933126207375, 31.988465618103913]}}, {"type": "Feature", "properties": {"SETL_CODE": 798, "SETL_NAME": "יגל", "STR_CODE": 102, "STR_NAME": "הדקל", "HOUSE_NUM": 3, "ENTRY_LETR": null, "origin": "מספר מגרש", "OBJECTID": 1456, "full_address": "הדקל 3, יגל"}, "geometry": {"type": "Point", "coordinates": [34.87916185974455, 31.988630474071723]}}, {"type": "Feature", "properties": {"SETL_CODE": 798, "SETL_NAME": "יגל", "STR_CODE": 102, "STR_NAME": "הדקל", "HOUSE_NUM": 2, "ENTRY_LETR": null, "origin": "מספר מגרש", "OBJECTID": 1457, "full_address": "הדקל 2, יגל"}, "geometry": {"type": "Point", "coordinates": [34.87900508102442, 31.98878522859462]}}, {"type": "Feature", "properties": {"SETL_CODE": 798, "SETL_NAME": "יגל", "STR_CODE": 102, "STR_NAME": "הדקל", "HOUSE_NUM": 1, "ENTRY_LETR": null, "origin": "מספר מגרש", "OBJECTID": 1458, "full_address": "הדקל 1, יגל"}, "geometry": {"type": "Point", "coordinates": [34.8791415891515, 31.98890158128129]}}, {"type": "Feature", "properties": {"SETL_CODE": 798, "SETL_NAME": "יגל", "STR_CODE": 6001, "STR_NAME": "ככר חוני", "HOUSE_NUM": 704, "ENTRY_LETR": null, "origin": "מספר מגרש", "OBJECTID": 1459, "full_address": "ככר חוני 704, יגל"}, "geometry": {"type": "Point", "coordinates": [34.88043891571067, 31.988736935785944]}}, {"type": "Feature", "properties": {"SETL_CODE": 798, "SETL_NAME": "יגל", "STR_CODE": 6001, "STR_NAME": "ככר חוני", "HOUSE_NUM": 100, "ENTRY_LETR": null, "origin": "מספר מגרש", "OBJECTID": 1460, "full_address": "ככר חוני 100, יגל"}, "geometry": {"type": "Point", "coordinates": [34.88062997211618, 31.9888267913098]}}, {"type": "Feature", "properties": {"SETL_CODE": 798, "SETL_NAME": "יגל", "STR_CODE": 9006, "STR_NAME": "הרימון", "HOUSE_NUM": 109, "ENTRY_LETR": null, "origin": "מספר מגרש", "OBJECTID": 1461, "full_address": "הרימון 109, יגל"}, "geometry": {"type": "Point", "coordinates": [34.88085857582847, 31.988213844919716]}}, {"type": "Feature", "properties": {"SETL_CODE": 798, "SETL_NAME": "יגל", "STR_CODE": 6001, "STR_NAME": "ככר חוני", "HOUSE_NUM": 315, "ENTRY_LETR": null, "origin": "מספר מגרש", "OBJECTID": 1471, "full_address": "ככר חוני 315, יגל"}, "geometry": {"type": "Point", "coordinates": [34.881697050237364, 31.98771561597102]}}, {"type": "Feature", "properties": {"SETL_CODE": 798, "SETL_NAME": "יגל", "STR_CODE": 6001, "STR_NAME": "ככר חוני", "HOUSE_NUM": 101, "ENTRY_LETR": null, "origin": "מספר מגרש", "OBJECTID": 1484, "full_address": "ככר חוני 101, יגל"}, "geometry": {"type": "Point", "coordinates": [34.8808013528999, 31.988640565648463]}}, {"type": "Feature", "properties": {"SETL_CODE": 798, "SETL_NAME": "יגל", "STR_CODE": 6001, "STR_NAME": "ככר חוני", "HOUSE_NUM": 102, "ENTRY_LETR": null, "origin": "מספר מגרש", "OBJECTID": 1485, "full_address": "ככר חוני 102, יגל"}, "geometry": {"type": "Point", "coordinates": [34.88093187804884, 31.9885003836802]}}, {"type": "Feature", "properties": {"SETL_CODE": 798, "SETL_NAME": "יגל", "STR_CODE": 9006, "STR_NAME": "הרימון", "HOUSE_NUM": 107, "ENTRY_LETR": null, "origin": "מספר מגרש", "OBJECTID": 1486, "full_address": "הרימון 107, יגל"}, "geometry": {"type": "Point", "coordinates": [34.88060131280618, 31.988492388482488]}}, {"type": "Feature", "properties": {"SETL_CODE": 798, "SETL_NAME": "יגל", "STR_CODE": 6001, "STR_NAME": "ככר חוני", "HOUSE_NUM": 103, "ENTRY_LETR": null, "origin": "מספר מגרש", "OBJECTID": 1487, "full_address": "ככר חוני 103, יגל"}, "geometry": {"type": "Point", "coordinates": [34.88107389027743, 31.988360365208106]}}, {"type": "Feature", "properties": {"SETL_CODE": 798, "SETL_NAME": "יגל", "STR_CODE": 9006, "STR_NAME": "הרימון", "HOUSE_NUM": 108, "ENTRY_LETR": null, "origin": "מספר מגרש", "OBJECTID": 1488, "full_address": "הרימון 108, יגל"}, "geometry": {"type": "Point", "coordinates": [34.88074580043365, 31.988355093833185]}}, {"type": "Feature", "properties": {"SETL_CODE": 798, "SETL_NAME": "יגל", "STR_CODE": 6001, "STR_NAME": "ככר חוני", "HOUSE_NUM": 104, "ENTRY_LETR": null, "origin": "מספר מגרש", "OBJECTID": 1489, "full_address": "ככר חוני 104, יגל"}, "geometry": {"type": "Point", "coordinates": [34.881203761694856, 31.988221104733455]}}, {"type": "Feature", "properties": {"SETL_CODE": 798, "SETL_NAME": "יגל", "STR_CODE": 6001, "STR_NAME": "ככר חוני", "HOUSE_NUM": 105, "ENTRY_LETR": null, "origin": "מספר מגרש", "OBJECTID": 1490, "full_address": "ככר חוני 105, יגל"}, "geometry": {"type": "Point", "coordinates": [34.88134764969659, 31.988083338922067]}}, {"type": "Feature", "properties": {"SETL_CODE": 798, "SETL_NAME": "יגל", "STR_CODE": 9006, "STR_NAME": "הרימון", "HOUSE_NUM": 110, "ENTRY_LETR": null, "origin": "מספר מגרש", "OBJECTID": 1491, "full_address": "הרימון 110, יגל"}, "geometry": {"type": "Point", "coordinates": [34.880987505071346, 31.98800567895481]}}, {"type": "Feature", "properties": {"SETL_CODE": 798, "SETL_NAME": "יגל", "STR_CODE": 6001, "STR_NAME": "ככר חוני", "HOUSE_NUM": 113, "ENTRY_LETR": null, "origin": "מספר מגרש", "OBJECTID": 1492, "full_address": "ככר חוני 113, יגל"}, "geometry": {"type": "Point", "coordinates": [34.880528849582575, 31.988075463314107]}}, {"type": "Feature", "properties": {"SETL_CODE": 798, "SETL_NAME": "יגל", "STR_CODE": 6001, "STR_NAME": "ככר חוני", "HOUSE_NUM": 106, "ENTRY_LETR": null, "origin": "מספר מגרש", "OBJECTID": 1493, "full_address": "ככר חוני 106, יגל"}, "geometry": {"type": "Point", "coordinates": [34.88147588878301, 31.98794344725003]}}, {"type": "Feature", "properties": {"SETL_CODE": 798, "SETL_NAME": "יגל", "STR_CODE": 9006, "STR_NAME": "הרימון", "HOUSE_NUM": 111, "ENTRY_LETR": null, "origin": "מספר מגרש", "OBJECTID": 1494, "full_address": "הרימון 111, יגל"}, "geometry": {"type": "Point", "coordinates": [34.88114758708933, 31.98794861296898]}}, {"type": "Feature", "properties": {"SETL_CODE": 798, "SETL_NAME": "יגל", "STR_CODE": 6001, "STR_NAME": "ככר חוני", "HOUSE_NUM": 114, "ENTRY_LETR": null, "origin": "מספר מגרש", "OBJECTID": 1495, "full_address": "ככר חוני 114, יגל"}, "geometry": {"type": "Point", "coordinates": [34.88064637921352, 31.987938397563383]}}, {"type": "Feature", "properties": {"SETL_CODE": 798, "SETL_NAME": "יגל", "STR_CODE": 9006, "STR_NAME": "הרימון", "HOUSE_NUM": 112, "ENTRY_LETR": null, "origin": "מספר מגרש", "OBJECTID": 1496, "full_address": "הרימון 112, יגל"}, "geometry": {"type": "Point", "coordinates": [34.8812929660416, 31.9878200891]}}, {"type": "Feature", "properties": {"SETL_CODE": 798, "SETL_NAME": "יגל", "STR_CODE": 6001, "STR_NAME": "ככר חוני", "HOUSE_NUM": 115, "ENTRY_LETR": null, "origin": "מספר מגרש", "OBJECTID": 1497, "full_address": "ככר חוני 115, יגל"}, "geometry": {"type": "Point", "coordinates": [34.88079085195346, 31.987798745490913]}}, {"type": "Feature", "properties": {"SETL_CODE": 798, "SETL_NAME": "יגל", "STR_CODE": 102, "STR_NAME": "הדקל", "HOUSE_NUM": 4, "ENTRY_LETR": null, "origin": "מספר מגרש", "OBJECTID": 1511, "full_address": "הדקל 4, יגל"}, "geometry": {"type": "Point", "coordinates": [34.879303094787986, 31.98873564459886]}}, {"type": "Feature", "properties": {"SETL_CODE": 798, "SETL_NAME": "יגל", "STR_CODE": 102, "STR_NAME": "הדקל", "HOUSE_NUM": 5, "ENTRY_LETR": null, "origin": "מספר מגרש", "OBJECTID": 1512, "full_address": "הדקל 5, יגל"}, "geometry": {"type": "Point", "coordinates": [34.87946997898104, 31.98857371647051]}}, {"type": "Feature", "properties": {"SETL_CODE": 798, "SETL_NAME": "יגל", "STR_CODE": 102, "STR_NAME": "הדקל", "HOUSE_NUM": 19, "ENTRY_LETR": null, "origin": "מספר מגרש", "OBJECTID": 1513, "full_address": "הדקל 19, יגל"}, "geometry": {"type": "Point", "coordinates": [34.878732518673914, 31.989102112598538]}}, {"type": "Feature", "properties": {"SETL_CODE": 798, "SETL_NAME": "יגל", "STR_CODE": 6001, "STR_NAME": "ככר חוני", "HOUSE_NUM": 17, "ENTRY_LETR": null, "origin": "מספר מגרש", "OBJECTID": 1514, "full_address": "ככר חוני 17, יגל"}, "geometry": {"type": "Point", "coordinates": [34.878909070085214, 31.988258874891105]}}, {"type": "Feature", "properties": {"SETL_CODE": 798, "SETL_NAME": "יגל", "STR_CODE": 102, "STR_NAME": "הדקל", "HOUSE_NUM": 27, "ENTRY_LETR": null, "origin": "מספר מגרש", "OBJECTID": 1539, "full_address": "הדקל 27, יגל"}, "geometry": {"type": "Point", "coordinates": [34.87656439416396, 31.99134291610986]}}, {"type": "Feature", "properties": {"SETL_CODE": 798, "SETL_NAME": "יגל", "STR_CODE": 102, "STR_NAME": "הדקל", "HOUSE_NUM": 26, "ENTRY_LETR": null, "origin": "מספר מגרש", "OBJECTID": 1540, "full_address": "הדקל 26, יגל"}, "geometry": {"type": "Point", "coordinates": [34.87685936586879, 31.991056575759597]}}, {"type": "Feature", "properties": {"SETL_CODE": 798, "SETL_NAME": "יגל", "STR_CODE": 102, "STR_NAME": "הדקל", "HOUSE_NUM": 25, "ENTRY_LETR": null, "origin": "מספר מגרש", "OBJECTID": 1541, "full_address": "הדקל 25, יגל"}, "geometry": {"type": "Point", "coordinates": [34.877094536552114, 31.990736229449574]}}, {"type": "Feature", "properties": {"SETL_CODE": 798, "SETL_NAME": "יגל", "STR_CODE": 102, "STR_NAME": "הדקל", "HOUSE_NUM": 24, "ENTRY_LETR": null, "origin": "מספר מגרש", "OBJECTID": 1542, "full_address": "הדקל 24, יגל"}, "geometry": {"type": "Point", "coordinates": [34.87736119768775, 31.990511156509733]}}, {"type": "Feature", "properties": {"SETL_CODE": 798, "SETL_NAME": "יגל", "STR_CODE": 102, "STR_NAME": "הדקל", "HOUSE_NUM": 23, "ENTRY_LETR": null, "origin": "מספר מגרש", "OBJECTID": 1543, "full_address": "הדקל 23, יגל"}, "geometry": {"type": "Point", "coordinates": [34.87762190097454, 31.99023332201309]}}, {"type": "Feature", "properties": {"SETL_CODE": 798, "SETL_NAME": "יגל", "STR_CODE": 102, "STR_NAME": "הדקל", "HOUSE_NUM": 22, "ENTRY_LETR": null, "origin": "מספר מגרש", "OBJECTID": 1544, "full_address": "הדקל 22, יגל"}, "geometry": {"type": "Point", "coordinates": [34.87790998416676, 31.989963869337934]}}, {"type": "Feature", "properties": {"SETL_CODE": 798, "SETL_NAME": "יגל", "STR_CODE": 102, "STR_NAME": "הדקל", "HOUSE_NUM": 21, "ENTRY_LETR": null, "origin": "מספר מגרש", "OBJECTID": 1545, "full_address": "הדקל 21, יגל"}, "geometry": {"type": "Point", "coordinates": [34.878201444057936, 31.989708840016142]}}, {"type": "Feature", "properties": {"SETL_CODE": 798, "SETL_NAME": "יגל", "STR_CODE": 102, "STR_NAME": "הדקל", "HOUSE_NUM": 20, "ENTRY_LETR": null, "origin": "מספר מגרש", "OBJECTID": 1546, "full_address": "הדקל 20, יגל"}, "geometry": {"type": "Point", "coordinates": [34.87848297541791, 31.98944348860698]}}, {"type": "Feature", "properties": {"SETL_CODE": 798, "SETL_NAME": "יגל", "STR_CODE": 102, "STR_NAME": "הדקל", "HOUSE_NUM": 33, "ENTRY_LETR": null, "origin": "מספר מגרש", "OBJECTID": 1547, "full_address": "הדקל 33, יגל"}, "geometry": {"type": "Point", "coordinates": [34.87491237979503, 31.992986391496746]}}, {"type": "Feature", "properties": {"SETL_CODE": 798, "SETL_NAME": "יגל", "STR_CODE": 102, "STR_NAME": "הדקל", "HOUSE_NUM": 32, "ENTRY_LETR": null, "origin": "מספר מגרש", "OBJECTID": 1548, "full_address": "הדקל 32, יגל"}, "geometry": {"type": "Point", "coordinates": [34.875178670497775, 31.992715188721224]}}, {"type": "Feature", "properties": {"SETL_CODE": 798, "SETL_NAME": "יגל", "STR_CODE": 102, "STR_NAME": "הדקל", "HOUSE_NUM": 31, "ENTRY_LETR": null, "origin": "מספר מגרש", "OBJECTID": 1549, "full_address": "הדקל 31, יגל"}, "geometry": {"type": "Point", "coordinates": [34.875448695984076, 31.992436290036228]}}, {"type": "Feature", "properties": {"SETL_CODE": 798, "SETL_NAME": "יגל", "STR_CODE": 102, "STR_NAME": "הדקל", "HOUSE_NUM": 30, "ENTRY_LETR": null, "origin": "מספר מגרש", "OBJECTID": 1550, "full_address": "הדקל 30, יגל"}, "geometry": {"type": "Point", "coordinates": [34.875714223526565, 31.992140817474766]}}, {"type": "Feature", "properties": {"SETL_CODE": 798, "SETL_NAME": "יגל", "STR_CODE": 102, "STR_NAME": "הדקל", "HOUSE_NUM": 29, "ENTRY_LETR": null, "origin": "מספר מגרש", "OBJECTID": 1551, "full_address": "הדקל 29, יגל"}, "geometry": {"type": "Point", "coordinates": [34.87600850973721, 31.991844003830266]}}, {"type": "Feature", "properties": {"SETL_CODE": 798, "SETL_NAME": "יגל", "STR_CODE": 102, "STR_NAME": "הדקל", "HOUSE_NUM": 28, "ENTRY_LETR": null, "origin": "מספר מגרש", "OBJECTID": 1552, "full_address": "הדקל 28, יגל"}, "geometry": {"type": "Point", "coordinates": [34.876274377664195, 31.99158063426458]}}, {"type": "Feature", "properties": {"SETL_CODE": 798, "SETL_NAME": "יגל", "STR_CODE": 6001, "STR_NAME": "ככר חוני", "HOUSE_NUM": 54, "ENTRY_LETR": null, "origin": "מספר מגרש", "OBJECTID": 1553, "full_address": "ככר חוני 54, יגל"}, "geometry": {"type": "Point", "coordinates": [34.88132257191086, 31.988897372217004]}}, {"type": "Feature", "properties": {"SETL_CODE": 798, "SETL_NAME": "יגל", "STR_CODE": 6001, "STR_NAME": "ככר חוני", "HOUSE_NUM": 53, "ENTRY_LETR": null, "origin": "מספר מגרש", "OBJECTID": 1554, "full_address": "ככר חוני 53, יגל"}, "geometry": {"type": "Point", "coordinates": [34.880992856847485, 31.989192522777085]}}, {"type": "Feature", "properties": {"SETL_CODE": 798, "SETL_NAME": "יגל", "STR_CODE": 6001, "STR_NAME": "ככר חוני", "HOUSE_NUM": 52, "ENTRY_LETR": null, "origin": "מספר מגרש", "OBJECTID": 1555, "full_address": "ככר חוני 52, יגל"}, "geometry": {"type": "Point", "coordinates": [34.88018897595237, 31.989161531825705]}}, {"type": "Feature", "properties": {"SETL_CODE": 798, "SETL_NAME": "יגל", "STR_CODE": 102, "STR_NAME": "הדקל", "HOUSE_NUM": 51, "ENTRY_LETR": null, "origin": "מספר מגרש", "OBJECTID": 1556, "full_address": "הדקל 51, יגל"}, "geometry": {"type": "Point", "coordinates": [34.87948426115952, 31.989224655859623]}}, {"type": "Feature", "properties": {"SETL_CODE": 798, "SETL_NAME": "יגל", "STR_CODE": 102, "STR_NAME": "הדקל", "HOUSE_NUM": 49, "ENTRY_LETR": null, "origin": "מספר מגרש", "OBJECTID": 1557, "full_address": "הדקל 49, יגל"}, "geometry": {"type": "Point", "coordinates": [34.87900659614579, 31.989676423815492]}}, {"type": "Feature", "properties": {"SETL_CODE": 798, "SETL_NAME": "יגל", "STR_CODE": 102, "STR_NAME": "הדקל", "HOUSE_NUM": 48, "ENTRY_LETR": null, "origin": "מספר מגרש", "OBJECTID": 1558, "full_address": "הדקל 48, יגל"}, "geometry": {"type": "Point", "coordinates": [34.87872493638657, 31.990059797917844]}}, {"type": "Feature", "properties": {"SETL_CODE": 798, "SETL_NAME": "יגל", "STR_CODE": 102, "STR_NAME": "הדקל", "HOUSE_NUM": 47, "ENTRY_LETR": null, "origin": "מספר מגרש", "OBJECTID": 1559, "full_address": "הדקל 47, יגל"}, "geometry": {"type": "Point", "coordinates": [34.878425566951684, 31.99033374059633]}}, {"type": "Feature", "properties": {"SETL_CODE": 798, "SETL_NAME": "יגל", "STR_CODE": 102, "STR_NAME": "הדקל", "HOUSE_NUM": 46, "ENTRY_LETR": null, "origin": "מספר מגרש", "OBJECTID": 1560, "full_address": "הדקל 46, יגל"}, "geometry": {"type": "Point", "coordinates": [34.87816450212002, 31.9906090895441]}}, {"type": "Feature", "properties": {"SETL_CODE": 798, "SETL_NAME": "יגל", "STR_CODE": 102, "STR_NAME": "הדקל", "HOUSE_NUM": 45, "ENTRY_LETR": null, "origin": "מספר מגרש", "OBJECTID": 1561, "full_address": "הדקל 45, יגל"}, "geometry": {"type": "Point", "coordinates": [34.87789247487952, 31.990897125174005]}}, {"type": "Feature", "properties": {"SETL_CODE": 798, "SETL_NAME": "יגל", "STR_CODE": 102, "STR_NAME": "הדקל", "HOUSE_NUM": 44, "ENTRY_LETR": null, "origin": "מספר מגרש", "OBJECTID": 1562, "full_address": "הדקל 44, יגל"}, "geometry": {"type": "Point", "coordinates": [34.8776219640724, 31.991193606797893]}}, {"type": "Feature", "properties": {"SETL_CODE": 798, "SETL_NAME": "יגל", "STR_CODE": 102, "STR_NAME": "הדקל", "HOUSE_NUM": 43, "ENTRY_LETR": null, "origin": "מספר מגרש", "OBJECTID": 1563, "full_address": "הדקל 43, יגל"}, "geometry": {"type": "Point", "coordinates": [34.87734277710891, 31.99142854978589]}}, {"type": "Feature", "properties": {"SETL_CODE": 798, "SETL_NAME": "יגל", "STR_CODE": 102, "STR_NAME": "הדקל", "HOUSE_NUM": 42, "ENTRY_LETR": null, "origin": "מספר מגרש", "OBJECTID": 1564, "full_address": "הדקל 42, יגל"}, "geometry": {"type": "Point", "coordinates": [34.877065483983124, 31.991702199763218]}}, {"type": "Feature", "properties": {"SETL_CODE": 798, "SETL_NAME": "יגל", "STR_CODE": 102, "STR_NAME": "הדקל", "HOUSE_NUM": 41, "ENTRY_LETR": null, "origin": "מספר מגרש", "OBJECTID": 1565, "full_address": "הדקל 41, יגל"}, "geometry": {"type": "Point", "coordinates": [34.876769815355196, 31.991966882832493]}}, {"type": "Feature", "properties": {"SETL_CODE": 798, "SETL_NAME": "יגל", "STR_CODE": 102, "STR_NAME": "הדקל", "HOUSE_NUM": 40, "ENTRY_LETR": null, "origin": "מספר מגרש", "OBJECTID": 1566, "full_address": "הדקל 40, יגל"}, "geometry": {"type": "Point", "coordinates": [34.876483430734886, 31.99226628429641]}}, {"type": "Feature", "properties": {"SETL_CODE": 798, "SETL_NAME": "יגל", "STR_CODE": 102, "STR_NAME": "הדקל", "HOUSE_NUM": 39, "ENTRY_LETR": null, "origin": "מספר מגרש", "OBJECTID": 1567, "full_address": "הדקל 39, יגל"}, "geometry": {"type": "Point", "coordinates": [34.876214572527836, 31.992550625201353]}}, {"type": "Feature", "properties": {"SETL_CODE": 798, "SETL_NAME": "יגל", "STR_CODE": 102, "STR_NAME": "הדקל", "HOUSE_NUM": 38, "ENTRY_LETR": null, "origin": "מספר מגרש", "OBJECTID": 1568, "full_address": "הדקל 38, יגל"}, "geometry": {"type": "Point", "coordinates": [34.875953220035015, 31.992802408174704]}}, {"type": "Feature", "properties": {"SETL_CODE": 798, "SETL_NAME": "יגל", "STR_CODE": 102, "STR_NAME": "הדקל", "HOUSE_NUM": 37, "ENTRY_LETR": null, "origin": "מספר מגרש", "OBJECTID": 1569, "full_address": "הדקל 37, יגל"}, "geometry": {"type": "Point", "coordinates": [34.8756789078382, 31.993056517044568]}}, {"type": "Feature", "properties": {"SETL_CODE": 798, "SETL_NAME": "יגל", "STR_CODE": 102, "STR_NAME": "הדקל", "HOUSE_NUM": 36, "ENTRY_LETR": null, "origin": "מספר מגרש", "OBJECTID": 1570, "full_address": "הדקל 36, יגל"}, "geometry": {"type": "Point", "coordinates": [34.87543007169884, 31.993349825134036]}}, {"type": "Feature", "properties": {"SETL_CODE": 798, "SETL_NAME": "יגל", "STR_CODE": 102, "STR_NAME": "הדקל", "HOUSE_NUM": 35, "ENTRY_LETR": null, "origin": "מספר מגרש", "OBJECTID": 1571, "full_address": "הדקל 35, יגל"}, "geometry": {"type": "Point", "coordinates": [34.87514228833159, 31.993610910313052]}}, {"type": "Feature", "properties": {"SETL_CODE": 798, "SETL_NAME": "יגל", "STR_CODE": 102, "STR_NAME": "הדקל", "HOUSE_NUM": 34, "ENTRY_LETR": null, "origin": "מספר מגרש", "OBJECTID": 1572, "full_address": "הדקל 34, יגל"}, "geometry": {"type": "Point", "coordinates": [34.874634531032726, 31.993278621684002]}}, {"type": "Feature", "properties": {"SETL_CODE": 798, "SETL_NAME": "יגל", "STR_CODE": 6001, "STR_NAME": "ככר חוני", "HOUSE_NUM": 99, "ENTRY_LETR": null, "origin": "מספר מגרש", "OBJECTID": 1573, "full_address": "ככר חוני 99, יגל"}, "geometry": {"type": "Point", "coordinates": [34.879932855974495, 31.98889577281406]}}, {"type": "Feature", "properties": {"SETL_CODE": 798, "SETL_NAME": "יגל", "STR_CODE": 102, "STR_NAME": "הדקל", "HOUSE_NUM": 402, "ENTRY_LETR": null, "origin": "מספר מגרש", "OBJECTID": 1574, "full_address": "הדקל 402, יגל"}, "geometry": {"type": "Point", "coordinates": [34.87426118340328, 31.993778304487112]}}, {"type": "Feature", "properties": {"SETL_CODE": 798, "SETL_NAME": "יגל", "STR_CODE": 102, "STR_NAME": "הדקל", "HOUSE_NUM": 401, "ENTRY_LETR": null, "origin": "מספר מגרש", "OBJECTID": 1575, "full_address": "הדקל 401, יגל"}, "geometry": {"type": "Point", "coordinates": [34.87440561696063, 31.99363270066755]}}, {"type": "Feature", "properties": {"SETL_CODE": 798, "SETL_NAME": "יגל", "STR_CODE": 102, "STR_NAME": "הדקל", "HOUSE_NUM": 403, "ENTRY_LETR": null, "origin": "מספר מגרש", "OBJECTID": 1576, "full_address": "הדקל 403, יגל"}, "geometry": {"type": "Point", "coordinates": [34.8741275272616, 31.993929453423476]}}, {"type": "Feature", "properties": {"SETL_CODE": 798, "SETL_NAME": "יגל", "STR_CODE": 9002, "STR_NAME": "הגבעה", "HOUSE_NUM": 418, "ENTRY_LETR": null, "origin": "מספר מגרש", "OBJECTID": 1577, "full_address": "הגבעה 418, יגל"}, "geometry": {"type": "Point", "coordinates": [34.87197417822385, 31.99289265138357]}}, {"type": "Feature", "properties": {"SETL_CODE": 798, "SETL_NAME": "יגל", "STR_CODE": 9002, "STR_NAME": "הגבעה", "HOUSE_NUM": 404, "ENTRY_LETR": null, "origin": "מספר מגרש", "OBJECTID": 1578, "full_address": "הגבעה 404, יגל"}, "geometry": {"type": "Point", "coordinates": [34.873946024423276, 31.993826566647027]}}, {"type": "Feature", "properties": {"SETL_CODE": 798, "SETL_NAME": "יגל", "STR_CODE": 9002, "STR_NAME": "הגבעה", "HOUSE_NUM": 426, "ENTRY_LETR": null, "origin": "מספר מגרש", "OBJECTID": 1579, "full_address": "הגבעה 426, יגל"}, "geometry": {"type": "Point", "coordinates": [34.873261868647944, 31.993834580381595]}}, {"type": "Feature", "properties": {"SETL_CODE": 798, "SETL_NAME": "יגל", "STR_CODE": 9002, "STR_NAME": "הגבעה", "HOUSE_NUM": 405, "ENTRY_LETR": null, "origin": "מספר מגרש", "OBJECTID": 1580, "full_address": "הגבעה 405, יגל"}, "geometry": {"type": "Point", "coordinates": [34.873795284045066, 31.993717609457846]}}, {"type": "Feature", "properties": {"SETL_CODE": 798, "SETL_NAME": "יגל", "STR_CODE": 9002, "STR_NAME": "הגבעה", "HOUSE_NUM": 425, "ENTRY_LETR": null, "origin": "מספר מגרש", "OBJECTID": 1581, "full_address": "הגבעה 425, יגל"}, "geometry": {"type": "Point", "coordinates": [34.87310188030796, 31.9937209755929]}}, {"type": "Feature", "properties": {"SETL_CODE": 798, "SETL_NAME": "יגל", "STR_CODE": 9002, "STR_NAME": "הגבעה", "HOUSE_NUM": 406, "ENTRY_LETR": null, "origin": "מספר מגרש", "OBJECTID": 1582, "full_address": "הגבעה 406, יגל"}, "geometry": {"type": "Point", "coordinates": [34.873643190829796, 31.993608295055914]}}, {"type": "Feature", "properties": {"SETL_CODE": 798, "SETL_NAME": "יגל", "STR_CODE": 9002, "STR_NAME": "הגבעה", "HOUSE_NUM": 424, "ENTRY_LETR": null, "origin": "מספר מגרש", "OBJECTID": 1583, "full_address": "הגבעה 424, יגל"}, "geometry": {"type": "Point", "coordinates": [34.872948246901785, 31.99360644752153]}}, {"type": "Feature", "properties": {"SETL_CODE": 798, "SETL_NAME": "יגל", "STR_CODE": 9002, "STR_NAME": "הגבעה", "HOUSE_NUM": 423, "ENTRY_LETR": null, "origin": "מספר מגרש", "OBJECTID": 1584, "full_address": "הגבעה 423, יגל"}, "geometry": {"type": "Point", "coordinates": [34.87279676180575, 31.993489617161554]}}, {"type": "Feature", "properties": {"SETL_CODE": 798, "SETL_NAME": "יגל", "STR_CODE": 9002, "STR_NAME": "הגבעה", "HOUSE_NUM": 407, "ENTRY_LETR": null, "origin": "מספר מגרש", "OBJECTID": 1585, "full_address": "הגבעה 407, יגל"}, "geometry": {"type": "Point", "coordinates": [34.87348696972007, 31.993493165697405]}}, {"type": "Feature", "properties": {"SETL_CODE": 798, "SETL_NAME": "יגל", "STR_CODE": 9002, "STR_NAME": "הגבעה", "HOUSE_NUM": 422, "ENTRY_LETR": null, "origin": "מספר מגרש", "OBJECTID": 1586, "full_address": "הגבעה 422, יגל"}, "geometry": {"type": "Point", "coordinates": [34.87262562085794, 31.993373225812803]}}, {"type": "Feature", "properties": {"SETL_CODE": 798, "SETL_NAME": "יגל", "STR_CODE": 9002, "STR_NAME": "הגבעה", "HOUSE_NUM": 408, "ENTRY_LETR": null, "origin": "מספר מגרש", "OBJECTID": 1587, "full_address": "הגבעה 408, יגל"}, "geometry": {"type": "Point", "coordinates": [34.87333416484287, 31.993376259487167]}}, {"type": "Feature", "properties": {"SETL_CODE": 798, "SETL_NAME": "יגל", "STR_CODE": 9002, "STR_NAME": "הגבעה", "HOUSE_NUM": 409, "ENTRY_LETR": null, "origin": "מספר מגרש", "OBJECTID": 1588, "full_address": "הגבעה 409, יגל"}, "geometry": {"type": "Point", "coordinates": [34.873174371237376, 31.99326549146581]}}, {"type": "Feature", "properties": {"SETL_CODE": 798, "SETL_NAME": "יגל", "STR_CODE": 9002, "STR_NAME": "הגבעה", "HOUSE_NUM": 421, "ENTRY_LETR": null, "origin": "מספר מגרש", "OBJECTID": 1589, "full_address": "הגבעה 421, יגל"}, "geometry": {"type": "Point", "coordinates": [34.87246462230961, 31.993249385711334]}}, {"type": "Feature", "properties": {"SETL_CODE": 798, "SETL_NAME": "יגל", "STR_CODE": 9002, "STR_NAME": "הגבעה", "HOUSE_NUM": 410, "ENTRY_LETR": null, "origin": "מספר מגרש", "OBJECTID": 1590, "full_address": "הגבעה 410, יגל"}, "geometry": {"type": "Point", "coordinates": [34.87301380769989, 31.993142940968173]}}, {"type": "Feature", "properties": {"SETL_CODE": 798, "SETL_NAME": "יגל", "STR_CODE": 9002, "STR_NAME": "הגבעה", "HOUSE_NUM": 420, "ENTRY_LETR": null, "origin": "מספר מגרש", "OBJECTID": 1591, "full_address": "הגבעה 420, יגל"}, "geometry": {"type": "Point", "coordinates": [34.872294462990936, 31.993131572534544]}}, {"type": "Feature", "properties": {"SETL_CODE": 798, "SETL_NAME": "יגל", "STR_CODE": 9002, "STR_NAME": "הגבעה", "HOUSE_NUM": 419, "ENTRY_LETR": null, "origin": "מספר מגרש", "OBJECTID": 1592, "full_address": "הגבעה 419, יגל"}, "geometry": {"type": "Point", "coordinates": [34.872142788857694, 31.993009506827402]}}, {"type": "Feature", "properties": {"SETL_CODE": 798, "SETL_NAME": "יגל", "STR_CODE": 9002, "STR_NAME": "הגבעה", "HOUSE_NUM": 411, "ENTRY_LETR": null, "origin": "מספר מגרש", "OBJECTID": 1593, "full_address": "הגבעה 411, יגל"}, "geometry": {"type": "Point", "coordinates": [34.872842142768064, 31.993021996232272]}}, {"type": "Feature", "properties": {"SETL_CODE": 798, "SETL_NAME": "יגל", "STR_CODE": 9002, "STR_NAME": "הגבעה", "HOUSE_NUM": 412, "ENTRY_LETR": null, "origin": "מספר מגרש", "OBJECTID": 1594, "full_address": "הגבעה 412, יגל"}, "geometry": {"type": "Point", "coordinates": [34.87268835732533, 31.992903963032575]}}, {"type": "Feature", "properties": {"SETL_CODE": 798, "SETL_NAME": "יגל", "STR_CODE": 9002, "STR_NAME": "הגבעה", "HOUSE_NUM": 413, "ENTRY_LETR": null, "origin": "מספר מגרש", "OBJECTID": 1595, "full_address": "הגבעה 413, יגל"}, "geometry": {"type": "Point", "coordinates": [34.872535264292885, 31.99279122775113]}}, {"type": "Feature", "properties": {"SETL_CODE": 798, "SETL_NAME": "יגל", "STR_CODE": 9002, "STR_NAME": "הגבעה", "HOUSE_NUM": 414, "ENTRY_LETR": null, "origin": "מספר מגרש", "OBJECTID": 1596, "full_address": "הגבעה 414, יגל"}, "geometry": {"type": "Point", "coordinates": [34.87237833455203, 31.99267706461034]}}, {"type": "Feature", "properties": {"SETL_CODE": 798, "SETL_NAME": "יגל", "STR_CODE": 9002, "STR_NAME": "הגבעה", "HOUSE_NUM": 415, "ENTRY_LETR": null, "origin": "מספר מגרש", "OBJECTID": 1597, "full_address": "הגבעה 415, יגל"}, "geometry": {"type": "Point", "coordinates": [34.872215898613, 31.992556403793227]}}, {"type": "Feature", "properties": {"SETL_CODE": 798, "SETL_NAME": "יגל", "STR_CODE": 9002, "STR_NAME": "הגבעה", "HOUSE_NUM": 416, "ENTRY_LETR": null, "origin": "מספר מגרש", "OBJECTID": 1598, "full_address": "הגבעה 416, יגל"}, "geometry": {"type": "Point", "coordinates": [34.87204002749896, 31.99244249545892]}}, {"type": "Feature", "properties": {"SETL_CODE": 798, "SETL_NAME": "יגל", "STR_CODE": 9002, "STR_NAME": "הגבעה", "HOUSE_NUM": 417, "ENTRY_LETR": null, "origin": "מספר מגרש", "OBJECTID": 1599, "full_address": "הגבעה 417, יגל"}, "geometry": {"type": "Point", "coordinates": [34.8717767159706, 31.992784262882033]}}, {"type": "Feature", "properties": {"SETL_CODE": 798, "SETL_NAME": "יגל", "STR_CODE": 6001, "STR_NAME": "ככר חוני", "HOUSE_NUM": 98, "ENTRY_LETR": null, "origin": "מספר מגרש", "OBJECTID": 1600, "full_address": "ככר חוני 98, יגל"}, "geometry": {"type": "Point", "coordinates": [34.879762353922516, 31.98879640067601]}}, {"type": "Feature", "properties": {"SETL_CODE": 696, "SETL_NAME": "כפר חבד", "STR_CODE": 141, "STR_NAME": "הרבנית חיה מושקא", "HOUSE_NUM": 2, "ENTRY_LETR": null, "origin": "מפת כתובות של היישוב", "OBJECTID": 2172, "full_address": "הרבנית חיה מושקא 2, כפר חבד"}, "geometry": {"type": "Point", "coordinates": [34.864462186894116, 31.9936762475578]}}, {"type": "Feature", "properties": {"SETL_CODE": 696, "SETL_NAME": "כפר חבד", "STR_CODE": 141, "STR_NAME": "הרבנית חיה מושקא", "HOUSE_NUM": 4, "ENTRY_LETR": null, "origin": "מפת כתובות של היישוב", "OBJECTID": 2173, "full_address": "הרבנית חיה מושקא 4, כפר חבד"}, "geometry": {"type": "Point", "coordinates": [34.86378237056934, 31.99429001905021]}}, {"type": "Feature", "properties": {"SETL_CODE": 696, "SETL_NAME": "כפר חבד", "STR_CODE": 141, "STR_NAME": "הרבנית חיה מושקא", "HOUSE_NUM": 6, "ENTRY_LETR": null, "origin": "מפת כתובות של היישוב", "OBJECTID": 2174, "full_address": "הרבנית חיה מושקא 6, כפר חבד"}, "geometry": {"type": "Point", "coordinates": [34.86350237524602, 31.994294039512393]}}, {"type": "Feature", "properties": {"SETL_CODE": 696, "SETL_NAME": "כפר חבד", "STR_CODE": 141, "STR_NAME": "הרבנית חיה מושקא", "HOUSE_NUM": 8, "ENTRY_LETR": null, "origin": "מפת כתובות של היישוב", "OBJECTID": 2175, "full_address": "הרבנית חיה מושקא 8, כפר חבד"}, "geometry": {"type": "Point", "coordinates": [34.863305772498784, 31.994460533287796]}}, {"type": "Feature", "properties": {"SETL_CODE": 696, "SETL_NAME": "כפר חבד", "STR_CODE": 141, "STR_NAME": "הרבנית חיה מושקא", "HOUSE_NUM": 10, "ENTRY_LETR": null, "origin": "מפת כתובות של היישוב", "OBJECTID": 2176, "full_address": "הרבנית חיה מושקא 10, כפר חבד"}, "geometry": {"type": "Point", "coordinates": [34.863299377798896, 31.9946752580048]}}, {"type": "Feature", "properties": {"SETL_CODE": 696, "SETL_NAME": "כפר חבד", "STR_CODE": 141, "STR_NAME": "הרבנית חיה מושקא", "HOUSE_NUM": 12, "ENTRY_LETR": null, "origin": "מפת כתובות של היישוב", "OBJECTID": 2177, "full_address": "הרבנית חיה מושקא 12, כפר חבד"}, "geometry": {"type": "Point", "coordinates": [34.8635284663585, 31.994809491085004]}}, {"type": "Feature", "properties": {"SETL_CODE": 696, "SETL_NAME": "כפר חבד", "STR_CODE": 141, "STR_NAME": "הרבנית חיה מושקא", "HOUSE_NUM": 14, "ENTRY_LETR": null, "origin": "מפת כתובות של היישוב", "OBJECTID": 2178, "full_address": "הרבנית חיה מושקא 14, כפר חבד"}, "geometry": {"type": "Point", "coordinates": [34.8638476076937, 31.99481989176288]}}, {"type": "Feature", "properties": {"SETL_CODE": 696, "SETL_NAME": "כפר חבד", "STR_CODE": 141, "STR_NAME": "הרבנית חיה מושקא", "HOUSE_NUM": 16, "ENTRY_LETR": null, "origin": "מפת כתובות של היישוב", "OBJECTID": 2179, "full_address": "הרבנית חיה מושקא 16, כפר חבד"}, "geometry": {"type": "Point", "coordinates": [34.864262223285984, 31.994754195513295]}}, {"type": "Feature", "properties": {"SETL_CODE": 696, "SETL_NAME": "כפר חבד", "STR_CODE": 141, "STR_NAME": "הרבנית חיה מושקא", "HOUSE_NUM": 18, "ENTRY_LETR": null, "origin": "מפת כתובות של היישוב", "OBJECTID": 2180, "full_address": "הרבנית חיה מושקא 18, כפר חבד"}, "geometry": {"type": "Point", "coordinates": [34.86460370931519, 31.99477897030884]}}, {"type": "Feature", "properties": {"SETL_CODE": 696, "SETL_NAME": "כפר חבד", "STR_CODE": 141, "STR_NAME": "הרבנית חיה מושקא", "HOUSE_NUM": 20, "ENTRY_LETR": null, "origin": "מפת כתובות של היישוב", "OBJECTID": 2181, "full_address": "הרבנית חיה מושקא 20, כפר חבד"}, "geometry": {"type": "Point", "coordinates": [34.86442564903798, 31.994473082353068]}}]}