{"type": "FeatureCollection", "name": "מוסדות תרבות ורווחה", "features": [{"type": "Feature", "properties": {"OBJECTID": 56, "Descriptio": "בית תרבות", "subtype": "מרכז תרבות", "yeshuv": "יגל", "phone": " ", "layer_n": "מוסדות תרבות ורווחה", "Type_Code": 18}, "geometry": {"type": "Point", "coordinates": [34.880505418684685, 31.987365217312092]}}, {"type": "Feature", "properties": {"OBJECTID": 57, "Descriptio": "בית תרבות", "subtype": "מרכז תרבות", "yeshuv": "צפריה", "phone": " ", "layer_n": "מוסדות תרבות ורווחה", "Type_Code": 18}, "geometry": {"type": "Point", "coordinates": [34.854406289166505, 32.00478446303346]}}, {"type": "Feature", "properties": {"OBJECTID": 58, "Descriptio": "בית אריה מועדון תרבות", "subtype": "מועדון", "yeshuv": "חמד", "phone": " ", "layer_n": "מוסדות תרבות ורווחה", "Type_Code": 18}, "geometry": {"type": "Point", "coordinates": [34.84349310257728, 32.01883107032501]}}, {"type": "Feature", "properties": {"OBJECTID": 59, "Descriptio": "מבנה תנועת נוער - שבט ניר", "subtype": "תנועת נוער", "yeshuv": "ניר צבי", "phone": " ", "layer_n": "מוסדות תרבות ורווחה", "Type_Code": 18}, "geometry": {"type": "Point", "coordinates": [34.861304027319626, 31.952260435654786]}}, {"type": "Feature", "properties": {"OBJECTID": 60, "Descriptio": "בית תרבות - ניר צבי", "subtype": "מרכז תרבות", "yeshuv": "ניר צבי", "phone": " ", "layer_n": "מוסדות תרבות ורווחה", "Type_Code": 18}, "geometry": {"type": "Point", "coordinates": [34.86411833685959, 31.95594996726788]}}, {"type": "Feature", "properties": {"OBJECTID": 61, "Descriptio": "אוהל אירועים - כפר חב\"ד", "subtype": "אולם אירועים", "yeshuv": "כפר חבד", "phone": " ", "layer_n": "מוסדות תרבות ורווחה", "Type_Code": 18}, "geometry": {"type": "Point", "coordinates": [34.84966193653755, 31.99125738235829]}}, {"type": "Feature", "properties": {"OBJECTID": 62, "Descriptio": "בית צא\"ח - צעירי אגודת חב\"ד", "subtype": "בית צעירים", "yeshuv": "כפר חבד", "phone": " ", "layer_n": "מוסדות תרבות ורווחה", "Type_Code": 18}, "geometry": {"type": "Point", "coordinates": [34.84761230615569, 31.98951222395938]}}, {"type": "Feature", "properties": {"OBJECTID": 63, "Descriptio": "בית תרבות וחוגים מושב גנות", "subtype": "מרכז תרבות", "yeshuv": "גנות", "phone": " ", "layer_n": "מוסדות תרבות ורווחה", "Type_Code": 18}, "geometry": {"type": "Point", "coordinates": [34.82771307459959, 32.01771390002845]}}, {"type": "Feature", "properties": {"OBJECTID": 64, "Descriptio": "מתנ\"ס", "subtype": "חוגים", "yeshuv": "כפר חבד", "phone": " ", "layer_n": "מוסדות תרבות ורווחה", "Type_Code": 18}, "geometry": {"type": "Point", "coordinates": [34.85128125871507, 31.98646828617737]}}, {"type": "Feature", "properties": {"OBJECTID": 65, "Descriptio": "בית תרבות", "subtype": " ", "yeshuv": "אחיעזר", "phone": " ", "layer_n": "מוסדות תרבות ורווחה", "Type_Code": 18}, "geometry": {"type": "Point", "coordinates": [34.87248534195826, 31.98111206924351]}}, {"type": "Feature", "properties": {"OBJECTID": 66, "Descriptio": "מועדון", "subtype": " ", "yeshuv": "זיתן", "phone": " ", "layer_n": "מוסדות תרבות ורווחה", "Type_Code": 18}, "geometry": {"type": "Point", "coordinates": [34.892960711689845, 31.976124027690773]}}, {"type": "Feature", "properties": {"OBJECTID": 67, "Descriptio": "מועדון", "subtype": " ", "yeshuv": "משמר השבעה", "phone": " ", "layer_n": "מוסדות תרבות ורווחה", "Type_Code": 18}, "geometry": {"type": "Point", "coordinates": [34.822869470841646, 32.00964653573395]}}, {"type": "Feature", "properties": {"OBJECTID": 68, "Descriptio": "מועדון נוער", "subtype": "מועדון נוער", "yeshuv": "יגל", "phone": " ", "layer_n": "מוסדות תרבות ורווחה", "Type_Code": 18}, "geometry": {"type": "Point", "coordinates": [34.88061249472865, 31.987270521458473]}}, {"type": "Feature", "properties": {"OBJECTID": 102, "Descriptio": "מועדון גימלאים- צעירים למצח", "subtype": "מועדון גימלאים", "yeshuv": "יגל", "phone": " ", "layer_n": "מוסדות תרבות ורווחה", "Type_Code": 18}, "geometry": {"type": "Point", "coordinates": [34.88062850098071, 31.987046920969004]}}, {"type": "Feature", "properties": {"OBJECTID": 103, "Descriptio": "מועדון נוער", "subtype": "מועדון נוער", "yeshuv": "יגל", "phone": " ", "layer_n": "מוסדות תרבות ורווחה", "Type_Code": 18}, "geometry": {"type": "Point", "coordinates": [34.88063095681451, 31.987292167690157]}}, {"type": "Feature", "properties": {"OBJECTID": 104, "Descriptio": "מועדון תרבות", "subtype": "מועדון", "yeshuv": "משמר השבעה", "phone": " ", "layer_n": "מוסדות תרבות ורווחה", "Type_Code": 18}, "geometry": {"type": "Point", "coordinates": [34.822865990367525, 32.00961856858577]}}, {"type": "Feature", "properties": {"OBJECTID": 105, "Descriptio": "מועדון נוער", "subtype": "מועדון נוער", "yeshuv": "משמר השבעה", "phone": " ", "layer_n": "מוסדות תרבות ורווחה", "Type_Code": 18}, "geometry": {"type": "Point", "coordinates": [34.823473285776736, 32.009367475809434]}}, {"type": "Feature", "properties": {"OBJECTID": 106, "Descriptio": "מועדון ישן", "subtype": "מועדון", "yeshuv": "אחיעזר", "phone": " ", "layer_n": "מוסדות תרבות ורווחה", "Type_Code": 18}, "geometry": {"type": "Point", "coordinates": [34.87249386706042, 31.981106647336887]}}, {"type": "Feature", "properties": {"OBJECTID": 107, "Descriptio": "מועדון חדש", "subtype": "מועדון", "yeshuv": "אחיעזר", "phone": " ", "layer_n": "מוסדות תרבות ורווחה", "Type_Code": 18}, "geometry": {"type": "Point", "coordinates": [34.87245819656567, 31.9809061277735]}}, {"type": "Feature", "properties": {"OBJECTID": 108, "Descriptio": "מועדון קשישים פייס", "subtype": "מועדון פיס", "yeshuv": "אחיעזר", "phone": " ", "layer_n": "מוסדות תרבות ורווחה", "Type_Code": 18}, "geometry": {"type": "Point", "coordinates": [34.87198637100252, 31.981329606366366]}}, {"type": "Feature", "properties": {"OBJECTID": 109, "Descriptio": "מועדון נוער חדש", "subtype": "מועדון נוער", "yeshuv": "צפריה", "phone": " ", "layer_n": "מוסדות תרבות ורווחה", "Type_Code": 18}, "geometry": {"type": "Point", "coordinates": [34.854494777587114, 32.00337182400855]}}, {"type": "Feature", "properties": {"OBJECTID": 110, "Descriptio": "מועדון גמלאים", "subtype": "מועדון גימלאים", "yeshuv": "גנות", "phone": " ", "layer_n": "מוסדות תרבות ורווחה", "Type_Code": 18}, "geometry": {"type": "Point", "coordinates": [34.8274539241968, 32.01721764063463]}}, {"type": "Feature", "properties": {"OBJECTID": 111, "Descriptio": "מועדון חוגים", "subtype": "חוגים", "yeshuv": "חמד", "phone": " ", "layer_n": "מוסדות תרבות ורווחה", "Type_Code": 18}, "geometry": {"type": "Point", "coordinates": [34.841105177857635, 32.01792655682001]}}, {"type": "Feature", "properties": {"OBJECTID": 112, "Descriptio": "מועדון נוער- שמואל דן", "subtype": "מועדון נוער", "yeshuv": "חמד", "phone": " ", "layer_n": "מוסדות תרבות ורווחה", "Type_Code": 18}, "geometry": {"type": "Point", "coordinates": [34.84033084380056, 32.01880954787482]}}, {"type": "Feature", "properties": {"OBJECTID": 113, "Descriptio": "מועדון גמלאים", "subtype": "מועדון גימלאים", "yeshuv": "חמד", "phone": " ", "layer_n": "מוסדות תרבות ורווחה", "Type_Code": 18}, "geometry": {"type": "Point", "coordinates": [34.840237375342404, 32.01872099706591]}}, {"type": "Feature", "properties": {"OBJECTID": 114, "Descriptio": "בית אבות", "subtype": "בית אבות", "yeshuv": "אחיעזר", "phone": " ", "layer_n": "מוסדות תרבות ורווחה", "Type_Code": 18}, "geometry": {"type": "Point", "coordinates": [34.87132275138293, 31.98214866191971]}}, {"type": "Feature", "properties": {"OBJECTID": 115, "Descriptio": "מועדון נוער ישן", "subtype": "מועדון נוער", "yeshuv": "משמר השבעה", "phone": " ", "layer_n": "מוסדות תרבות ורווחה", "Type_Code": 18}, "geometry": {"type": "Point", "coordinates": [34.821287551606794, 32.00930725670826]}}, {"type": "Feature", "properties": {"OBJECTID": 116, "Descriptio": "מרכז לנערות כפר חב\"ד", "subtype": "מועדון", "yeshuv": "כפר חבד", "phone": " ", "layer_n": "מוסדות תרבות ורווחה", "Type_Code": 18}, "geometry": {"type": "Point", "coordinates": [34.85147496344452, 31.986586488752792]}}, {"type": "Feature", "properties": {"OBJECTID": 117, "Descriptio": "מועדון ותיקים- מושב ניר צבי", "subtype": "מועדון", "yeshuv": "ניר צבי", "phone": " ", "layer_n": "מוסדות תרבות ורווחה", "Type_Code": 18}, "geometry": {"type": "Point", "coordinates": [34.859622300597586, 31.952022644992567]}}, {"type": "Feature", "properties": {"OBJECTID": 118, "Descriptio": "בית גאולה - מועדון גימלאיות", "subtype": "מועדון גימלאים", "yeshuv": "כפר חבד", "phone": " ", "layer_n": "מוסדות תרבות ורווחה", "Type_Code": 18}, "geometry": {"type": "Point", "coordinates": [34.851141118047636, 31.986630231691425]}}, {"type": "Feature", "properties": {"OBJECTID": 119, "Descriptio": "מועדון גימלאים צפריה - ועד מקומי", "subtype": "מועדון גימלאים", "yeshuv": "צפריה", "phone": " ", "layer_n": "מוסדות תרבות ורווחה", "Type_Code": 18}, "geometry": {"type": "Point", "coordinates": [34.85328366118375, 32.00423163836115]}}, {"type": "Feature", "properties": {"OBJECTID": 136, "Descriptio": "סיפרית- חמד", "subtype": "ספרייה", "yeshuv": "חמד", "phone": " ", "layer_n": "מוסדות תרבות ורווחה", "Type_Code": 18}, "geometry": {"type": "Point", "coordinates": [34.84098285373427, 32.01787609975637]}}, {"type": "Feature", "properties": {"OBJECTID": 137, "Descriptio": "סיפריה- מושב ניר צבי", "subtype": "ספרייה", "yeshuv": "ניר צבי", "phone": " ", "layer_n": "מוסדות תרבות ורווחה", "Type_Code": 18}, "geometry": {"type": "Point", "coordinates": [34.861164666329415, 31.951920048134113]}}, {"type": "Feature", "properties": {"OBJECTID": 140, "Descriptio": "סיפריה מקומית מושב גנות", "subtype": "ספרייה", "yeshuv": "גנות", "phone": " ", "layer_n": "מוסדות תרבות ורווחה", "Type_Code": 18}, "geometry": {"type": "Point", "coordinates": [34.827847350817855, 32.01775008928908]}}]}