{"type": "FeatureCollection", "name": "כולל", "features": [{"type": "Feature", "properties": {"OBJECTID": 69, "Descriptio": "כולל גברים", "subtype": "כולל", "yeshuv": "זיתן", "phone": " ", "layer_n": "כולל", "Type_Code": 12}, "geometry": {"type": "Point", "coordinates": [34.8914172396255, 31.975706718588405]}}, {"type": "Feature", "properties": {"OBJECTID": 70, "Descriptio": "כולל גימלאים - מושב יגל", "subtype": "כולל", "yeshuv": "יגל", "phone": " ", "layer_n": "כולל", "Type_Code": 12}, "geometry": {"type": "Point", "coordinates": [34.879879481325204, 31.987563405054207]}}]}