{"type": "FeatureCollection", "name": "מעונות", "features": [{"type": "Feature", "properties": {"OBJECTID": 120, "Descriptio": "מעון+ממ\"ד- אמא אדמה", "subtype": "מעון", "yeshuv": "משמר השבעה", "phone": " ", "layer_n": "מעונות", "Type_Code": 22}, "geometry": {"type": "Point", "coordinates": [34.822567122842976, 32.00909751784562]}}, {"type": "Feature", "properties": {"OBJECTID": 121, "Descriptio": "מעון בראשית", "subtype": "מעון", "yeshuv": "אחיעזר", "phone": " ", "layer_n": "מעונות", "Type_Code": 22}, "geometry": {"type": "Point", "coordinates": [34.871702876368886, 31.981538834546864]}}, {"type": "Feature", "properties": {"OBJECTID": 122, "Descriptio": "מעון ש\"ס", "subtype": "מעון", "yeshuv": "אחיעזר", "phone": " ", "layer_n": "מעונות", "Type_Code": 22}, "geometry": {"type": "Point", "coordinates": [34.87213536352329, 31.980190058352672]}}, {"type": "Feature", "properties": {"OBJECTID": 123, "Descriptio": "מעון- לגדול בצפריה", "subtype": "מעון", "yeshuv": "צפריה", "phone": " ", "layer_n": "מעונות", "Type_Code": 22}, "geometry": {"type": "Point", "coordinates": [34.85463002465862, 32.00411938011049]}}, {"type": "Feature", "properties": {"OBJECTID": 124, "Descriptio": "מעון", "subtype": "מעון", "yeshuv": "זיתן", "phone": " ", "layer_n": "מעונות", "Type_Code": 22}, "geometry": {"type": "Point", "coordinates": [34.889112644387154, 31.976057497787433]}}, {"type": "Feature", "properties": {"OBJECTID": 125, "Descriptio": "מעון ב", "subtype": "מעון", "yeshuv": "גנות", "phone": " ", "layer_n": "מעונות", "Type_Code": 22}, "geometry": {"type": "Point", "coordinates": [34.82737455006863, 32.01711003390388]}}, {"type": "Feature", "properties": {"OBJECTID": 126, "Descriptio": "מעון אמא אדמה", "subtype": "מעון", "yeshuv": "משמר השבעה", "phone": " ", "layer_n": "מעונות", "Type_Code": 22}, "geometry": {"type": "Point", "coordinates": [34.82279172201958, 32.00886441297108]}}, {"type": "Feature", "properties": {"OBJECTID": 127, "Descriptio": "פעוטון/מעון ניר צבי", "subtype": "מעון", "yeshuv": "ניר צבי", "phone": " ", "layer_n": "מעונות", "Type_Code": 22}, "geometry": {"type": "Point", "coordinates": [34.861853315986615, 31.952239250675063]}}, {"type": "Feature", "properties": {"OBJECTID": 128, "Descriptio": "פעוטון/מעון חיה", "subtype": "מעון", "yeshuv": "כפר חבד", "phone": " ", "layer_n": "מעונות", "Type_Code": 22}, "geometry": {"type": "Point", "coordinates": [34.84579862075703, 31.988666336397166]}}, {"type": "Feature", "properties": {"OBJECTID": 129, "Descriptio": "פעוטון מושב חמד - מעון", "subtype": "מעון", "yeshuv": "חמד", "phone": " ", "layer_n": "מעונות", "Type_Code": 22}, "geometry": {"type": "Point", "coordinates": [34.84081222856299, 32.018094875089]}}, {"type": "Feature", "properties": {"OBJECTID": 130, "Descriptio": "מעון חיה מושקא - כפר חב\"ד", "subtype": "מעון", "yeshuv": "כפר חבד", "phone": " ", "layer_n": "מעונות", "Type_Code": 22}, "geometry": {"type": "Point", "coordinates": [34.851112990016944, 31.989001731137197]}}, {"type": "Feature", "properties": {"OBJECTID": 131, "Descriptio": "מעון יום חיה מושקא - כפר חב\"ד", "subtype": "מעון", "yeshuv": "כפר חבד", "phone": " ", "layer_n": "מעונות", "Type_Code": 22}, "geometry": {"type": "Point", "coordinates": [34.85133789551146, 31.988757789720374]}}, {"type": "Feature", "properties": {"OBJECTID": 132, "Descriptio": "מעון יום - חיה מושקא - כפר חב\"ד", "subtype": "מעון", "yeshuv": "כפר חבד", "phone": " ", "layer_n": "מעונות", "Type_Code": 22}, "geometry": {"type": "Point", "coordinates": [34.85087764033762, 31.98868373469334]}}]}