{"type": "FeatureCollection", "name": "מוסדות רפואה", "features": [{"type": "Feature", "properties": {"OBJECTID": 71, "Descriptio": "מרפאה מאוחדת", "subtype": "קופת חולים", "yeshuv": "אחיעזר", "phone": " ", "layer_n": "מוסדות רפואה", "Type_Code": 16}, "geometry": {"type": "Point", "coordinates": [34.87269477807093, 31.981286125041578]}}, {"type": "Feature", "properties": {"OBJECTID": 72, "Descriptio": "קופת חולים/ מועדון נוער", "subtype": "קופת חולים", "yeshuv": "גנות", "phone": " ", "layer_n": "מוסדות רפואה", "Type_Code": 16}, "geometry": {"type": "Point", "coordinates": [34.82693344930706, 32.01609108750451]}}, {"type": "Feature", "properties": {"OBJECTID": 73, "Descriptio": "מעון לתשושי נפש", "subtype": "רפואת נפש", "yeshuv": "צפריה", "phone": " ", "layer_n": "מוסדות רפואה", "Type_Code": 16}, "geometry": {"type": "Point", "coordinates": [34.854952456766654, 32.0036228059864]}}, {"type": "Feature", "properties": {"OBJECTID": 74, "Descriptio": "קופת חולים כללית", "subtype": "קופת חולים", "yeshuv": "ניר צבי", "phone": " ", "layer_n": "מוסדות רפואה", "Type_Code": 16}, "geometry": {"type": "Point", "coordinates": [34.86124143453142, 31.951971555024418]}}, {"type": "Feature", "properties": {"OBJECTID": 75, "Descriptio": "קופת חולים מאוחדת-", "subtype": "קופת חולים", "yeshuv": "כפר חבד", "phone": "03-9552600", "layer_n": "מוסדות רפואה", "Type_Code": 16}, "geometry": {"type": "Point", "coordinates": [34.8483655083787, 31.991662061103373]}}, {"type": "Feature", "properties": {"OBJECTID": 76, "Descriptio": "בית מרקחת -קופת חולים מאוחדת", "subtype": "קופת חולים", "yeshuv": "כפר חבד", "phone": " ", "layer_n": "מוסדות רפואה", "Type_Code": 16}, "geometry": {"type": "Point", "coordinates": [34.848492064037934, 31.991696118287955]}}, {"type": "Feature", "properties": {"OBJECTID": 77, "Descriptio": "קופת חולים כללית", "subtype": "קופת חולים", "yeshuv": "כפר חבד", "phone": "03-9602400", "layer_n": "מוסדות רפואה", "Type_Code": 16}, "geometry": {"type": "Point", "coordinates": [34.8501670845506, 31.99203783136248]}}, {"type": "Feature", "properties": {"OBJECTID": 78, "Descriptio": "שירות פסיכולוגי - מ.א. שדות דן", "subtype": "רפואת נפש", "yeshuv": "כפר חבד", "phone": " ", "layer_n": "מוסדות רפואה", "Type_Code": 16}, "geometry": {"type": "Point", "coordinates": [34.847177385340146, 31.9937431617896]}}, {"type": "Feature", "properties": {"OBJECTID": 79, "Descriptio": "קופת חולים מאוחדת", "subtype": "קופת חולים", "yeshuv": "כפר חבד", "phone": " ", "layer_n": "מוסדות רפואה", "Type_Code": 16}, "geometry": {"type": "Point", "coordinates": [34.846322200403804, 31.986001408078806]}}, {"type": "Feature", "properties": {"OBJECTID": 80, "Descriptio": "קופת חולים", "subtype": "קופת חולים", "yeshuv": "יגל", "phone": " ", "layer_n": "מוסדות רפואה", "Type_Code": 16}, "geometry": {"type": "Point", "coordinates": [34.8798657322089, 31.98753724911683]}}, {"type": "Feature", "properties": {"OBJECTID": 81, "Descriptio": "לטיפה מרכז ליולדת", "subtype": " ", "yeshuv": "כפר חבד", "phone": " ", "layer_n": "מוסדות רפואה", "Type_Code": 16}, "geometry": {"type": "Point", "coordinates": [34.850234154820434, 31.99234223369927]}}, {"type": "Feature", "properties": {"OBJECTID": 82, "Descriptio": "קופת חולים כללית", "subtype": "קופת חולים", "yeshuv": "משמר השבעה", "phone": " ", "layer_n": "מוסדות רפואה", "Type_Code": 16}, "geometry": {"type": "Point", "coordinates": [34.82193951050505, 32.00997584924282]}}, {"type": "Feature", "properties": {"OBJECTID": 83, "Descriptio": "קופת חולים", "subtype": "קופת חולים", "yeshuv": "אחיעזר", "phone": " ", "layer_n": "מוסדות רפואה", "Type_Code": 16}, "geometry": {"type": "Point", "coordinates": [34.872954610945094, 31.98216004639702]}}, {"type": "Feature", "properties": {"OBJECTID": 84, "Descriptio": "קופת חולים", "subtype": "קופת חולים", "yeshuv": "גנות", "phone": " ", "layer_n": "מוסדות רפואה", "Type_Code": 16}, "geometry": {"type": "Point", "coordinates": [34.827805648305535, 32.015505112018616]}}, {"type": "Feature", "properties": {"OBJECTID": 85, "Descriptio": "מרפאה", "subtype": "קופת חולים", "yeshuv": "חמד", "phone": " ", "layer_n": "מוסדות רפואה", "Type_Code": 16}, "geometry": {"type": "Point", "coordinates": [34.840372124847946, 32.01893815284524]}}, {"type": "Feature", "properties": {"OBJECTID": 86, "Descriptio": "מרפאה", "subtype": "קופת חולים", "yeshuv": "צפריה", "phone": " ", "layer_n": "מוסדות רפואה", "Type_Code": 16}, "geometry": {"type": "Point", "coordinates": [34.854506660330316, 32.004265946127276]}}, {"type": "Feature", "properties": {"OBJECTID": 141, "Descriptio": "מד\"א", "subtype": "מד\"א", "yeshuv": "כפר חבד", "phone": " ", "layer_n": "מוסדות רפואה", "Type_Code": 16}, "geometry": {"type": "Point", "coordinates": [34.84632472533444, 31.98968746382793]}}]}