{"type": "FeatureCollection", "name": "מוסדות ציבור", "features": [{"type": "Feature", "properties": {"OBJECTID_1": 1, "Descriptio": "מד\"א + שיטור קהילתי", "yeshuv": "יגל"}, "geometry": {"type": "Point", "coordinates": [34.88043725407493, 31.987443185628987]}}, {"type": "Feature", "properties": {"OBJECTID_1": 2, "Descriptio": "שיטור קהילתי", "yeshuv": "משמר השבעה"}, "geometry": {"type": "Point", "coordinates": [34.822115772352525, 32.00946484659905]}}, {"type": "Feature", "properties": {"OBJECTID_1": 3, "Descriptio": "סיפרית- חמד", "yeshuv": "חמד"}, "geometry": {"type": "Point", "coordinates": [34.84098285373427, 32.01787609975637]}}, {"type": "Feature", "properties": {"OBJECTID_1": 4, "Descriptio": "סיפריה- מושב ניר צבי", "yeshuv": "ניר צבי"}, "geometry": {"type": "Point", "coordinates": [34.861164666329415, 31.951920048134113]}}, {"type": "Feature", "properties": {"OBJECTID_1": 5, "Descriptio": "סניף הדואר - מושב ניר צבי", "yeshuv": "ניר צבי"}, "geometry": {"type": "Point", "coordinates": [34.862147313079014, 31.95219828782312]}}, {"type": "Feature", "properties": {"OBJECTID_1": 6, "Descriptio": "מועצה אזורית שדות דן", "yeshuv": "כפר חבד"}, "geometry": {"type": "Point", "coordinates": [34.848014919660415, 31.991099168040364]}}, {"type": "Feature", "properties": {"OBJECTID_1": 7, "Descriptio": "סניף  דואר - כפר חב\"ד", "yeshuv": "כפר חבד"}, "geometry": {"type": "Point", "coordinates": [34.849626335874845, 31.99250547293053]}}, {"type": "Feature", "properties": {"OBJECTID_1": 8, "Descriptio": "השכרת רכב קאר770 054-4770751", "yeshuv": "כפר חבד"}, "geometry": {"type": "Point", "coordinates": [34.851791577761624, 31.993332001567232]}}, {"type": "Feature", "properties": {"OBJECTID_1": 9, "Descriptio": "דואר - מושב יגל", "yeshuv": "יגל"}, "geometry": {"type": "Point", "coordinates": [34.87980117773737, 31.987539344847637]}}, {"type": "Feature", "properties": {"OBJECTID_1": 10, "Descriptio": "מועצה דתית אזורית שדות דן", "yeshuv": "צפריה"}, "geometry": {"type": "Point", "coordinates": [34.85290853951591, 32.00431768934913]}}, {"type": "Feature", "properties": {"OBJECTID_1": 11, "Descriptio": "סיפריה מקומית מושב גנות", "yeshuv": "גנות"}, "geometry": {"type": "Point", "coordinates": [34.827847350817855, 32.01775008928908]}}, {"type": "Feature", "properties": {"OBJECTID_1": 12, "Descriptio": "מד\"א", "yeshuv": "כפר חבד"}, "geometry": {"type": "Point", "coordinates": [34.84632472533444, 31.98968746382793]}}]}