{"type": "FeatureCollection", "name": "נק' גובה", "features": [{"type": "Feature", "properties": {"OBJECTID_1": 98, "HT_LAND": 37.2346}, "geometry": {"type": "Point", "coordinates": [34.88074826624334, 31.988758120769003]}}, {"type": "Feature", "properties": {"OBJECTID_1": 99, "HT_LAND": 35.911}, "geometry": {"type": "Point", "coordinates": [34.876027468079826, 31.98874653467185]}}, {"type": "Feature", "properties": {"OBJECTID_1": 103, "HT_LAND": 35.3045}, "geometry": {"type": "Point", "coordinates": [34.869175308674656, 31.989194131194015]}}, {"type": "Feature", "properties": {"OBJECTID_1": 105, "HT_LAND": 37.2668}, "geometry": {"type": "Point", "coordinates": [34.883084839945596, 31.98963429981236]}}, {"type": "Feature", "properties": {"OBJECTID_1": 106, "HT_LAND": 34.0652}, "geometry": {"type": "Point", "coordinates": [34.86359229922417, 31.98976209676685]}}, {"type": "Feature", "properties": {"OBJECTID_1": 109, "HT_LAND": 35.6108}, "geometry": {"type": "Point", "coordinates": [34.86634371112627, 31.991828905478]}}, {"type": "Feature", "properties": {"OBJECTID_1": 110, "HT_LAND": 34.9086}, "geometry": {"type": "Point", "coordinates": [34.87893756957549, 31.992122270797065]}}, {"type": "Feature", "properties": {"OBJECTID_1": 112, "HT_LAND": 35.6516}, "geometry": {"type": "Point", "coordinates": [34.86359196246038, 31.993716504870136]}}, {"type": "Feature", "properties": {"OBJECTID_1": 113, "HT_LAND": 35.4758}, "geometry": {"type": "Point", "coordinates": [34.8691741522289, 31.99387620385736]}}, {"type": "Feature", "properties": {"OBJECTID_1": 114, "HT_LAND": 35.2533}, "geometry": {"type": "Point", "coordinates": [34.87291219829136, 31.99405231627367]}}, {"type": "Feature", "properties": {"OBJECTID_1": 120, "HT_LAND": 33.5813}, "geometry": {"type": "Point", "coordinates": [34.87571775574188, 31.995096057168674]}}, {"type": "Feature", "properties": {"OBJECTID_1": 127, "HT_LAND": 33.4435}, "geometry": {"type": "Point", "coordinates": [34.86313876810808, 31.99853876067141]}}]}