{"type": "FeatureCollection", "name": "זרימות מים", "features": [{"type": "Feature", "properties": {"OBJECTID_1": 46, "FNAME": " ", "Shape_Length": 2366.5115728714177}, "geometry": {"type": "MultiLineString", "coordinates": [[[34.87674946470508, 31.995870487075685], [34.87638832360566, 31.99590274223236], [34.875918540197276, 31.995915054047394], [34.875468794976435, 31.99591668460497], [34.87497372129296, 31.99589907766434], [34.87444042783118, 31.995857110901017], [34.87391694850297, 31.995763854839463], [34.87342315225286, 31.99565606483078], [34.87294424295181, 31.995528562293572], [34.87245364620353, 31.995385155636992], [34.87199509753447, 31.99521712162625], [34.87154313778727, 31.99498318140768], [34.87107406642257, 31.99474125876164], [34.87061479422973, 31.994453187816806], [34.87024012404778, 31.99418057850234], [34.86978101312091, 31.99384957910981], [34.86939049788821, 31.993570703052967], [34.86895780199346, 31.993252215298526], [34.868592797534234, 31.99297232204923], [34.86841001006247, 31.99283828108866], [34.868296136341485, 31.992755103775103], [34.86821170957518, 31.99269283604056], [34.86768176080338, 31.992320609280508], [34.86728396631992, 31.992068130262382], [34.866960797548735, 31.99186716108803], [34.86665346352881, 31.991705732240973], [34.86634711630445, 31.99156405478166], [34.866019555751855, 31.991436297979494], [34.86566772047841, 31.99132046953087], [34.865315629365156, 31.991188136415158], [34.865010240372435, 31.99110336211315], [34.864511218335565, 31.990987587642195], [34.86399832916322, 31.990902254983947], [34.86387236478443, 31.990885594389326], [34.86383439649548, 31.99088035221925], [34.86342808912891, 31.990845533714843], [34.86291083081385, 31.99082610678198], [34.862462185501855, 31.990823185283663], [34.86203470200641, 31.99084908683077], [34.861442862907644, 31.99090998375482], [34.860788427177475, 31.991043483992254], [34.8600670266157, 31.991228743047216], [34.85952130179376, 31.991435758098213], [34.859125056479805, 31.991595923076357], [34.858675591786245, 31.991810500937618], [34.85817725886992, 31.992075805583415], [34.85775285676165, 31.992377833258335], [34.85731452359748, 31.992725542809772], [34.857293294810724, 31.9927428895471], [34.8572189856715, 31.992805812494154]], [[34.87743208489385, 31.995767386111048], [34.877313718906464, 31.9957861830642], [34.87692597583432, 31.995851540418847]], [[34.88503620296842, 31.990287605071423], [34.88503219961154, 31.990286801408516], [34.88498264974026, 31.990295063485988], [34.884914698129094, 31.990330964623332], [34.884799989035145, 31.99045476411541], [34.88471713403279, 31.990577381220756], [34.88458844944207, 31.990733790636185], [34.88448553170488, 31.990783130485564], [34.88440423504781, 31.990791943563426], [34.88432662242887, 31.99083683806563], [34.88420259272314, 31.990962777824564], [34.88365203410829, 31.99160166869697], [34.88332835731258, 31.991941003604882]]]}}, {"type": "Feature", "properties": {"OBJECTID_1": 52, "FNAME": " ", "Shape_Length": 650.2189019371019}, "geometry": {"type": "LineString", "coordinates": [[34.86886937770492, 31.99257283315943], [34.86926813187788, 31.992883295728706], [34.869836799524016, 31.993319375478496], [34.87022629109691, 31.993617996978408], [34.87066531408842, 31.9939150341281], [34.8712893459165, 31.994319689820504], [34.87154600173092, 31.994453920413804], [34.87165691334826, 31.994508950770477], [34.87204992982358, 31.994684118996044], [34.87240498070221, 31.994823745801526], [34.87291117371329, 31.995013816634234], [34.873347758796186, 31.995139495456634], [34.87377689823619, 31.99524666640668], [34.87443897066802, 31.995377437806816], [34.8747383206163, 31.995411492404127]]}}, {"type": "Feature", "properties": {"OBJECTID_1": 53, "FNAME": " ", "Shape_Length": 903.5775218302463}, "geometry": {"type": "LineString", "coordinates": [[34.88274872038076, 31.991833220223644], [34.88257034617353, 31.992005824244565], [34.88250451623205, 31.992069865749816], [34.88194801212372, 31.99267888424141], [34.88156125594768, 31.993100035458045], [34.881448816669604, 31.99320796585618], [34.88121407228442, 31.99343065493015], [34.88119400957191, 31.993448639914984], [34.88093704670529, 31.99367000934529], [34.88086062666151, 31.99373573640458], [34.880567883715386, 31.99396044069537], [34.880494579428955, 31.994012648420135], [34.88000239921925, 31.99431800452106], [34.87959006151271, 31.994546909749037], [34.879179859616166, 31.9947397469402], [34.87877929123845, 31.994901044379464], [34.8779826226346, 31.995156011647737], [34.87769573461328, 31.995218399606536], [34.87765962593977, 31.995225160343626], [34.87706869213892, 31.995353767642243], [34.876793437246825, 31.995388047287452], [34.87665369141205, 31.99540572249647], [34.876215374442396, 31.995437866190702], [34.87569150352756, 31.995454546295807], [34.87520062285551, 31.995448764737972], [34.8751276296216, 31.995442352906192], [34.875107635856814, 31.995440587596566], [34.8747383206163, 31.995411492404127]]}}, {"type": "Feature", "properties": {"OBJECTID_1": 112, "FNAME": " ", "Shape_Length": 59.50577238746281}, "geometry": {"type": "LineString", "coordinates": [[34.88391211115698, 31.989568125069237], [34.88424807329482, 31.989719484276417], [34.884447617946826, 31.989847322353103]]}}, {"type": "Feature", "properties": {"OBJECTID_1": 113, "FNAME": " ", "Shape_Length": 121.13875276815538}, "geometry": {"type": "LineString", "coordinates": [[34.88520512035577, 31.988967174565985], [34.88507759311288, 31.98912638303541], [34.88486717433745, 31.989388458983846], [34.884690707624806, 31.989593265320924], [34.88464193835781, 31.98965112849805], [34.884551672533725, 31.989744508365312], [34.884447617946826, 31.989847322353103]]}}, {"type": "Feature", "properties": {"OBJECTID_1": 114, "FNAME": " ", "Shape_Length": 7.124022740947698}, "geometry": {"type": "LineString", "coordinates": [[34.884447617946826, 31.989847322353103], [34.88450790395239, 31.989885891213255]]}}, {"type": "Feature", "properties": {"OBJECTID_1": 115, "FNAME": " ", "Shape_Length": 969.2776609557986}, "geometry": {"type": "LineString", "coordinates": [[34.865477163888414, 31.988150119641656], [34.86551303620371, 31.98817835172925], [34.86562265275672, 31.98826602922272], [34.86591925615431, 31.988493353866225], [34.86626334764238, 31.988727026800763], [34.86662220895273, 31.988973183010966], [34.86669197524521, 31.989021254483703], [34.866873305978466, 31.989145825139296], [34.86729880922644, 31.989456365114492], [34.867761969026624, 31.98980028012686], [34.86812725629118, 31.990056549325118], [34.868428090732955, 31.990258538608096], [34.86870138892467, 31.99043854050024], [34.86894539532335, 31.99058455654571], [34.869152288796016, 31.99069395102112], [34.8693794204642, 31.99079591361571], [34.86952946354573, 31.990854926896912], [34.86957704487614, 31.990864701747892], [34.86962782553551, 31.990867631310387], [34.8696851076939, 31.990857682203234], [34.86976458521581, 31.990825697400957], [34.8698822993403, 31.99072509587747], [34.87005315928961, 31.99055871239553], [34.870444138148756, 31.990180984150097], [34.870833672884466, 31.989792068496048], [34.87116098692648, 31.98946142515895], [34.87151029879692, 31.989103964885476], [34.8720169740029, 31.9885642102867], [34.87221130399353, 31.988371913308253], [34.872459848194794, 31.98810995816566], [34.87290053305456, 31.987674816987518]]}}, {"type": "Feature", "properties": {"OBJECTID_1": 130, "FNAME": " ", "Shape_Length": 51.91527306028782}, "geometry": {"type": "LineString", "coordinates": [[34.88450790395239, 31.989885891213255], [34.88469885905089, 31.990019298431744], [34.88493320217588, 31.99018221342746]]}}, {"type": "Feature", "properties": {"OBJECTID_1": 131, "FNAME": " ", "Shape_Length": 15.588333560868108}, "geometry": {"type": "LineString", "coordinates": [[34.88493320217588, 31.99018221342746], [34.88504104817983, 31.99023722441663], [34.88508019501994, 31.990239758698934]]}}, {"type": "Feature", "properties": {"OBJECTID_1": 148, "FNAME": " ", "Shape_Length": 58.1914779689084}, "geometry": {"type": "LineString", "coordinates": [[34.885535624887034, 31.988524407552298], [34.88538148014529, 31.98873143530543], [34.88520512035577, 31.988967174565985]]}}, {"type": "Feature", "properties": {"OBJECTID_1": 158, "FNAME": " ", "Shape_Length": 66.97809983135343}, "geometry": {"type": "LineString", "coordinates": [[34.86476771907086, 31.987683793834094], [34.86500326588412, 31.987853422098183], [34.86516992381544, 31.987967224480123], [34.86532620472827, 31.98805439569304]]}}, {"type": "Feature", "properties": {"OBJECTID_1": 159, "FNAME": " ", "Shape_Length": 17.782473254700577}, "geometry": {"type": "LineString", "coordinates": [[34.86532620472827, 31.98805439569304], [34.86538637799295, 31.9880923420464], [34.865477163888414, 31.988150119641656]]}}, {"type": "Feature", "properties": {"OBJECTID_1": 193, "FNAME": " ", "Shape_Length": 11.554410412545913}, "geometry": {"type": "LineString", "coordinates": [[34.87290053305456, 31.987674816987518], [34.872997051499574, 31.987610860575693]]}}, {"type": "Feature", "properties": {"OBJECTID_1": 294, "FNAME": " ", "Shape_Length": 272.6821786086237}, "geometry": {"type": "LineString", "coordinates": [[34.88274872038076, 31.991833220223644], [34.883055756980184, 31.99148121218297], [34.88333616515896, 31.99114825425969], [34.883345835442604, 31.991136465085713], [34.883706127610616, 31.990713527931852], [34.88416167213602, 31.99022319476226], [34.88425732346448, 31.99010277462753], [34.88436669084044, 31.98996327074717], [34.884395516837465, 31.98991996662971], [34.88440199899657, 31.98991204709314], [34.884447617946826, 31.989847322353103]]}}]}