{"type": "FeatureCollection", "name": "סקר מיגון", "features": [{"type": "Feature", "properties": {"OBJECTID_1": 690, "Protecti1": "מבנה מגורים ממוגן ממד ממק", "BLDGHT": 6.97, "settlenam": "אחיעזר", "Protective": 8, "EditDate": -2209161600000, "UNIQID": 52417103, "x": 34.86437046, "y": 31.98783766}, "geometry": {"type": "Point", "coordinates": [34.8642767475903, 31.987791809201564]}}, {"type": "Feature", "properties": {"OBJECTID_1": 847, "Protecti1": "מבנה מגורים ממוגן ממד ממק", "BLDGHT": 6, "settlenam": "יגל", "Protective": 8, "EditDate": -2209161600000, "UNIQID": 52453778, "x": 34.87611584, "y": 31.99186796}, "geometry": {"type": "Point", "coordinates": [34.87611055332816, 31.991864883407292]}}, {"type": "Feature", "properties": {"OBJECTID_1": 867, "Protecti1": "מבנה מגורים ממוגן ממד ממק", "BLDGHT": 5.8, "settlenam": "יגל", "Protective": 8, "EditDate": -2209161600000, "UNIQID": 52427905, "x": 34.88114801, "y": 31.98793151}, "geometry": {"type": "Point", "coordinates": [34.8811426885026, 31.987928450156883]}}, {"type": "Feature", "properties": {"OBJECTID_1": 913, "Protecti1": "מבנה מגורים ממוגן ממד ממק", "BLDGHT": 4.98, "settlenam": "אחיעזר", "Protective": 8, "EditDate": -2209161600000, "UNIQID": 52460986, "x": 34.86447673, "y": 31.98872616}, "geometry": {"type": "Point", "coordinates": [34.86447150175471, 31.988723110149856]}}, {"type": "Feature", "properties": {"OBJECTID_1": 918, "Protecti1": "מבנה מגורים ללא מיגון", "BLDGHT": 5.56, "settlenam": "יגל", "Protective": 2, "EditDate": -2209161600000, "UNIQID": 52455640, "x": 34.87691381, "y": 31.99201094}, "geometry": {"type": "Point", "coordinates": [34.876908519922274, 31.99200785481701]}}, {"type": "Feature", "properties": {"OBJECTID_1": 925, "Protecti1": "מבנה מגורים ממוגן ממד ממק", "BLDGHT": 5.77, "settlenam": "אחיעזר", "Protective": 8, "EditDate": -2209161600000, "UNIQID": 52429772, "x": 34.86398077, "y": 31.98860435}, "geometry": {"type": "Point", "coordinates": [34.86397554496741, 31.9886013006111]}}, {"type": "Feature", "properties": {"OBJECTID_1": 933, "Protecti1": "מבנה מגורים ממוגן ממד ממק", "BLDGHT": 6.24, "settlenam": "יגל", "Protective": 8, "EditDate": -2209161600000, "UNIQID": 53325723, "x": 34.8810089, "y": 31.9880526}, "geometry": {"type": "Point", "coordinates": [34.88100358031136, 31.9880495318971]}}, {"type": "Feature", "properties": {"OBJECTID_1": 948, "Protecti1": "מבנה מגורים ממוגן ממד ממק", "BLDGHT": 6.355, "settlenam": "יגל", "Protective": 8, "EditDate": -2209161600000, "UNIQID": 64907277, "x": 34.8735965, "y": 31.99363177}, "geometry": {"type": "Point", "coordinates": [34.873591231699706, 31.99362868760013]}}, {"type": "Feature", "properties": {"OBJECTID_1": 951, "Protecti1": "מבנה מגורים ממוגן ממד ממק", "BLDGHT": 5.71, "settlenam": "יגל", "Protective": 8, "EditDate": -2209161600000, "UNIQID": 53324819, "x": 34.87481995, "y": 31.99323028}, "geometry": {"type": "Point", "coordinates": [34.87481466898082, 31.99322719470833]}}, {"type": "Feature", "properties": {"OBJECTID_1": 975, "Protecti1": "מבנה מגורים ממוגן ממד ממק", "BLDGHT": 6.66, "settlenam": "יגל", "Protective": 8, "EditDate": -2209161600000, "UNIQID": 52454271, "x": 34.87502752, "y": 31.99301892}, "geometry": {"type": "Point", "coordinates": [34.87502223598428, 31.99301583677215]}}, {"type": "Feature", "properties": {"OBJECTID_1": 980, "Protecti1": "מבנה מגורים ממוגן ממד ממק", "BLDGHT": 8.08, "settlenam": "אחיעזר", "Protective": 8, "EditDate": -2209161600000, "UNIQID": 53321419, "x": 34.863463, "y": 31.98784663}, "geometry": {"type": "Point", "coordinates": [34.8634577770523, 31.987843589176702]}}, {"type": "Feature", "properties": {"OBJECTID_1": 1033, "Protecti1": "מבנה מגורים ללא מיגון", "BLDGHT": 5.2, "settlenam": "יגל", "Protective": 2, "EditDate": -2209161600000, "UNIQID": 52444010, "x": 34.88052795, "y": 31.9893299}, "geometry": {"type": "Point", "coordinates": [34.88052263579837, 31.989326827412015]}}, {"type": "Feature", "properties": {"OBJECTID_1": 1050, "Protecti1": "מבנה מגורים ממוגן ממד ממק", "BLDGHT": 3.45, "settlenam": "יגל", "Protective": 8, "EditDate": -2209161600000, "UNIQID": 52452070, "x": 34.8806479, "y": 31.98867633}, "geometry": {"type": "Point", "coordinates": [34.88064257789905, 31.98867326550955]}}, {"type": "Feature", "properties": {"OBJECTID_1": 1052, "Protecti1": "מבנה מגורים ללא מיגון", "BLDGHT": 3.21, "settlenam": "יגל", "Protective": 2, "EditDate": -2209161600000, "UNIQID": 52454596, "x": 34.87906461, "y": 31.99000195}, "geometry": {"type": "Point", "coordinates": [34.879059305404375, 31.989998876036065]}}, {"type": "Feature", "properties": {"OBJECTID_1": 1055, "Protecti1": "מבנה מגורים ממוגן ממד ממק", "BLDGHT": 5.91, "settlenam": "יגל", "Protective": 8, "EditDate": -2209161600000, "UNIQID": 52453139, "x": 34.87530249, "y": 31.99274921}, "geometry": {"type": "Point", "coordinates": [34.875297205536924, 31.99274612803155]}}, {"type": "Feature", "properties": {"OBJECTID_1": 1098, "Protecti1": "מבנה מגורים ממוגן ממד ממק", "BLDGHT": 3.66, "settlenam": "יגל", "Protective": 8, "EditDate": -2209161600000, "UNIQID": 52471444, "x": 34.8780838, "y": 31.99087502}, "geometry": {"type": "Point", "coordinates": [34.878078496084946, 31.990871944963835]}}, {"type": "Feature", "properties": {"OBJECTID_1": 1108, "Protecti1": "מבנה מגורים ללא מיגון", "BLDGHT": 4.81, "settlenam": "יגל", "Protective": 2, "EditDate": -2209161600000, "UNIQID": 52328653, "x": 34.8770604, "y": 31.99157847}, "geometry": {"type": "Point", "coordinates": [34.87705510598991, 31.99157539587044]}}, {"type": "Feature", "properties": {"OBJECTID_1": 1146, "Protecti1": "מבנה מגורים ממוגן ממד ממק", "BLDGHT": 3.25, "settlenam": "יגל", "Protective": 8, "EditDate": -2209161600000, "UNIQID": 52477027, "x": 34.87823326, "y": 31.98954564}, "geometry": {"type": "Point", "coordinates": [34.87822941086886, 31.989532591485613]}}, {"type": "Feature", "properties": {"OBJECTID_1": 1171, "Protecti1": "מבנה מגורים ממוגן ממד ממק", "BLDGHT": 7.06, "settlenam": "יגל", "Protective": 8, "EditDate": -2209161600000, "UNIQID": 52471632, "x": 34.877396, "y": 31.99062186}, "geometry": {"type": "Point", "coordinates": [34.877390703053386, 31.99061878841949]}}, {"type": "Feature", "properties": {"OBJECTID_1": 1206, "Protecti1": "מקלט ציבורי", "BLDGHT": 5.53, "settlenam": "יגל", "Protective": 4, "EditDate": -2209161600000, "UNIQID": 52471229, "x": 34.87826167, "y": 31.99030946}, "geometry": {"type": "Point", "coordinates": [34.87825637276345, 31.990306391008456]}}, {"type": "Feature", "properties": {"OBJECTID_1": 1240, "Protecti1": "מבנה מגורים ממוגן ממד ממק", "BLDGHT": 8.76, "settlenam": "אחיעזר", "Protective": 8, "EditDate": -2209161600000, "UNIQID": 52470634, "x": 34.86469749, "y": 31.98806623}, "geometry": {"type": "Point", "coordinates": [34.86469224224681, 31.988046835867923]}}, {"type": "Feature", "properties": {"OBJECTID_1": 1241, "Protecti1": "מבנה מגורים ללא מיגון", "BLDGHT": 7.86, "settlenam": "יגל", "Protective": 2, "EditDate": -2209161600000, "UNIQID": 52476098, "x": 34.87968592, "y": 31.98882553}, "geometry": {"type": "Point", "coordinates": [34.87968060706907, 31.988822464268925]}}, {"type": "Feature", "properties": {"OBJECTID_1": 1271, "Protecti1": "מבנה מגורים ממוגן ממד ממק", "BLDGHT": 6.91, "settlenam": "יגל", "Protective": 8, "EditDate": -2209161600000, "UNIQID": 52472143, "x": 34.87760558, "y": 31.9910004}, "geometry": {"type": "Point", "coordinates": [34.87760027872491, 31.990997329500164]}}, {"type": "Feature", "properties": {"OBJECTID_1": 1293, "Protecti1": "מבנה מגורים ממוגן ממד ממק", "BLDGHT": 3.7, "settlenam": "יגל", "Protective": 8, "EditDate": -2209161600000, "UNIQID": 52470771, "x": 34.87753888, "y": 31.99110228}, "geometry": {"type": "Point", "coordinates": [34.87753086540112, 31.99108669809388]}}, {"type": "Feature", "properties": {"OBJECTID_1": 1308, "Protecti1": "מבנה מגורים ללא מיגון", "BLDGHT": 6.3, "settlenam": "יגל", "Protective": 2, "EditDate": -2209161600000, "UNIQID": 52477890, "x": 34.88037257, "y": 31.98948797}, "geometry": {"type": "Point", "coordinates": [34.88036725278002, 31.989484895881215]}}, {"type": "Feature", "properties": {"OBJECTID_1": 1310, "Protecti1": "מבנה מגורים ממוגן ממד ממק", "BLDGHT": 5.21, "settlenam": "יגל", "Protective": 8, "EditDate": -2209161600000, "UNIQID": 52472211, "x": 34.87802876, "y": 31.99059419}, "geometry": {"type": "Point", "coordinates": [34.87802346448262, 31.99059111322221]}}, {"type": "Feature", "properties": {"OBJECTID_1": 1313, "Protecti1": "מבנה מגורים ללא מיגון", "BLDGHT": 3.41, "settlenam": "צפריה", "Protective": 2, "EditDate": -2209161600000, "UNIQID": 52480086, "x": 34.86096574, "y": 32.00149952}, "geometry": {"type": "Point", "coordinates": [34.86096055241345, 32.00149640554627]}}, {"type": "Feature", "properties": {"OBJECTID_1": 1328, "Protecti1": "מבנה מגורים ללא מיגון", "BLDGHT": 3.36, "settlenam": "יגל", "Protective": 2, "EditDate": -2209161600000, "UNIQID": 52474598, "x": 34.87871551, "y": 31.99031011}, "geometry": {"type": "Point", "coordinates": [34.878710207232835, 31.990307033499235]}}, {"type": "Feature", "properties": {"OBJECTID_1": 1365, "Protecti1": "מבנה מגורים ממוגן ממד ממק", "BLDGHT": 7.29, "settlenam": "יגל", "Protective": 8, "EditDate": -2209161600000, "UNIQID": 52477117, "x": 34.88120373, "y": 31.98820464}, "geometry": {"type": "Point", "coordinates": [34.88119841325905, 31.988201579243558]}}, {"type": "Feature", "properties": {"OBJECTID_1": 1372, "Protecti1": "מבנה מגורים ממוגן ממד ממק", "BLDGHT": 4.83, "settlenam": "יגל", "Protective": 8, "EditDate": -2209161600000, "UNIQID": 53328894, "x": 34.87595345, "y": 31.99170609}, "geometry": {"type": "Point", "coordinates": [34.87594816448057, 31.99170300870323]}}, {"type": "Feature", "properties": {"OBJECTID_1": 1388, "Protecti1": "מבנה מגורים ממוגן ממד ממק", "BLDGHT": 7.7, "settlenam": "יגל", "Protective": 8, "EditDate": -2209161600000, "UNIQID": 52486492, "x": 34.87422678, "y": 31.99381532}, "geometry": {"type": "Point", "coordinates": [34.874222324615886, 31.99379988116274]}}, {"type": "Feature", "properties": {"OBJECTID_1": 1392, "Protecti1": "מבנה מגורים ממוגן ממד ממק", "BLDGHT": 3.15, "settlenam": "יגל", "Protective": 8, "EditDate": -2209161600000, "UNIQID": 52469735, "x": 34.87773341, "y": 31.99103347}, "geometry": {"type": "Point", "coordinates": [34.87772811564391, 31.991030391431604]}}, {"type": "Feature", "properties": {"OBJECTID_1": 1444, "Protecti1": "מבנה מגורים ממוגן ממד ממק", "BLDGHT": 5.2, "settlenam": "יגל", "Protective": 8, "EditDate": -2209161600000, "UNIQID": 52474225, "x": 34.87700336, "y": 31.99105228}, "geometry": {"type": "Point", "coordinates": [34.876998069409765, 31.99104920286103]}}, {"type": "Feature", "properties": {"OBJECTID_1": 1447, "Protecti1": "מבנה מגורים ללא מיגון", "BLDGHT": 4.54, "settlenam": "יגל", "Protective": 2, "EditDate": -2209161600000, "UNIQID": 52470272, "x": 34.87857973, "y": 31.99039576}, "geometry": {"type": "Point", "coordinates": [34.87857442579524, 31.9903926828322]}}, {"type": "Feature", "properties": {"OBJECTID_1": 1466, "Protecti1": "מבנה מגורים ממוגן ממד ממק", "BLDGHT": 5.67, "settlenam": "יגל", "Protective": 8, "EditDate": -2209161600000, "UNIQID": 52485950, "x": 34.87281111, "y": 31.99302431}, "geometry": {"type": "Point", "coordinates": [34.872805837408976, 31.993021223466567]}}, {"type": "Feature", "properties": {"OBJECTID_1": 1475, "Protecti1": "מבנה מגורים ממוגן ממד ממק", "BLDGHT": 2.9, "settlenam": "יגל", "Protective": 8, "EditDate": -2209161600000, "UNIQID": 53328033, "x": 34.87691827, "y": 31.99096259}, "geometry": {"type": "Point", "coordinates": [34.87691297171855, 31.99095951528153]}}, {"type": "Feature", "properties": {"OBJECTID_1": 1491, "Protecti1": "מבנה מגורים ממוגן ממד ממק", "BLDGHT": 3.48, "settlenam": "עמק לוד", "Protective": 8, "EditDate": -2209161600000, "UNIQID": 52486183, "x": 34.87227888, "y": 31.99312605}, "geometry": {"type": "Point", "coordinates": [34.87227361830032, 31.993122971834]}}, {"type": "Feature", "properties": {"OBJECTID_1": 1507, "Protecti1": "מבנה מגורים ממוגן ממד ממק", "BLDGHT": 6.98, "settlenam": "יגל", "Protective": 8, "EditDate": -2209161600000, "UNIQID": 53329159, "x": 34.87790982, "y": 31.9909891}, "geometry": {"type": "Point", "coordinates": [34.87789221892663, 31.991015024065153]}}, {"type": "Feature", "properties": {"OBJECTID_1": 1508, "Protecti1": "מבנה מגורים ממוגן ממד ממק", "BLDGHT": 6.91, "settlenam": "יגל", "Protective": 8, "EditDate": -2209161600000, "UNIQID": 52487174, "x": 34.87707109, "y": 31.99085318}, "geometry": {"type": "Point", "coordinates": [34.877068724512945, 31.990866549713907]}}, {"type": "Feature", "properties": {"OBJECTID_1": 1535, "Protecti1": "מבנה מגורים ממוגן ממד ממק", "BLDGHT": 6.07, "settlenam": "יגל", "Protective": 8, "EditDate": -2209161600000, "UNIQID": 53329964, "x": 34.87321033, "y": 31.99384073}, "geometry": {"type": "Point", "coordinates": [34.8732050584422, 31.993837642758972]}}, {"type": "Feature", "properties": {"OBJECTID_1": 1548, "Protecti1": "מבנה מגורים ממוגן ממד ממק", "BLDGHT": 5.06, "settlenam": "יגל", "Protective": 8, "EditDate": -2209161600000, "UNIQID": 52485004, "x": 34.874089, "y": 31.99396415}, "geometry": {"type": "Point", "coordinates": [34.87408373195801, 31.993961063294215]}}, {"type": "Feature", "properties": {"OBJECTID_1": 1553, "Protecti1": "מבנה מגורים ללא מיגון", "BLDGHT": 9.65, "settlenam": "יגל", "Protective": 2, "EditDate": -2209161600000, "UNIQID": 52469178, "x": 34.87591843, "y": 31.99282109}, "geometry": {"type": "Point", "coordinates": [34.875913138866586, 31.992818006904173]}}, {"type": "Feature", "properties": {"OBJECTID_1": 1561, "Protecti1": "מבנה מגורים ממוגן ממד ממק", "BLDGHT": 8.34, "settlenam": "יגל", "Protective": 8, "EditDate": -2209161600000, "UNIQID": 52485569, "x": 34.87437691, "y": 31.99368787}, "geometry": {"type": "Point", "coordinates": [34.8743716383691, 31.99368478097635]}}, {"type": "Feature", "properties": {"OBJECTID_1": 1562, "Protecti1": "מבנה מגורים ממוגן ממד ממק", "BLDGHT": 2.53, "settlenam": "יגל", "Protective": 8, "EditDate": -2209161600000, "UNIQID": 53329997, "x": 34.87755328, "y": 31.99012768}, "geometry": {"type": "Point", "coordinates": [34.877547984372505, 31.99012460979971]}}, {"type": "Feature", "properties": {"OBJECTID_1": 1581, "Protecti1": "מבנה מגורים ממוגן ממד ממק", "BLDGHT": 4.84, "settlenam": "יגל", "Protective": 8, "EditDate": -2209161600000, "UNIQID": 52480909, "x": 34.87242527, "y": 31.99323805}, "geometry": {"type": "Point", "coordinates": [34.87242000854158, 31.993234964835583]}}, {"type": "Feature", "properties": {"OBJECTID_1": 1583, "Protecti1": "מבנה מגורים ממוגן ממד ממק", "BLDGHT": 6.6, "settlenam": "אחיעזר", "Protective": 8, "EditDate": -2209161600000, "UNIQID": 52489390, "x": 34.86475277, "y": 31.98903808}, "geometry": {"type": "Point", "coordinates": [34.86474753627877, 31.989035027548656]}}, {"type": "Feature", "properties": {"OBJECTID_1": 1604, "Protecti1": "מבנה מגורים ללא מיגון", "BLDGHT": 3.66, "settlenam": "יגל", "Protective": 2, "EditDate": -2209161600000, "UNIQID": 52479996, "x": 34.87896318, "y": 31.99001857}, "geometry": {"type": "Point", "coordinates": [34.878957877714456, 31.990015498653193]}}, {"type": "Feature", "properties": {"OBJECTID_1": 1630, "Protecti1": "מבנה מגורים ממוגן ממד ממק", "BLDGHT": 5.28, "settlenam": "יגל", "Protective": 8, "EditDate": -2209161600000, "UNIQID": 52469239, "x": 34.88134651, "y": 31.9880536}, "geometry": {"type": "Point", "coordinates": [34.881341182752855, 31.988050541439858]}}, {"type": "Feature", "properties": {"OBJECTID_1": 1634, "Protecti1": "מבנה מגורים ללא מיגון", "BLDGHT": 0, "settlenam": "אחיעזר", "Protective": 2, "EditDate": -2209161600000, "UNIQID": 52399953, "x": 34.86641798, "y": 31.98781047}, "geometry": {"type": "Point", "coordinates": [34.86642629290437, 31.987752133387882]}}, {"type": "Feature", "properties": {"OBJECTID_1": 1641, "Protecti1": "מבנה מגורים ממוגן ממד ממק", "BLDGHT": 4.59, "settlenam": "יגל", "Protective": 8, "EditDate": -2209161600000, "UNIQID": 52398693, "x": 34.87329296, "y": 31.99336848}, "geometry": {"type": "Point", "coordinates": [34.87328769151468, 31.993365399790868]}}, {"type": "Feature", "properties": {"OBJECTID_1": 1650, "Protecti1": "מבנה מגורים ממוגן ממד ממק", "BLDGHT": 6.14, "settlenam": "יגל", "Protective": 8, "EditDate": -2209161600000, "UNIQID": 52401363, "x": 34.88076064, "y": 31.9883348}, "geometry": {"type": "Point", "coordinates": [34.880755324775556, 31.98833174111238]}}, {"type": "Feature", "properties": {"OBJECTID_1": 1680, "Protecti1": "מבנה מגורים ממוגן ממד ממק", "BLDGHT": 4.7, "settlenam": "יגל", "Protective": 8, "EditDate": -2209161600000, "UNIQID": 52469367, "x": 34.87782852, "y": 31.98981382}, "geometry": {"type": "Point", "coordinates": [34.87782322021418, 31.98981074734197]}}, {"type": "Feature", "properties": {"OBJECTID_1": 1731, "Protecti1": "מבנה מגורים ממוגן ממד ממק", "BLDGHT": 4.44, "settlenam": "יגל", "Protective": 8, "EditDate": -2209161600000, "UNIQID": 52503658, "x": 34.87735383, "y": 31.99035347}, "geometry": {"type": "Point", "coordinates": [34.87734853574917, 31.990350401065424]}}, {"type": "Feature", "properties": {"OBJECTID_1": 1740, "Protecti1": "מבנה מגורים ממוגן ממד ממק", "BLDGHT": 3.65, "settlenam": "עמק לוד", "Protective": 8, "EditDate": -2209161600000, "UNIQID": 52486917, "x": 34.87196327, "y": 31.99288274}, "geometry": {"type": "Point", "coordinates": [34.87195800862146, 31.99287965847942]}}, {"type": "Feature", "properties": {"OBJECTID_1": 1741, "Protecti1": "מבנה מגורים ממוגן ממד ממק", "BLDGHT": 8.23, "settlenam": "יגל", "Protective": 8, "EditDate": -2209161600000, "UNIQID": 52488221, "x": 34.8805557, "y": 31.98805449}, "geometry": {"type": "Point", "coordinates": [34.880550383920266, 31.988051424334895]}}, {"type": "Feature", "properties": {"OBJECTID_1": 1789, "Protecti1": "מבנה מגורים ממוגן ממד ממק", "BLDGHT": 5.91, "settlenam": "כפר חבד", "Protective": 8, "EditDate": -2209161600000, "UNIQID": 52528567, "x": 34.86406045, "y": 31.98904313}, "geometry": {"type": "Point", "coordinates": [34.86405116974917, 31.98902415287032]}}, {"type": "Feature", "properties": {"OBJECTID_1": 1797, "Protecti1": "מבנה מגורים ממוגן ממד ממק", "BLDGHT": 6.52, "settlenam": "יגל", "Protective": 8, "EditDate": -2209161600000, "UNIQID": 52499734, "x": 34.8734451, "y": 31.99351038}, "geometry": {"type": "Point", "coordinates": [34.87343982563534, 31.99350729328548]}}, {"type": "Feature", "properties": {"OBJECTID_1": 1827, "Protecti1": "מבנה מגורים ללא מיגון", "BLDGHT": 4.16, "settlenam": "יגל", "Protective": 2, "EditDate": -2209161600000, "UNIQID": 52498368, "x": 34.87956059, "y": 31.98909996}, "geometry": {"type": "Point", "coordinates": [34.87955528122353, 31.989096895469796]}}, {"type": "Feature", "properties": {"OBJECTID_1": 1829, "Protecti1": "מבנה מגורים ממוגן ממד ממק", "BLDGHT": 4.71, "settlenam": "כפר חבד", "Protective": 8, "EditDate": -2209161600000, "UNIQID": 52499323, "x": 34.86303888, "y": 31.98818777}, "geometry": {"type": "Point", "coordinates": [34.86303366058098, 31.98818471983058]}}, {"type": "Feature", "properties": {"OBJECTID_1": 1830, "Protecti1": "מבנה מגורים ממוגן ממד ממק", "BLDGHT": 6.48, "settlenam": "אחיעזר", "Protective": 8, "EditDate": -2209161600000, "UNIQID": 53333307, "x": 34.86347304, "y": 31.98820136}, "geometry": {"type": "Point", "coordinates": [34.86346781447611, 31.988198317366173]}}, {"type": "Feature", "properties": {"OBJECTID_1": 1849, "Protecti1": "מבנה מגורים ממוגן ממד ממק", "BLDGHT": 7.45, "settlenam": "יגל", "Protective": 8, "EditDate": -2209161600000, "UNIQID": 52516774, "x": 34.873079, "y": 31.99371361}, "geometry": {"type": "Point", "coordinates": [34.87307373313285, 31.993710526170776]}}, {"type": "Feature", "properties": {"OBJECTID_1": 1884, "Protecti1": "מבנה מגורים ממוגן ממד ממק", "BLDGHT": 6.94, "settlenam": "יגל", "Protective": 8, "EditDate": -2209161600000, "UNIQID": 52526409, "x": 34.87862474, "y": 31.98940736}, "geometry": {"type": "Point", "coordinates": [34.87862131006422, 31.989382268102705]}}, {"type": "Feature", "properties": {"OBJECTID_1": 1903, "Protecti1": "מבנה מגורים ממוגן ממד ממק", "BLDGHT": 3.31, "settlenam": "עמק לוד", "Protective": 8, "EditDate": -2209161600000, "UNIQID": 52523648, "x": 34.87212695, "y": 31.99301348}, "geometry": {"type": "Point", "coordinates": [34.87212059094188, 31.993021708080317]}}, {"type": "Feature", "properties": {"OBJECTID_1": 1910, "Protecti1": "מבנה מגורים ללא מיגון", "BLDGHT": 4.81, "settlenam": "יגל", "Protective": 2, "EditDate": -2209161600000, "UNIQID": 52516805, "x": 34.87717784, "y": 31.9918322}, "geometry": {"type": "Point", "coordinates": [34.87717254672189, 31.99182911565815]}}, {"type": "Feature", "properties": {"OBJECTID_1": 1913, "Protecti1": "מבנה מגורים ממוגן ממד ממק", "BLDGHT": 8.16, "settlenam": "יגל", "Protective": 8, "EditDate": -2209161600000, "UNIQID": 52524815, "x": 34.87769165, "y": 31.99027922}, "geometry": {"type": "Point", "coordinates": [34.87767927991972, 31.990207305182732]}}, {"type": "Feature", "properties": {"OBJECTID_1": 1915, "Protecti1": "מבנה מגורים ללא מיגון", "BLDGHT": 6.62, "settlenam": "יגל", "Protective": 2, "EditDate": -2209161600000, "UNIQID": 52504156, "x": 34.87729859, "y": 31.99125833}, "geometry": {"type": "Point", "coordinates": [34.87729329447965, 31.99125524910477]}}, {"type": "Feature", "properties": {"OBJECTID_1": 1929, "Protecti1": "מבנה מגורים ממוגן ממד ממק", "BLDGHT": 5.62, "settlenam": "עמק לוד", "Protective": 8, "EditDate": -2209161600000, "UNIQID": 52515831, "x": 34.87203086, "y": 31.99242345}, "geometry": {"type": "Point", "coordinates": [34.87203155718473, 31.992386961212677]}}, {"type": "Feature", "properties": {"OBJECTID_1": 1940, "Protecti1": "מבנה מגורים ממוגן ממד ממק", "BLDGHT": 5.11, "settlenam": "יגל", "Protective": 8, "EditDate": -2209161600000, "UNIQID": 52543722, "x": 34.87614228, "y": 31.99250164}, "geometry": {"type": "Point", "coordinates": [34.87608073870727, 31.992509733277586]}}, {"type": "Feature", "properties": {"OBJECTID_1": 1954, "Protecti1": "מבנה מגורים ממוגן ממד ממק", "BLDGHT": 5.18, "settlenam": "יגל", "Protective": 8, "EditDate": -2209161600000, "UNIQID": 52551179, "x": 34.88146858, "y": 31.98791414}, "geometry": {"type": "Point", "coordinates": [34.881463253594234, 31.987911074165297]}}, {"type": "Feature", "properties": {"OBJECTID_1": 1955, "Protecti1": "מבנה מגורים ללא מיגון", "BLDGHT": 4.84, "settlenam": "יגל", "Protective": 2, "EditDate": -2209161600000, "UNIQID": 52550344, "x": 34.87971605, "y": 31.98922326}, "geometry": {"type": "Point", "coordinates": [34.87971073945297, 31.989220186732325]}}, {"type": "Feature", "properties": {"OBJECTID_1": 1959, "Protecti1": "מבנה מגורים ממוגן ממד ממק", "BLDGHT": 6.55, "settlenam": "יגל", "Protective": 8, "EditDate": -2209161600000, "UNIQID": 52551666, "x": 34.88094052, "y": 31.98846409}, "geometry": {"type": "Point", "coordinates": [34.88093520606204, 31.98846102253934]}}, {"type": "Feature", "properties": {"OBJECTID_1": 1962, "Protecti1": "מבנה מגורים ממוגן ממד ממק", "BLDGHT": 6.19, "settlenam": "כפר חבד", "Protective": 8, "EditDate": -2209161600000, "UNIQID": 52550363, "x": 34.86449334, "y": 31.98930781}, "geometry": {"type": "Point", "coordinates": [34.86448811540106, 31.989304758757967]}}, {"type": "Feature", "properties": {"OBJECTID_1": 1974, "Protecti1": "מבנה מגורים ממוגן ממד ממק", "BLDGHT": 5.96, "settlenam": "אחיעזר", "Protective": 8, "EditDate": -2209161600000, "UNIQID": 52551206, "x": 34.86462727, "y": 31.9891632}, "geometry": {"type": "Point", "coordinates": [34.864622037888225, 31.98916014337205]}}, {"type": "Feature", "properties": {"OBJECTID_1": 1982, "Protecti1": "מבנה מגורים ממוגן ממד ממק", "BLDGHT": 6.34, "settlenam": "אחיעזר", "Protective": 8, "EditDate": -2209161600000, "UNIQID": 53343159, "x": 34.86385844, "y": 31.98843601}, "geometry": {"type": "Point", "coordinates": [34.86384557199339, 31.988448985279714]}}, {"type": "Feature", "properties": {"OBJECTID_1": 1993, "Protecti1": "מבנה מגורים ממוגן ממד ממק", "BLDGHT": 5.5, "settlenam": "יגל", "Protective": 8, "EditDate": -2209161600000, "UNIQID": 52522943, "x": 34.87555676, "y": 31.99247837}, "geometry": {"type": "Point", "coordinates": [34.87555147756028, 31.99247529189637]}}, {"type": "Feature", "properties": {"OBJECTID_1": 2024, "Protecti1": "מבנה מגורים ללא מיגון", "BLDGHT": 8.39, "settlenam": "יגל", "Protective": 2, "EditDate": -2209161600000, "UNIQID": 52504062, "x": 34.87620568, "y": 31.99287888}, "geometry": {"type": "Point", "coordinates": [34.87620039367931, 31.99287579467075]}}, {"type": "Feature", "properties": {"OBJECTID_1": 2025, "Protecti1": "מבנה מגורים ללא מיגון", "BLDGHT": 3.73, "settlenam": "יגל", "Protective": 2, "EditDate": -2209161600000, "UNIQID": 52504080, "x": 34.8792375, "y": 31.98980198}, "geometry": {"type": "Point", "coordinates": [34.87923218754953, 31.989798910200836]}}, {"type": "Feature", "properties": {"OBJECTID_1": 2034, "Protecti1": "מבנה מגורים ממוגן ממד ממק", "BLDGHT": 6.43, "settlenam": "אחיעזר", "Protective": 8, "EditDate": -2209161600000, "UNIQID": 52551710, "x": 34.86323166, "y": 31.98785262}, "geometry": {"type": "Point", "coordinates": [34.86322643357298, 31.987849574982114]}}, {"type": "Feature", "properties": {"OBJECTID_1": 2048, "Protecti1": "מבנה מגורים ללא מיגון", "BLDGHT": 3.21, "settlenam": "יגל", "Protective": 2, "EditDate": -2209161600000, "UNIQID": 52533111, "x": 34.87618749, "y": 31.99265373}, "geometry": {"type": "Point", "coordinates": [34.876182203337386, 31.992650646518946]}}, {"type": "Feature", "properties": {"OBJECTID_1": 2051, "Protecti1": "מבנה מגורים ממוגן ממד ממק", "BLDGHT": 3.3, "settlenam": "יגל", "Protective": 8, "EditDate": -2209161600000, "UNIQID": 52531823, "x": 34.87821404, "y": 31.99076095}, "geometry": {"type": "Point", "coordinates": [34.87820873720074, 31.990757875995875]}}, {"type": "Feature", "properties": {"OBJECTID_1": 2053, "Protecti1": "מבנה מגורים ממוגן ממד ממק", "BLDGHT": 5.79, "settlenam": "עמק לוד", "Protective": 8, "EditDate": -2209161600000, "UNIQID": 52534438, "x": 34.87175391, "y": 31.99276229}, "geometry": {"type": "Point", "coordinates": [34.871748647394654, 31.992759211408842]}}, {"type": "Feature", "properties": {"OBJECTID_1": 2054, "Protecti1": "מבנה מגורים ללא מיגון", "BLDGHT": 9.1, "settlenam": "יגל", "Protective": 2, "EditDate": -2209161600000, "UNIQID": 52506959, "x": 34.87666827, "y": 31.99199073}, "geometry": {"type": "Point", "coordinates": [34.876662984128856, 31.991987652681036]}}, {"type": "Feature", "properties": {"OBJECTID_1": 2079, "Protecti1": "מבנה מגורים ממוגן ממד ממק", "BLDGHT": 5.16, "settlenam": "אחיעזר", "Protective": 8, "EditDate": -2209161600000, "UNIQID": 52518686, "x": 34.86348957, "y": 31.98834452}, "geometry": {"type": "Point", "coordinates": [34.8634843472455, 31.988341473586946]}}, {"type": "Feature", "properties": {"OBJECTID_1": 2098, "Protecti1": "מבנה מגורים ממוגן ממד ממק", "BLDGHT": 6.12, "settlenam": "יגל", "Protective": 8, "EditDate": -2209161600000, "UNIQID": 52551787, "x": 34.88130238, "y": 31.98779023}, "geometry": {"type": "Point", "coordinates": [34.881297057449785, 31.987787172415015]}}, {"type": "Feature", "properties": {"OBJECTID_1": 2102, "Protecti1": "מבנה מגורים ממוגן ממד ממק", "BLDGHT": 3.99, "settlenam": "יגל", "Protective": 8, "EditDate": -2209161600000, "UNIQID": 52543670, "x": 34.87771377, "y": 31.98992517}, "geometry": {"type": "Point", "coordinates": [34.87770847234182, 31.989922096298052]}}, {"type": "Feature", "properties": {"OBJECTID_1": 2149, "Protecti1": "מבנה מגורים ללא מיגון", "BLDGHT": 5.99, "settlenam": "יגל", "Protective": 2, "EditDate": -2209161600000, "UNIQID": 52532457, "x": 34.8767355, "y": 31.9922627}, "geometry": {"type": "Point", "coordinates": [34.87673020967054, 31.992259615617485]}}, {"type": "Feature", "properties": {"OBJECTID_1": 2178, "Protecti1": "מבנה מגורים ללא מיגון", "BLDGHT": 5.96, "settlenam": "יגל", "Protective": 2, "EditDate": -2209161600000, "UNIQID": 52548485, "x": 34.87943148, "y": 31.98924262}, "geometry": {"type": "Point", "coordinates": [34.87942616760359, 31.989239553255107]}}, {"type": "Feature", "properties": {"OBJECTID_1": 2188, "Protecti1": "מבנה מגורים ממוגן ממד ממק", "BLDGHT": 5.04, "settlenam": "יגל", "Protective": 8, "EditDate": -2209161600000, "UNIQID": 52532015, "x": 34.87830137, "y": 31.99123224}, "geometry": {"type": "Point", "coordinates": [34.87829607195663, 31.991229163364796]}}, {"type": "Feature", "properties": {"OBJECTID_1": 2196, "Protecti1": "מבנה מגורים ממוגן ממד ממק", "BLDGHT": 5.91, "settlenam": "יגל", "Protective": 8, "EditDate": -2209161600000, "UNIQID": 53339307, "x": 34.87374847, "y": 31.99374526}, "geometry": {"type": "Point", "coordinates": [34.8737431967065, 31.9937421680581]}}, {"type": "Feature", "properties": {"OBJECTID_1": 2203, "Protecti1": "מבנה מגורים ממוגן ממד ממק", "BLDGHT": 8, "settlenam": "יגל", "Protective": 8, "EditDate": -2209161600000, "UNIQID": 52538629, "x": 34.87882176, "y": 31.98906143}, "geometry": {"type": "Point", "coordinates": [34.87881645057533, 31.98905836271406]}}, {"type": "Feature", "properties": {"OBJECTID_1": 2215, "Protecti1": "מבנה מגורים ממוגן ממד ממק", "BLDGHT": 7.13, "settlenam": "אחיעזר", "Protective": 8, "EditDate": -2209161600000, "UNIQID": 52511977, "x": 34.86494278, "y": 31.98884294}, "geometry": {"type": "Point", "coordinates": [34.86486480916459, 31.98889908327197]}}, {"type": "Feature", "properties": {"OBJECTID_1": 2239, "Protecti1": "מבנה מגורים ממוגן ממד ממק", "BLDGHT": 6.01, "settlenam": "כפר חבד", "Protective": 8, "EditDate": -2209161600000, "UNIQID": 52566137, "x": 34.86241191, "y": 31.98786816}, "geometry": {"type": "Point", "coordinates": [34.86239969115976, 31.987846594030774]}}, {"type": "Feature", "properties": {"OBJECTID_1": 2259, "Protecti1": "מבנה מגורים ללא מיגון", "BLDGHT": 6.98, "settlenam": "יגל", "Protective": 2, "EditDate": -2209161600000, "UNIQID": 52530873, "x": 34.87992878, "y": 31.98884981}, "geometry": {"type": "Point", "coordinates": [34.87992347014988, 31.988846747904315]}}, {"type": "Feature", "properties": {"OBJECTID_1": 2260, "Protecti1": "מבנה מגורים ממוגן ממד ממק", "BLDGHT": 6.29, "settlenam": "אחיעזר", "Protective": 8, "EditDate": -2209161600000, "UNIQID": 53338937, "x": 34.86412103, "y": 31.98770495}, "geometry": {"type": "Point", "coordinates": [34.86411580450153, 31.98770190796369]}}, {"type": "Feature", "properties": {"OBJECTID_1": 2264, "Protecti1": "מבנה מגורים ממוגן ממד ממק", "BLDGHT": 6.37, "settlenam": "עמק לוד", "Protective": 8, "EditDate": -2209161600000, "UNIQID": 52530831, "x": 34.87232838, "y": 31.99265737}, "geometry": {"type": "Point", "coordinates": [34.87232311336658, 31.992654289618542]}}, {"type": "Feature", "properties": {"OBJECTID_1": 2269, "Protecti1": "מבנה מגורים ממוגן ממד ממק", "BLDGHT": 6.39, "settlenam": "יגל", "Protective": 8, "EditDate": -2209161600000, "UNIQID": 52555564, "x": 34.88062482, "y": 31.98845912}, "geometry": {"type": "Point", "coordinates": [34.880619504385116, 31.988456060166957]}}, {"type": "Feature", "properties": {"OBJECTID_1": 2288, "Protecti1": "מבנה מגורים ממוגן ממד ממק", "BLDGHT": 4.69, "settlenam": "אחיעזר", "Protective": 8, "EditDate": -2209161600000, "UNIQID": 52530073, "x": 34.86324212, "y": 31.98816836}, "geometry": {"type": "Point", "coordinates": [34.86323689373238, 31.988165318427413]}}, {"type": "Feature", "properties": {"OBJECTID_1": 2299, "Protecti1": "מבנה מגורים ללא מיגון", "BLDGHT": 5.39, "settlenam": "יגל", "Protective": 2, "EditDate": -2209161600000, "UNIQID": 52530733, "x": 34.87881633, "y": 31.99015765}, "geometry": {"type": "Point", "coordinates": [34.8788110241383, 31.990154578822096]}}, {"type": "Feature", "properties": {"OBJECTID_1": 2311, "Protecti1": "מבנה מגורים ממוגן ממד ממק", "BLDGHT": 4.7, "settlenam": "עמק לוד", "Protective": 8, "EditDate": -2209161600000, "UNIQID": 53338920, "x": 34.87216941, "y": 31.99254943}, "geometry": {"type": "Point", "coordinates": [34.87216414481824, 31.992546350543897]}}, {"type": "Feature", "properties": {"OBJECTID_1": 2316, "Protecti1": "מבנה מגורים ממוגן ממד ממק", "BLDGHT": 4.67, "settlenam": "כפר חבד", "Protective": 8, "EditDate": -2209161600000, "UNIQID": 52555583, "x": 34.86217532, "y": 31.98771368}, "geometry": {"type": "Point", "coordinates": [34.86217010200354, 31.987710634155082]}}, {"type": "Feature", "properties": {"OBJECTID_1": 2317, "Protecti1": "מבנה מגורים ממוגן ממד ממק", "BLDGHT": 8.3, "settlenam": "אחיעזר", "Protective": 8, "EditDate": -2209161600000, "UNIQID": 52555033, "x": 34.86606233, "y": 31.98776604}, "geometry": {"type": "Point", "coordinates": [34.8660570974597, 31.987762996650442]}}, {"type": "Feature", "properties": {"OBJECTID_1": 2335, "Protecti1": "מבנה מגורים ממוגן ממד ממק", "BLDGHT": 7.07, "settlenam": "אחיעזר", "Protective": 8, "EditDate": -2209161600000, "UNIQID": 52566966, "x": 34.86394834, "y": 31.98787343}, "geometry": {"type": "Point", "coordinates": [34.86394311257218, 31.9878703897123]}}, {"type": "Feature", "properties": {"OBJECTID_1": 2340, "Protecti1": "מבנה מגורים ללא מיגון", "BLDGHT": 0, "settlenam": "יגל", "Protective": 2, "EditDate": -2209161600000, "UNIQID": 65058407, "x": 34.88027969, "y": 31.98914004}, "geometry": {"type": "Point", "coordinates": [34.88028498399771, 31.98911827624496]}}, {"type": "Feature", "properties": {"OBJECTID_1": 2352, "Protecti1": "מבנה מגורים ללא מיגון", "BLDGHT": 4.09, "settlenam": "יגל", "Protective": 2, "EditDate": -2209161600000, "UNIQID": 52533871, "x": 34.87866584, "y": 31.98988065}, "geometry": {"type": "Point", "coordinates": [34.878660536024775, 31.98987757582988]}}, {"type": "Feature", "properties": {"OBJECTID_1": 2353, "Protecti1": "מבנה מגורים ממוגן ממד ממק", "BLDGHT": 6.24, "settlenam": "יגל", "Protective": 8, "EditDate": -2209161600000, "UNIQID": 52531683, "x": 34.87521426, "y": 31.99282797}, "geometry": {"type": "Point", "coordinates": [34.87520898152588, 31.992824882798953]}}, {"type": "Feature", "properties": {"OBJECTID_1": 2358, "Protecti1": "מבנה מגורים ממוגן ממד ממק", "BLDGHT": 6.07, "settlenam": "כפר חבד", "Protective": 8, "EditDate": -2209161600000, "UNIQID": 53339043, "x": 34.86372466, "y": 31.98875934}, "geometry": {"type": "Point", "coordinates": [34.86371943266338, 31.988756288177253]}}, {"type": "Feature", "properties": {"OBJECTID_1": 2368, "Protecti1": "מבנה מגורים ממוגן ממד ממק", "BLDGHT": 0, "settlenam": "יגל", "Protective": 8, "EditDate": -2209161600000, "UNIQID": 52566961, "x": 34.8792597, "y": 31.98931105}, "geometry": {"type": "Point", "coordinates": [34.879254388969954, 31.989307983179692]}}, {"type": "Feature", "properties": {"OBJECTID_1": 2373, "Protecti1": "מבנה מגורים ממוגן ממד ממק", "BLDGHT": 3.27, "settlenam": "יגל", "Protective": 8, "EditDate": -2209161600000, "UNIQID": 52596605, "x": 34.88099774, "y": 31.98795338}, "geometry": {"type": "Point", "coordinates": [34.880992418173925, 31.987950312129815]}}, {"type": "Feature", "properties": {"OBJECTID_1": 2387, "Protecti1": "מבנה מגורים ממוגן ממד ממק", "BLDGHT": 5.89, "settlenam": "אחיעזר", "Protective": 8, "EditDate": -2209161600000, "UNIQID": 52511495, "x": 34.86431541, "y": 31.98885005}, "geometry": {"type": "Point", "coordinates": [34.8643101860658, 31.988846997061685]}}, {"type": "Feature", "properties": {"OBJECTID_1": 2409, "Protecti1": "מבנה מגורים ללא מיגון", "BLDGHT": 5.35, "settlenam": "יגל", "Protective": 2, "EditDate": -2209161600000, "UNIQID": 52506817, "x": 34.87895615, "y": 31.98976014}, "geometry": {"type": "Point", "coordinates": [34.878950844565686, 31.98975706942852]}}, {"type": "Feature", "properties": {"OBJECTID_1": 2437, "Protecti1": "מבנה מגורים ממוגן ממד ממק", "BLDGHT": 9.37, "settlenam": "יגל", "Protective": 8, "EditDate": -2209161600000, "UNIQID": 52511550, "x": 34.87795023, "y": 31.9900446}, "geometry": {"type": "Point", "coordinates": [34.877944931278805, 31.99004153196084]}}, {"type": "Feature", "properties": {"OBJECTID_1": 2472, "Protecti1": "מבנה מגורים ממוגן ממד ממק", "BLDGHT": 8.11, "settlenam": "יגל", "Protective": 8, "EditDate": -2209161600000, "UNIQID": 52567730, "x": 34.87786803, "y": 31.99072299}, "geometry": {"type": "Point", "coordinates": [34.877862732428945, 31.990719912981714]}}, {"type": "Feature", "properties": {"OBJECTID_1": 2479, "Protecti1": "מבנה מגורים ממוגן ממד ממק", "BLDGHT": 6.55, "settlenam": "יגל", "Protective": 8, "EditDate": -2209161600000, "UNIQID": 52585393, "x": 34.88080461, "y": 31.98778667}, "geometry": {"type": "Point", "coordinates": [34.88079929243796, 31.98778360907715]}}, {"type": "Feature", "properties": {"OBJECTID_1": 2484, "Protecti1": "מבנה מגורים ממוגן ממד ממק", "BLDGHT": 6.8, "settlenam": "אחיעזר", "Protective": 8, "EditDate": -2209161600000, "UNIQID": 52512007, "x": 34.86568443, "y": 31.98817151}, "geometry": {"type": "Point", "coordinates": [34.86567919225463, 31.9881684624363]}}, {"type": "Feature", "properties": {"OBJECTID_1": 2504, "Protecti1": "מבנה מגורים ממוגן ממד ממק", "BLDGHT": 4.71, "settlenam": "יגל", "Protective": 8, "EditDate": -2209161600000, "UNIQID": 52517955, "x": 34.87780986, "y": 31.99116013}, "geometry": {"type": "Point", "coordinates": [34.87780455974409, 31.991157052718496]}}, {"type": "Feature", "properties": {"OBJECTID_1": 2520, "Protecti1": "מבנה מגורים ממוגן ממד ממק", "BLDGHT": 9.67, "settlenam": "אחיעזר", "Protective": 8, "EditDate": -2209161600000, "UNIQID": 52549465, "x": 34.8642829, "y": 31.9883844}, "geometry": {"type": "Point", "coordinates": [34.864277674778464, 31.988381351751357]}}, {"type": "Feature", "properties": {"OBJECTID_1": 2532, "Protecti1": "מבנה מגורים ממוגן ממד ממק", "BLDGHT": 2.65, "settlenam": "יגל", "Protective": 8, "EditDate": -2209161600000, "UNIQID": 52514760, "x": 34.87311469, "y": 31.99311827}, "geometry": {"type": "Point", "coordinates": [34.873109420802336, 31.99311518174122]}}, {"type": "Feature", "properties": {"OBJECTID_1": 2562, "Protecti1": "מבנה מגורים ללא מיגון", "BLDGHT": 2.11, "settlenam": "אחיעזר", "Protective": 2, "EditDate": -2209161600000, "UNIQID": 52511454, "x": 34.86527873, "y": 31.98770017}, "geometry": {"type": "Point", "coordinates": [34.86527349995835, 31.98769712234025]}}, {"type": "Feature", "properties": {"OBJECTID_1": 2565, "Protecti1": "מבנה מגורים ממוגן ממד ממק", "BLDGHT": 9.94, "settlenam": "יגל", "Protective": 8, "EditDate": -2209161600000, "UNIQID": 52515248, "x": 34.87574099, "y": 31.99215534}, "geometry": {"type": "Point", "coordinates": [34.87573570571938, 31.99215226409735]}}, {"type": "Feature", "properties": {"OBJECTID_1": 2598, "Protecti1": "מבנה מגורים ללא מיגון", "BLDGHT": 3.41, "settlenam": "אחיעזר", "Protective": 2, "EditDate": -2209161600000, "UNIQID": 52513366, "x": 34.86634183, "y": 31.98809607}, "geometry": {"type": "Point", "coordinates": [34.866336594825114, 31.988093023603213]}}, {"type": "Feature", "properties": {"OBJECTID_1": 2605, "Protecti1": "מבנה מגורים ללא מיגון", "BLDGHT": 2.23, "settlenam": "אחיעזר", "Protective": 2, "EditDate": -2209161600000, "UNIQID": 52516003, "x": 34.86644259, "y": 31.98818817}, "geometry": {"type": "Point", "coordinates": [34.8664373468073, 31.988185117267278]}}, {"type": "Feature", "properties": {"OBJECTID_1": 2607, "Protecti1": "מבנה מגורים ממוגן ממד ממק", "BLDGHT": 7.8, "settlenam": "יגל", "Protective": 8, "EditDate": -2209161600000, "UNIQID": 52510182, "x": 34.87627347, "y": 31.99170061}, "geometry": {"type": "Point", "coordinates": [34.876268181711964, 31.991697526656893]}}, {"type": "Feature", "properties": {"OBJECTID_1": 2621, "Protecti1": "מבנה מגורים ממוגן ממד ממק", "BLDGHT": 7.03, "settlenam": "יגל", "Protective": 8, "EditDate": -2209161600000, "UNIQID": 52512056, "x": 34.88060134, "y": 31.98884222}, "geometry": {"type": "Point", "coordinates": [34.880596025894725, 31.988839152765955]}}, {"type": "Feature", "properties": {"OBJECTID_1": 2628, "Protecti1": "מבנה מגורים ללא מיגון", "BLDGHT": 5.81, "settlenam": "אחיעזר", "Protective": 2, "EditDate": -2209161600000, "UNIQID": 52512882, "x": 34.8667508, "y": 31.98804242}, "geometry": {"type": "Point", "coordinates": [34.86674555797343, 31.988039367416697]}}, {"type": "Feature", "properties": {"OBJECTID_1": 2629, "Protecti1": "מבנה מגורים ממוגן ממד ממק", "BLDGHT": 5.87, "settlenam": "כפר חבד", "Protective": 8, "EditDate": -2209161600000, "UNIQID": 53335900, "x": 34.86266799, "y": 31.9880696}, "geometry": {"type": "Point", "coordinates": [34.86266277119138, 31.98806655384825]}}, {"type": "Feature", "properties": {"OBJECTID_1": 2644, "Protecti1": "מבנה מגורים ממוגן ממד ממק", "BLDGHT": 6.61, "settlenam": "יגל", "Protective": 8, "EditDate": -2209161600000, "UNIQID": 52518326, "x": 34.87264177, "y": 31.99291076}, "geometry": {"type": "Point", "coordinates": [34.872636501834556, 31.992907682041675]}}, {"type": "Feature", "properties": {"OBJECTID_1": 2657, "Protecti1": "מבנה מגורים ממוגן ממד ממק", "BLDGHT": 5.3, "settlenam": "יגל", "Protective": 8, "EditDate": -2209161600000, "UNIQID": 52512325, "x": 34.88248437, "y": 31.98829018}, "geometry": {"type": "Point", "coordinates": [34.88247904328243, 31.988287113053733]}}, {"type": "Feature", "properties": {"OBJECTID_1": 2661, "Protecti1": "מבנה מגורים ממוגן ממד ממק", "BLDGHT": 6.32, "settlenam": "יגל", "Protective": 8, "EditDate": -2209161600000, "UNIQID": 52602249, "x": 34.87638086, "y": 31.99222764}, "geometry": {"type": "Point", "coordinates": [34.87637556760196, 31.99222455890095]}}, {"type": "Feature", "properties": {"OBJECTID_1": 2662, "Protecti1": "מבנה מגורים ללא מיגון", "BLDGHT": 5.3, "settlenam": "אחיעזר", "Protective": 2, "EditDate": -2209161600000, "UNIQID": 52591028, "x": 34.86586029, "y": 31.98798841}, "geometry": {"type": "Point", "coordinates": [34.865855054619864, 31.987985359514134]}}, {"type": "Feature", "properties": {"OBJECTID_1": 2676, "Protecti1": "מבנה מגורים ממוגן ממד ממק", "BLDGHT": 4.7, "settlenam": "כפר חבד", "Protective": 8, "EditDate": -2209161600000, "UNIQID": 52512068, "x": 34.86280283, "y": 31.9881802}, "geometry": {"type": "Point", "coordinates": [34.86279761231209, 31.988177151605967]}}, {"type": "Feature", "properties": {"OBJECTID_1": 2686, "Protecti1": "מבנה מגורים ממוגן ממד ממק", "BLDGHT": 7.92, "settlenam": "יגל", "Protective": 8, "EditDate": -2209161600000, "UNIQID": 52515198, "x": 34.87903522, "y": 31.98956885}, "geometry": {"type": "Point", "coordinates": [34.87903548822237, 31.98953886759663]}}, {"type": "Feature", "properties": {"OBJECTID_1": 2687, "Protecti1": "מבנה מגורים ממוגן ממד ממק", "BLDGHT": 6.49, "settlenam": "יגל", "Protective": 8, "EditDate": -2209161600000, "UNIQID": 52514244, "x": 34.88087147, "y": 31.98819777}, "geometry": {"type": "Point", "coordinates": [34.88086615426345, 31.988194704977072]}}, {"type": "Feature", "properties": {"OBJECTID_1": 2697, "Protecti1": "מבנה מגורים ממוגן ממד ממק", "BLDGHT": 5.59, "settlenam": "יגל", "Protective": 8, "EditDate": -2209161600000, "UNIQID": 52565558, "x": 34.87259851, "y": 31.9933507}, "geometry": {"type": "Point", "coordinates": [34.8725932438854, 31.993347612232682]}}, {"type": "Feature", "properties": {"OBJECTID_1": 2722, "Protecti1": "מבנה מגורים ממוגן ממד ממק", "BLDGHT": 6.02, "settlenam": "יגל", "Protective": 8, "EditDate": -2209161600000, "UNIQID": 52492124, "x": 34.88066042, "y": 31.98789754}, "geometry": {"type": "Point", "coordinates": [34.88065509752956, 31.987894478955276]}}, {"type": "Feature", "properties": {"OBJECTID_1": 2724, "Protecti1": "מבנה מגורים ממוגן ממד ממק", "BLDGHT": 7.68, "settlenam": "אחיעזר", "Protective": 8, "EditDate": -2209161600000, "UNIQID": 53344075, "x": 34.86536783, "y": 31.98839526}, "geometry": {"type": "Point", "coordinates": [34.86536259322792, 31.988392214082225]}}, {"type": "Feature", "properties": {"OBJECTID_1": 2743, "Protecti1": "מבנה מגורים ממוגן ממד ממק", "BLDGHT": 7.17, "settlenam": "יגל", "Protective": 8, "EditDate": -2209161600000, "UNIQID": 52486848, "x": 34.8783477, "y": 31.98963591}, "geometry": {"type": "Point", "coordinates": [34.878342397559855, 31.98963284235589]}}, {"type": "Feature", "properties": {"OBJECTID_1": 2762, "Protecti1": "מבנה מגורים ממוגן ממד ממק", "BLDGHT": 4.81, "settlenam": "יגל", "Protective": 8, "EditDate": -2209161600000, "UNIQID": 52604508, "x": 34.87296351, "y": 31.99313503}, "geometry": {"type": "Point", "coordinates": [34.87295823892383, 31.993131947390026]}}, {"type": "Feature", "properties": {"OBJECTID_1": 2793, "Protecti1": "מבנה מגורים ללא מיגון", "BLDGHT": 0, "settlenam": "יגל", "Protective": 2, "EditDate": -2209161600000, "UNIQID": 52487658, "x": 34.8790613, "y": 31.98967867}, "geometry": {"type": "Point", "coordinates": [34.87905599167035, 31.98967559586068]}}, {"type": "Feature", "properties": {"OBJECTID_1": 2814, "Protecti1": "מבנה מגורים ממוגן ממד ממק", "BLDGHT": 6.56, "settlenam": "יגל", "Protective": 8, "EditDate": -2209161600000, "UNIQID": 52564724, "x": 34.87932448, "y": 31.98843249}, "geometry": {"type": "Point", "coordinates": [34.87931916914608, 31.988429425228276]}}, {"type": "Feature", "properties": {"OBJECTID_1": 2819, "Protecti1": "מבנה מגורים ממוגן ממד ממק", "BLDGHT": 3.31, "settlenam": "כפר חבד", "Protective": 8, "EditDate": -2209161600000, "UNIQID": 53344932, "x": 34.86429077, "y": 31.98921527}, "geometry": {"type": "Point", "coordinates": [34.8642823490507, 31.98918733636068]}}, {"type": "Feature", "properties": {"OBJECTID_1": 2831, "Protecti1": "מבנה מגורים ממוגן ממד ממק", "BLDGHT": 2.22, "settlenam": "יגל", "Protective": 8, "EditDate": -2209161600000, "UNIQID": 52565473, "x": 34.87272406, "y": 31.99333892}, "geometry": {"type": "Point", "coordinates": [34.87271879179308, 31.99333583553468]}}, {"type": "Feature", "properties": {"OBJECTID_1": 2839, "Protecti1": "מבנה מגורים ללא מיגון", "BLDGHT": 3.39, "settlenam": "אחיעזר", "Protective": 2, "EditDate": -2209161600000, "UNIQID": 52589962, "x": 34.86610415, "y": 31.98807188}, "geometry": {"type": "Point", "coordinates": [34.86609890815141, 31.98806883149116]}}, {"type": "Feature", "properties": {"OBJECTID_1": 2856, "Protecti1": "מבנה מגורים ממוגן ממד ממק", "BLDGHT": 5.41, "settlenam": "יגל", "Protective": 8, "EditDate": -2209161600000, "UNIQID": 52972415, "x": 34.87492284, "y": 31.9930883}, "geometry": {"type": "Point", "coordinates": [34.87491755857787, 31.993085217658955]}}, {"type": "Feature", "properties": {"OBJECTID_1": 2858, "Protecti1": "מבנה מגורים ללא מיגון", "BLDGHT": 5.48, "settlenam": "יגל", "Protective": 2, "EditDate": -2209161600000, "UNIQID": 53047585, "x": 34.87987367, "y": 31.98931789}, "geometry": {"type": "Point", "coordinates": [34.879868731509916, 31.989304339648733]}}, {"type": "Feature", "properties": {"OBJECTID_1": 2901, "Protecti1": "מבנה מגורים ללא מיגון", "BLDGHT": 4.07, "settlenam": "אחיעזר", "Protective": 2, "EditDate": -2209161600000, "UNIQID": 53416251, "x": 34.86685539, "y": 31.98771715}, "geometry": {"type": "Point", "coordinates": [34.866850145271954, 31.987714102390097]}}, {"type": "Feature", "properties": {"OBJECTID_1": 2955, "Protecti1": "מבנה מגורים ללא מיגון", "BLDGHT": 0, "settlenam": "יגל", "Protective": 2, "EditDate": -2209161600000, "UNIQID": 53046298, "x": 34.87836892, "y": 31.99059272}, "geometry": {"type": "Point", "coordinates": [34.878363620241316, 31.99058964650667]}}, {"type": "Feature", "properties": {"OBJECTID_1": 2965, "Protecti1": "מבנה מגורים ממוגן ממד ממק", "BLDGHT": 0, "settlenam": "צפרייה", "Protective": 8, "EditDate": -2209161600000, "UNIQID": 53329073, "x": 34.86251629, "y": 32.00092645}, "geometry": {"type": "Point", "coordinates": [34.862511089038755, 32.00092333861618]}}, {"type": "Feature", "properties": {"OBJECTID_1": 2975, "Protecti1": "מבנה מגורים ממוגן ממד ממק", "BLDGHT": 3.58, "settlenam": "צפרייה", "Protective": 8, "EditDate": -2209161600000, "UNIQID": 52533892, "x": 34.86163538, "y": 32.00116}, "geometry": {"type": "Point", "coordinates": [34.86163018210343, 32.00115688239375]}}, {"type": "Feature", "properties": {"OBJECTID_1": 2978, "Protecti1": "מבנה מגורים ממוגן ממד ממק", "BLDGHT": 3.92, "settlenam": "צפרייה", "Protective": 8, "EditDate": -2209161600000, "UNIQID": 52227963, "x": 34.86257656, "y": 32.00077277}, "geometry": {"type": "Point", "coordinates": [34.862571364519646, 32.00076965805116]}}, {"type": "Feature", "properties": {"OBJECTID_1": 2979, "Protecti1": "מבנה מגורים ממוגן ממד ממק", "BLDGHT": 5.05, "settlenam": "צפרייה", "Protective": 8, "EditDate": -2209161600000, "UNIQID": 53330048, "x": 34.86203286, "y": 32.000922}, "geometry": {"type": "Point", "coordinates": [34.862027665830574, 32.00091888599186]}}, {"type": "Feature", "properties": {"OBJECTID_1": 2980, "Protecti1": "מבנה מגורים ממוגן ממד ממק", "BLDGHT": 4.79, "settlenam": "צפרייה", "Protective": 8, "EditDate": -2209161600000, "UNIQID": 53333055, "x": 34.86222488, "y": 32.00134201}, "geometry": {"type": "Point", "coordinates": [34.86221968526456, 32.001338893539405]}}, {"type": "Feature", "properties": {"OBJECTID_1": 3029, "Protecti1": "מבנה מגורים ממוגן ממד ממק", "BLDGHT": 5.12, "settlenam": "אחיעזר", "Protective": 8, "EditDate": -2209161600000, "UNIQID": 53110129, "x": 34.8641662, "y": 31.98875628}, "geometry": {"type": "Point", "coordinates": [34.86416097204523, 31.988753225212985]}}, {"type": "Feature", "properties": {"OBJECTID_1": 3077, "Protecti1": "מבנה מגורים ללא מיגון", "BLDGHT": 3.54, "settlenam": "יגל", "Protective": 2, "EditDate": -2209161600000, "UNIQID": 53134364, "x": 34.87725066, "y": 31.99142961}, "geometry": {"type": "Point", "coordinates": [34.87723805598053, 31.9914149064245]}}, {"type": "Feature", "properties": {"OBJECTID_1": 3093, "Protecti1": "מבנה מגורים ממוגן ממד ממק", "BLDGHT": 6.54, "settlenam": "יגל", "Protective": 8, "EditDate": -2209161600000, "UNIQID": 53430201, "x": 34.87292117, "y": 31.99357909}, "geometry": {"type": "Point", "coordinates": [34.87291528117605, 31.99355382705918]}}, {"type": "Feature", "properties": {"OBJECTID_1": 3099, "Protecti1": "מבנה מגורים ממוגן ממד ממק", "BLDGHT": 3.71, "settlenam": "יגל", "Protective": 8, "EditDate": -2209161600000, "UNIQID": 53048501, "x": 34.88236526, "y": 31.9879932}, "geometry": {"type": "Point", "coordinates": [34.8823599340731, 31.987990135981864]}}, {"type": "Feature", "properties": {"OBJECTID_1": 3104, "Protecti1": "מבנה מגורים ממוגן ממד ממק", "BLDGHT": 3.31, "settlenam": "יגל", "Protective": 8, "EditDate": -2209161600000, "UNIQID": 53421004, "x": 34.87659752, "y": 31.99240341}, "geometry": {"type": "Point", "coordinates": [34.87659223514545, 31.992400325787873]}}, {"type": "Feature", "properties": {"OBJECTID_1": 3105, "Protecti1": "מבנה מגורים ממוגן ממד ממק", "BLDGHT": 5.28, "settlenam": "יגל", "Protective": 8, "EditDate": -2209161600000, "UNIQID": 52988666, "x": 34.88107165, "y": 31.98834145}, "geometry": {"type": "Point", "coordinates": [34.881066326302516, 31.988338384759995]}}, {"type": "Feature", "properties": {"OBJECTID_1": 3111, "Protecti1": "מבנה מגורים ממוגן ממד ממק", "BLDGHT": 7.14, "settlenam": "כפר חבד", "Protective": 8, "EditDate": -2209161600000, "UNIQID": 52984078, "x": 34.86352596, "y": 31.98853232}, "geometry": {"type": "Point", "coordinates": [34.86352073256869, 31.988529274636246]}}, {"type": "Feature", "properties": {"OBJECTID_1": 3190, "Protecti1": "מבנה מגורים ממוגן ממד ממק", "BLDGHT": 0, "settlenam": "צפרייה", "Protective": 8, "EditDate": -2209161600000, "UNIQID": 64943673, "x": 34.86148529, "y": 32.00031912}, "geometry": {"type": "Point", "coordinates": [34.861480090109225, 32.00031601242971]}}, {"type": "Feature", "properties": {"OBJECTID_1": 3191, "Protecti1": "מבנה מגורים ממוגן ממד ממק", "BLDGHT": 0, "settlenam": "צפרייה", "Protective": 8, "EditDate": -2209161600000, "UNIQID": 64943674, "x": 34.86142379, "y": 32.0004491}, "geometry": {"type": "Point", "coordinates": [34.86141859124164, 32.000445984397864]}}, {"type": "Feature", "properties": {"OBJECTID_1": 3192, "Protecti1": "מבנה מגורים ממוגן ממד ממק", "BLDGHT": 0, "settlenam": "צפרייה", "Protective": 8, "EditDate": -2209161600000, "UNIQID": 64943675, "x": 34.86129628, "y": 32.00058012}, "geometry": {"type": "Point", "coordinates": [34.86129108968538, 32.00057701153414]}}, {"type": "Feature", "properties": {"OBJECTID_1": 3201, "Protecti1": "מבנה מגורים ממוגן ממד ממק", "BLDGHT": 0, "settlenam": "צפרייה", "Protective": 8, "EditDate": -2209161600000, "UNIQID": 64943669, "x": 34.86234661, "y": 32.00018923}, "geometry": {"type": "Point", "coordinates": [34.86234140777039, 32.00018611959036]}}, {"type": "Feature", "properties": {"OBJECTID_1": 3202, "Protecti1": "מבנה מגורים ממוגן ממד ממק", "BLDGHT": 0, "settlenam": "צפרייה", "Protective": 8, "EditDate": -2209161600000, "UNIQID": 64943671, "x": 34.86175892, "y": 31.99997645}, "geometry": {"type": "Point", "coordinates": [34.8617537246328, 31.999973342621043]}}, {"type": "Feature", "properties": {"OBJECTID_1": 3207, "Protecti1": "מבנה מגורים ממוגן ממד ממק", "BLDGHT": 0, "settlenam": "צפרייה", "Protective": 8, "EditDate": -2209161600000, "UNIQID": 64943680, "x": 34.86182069, "y": 32.00086234}, "geometry": {"type": "Point", "coordinates": [34.86181549874086, 32.000859223617965]}}, {"type": "Feature", "properties": {"OBJECTID_1": 3210, "Protecti1": "מבנה מגורים ממוגן ממד ממק", "BLDGHT": 0, "settlenam": "צפרייה", "Protective": 8, "EditDate": -2209161600000, "UNIQID": 64943286, "x": 34.8618522, "y": 32.00121711}, "geometry": {"type": "Point", "coordinates": [34.861847000800616, 32.00121399741916]}}, {"type": "Feature", "properties": {"OBJECTID_1": 3211, "Protecti1": "מבנה מגורים ממוגן ממד ממק", "BLDGHT": 0, "settlenam": "צפרייה", "Protective": 8, "EditDate": -2209161600000, "UNIQID": 65077788, "x": 34.86244007, "y": 32.00139856}, "geometry": {"type": "Point", "coordinates": [34.86243487501257, 32.00139544044422]}}, {"type": "Feature", "properties": {"OBJECTID_1": 3212, "Protecti1": "מבנה מגורים ממוגן ממד ממק", "BLDGHT": 0, "settlenam": "צפרייה", "Protective": 8, "EditDate": -2209161600000, "UNIQID": 64943661, "x": 34.86244018, "y": 32.0010577}, "geometry": {"type": "Point", "coordinates": [34.86243498449805, 32.001054582031095]}}, {"type": "Feature", "properties": {"OBJECTID_1": 3213, "Protecti1": "מבנה מגורים ממוגן ממד ממק", "BLDGHT": 0, "settlenam": "צפרייה", "Protective": 8, "EditDate": -2209161600000, "UNIQID": 64943663, "x": 34.8626197, "y": 32.00061763}, "geometry": {"type": "Point", "coordinates": [34.862614499235164, 32.000614514550115]}}, {"type": "Feature", "properties": {"OBJECTID_1": 3217, "Protecti1": "מבנה מגורים ממוגן ממד ממק", "BLDGHT": 0, "settlenam": "צפרייה", "Protective": 8, "EditDate": -2209161600000, "UNIQID": 64943679, "x": 34.86158398, "y": 32.00080462}, "geometry": {"type": "Point", "coordinates": [34.86157878455125, 32.000801510096636]}}, {"type": "Feature", "properties": {"OBJECTID_1": 3218, "Protecti1": "מבנה מגורים ממוגן ממד ממק", "BLDGHT": 0, "settlenam": "צפרייה", "Protective": 8, "EditDate": -2209161600000, "UNIQID": 64943681, "x": 34.86291976, "y": 32.00038555}, "geometry": {"type": "Point", "coordinates": [34.862914552756656, 32.000382434697514]}}, {"type": "Feature", "properties": {"OBJECTID_1": 3265, "Protecti1": "מבנה מגורים ממוגן ממד ממק", "BLDGHT": 0, "settlenam": "אחיעזר", "Protective": 8, "EditDate": -2209161600000, "UNIQID": 64966332, "x": 34.86493407, "y": 31.98828421}, "geometry": {"type": "Point", "coordinates": [34.864928841441774, 31.988281159808754]}}, {"type": "Feature", "properties": {"OBJECTID_1": 3276, "Protecti1": "מבנה מגורים ללא מיגון", "BLDGHT": 5.21, "settlenam": "יגל", "Protective": 2, "EditDate": -2209161600000, "UNIQID": 53180171, "x": 34.87690286, "y": 31.99168472}, "geometry": {"type": "Point", "coordinates": [34.87689757151228, 31.991681643991065]}}, {"type": "Feature", "properties": {"OBJECTID_1": 3374, "Protecti1": "מבנה מגורים ממוגן ממד ממק", "BLDGHT": 0, "settlenam": "צפרייה", "Protective": 8, "EditDate": -2209161600000, "UNIQID": 64943284, "x": 34.86125287, "y": 32.0010412}, "geometry": {"type": "Point", "coordinates": [34.86124768006146, 32.00103808934677]}}, {"type": "Feature", "properties": {"OBJECTID_1": 3375, "Protecti1": "מבנה מגורים ממוגן ממד ממק", "BLDGHT": 0, "settlenam": "צפרייה", "Protective": 8, "EditDate": -2209161600000, "UNIQID": 64943283, "x": 34.86105496, "y": 32.00100548}, "geometry": {"type": "Point", "coordinates": [34.86104976353073, 32.00100236560082]}}, {"type": "Feature", "properties": {"OBJECTID_1": 3402, "Protecti1": "מבנה מגורים ממוגן ממד ממק", "BLDGHT": 0, "settlenam": "צפרייה", "Protective": 8, "EditDate": -2209161600000, "UNIQID": 65077791, "x": 34.86170524, "y": 32.00067167}, "geometry": {"type": "Point", "coordinates": [34.861697333941635, 32.00062900084065]}}, {"type": "Feature", "properties": {"OBJECTID_1": 3403, "Protecti1": "מבנה מגורים ממוגן ממד ממק", "BLDGHT": 0, "settlenam": "צפרייה", "Protective": 8, "EditDate": -2209161600000, "UNIQID": 64943677, "x": 34.86197319, "y": 32.00039043}, "geometry": {"type": "Point", "coordinates": [34.86196799524427, 32.00038732081422]}}, {"type": "Feature", "properties": {"OBJECTID_1": 3404, "Protecti1": "מבנה מגורים ממוגן ממד ממק", "BLDGHT": 0, "settlenam": "צפרייה", "Protective": 8, "EditDate": -2209161600000, "UNIQID": 64943676, "x": 34.8611586, "y": 32.00068933}, "geometry": {"type": "Point", "coordinates": [34.86115340495659, 32.00068621533118]}}, {"type": "Feature", "properties": {"OBJECTID_1": 3429, "Protecti1": "מבנה מגורים ממוגן ממד ממק", "BLDGHT": 0, "settlenam": "צפרייה", "Protective": 8, "EditDate": -2209161600000, "UNIQID": 64943672, "x": 34.8616002, "y": 32.00019247}, "geometry": {"type": "Point", "coordinates": [34.86159500581798, 32.00018936000416]}}, {"type": "Feature", "properties": {"OBJECTID_1": 3430, "Protecti1": "מבנה מגורים ממוגן ממד ממק", "BLDGHT": 0, "settlenam": "צפרייה", "Protective": 8, "EditDate": -2209161600000, "UNIQID": 65077790, "x": 34.86194305, "y": 32.00003788}, "geometry": {"type": "Point", "coordinates": [34.861939767351565, 32.00001485796101]}}, {"type": "Feature", "properties": {"OBJECTID_1": 3431, "Protecti1": "מבנה מגורים ממוגן ממד ממק", "BLDGHT": 0, "settlenam": "צפרייה", "Protective": 8, "EditDate": -2209161600000, "UNIQID": 64943670, "x": 34.86215402, "y": 32.00010973}, "geometry": {"type": "Point", "coordinates": [34.86214881952756, 32.00010662310516]}}, {"type": "Feature", "properties": {"OBJECTID_1": 3435, "Protecti1": "מבנה מגורים ממוגן ממד ממק", "BLDGHT": 0, "settlenam": "צפרייה", "Protective": 8, "EditDate": -2209161600000, "UNIQID": 64943678, "x": 34.86183175, "y": 32.00051633}, "geometry": {"type": "Point", "coordinates": [34.86182655512692, 32.00051322110277]}}, {"type": "Feature", "properties": {"OBJECTID_1": 3436, "Protecti1": "מבנה מגורים ממוגן ממד ממק", "BLDGHT": 0, "settlenam": "צפרייה", "Protective": 8, "EditDate": -2209161600000, "UNIQID": 64943664, "x": 34.86302174, "y": 32.00071637}, "geometry": {"type": "Point", "coordinates": [34.86301653287787, 32.000713253058656]}}, {"type": "Feature", "properties": {"OBJECTID_1": 3437, "Protecti1": "מבנה מגורים ממוגן ממד ממק", "BLDGHT": 0, "settlenam": "צפרייה", "Protective": 8, "EditDate": -2209161600000, "UNIQID": 65077789, "x": 34.86296108, "y": 32.00087412}, "geometry": {"type": "Point", "coordinates": [34.86295587586837, 32.00087100535244]}}, {"type": "Feature", "properties": {"OBJECTID_1": 3438, "Protecti1": "מבנה מגורים ממוגן ממד ממק", "BLDGHT": 0, "settlenam": "צפרייה", "Protective": 8, "EditDate": -2209161600000, "UNIQID": 64943662, "x": 34.86222024, "y": 32.00097168}, "geometry": {"type": "Point", "coordinates": [34.86221503695737, 32.000968565825914]}}, {"type": "Feature", "properties": {"OBJECTID_1": 3439, "Protecti1": "מבנה מגורים ממוגן ממד ממק", "BLDGHT": 0, "settlenam": "צפרייה", "Protective": 8, "EditDate": -2209161600000, "UNIQID": 64943287, "x": 34.86205444, "y": 32.00128159}, "geometry": {"type": "Point", "coordinates": [34.86204923802474, 32.00127847021534]}}, {"type": "Feature", "properties": {"OBJECTID_1": 3440, "Protecti1": "מבנה מגורים ממוגן ממד ממק", "BLDGHT": 0, "settlenam": "צפרייה", "Protective": 8, "EditDate": -2209161600000, "UNIQID": 64943285, "x": 34.86144923, "y": 32.00109314}, "geometry": {"type": "Point", "coordinates": [34.861444036825546, 32.001090027481624]}}, {"type": "Feature", "properties": {"OBJECTID_1": 3445, "Protecti1": "מבנה מגורים ממוגן ממד ממק", "BLDGHT": 0, "settlenam": "צפרייה", "Protective": 8, "EditDate": -2209161600000, "UNIQID": 64943668, "x": 34.86252903, "y": 32.00024996}, "geometry": {"type": "Point", "coordinates": [34.86252382518892, 32.000246852532925]}}, {"type": "Feature", "properties": {"OBJECTID_1": 3446, "Protecti1": "מבנה מגורים ממוגן ממד ממק", "BLDGHT": 0, "settlenam": "צפרייה", "Protective": 8, "EditDate": -2209161600000, "UNIQID": 64943667, "x": 34.86273639, "y": 32.00031946}, "geometry": {"type": "Point", "coordinates": [34.86273119165056, 32.000316346675596]}}, {"type": "Feature", "properties": {"OBJECTID_1": 3447, "Protecti1": "מבנה מגורים ממוגן ממד ממק", "BLDGHT": 0, "settlenam": "צפרייה", "Protective": 8, "EditDate": -2209161600000, "UNIQID": 64943666, "x": 34.86308886, "y": 32.00044024}, "geometry": {"type": "Point", "coordinates": [34.86308365709498, 32.00043713041253]}}, {"type": "Feature", "properties": {"OBJECTID_1": 3448, "Protecti1": "מבנה מגורים ממוגן ממד ממק", "BLDGHT": 0, "settlenam": "צפרייה", "Protective": 8, "EditDate": -2209161600000, "UNIQID": 64943665, "x": 34.86330108, "y": 32.00053111}, "geometry": {"type": "Point", "coordinates": [34.86329586940088, 32.00052799225162]}}, {"type": "Feature", "properties": {"OBJECTID_1": 3456, "Protecti1": "מבנה מגורים ממוגן ממד ממק", "BLDGHT": 0, "settlenam": "צפרייה", "Protective": 8, "EditDate": -2209161600000, "UNIQID": 64943660, "x": 34.86288505, "y": 32.0010563}, "geometry": {"type": "Point", "coordinates": [34.8628798488341, 32.00105318213907]}}, {"type": "Feature", "properties": {"OBJECTID_1": 3457, "Protecti1": "מבנה מגורים ממוגן ממד ממק", "BLDGHT": 0, "settlenam": "צפרייה", "Protective": 8, "EditDate": -2209161600000, "UNIQID": 64943659, "x": 34.86285011, "y": 32.00119875}, "geometry": {"type": "Point", "coordinates": [34.862844912197346, 32.00119563508293]}}, {"type": "Feature", "properties": {"OBJECTID_1": 3458, "Protecti1": "מבנה מגורים ממוגן ממד ממק", "BLDGHT": 0, "settlenam": "צפרייה", "Protective": 8, "EditDate": -2209161600000, "UNIQID": 64943658, "x": 34.86285464, "y": 32.00151379}, "geometry": {"type": "Point", "coordinates": [34.86284943888471, 32.00151067204699]}}, {"type": "Feature", "properties": {"OBJECTID_1": 3459, "Protecti1": "מבנה מגורים ממוגן ממד ממק", "BLDGHT": 0, "settlenam": "צפרייה", "Protective": 8, "EditDate": -2209161600000, "UNIQID": 64943657, "x": 34.86264991, "y": 32.00144036}, "geometry": {"type": "Point", "coordinates": [34.8626447066551, 32.00143724161306]}}, {"type": "Feature", "properties": {"OBJECTID_1": 3482, "Protecti1": "מבנה מגורים ממוגן ממד ממק", "BLDGHT": 6.77, "settlenam": "יגל", "Protective": 8, "EditDate": -2209161600000, "UNIQID": 53140804, "x": 34.8739179, "y": 31.99385623}, "geometry": {"type": "Point", "coordinates": [34.873912631136335, 31.993853147137855]}}, {"type": "Feature", "properties": {"OBJECTID_1": 3484, "Protecti1": "מבנה מגורים ממוגן ממד ממק", "BLDGHT": 0, "settlenam": "כפר חבד", "Protective": 8, "EditDate": -2209161600000, "UNIQID": 64966336, "x": 34.86182495, "y": 31.98767154}, "geometry": {"type": "Point", "coordinates": [34.861819734545925, 31.987668500757042]}}, {"type": "Feature", "properties": {"OBJECTID_1": 3486, "Protecti1": "מבנה מגורים ממוגן ממד ממק", "BLDGHT": 0, "settlenam": "אחיעזר", "Protective": 8, "EditDate": -2209161600000, "UNIQID": 64966338, "x": 34.86275304, "y": 31.98767866}, "geometry": {"type": "Point", "coordinates": [34.86274781894402, 31.987675619866838]}}, {"type": "Feature", "properties": {"OBJECTID_1": 3518, "Protecti1": "מבנה מגורים ממוגן ממד ממק", "BLDGHT": 0, "settlenam": "יגל", "Protective": 8, "EditDate": -2209161600000, "UNIQID": 64964627, "x": 34.87814783, "y": 31.9909278}, "geometry": {"type": "Point", "coordinates": [34.87814252958879, 31.990924728085233]}}, {"type": "Feature", "properties": {"OBJECTID_1": 3551, "Protecti1": "מבנה מגורים ללא מיגון", "BLDGHT": 0, "settlenam": "יגל", "Protective": 2, "EditDate": -2209161600000, "UNIQID": 64964215, "x": 34.87970319, "y": 31.98942236}, "geometry": {"type": "Point", "coordinates": [34.87969788015225, 31.989419288530023]}}, {"type": "Feature", "properties": {"OBJECTID_1": 3575, "Protecti1": "מבנה מגורים ממוגן ממד ממק", "BLDGHT": 0, "settlenam": "יגל", "Protective": 8, "EditDate": -2209161600000, "UNIQID": 64964628, "x": 34.87822567, "y": 31.99101712}, "geometry": {"type": "Point", "coordinates": [34.87822036872786, 31.991014039074383]}}, {"type": "Feature", "properties": {"OBJECTID_1": 3576, "Protecti1": "מבנה מגורים ממוגן ממד ממק", "BLDGHT": 0, "settlenam": "יגל", "Protective": 8, "EditDate": -2209161600000, "UNIQID": 65076834, "x": 34.87806843, "y": 31.99109517}, "geometry": {"type": "Point", "coordinates": [34.87806313000088, 31.991092097214036]}}, {"type": "Feature", "properties": {"OBJECTID_1": 3612, "Protecti1": "מבנה מגורים ממוגן ממד ממק", "BLDGHT": 0, "settlenam": "עמק לוד", "Protective": 8, "EditDate": -2209161600000, "UNIQID": 65071787, "x": 34.8724966, "y": 31.99282062}, "geometry": {"type": "Point", "coordinates": [34.87249439184261, 31.992835445681898]}}, {"type": "Feature", "properties": {"OBJECTID_1": 3618, "Protecti1": "מבנה מגורים ממוגן ממד ממק", "BLDGHT": 0, "settlenam": "יגל", "Protective": 8, "EditDate": -2209161600000, "UNIQID": 64964624, "x": 34.87817753, "y": 31.98962768}, "geometry": {"type": "Point", "coordinates": [34.878172223017856, 31.989624612522654]}}, {"type": "Feature", "properties": {"OBJECTID_1": 3619, "Protecti1": "מבנה מגורים ממוגן ממד ממק", "BLDGHT": 0, "settlenam": "יגל", "Protective": 8, "EditDate": -2209161600000, "UNIQID": 64964625, "x": 34.87769467, "y": 31.9900753}, "geometry": {"type": "Point", "coordinates": [34.877689375098754, 31.990072232749664]}}, {"type": "Feature", "properties": {"OBJECTID_1": 3654, "Protecti1": "מבנה מגורים ממוגן ממד ממק", "BLDGHT": 0, "settlenam": "יגל", "Protective": 8, "EditDate": -2209161600000, "UNIQID": 65076836, "x": 34.87661701, "y": 31.9914067}, "geometry": {"type": "Point", "coordinates": [34.876611717997825, 31.991403619192727]}}, {"type": "Feature", "properties": {"OBJECTID_1": 3655, "Protecti1": "מבנה מגורים ממוגן ממד ממק", "BLDGHT": 0, "settlenam": "יגל", "Protective": 8, "EditDate": -2209161600000, "UNIQID": 64964644, "x": 34.87691772, "y": 31.9912153}, "geometry": {"type": "Point", "coordinates": [34.87691243149913, 31.991212223797074]}}, {"type": "Feature", "properties": {"OBJECTID_1": 3656, "Protecti1": "מבנה מגורים ממוגן ממד ממק", "BLDGHT": 0, "settlenam": "יגל", "Protective": 8, "EditDate": -2209161600000, "UNIQID": 64965055, "x": 34.87592792, "y": 31.99189074}, "geometry": {"type": "Point", "coordinates": [34.875922630071244, 31.99188766276191]}}, {"type": "Feature", "properties": {"OBJECTID_1": 3665, "Protecti1": "מבנה מגורים ממוגן ממד ממק", "BLDGHT": 0, "settlenam": "יגל", "Protective": 8, "EditDate": -2209161600000, "UNIQID": 64964204, "x": 34.88264211, "y": 31.98808649}, "geometry": {"type": "Point", "coordinates": [34.88263678184855, 31.988083422901337]}}, {"type": "Feature", "properties": {"OBJECTID_1": 3681, "Protecti1": "מבנה מגורים ממוגן ממד ממק", "BLDGHT": 0, "settlenam": "אחיעזר", "Protective": 8, "EditDate": -2209161600000, "UNIQID": 64965933, "x": 34.86460139, "y": 31.9886212}, "geometry": {"type": "Point", "coordinates": [34.86460020816163, 31.988632679227305]}}, {"type": "Feature", "properties": {"OBJECTID_1": 3693, "Protecti1": "מבנה מגורים ממוגן ממד ממק", "BLDGHT": 3.33, "settlenam": "אחיעזר", "Protective": 8, "EditDate": -2209161600000, "UNIQID": 53144590, "x": 34.86432596, "y": 31.98820862}, "geometry": {"type": "Point", "coordinates": [34.864320733901394, 31.988205574750786]}}, {"type": "Feature", "properties": {"OBJECTID_1": 3725, "Protecti1": "מבנה מגורים ממוגן ממד ממק", "BLDGHT": 0, "settlenam": "יגל", "Protective": 8, "EditDate": -2209161600000, "UNIQID": 64964648, "x": 34.87631485, "y": 31.99153814}, "geometry": {"type": "Point", "coordinates": [34.87631103684861, 31.99154811922867]}}, {"type": "Feature", "properties": {"OBJECTID_1": 3743, "Protecti1": "מבנה מגורים ללא מיגון", "BLDGHT": 0, "settlenam": "יגל", "Protective": 2, "EditDate": -2209161600000, "UNIQID": 64964213, "x": 34.8800442, "y": 31.98905882}, "geometry": {"type": "Point", "coordinates": [34.88003888874238, 31.989055753028097]}}, {"type": "Feature", "properties": {"OBJECTID_1": 3744, "Protecti1": "מבנה מגורים ללא מיגון", "BLDGHT": 0, "settlenam": "יגל", "Protective": 2, "EditDate": -2209161600000, "UNIQID": 64964214, "x": 34.8796241, "y": 31.98949503}, "geometry": {"type": "Point", "coordinates": [34.879618790841974, 31.989491963685467]}}, {"type": "Feature", "properties": {"OBJECTID_1": 3770, "Protecti1": "מבנה מגורים ממוגן ממד ממק", "BLDGHT": 0, "settlenam": "יגל", "Protective": 8, "EditDate": -2209161600000, "UNIQID": 64964641, "x": 34.87599512, "y": 31.99211426}, "geometry": {"type": "Point", "coordinates": [34.87598982914011, 31.992111184708076]}}, {"type": "Feature", "properties": {"OBJECTID_1": 3781, "Protecti1": "מבנה מגורים ממוגן ממד ממק", "BLDGHT": 0, "settlenam": "יגל", "Protective": 8, "EditDate": -2209161600000, "UNIQID": 64965058, "x": 34.87257012, "y": 31.99346155}, "geometry": {"type": "Point", "coordinates": [34.872564855881265, 31.99345846437623]}}, {"type": "Feature", "properties": {"OBJECTID_1": 3784, "Protecti1": "מבנה מגורים ממוגן ממד ממק", "BLDGHT": 0, "settlenam": "יגל", "Protective": 8, "EditDate": -2209161600000, "UNIQID": 64964205, "x": 34.88288222, "y": 31.98846468}, "geometry": {"type": "Point", "coordinates": [34.88287688676512, 31.988461612640926]}}, {"type": "Feature", "properties": {"OBJECTID_1": 3803, "Protecti1": "מבנה מגורים ממוגן ממד ממק", "BLDGHT": 7, "settlenam": "אחיעזר", "Protective": 8, "EditDate": -2209161600000, "UNIQID": 53137061, "x": 34.86385128, "y": 31.98818386}, "geometry": {"type": "Point", "coordinates": [34.86384605906064, 31.988180812578598]}}, {"type": "Feature", "properties": {"OBJECTID_1": 3827, "Protecti1": "מבנה מגורים ממוגן ממד ממק", "BLDGHT": 0, "settlenam": "יגל", "Protective": 8, "EditDate": -2209161600000, "UNIQID": 65076034, "x": 34.88262245, "y": 31.98834372}, "geometry": {"type": "Point", "coordinates": [34.88261545120043, 31.98833258711709]}}, {"type": "Feature", "properties": {"OBJECTID_1": 3833, "Protecti1": "מבנה מגורים ממוגן ממד ממק", "BLDGHT": 0, "settlenam": "אחיעזר", "Protective": 8, "EditDate": -2209161600000, "UNIQID": 64965932, "x": 34.86518077, "y": 31.98866384}, "geometry": {"type": "Point", "coordinates": [34.865175533858164, 31.988660790033244]}}, {"type": "Feature", "properties": {"OBJECTID_1": 3854, "Protecti1": "מבנה מגורים ממוגן ממד ממק", "BLDGHT": 7.92, "settlenam": "אחיעזר", "Protective": 8, "EditDate": -2209161600000, "UNIQID": 53138037, "x": 34.86524145, "y": 31.98852875}, "geometry": {"type": "Point", "coordinates": [34.86523622244828, 31.988525695141423]}}, {"type": "Feature", "properties": {"OBJECTID_1": 3860, "Protecti1": "מבנה מגורים ממוגן ממד ממק", "BLDGHT": 3.44, "settlenam": "יגל", "Protective": 8, "EditDate": -2209161600000, "UNIQID": 53179135, "x": 34.87275528, "y": 31.99347532}, "geometry": {"type": "Point", "coordinates": [34.872749508933886, 31.993457206624498]}}]}