{"type": "FeatureCollection", "name": "אנטנות סלולר", "features": [{"type": "Feature", "properties": {"OBJECTID": 4, "antena_id": 481, "company": "סלקום", "site_num": 4819, "city": "אור יהודה", "address": "המלאכה 1", "local_auth": "אור יהודה", "shiput": "אור יהודה", "X": 187103, "Y": 658737, "F_type": "תורן על הגג", "hakama_dat": 1394236800000, "hafala_dat": 1583625600000, "last_bedik": 1676419200000, "permit": "יש היתר", "intensity": 16.22, "F_percent": 2.16, "descriptio": "קומה עליונה מבנה מסחרי רח` אביב 2", "hakama_fil": "http://documents.sviva.gov.il/B001_2_4819_20230504_1626.pdf", "hafala_fil": "http://documents.sviva.gov.il/B002_2_4819_20200803_0946.pdf", "technology": "דור 2 3 4 5"}, "geometry": {"type": "Point", "coordinates": [34.86197521525369, 32.02134614122735]}}, {"type": "Feature", "properties": {"OBJECTID": 5, "antena_id": 839, "company": "סלקום", "site_num": 1491, "city": "צפריה", "address": "מתחם קרקעי נתב\"ג 2000", "local_auth": "עמק לוד", "shiput": "נמל תעופה בן גוריון", "X": 187930, "Y": 656473, "F_type": "אנטנה משתפלת", "hakama_dat": 1612828800000, "hafala_dat": 1675382400000, "last_bedik": 1669248000000, "permit": "יש היתר", "intensity": 39.652, "F_percent": 5.144, "descriptio": "במבנה מגדל פיקוח קומה 8", "hakama_fil": "http://documents.sviva.gov.il/B001_2_1491_20210902_0955.pdf", "hafala_fil": "http://documents.sviva.gov.il/B002_2_1491_20230302_1522.pdf", "technology": "דור 2 3 4 5"}, "geometry": {"type": "Point", "coordinates": [34.87080290328172, 32.00095288724796]}}, {"type": "Feature", "properties": {"OBJECTID": 16, "antena_id": 1364, "company": "פלאפון", "site_num": 812037, "city": "לוד", "address": "נתב\"ג UPS", "local_auth": "לוד", "shiput": "נמל תעופה בן גוריון", "X": 189512, "Y": 655334, "F_type": "אתר זעיר פנימי", "hakama_dat": 1402790400000, "hafala_dat": 1555372800000, "last_bedik": 1553558400000, "permit": "יש היתר", "intensity": 25.1, "F_percent": 5.3, "descriptio": "בשטח המבנה", "hakama_fil": "http://documents.sviva.gov.il/B001_3_812037_20140615_1041.pdf", "hafala_fil": "http://documents.sviva.gov.il/B002_3_812037_20190416_1814.pdf", "technology": "דור 3"}, "geometry": {"type": "Point", "coordinates": [34.88757987576995, 31.990724340159833]}}, {"type": "Feature", "properties": {"OBJECTID": 28, "antena_id": 1385, "company": "פלאפון", "site_num": 812206, "city": "אחיעזר", "address": "בית עלמין - אחיעזר", "local_auth": "עמק לוד", "shiput": "אחיעזר", "X": 187761, "Y": 655418, "F_type": "תורן קרקעי", "hakama_dat": 1627516800000, "hafala_dat": 1629244800000, "last_bedik": 1617840000000, "permit": "יש היתר", "intensity": 0, "F_percent": 0, "descriptio": "בכל אזור האתר", "hakama_fil": "http://documents.sviva.gov.il/B001_3_812206_20210729_1426.pdf", "hafala_fil": "http://documents.sviva.gov.il/B002_3_812206_20210819_1703.pdf", "technology": "דור 3 4"}, "geometry": {"type": "Point", "coordinates": [34.869049071135635, 31.991434239725177]}}, {"type": "Feature", "properties": {"OBJECTID": 30, "antena_id": 1596, "company": "פלאפון", "site_num": 812255, "city": "לוד", "address": "נתב\"ג", "local_auth": "לוד", "shiput": "נמל תעופה בן גוריון", "X": 187854, "Y": 656490, "F_type": "אנטנה משתפלת", "hakama_dat": 1525824000000, "hafala_dat": 1675382400000, "last_bedik": 1676851200000, "permit": "יש היתר", "intensity": 5.731, "F_percent": 0.984, "descriptio": "בקומה מתחת במרחק 30 מטר ובכיוון °25", "hakama_fil": "http://documents.sviva.gov.il/B001_3_812255_20180905_1508.pdf", "hafala_fil": "http://documents.sviva.gov.il/B002_3_812255_20230302_1217.pdf", "technology": "דור 3 4"}, "geometry": {"type": "Point", "coordinates": [34.86999807090116, 32.001104075071495]}}, {"type": "Feature", "properties": {"OBJECTID": 35, "antena_id": 1621, "company": "פלאפון", "site_num": 812489, "city": "לוד", "address": "נתב\"ג טרמינל 3", "local_auth": "לוד", "shiput": "נמל תעופה בן גוריון", "X": 189188, "Y": 656127, "F_type": "אתר זעיר פנימי", "hakama_dat": 1269388800000, "hafala_dat": 1549929600000, "last_bedik": 1574812800000, "permit": "יש היתר", "intensity": 0.43, "F_percent": 0.05, "descriptio": " ", "hakama_fil": " ", "hafala_fil": "http://documents.sviva.gov.il/B002_3_812489_20191202_1143.pdf", "technology": "דור 3"}, "geometry": {"type": "Point", "coordinates": [34.88412664485734, 31.99786697871391]}}, {"type": "Feature", "properties": {"OBJECTID": 41, "antena_id": 1925, "company": "סלקום", "site_num": 280, "city": "אחיעזר", "address": "בית עלמין ליד כביש 1", "local_auth": "עמק לוד", "shiput": "אחיעזר", "X": 187739, "Y": 655433, "F_type": "תורן קרקעי", "hakama_dat": 1422230400000, "hafala_dat": 1659484800000, "last_bedik": 1674950400000, "permit": "יש היתר", "intensity": 4.325, "F_percent": 0.962, "descriptio": "בית העלמין", "hakama_fil": "http://documents.sviva.gov.il/B001_2_280_20150126_1448.pdf", "hafala_fil": "http://documents.sviva.gov.il/B002_2_280_20220308_0911.pdf", "technology": "דור 2 3 4"}, "geometry": {"type": "Point", "coordinates": [34.86881578598384, 31.99156889361733]}}, {"type": "Feature", "properties": {"OBJECTID": 48, "antena_id": 2562, "company": "סלקום", "site_num": 2651, "city": "צפריה", "address": "נתב\"ג 2000 ID", "local_auth": "עמק לוד", "shiput": "נמל תעופה בן גוריון", "X": 187901, "Y": 656488, "F_type": "אתר זעיר פנימי", "hakama_dat": 1507334400000, "hafala_dat": 1684713600000, "last_bedik": 1676851200000, "permit": "יש היתר", "intensity": 31.247, "F_percent": 6.359, "descriptio": "רצפה", "hakama_fil": "http://documents.sviva.gov.il/B001_2_2651_20170710_0821.pdf", "hafala_fil": "http://documents.sviva.gov.il/B002_2_2651_20230522_0847.pdf", "technology": "דור 2 3 4"}, "geometry": {"type": "Point", "coordinates": [34.870495518273486, 32.001087349091705]}}, {"type": "Feature", "properties": {"OBJECTID": 60, "antena_id": 4003, "company": "PHI (משרת את הוט ופרטנר)", "site_num": 0, "city": "לוד", "address": "נתב\"ג 2000", "local_auth": "עירית לוד", "shiput": "נמל תעופה בן גוריון", "X": 188712, "Y": 656477, "F_type": "אתר זעיר פנימי", "hakama_dat": 1266192000000, "hafala_dat": 1525824000000, "last_bedik": 1563926400000, "permit": "יש היתר", "intensity": 42.91, "F_percent": 4.81, "descriptio": "מפלס הקרקע", "hakama_fil": " ", "hafala_fil": "http://documents.sviva.gov.il/B002_1_PR0926A_20180905_1431.pdf", "technology": "דור  3"}, "geometry": {"type": "Point", "coordinates": [34.879078357214674, 32.00101044730549]}}, {"type": "Feature", "properties": {"OBJECTID": 61, "antena_id": 4004, "company": "PHI (משרת את הוט ופרטנר)", "site_num": 0, "city": "לוד", "address": "נתב\"ג 2000", "local_auth": "עירית לוד", "shiput": "נמל תעופה בן גוריון", "X": 188720, "Y": 656161, "F_type": "אתר זעיר פנימי", "hakama_dat": 1374364800000, "hafala_dat": 1685750400000, "last_bedik": 1676937600000, "permit": "יש היתר", "intensity": 1.55, "F_percent": 0.2, "descriptio": "שטח", "hakama_fil": "http://documents.sviva.gov.il/B001_1_PR0927A_20130721_0806.pdf", "hafala_fil": "http://documents.sviva.gov.il/B002_1_PR0927A_20230306_1101.pdf", "technology": "דור  3"}, "geometry": {"type": "Point", "coordinates": [34.87917307648716, 31.99816099211017]}}, {"type": "Feature", "properties": {"OBJECTID": 62, "antena_id": 4005, "company": "PHI (משרת את הוט ופרטנר)", "site_num": 0, "city": "לוד", "address": "נתב\"ג 2000", "local_auth": "עירית לוד", "shiput": "נמל תעופה בן גוריון", "X": 188121, "Y": 656410, "F_type": "אתר זעיר פנימי", "hakama_dat": 1269388800000, "hafala_dat": 1549929600000, "last_bedik": 1574812800000, "permit": "יש היתר", "intensity": 1.19, "F_percent": 0.16, "descriptio": "מבנה", "hakama_fil": " ", "hafala_fil": "http://documents.sviva.gov.il/B002_1_PR0929A_20191202_1200.pdf", "technology": "דור  3"}, "geometry": {"type": "Point", "coordinates": [34.87282622069096, 32.00039005508066]}}, {"type": "Feature", "properties": {"OBJECTID": 66, "antena_id": 4387, "company": "PHI (משרת את הוט ופרטנר)", "site_num": 0, "city": "לוד", "address": "טרמינל 1", "local_auth": "עירית לוד", "shiput": "נמל תעופה בן גוריון", "X": 190088, "Y": 655860, "F_type": "מתקן גישה אלחוטי", "hakama_dat": 1557792000000, "hafala_dat": 1573257600000, "last_bedik": 1635638400000, "permit": "יש היתר", "intensity": 34.45, "F_percent": 4.02, "descriptio": "במשרדים על הגג במרחק 7 מטר", "hakama_fil": "http://documents.sviva.gov.il/B001_1_WE0280B_20190514_1122.pdf", "hafala_fil": "http://documents.sviva.gov.il/B002_1_WE0280B_20190911_1012.pdf", "technology": "דור  3 4"}, "geometry": {"type": "Point", "coordinates": [34.893658784730505, 31.99548286320958]}}, {"type": "Feature", "properties": {"OBJECTID": 73, "antena_id": 4966, "company": "PHI (משרת את הוט ופרטנר)", "site_num": 0, "city": "לוד", "address": "נתב\"ג 2000 טרמינל ראשי צפון מערב", "local_auth": "עירית לוד", "shiput": "נמל תעופה בן גוריון", "X": 187862, "Y": 656512, "F_type": "תורן על הגג", "hakama_dat": 1671062400000, "hafala_dat": 1544313600000, "last_bedik": 1669248000000, "permit": "יש היתר", "intensity": 5.59, "F_percent": 1.01, "descriptio": "במגדל פיקוח במרחק 51.00 מטר", "hakama_fil": "http://documents.sviva.gov.il/B001_1_WE0979B_20221215_1330.pdf", "hafala_fil": "http://documents.sviva.gov.il/B002_1_WE0979B_20180912_1134.pdf", "technology": "דור  2 3 4"}, "geometry": {"type": "Point", "coordinates": [34.870082011781236, 32.00130269284073]}}, {"type": "Feature", "properties": {"OBJECTID": 74, "antena_id": 4967, "company": "PHI (משרת את הוט ופרטנר)", "site_num": 0, "city": "לוד", "address": "טרמינל בשטח הקרקעי-צד מזרחי נתב\"ג", "local_auth": "עירית לוד", "shiput": "נמל תעופה בן גוריון", "X": 188013, "Y": 656418, "F_type": "תורן על הגג", "hakama_dat": 1674086400000, "hafala_dat": 1544313600000, "last_bedik": 1669248000000, "permit": "יש היתר", "intensity": 29.12, "F_percent": 3.27, "descriptio": "קומה מתחת - תחנת הרכבת במרחק 20 מטר", "hakama_fil": "http://documents.sviva.gov.il/B001_1_WE0980C_20230119_1500.pdf", "hafala_fil": "http://documents.sviva.gov.il/B002_1_WE0980C_20180912_1131.pdf", "technology": "דור  2 3 4"}, "geometry": {"type": "Point", "coordinates": [34.87168304846392, 32.000459206781734]}}, {"type": "Feature", "properties": {"OBJECTID": 85, "antena_id": 5768, "company": "פלאפון", "site_num": 350022, "city": "אור יהודה", "address": "היצירה 14", "local_auth": "אור יהודה", "shiput": "אור יהודה", "X": 187215, "Y": 658902, "F_type": "תורן על הגג", "hakama_dat": 1587513600000, "hafala_dat": 1605657600000, "last_bedik": 1661126400000, "permit": "יש היתר", "intensity": 57.128, "F_percent": 7.683, "descriptio": "בבניין מסחרי רח` היצירה 6   קומה 2 במרחק 85 מטר ובכיוון °180.", "hakama_fil": "http://documents.sviva.gov.il/B001_3_350022_20200422_0737.pdf", "hafala_fil": "http://documents.sviva.gov.il/B002_3_350022_20201118_1737.pdf", "technology": "דור 3 4 5"}, "geometry": {"type": "Point", "coordinates": [34.86315521016319, 32.02283729027558]}}, {"type": "Feature", "properties": {"OBJECTID": 115, "antena_id": 7707, "company": "PHI (משרת את הוט ופרטנר)", "site_num": 0, "city": "אור יהודה", "address": "העבודה פינת היצירה 16", "local_auth": "עירית אור יהודה", "shiput": "אור יהודה", "X": 187220, "Y": 658924, "F_type": "תורן על הגג", "hakama_dat": 1399248000000, "hafala_dat": 1574121600000, "last_bedik": 1662595200000, "permit": "יש היתר", "intensity": 53.41, "F_percent": 7.25, "descriptio": "מבנה", "hakama_fil": "http://documents.sviva.gov.il/B001_1_TE0041A_20140505_0842.pdf", "hafala_fil": "http://documents.sviva.gov.il/B002_1_TE0041A_20191119_1724.pdf", "technology": "דור  2 3 4"}, "geometry": {"type": "Point", "coordinates": [34.86320740028313, 32.02303582650732]}}, {"type": "Feature", "properties": {"OBJECTID": 116, "antena_id": 7744, "company": "PHI (משרת את הוט ופרטנר)", "site_num": 0, "city": "לוד", "address": "נתב\"ג  טרמינל 3", "local_auth": "עירית לוד", "shiput": "נמל תעופה בן גוריון", "X": 187946, "Y": 656623, "F_type": "אתר זעיר פנימי", "hakama_dat": 1644105600000, "hafala_dat": 1652313600000, "last_bedik": 1669248000000, "permit": "יש היתר", "intensity": 29.541, "F_percent": 6.083, "descriptio": "במפלס הרצפה מול אנטנת פנל במרחק 0.5 מטר", "hakama_fil": "http://documents.sviva.gov.il/B001_1_WI0261B_20220602_1721.pdf", "hafala_fil": "http://documents.sviva.gov.il/B002_1_WI0261B_20221205_1339.pdf", "technology": "דור  3 4"}, "geometry": {"type": "Point", "coordinates": [34.870967329189035, 32.00230602327645]}}, {"type": "Feature", "properties": {"OBJECTID": 117, "antena_id": 7756, "company": "PHI (משרת את הוט ופרטנר)", "site_num": 0, "city": "אור יהודה", "address": "החרושת 32", "local_auth": "עירית אור יהודה", "shiput": "אור יהודה", "X": 187400, "Y": 658767, "F_type": "אתר זעיר פנימי", "hakama_dat": 1370044800000, "hafala_dat": 1622332800000, "last_bedik": 1622851200000, "permit": "יש היתר", "intensity": 31.721, "F_percent": 6.446, "descriptio": "מפלס הרצפה", "hakama_fil": "http://documents.sviva.gov.il/B001_1_WI0313A_20130106_0956.pdf", "hafala_fil": "http://documents.sviva.gov.il/B002_1_WI0313A_20210530_1649.pdf", "technology": "דור  3"}, "geometry": {"type": "Point", "coordinates": [34.86511793805929, 32.02162512658829]}}, {"type": "Feature", "properties": {"OBJECTID": 121, "antena_id": 8017, "company": "PHI (משרת את הוט ופרטנר)", "site_num": 0, "city": "אחיעזר", "address": "בית קברות מושב אחיעזר", "local_auth": "מ.א עמק לוד", "shiput": "אחיעזר", "X": 187647, "Y": 655402, "F_type": "תורן קרקעי", "hakama_dat": 1502755200000, "hafala_dat": 1648598400000, "last_bedik": 1647820800000, "permit": "יש היתר", "intensity": 3.94, "F_percent": 0.74, "descriptio": "צפויה במפלס קרקע / בית קברות במרחק 20 מטר", "hakama_fil": "http://documents.sviva.gov.il/B001_1_TS0106A_20161108_1023.pdf", "hafala_fil": "http://documents.sviva.gov.il/B002_1_TS0106A_20220330_1908.pdf", "technology": "דור  2 3 4"}, "geometry": {"type": "Point", "coordinates": [34.86784330889798, 31.991286759033507]}}, {"type": "Feature", "properties": {"OBJECTID": 122, "antena_id": 8033, "company": "PHI (משרת את הוט ופרטנר)", "site_num": 0, "city": "לוד", "address": "טרמינל 3 - נתב\"ג 2000", "local_auth": "עירית לוד", "shiput": "נמל תעופה בן גוריון", "X": 188107, "Y": 656706, "F_type": "אתר זעיר פנימי", "hakama_dat": 1357948800000, "hafala_dat": 1537056000000, "last_bedik": 1563840000000, "permit": "יש היתר", "intensity": 36.245, "F_percent": 5.867, "descriptio": "מפלס הרצפה", "hakama_fil": "http://documents.sviva.gov.il/B001_1_WI0444A_20131201_1125.pdf", "hafala_fil": "http://documents.sviva.gov.il/B002_1_WI0444A_20180916_0834.pdf", "technology": "דור  2 3 4"}, "geometry": {"type": "Point", "coordinates": [34.8726684546016, 32.00305897841913]}}, {"type": "Feature", "properties": {"OBJECTID": 123, "antena_id": 8056, "company": "PHI (משרת את הוט ופרטנר)", "site_num": 0, "city": "לוד", "address": "צד קרקעי של מתחם אל על", "local_auth": "עירית לוד", "shiput": "נמל תעופה בן גוריון", "X": 190127, "Y": 655529, "F_type": "אתר זעיר פנימי", "hakama_dat": 1336867200000, "hafala_dat": 1642377600000, "last_bedik": 1664582400000, "permit": "יש היתר", "intensity": 39.023, "F_percent": 6.549, "descriptio": "מפלס הרצפה", "hakama_fil": "http://documents.sviva.gov.il/B001_1_WI0689B_20120513_0915.pdf", "hafala_fil": "http://documents.sviva.gov.il/B002_1_WI0689B_20220117_1621.pdf", "technology": "דור  2 3"}, "geometry": {"type": "Point", "coordinates": [34.89408153256832, 31.99249892470859]}}]}