{"type": "FeatureCollection", "name": "תחום שיפוט מועצה 2024", "features": [{"type": "Feature", "properties": {"OBJECTID": 1, "Muni_Heb": "שדות דן", "Sug_Muni": "מועצה אזורית", "Machoz": "מרכז", "FIRST_Nafa": "רמלה"}, "geometry": {"type": "Polygon", "coordinates": [[[34.82121763837112, 32.01809568087071], [34.82129728726634, 32.01805532014501], [34.821481769708406, 32.01826520751176], [34.82156047149482, 32.01835474688401], [34.82291390981823, 32.02004779782702], [34.82299510605544, 32.02015770062718], [34.82320286580524, 32.02043889252951], [34.82325075864522, 32.02050373143076], [34.823587602326405, 32.02095966410754], [34.823813638948074, 32.021265593871014], [34.823864383147274, 32.02133428275016], [34.82397677278076, 32.02148638162411], [34.824027517222355, 32.02155507043748], [34.82412658112777, 32.02168915818827], [34.8241607702074, 32.02173543272848], [34.824258546127986, 32.02186776702546], [34.82459481036744, 32.022322876407685], [34.8249579160679, 32.022814324660615], [34.825006287211636, 32.02287979557557], [34.82504603516066, 32.02293358945618], [34.825330849052534, 32.023319057649054], [34.825339775574975, 32.023331139556724], [34.82544393819381, 32.02347211319419], [34.82547147579816, 32.02350937838321], [34.825553170382236, 32.02362003851347], [34.82558427600492, 32.02366279365656], [34.8264858061539, 32.02493034415449], [34.82717404166095, 32.02589289732023], [34.82727741627468, 32.02603536406133], [34.82736003856429, 32.02615112993501], [34.82746002843174, 32.02629102535768], [34.82762835899997, 32.026504916902994], [34.8276845911615, 32.02657636746508], [34.82784985314203, 32.02648779871766], [34.82802821073397, 32.02640607787247], [34.82818356600152, 32.026352426107195], [34.82831592572745, 32.02632468059349], [34.82844298695034, 32.026348866453105], [34.828536977643545, 32.02637511916005], [34.82858770872249, 32.02640773701959], [34.828635870202994, 32.02644684013685], [34.82870433258097, 32.0264968267337], [34.82875536086231, 32.026567909157144], [34.828817260885074, 32.02666557016113], [34.828865328892945, 32.026756695753654], [34.82890007548614, 32.026837830752754], [34.82893816266896, 32.026918975631354], [34.82899798103337, 32.027016009552966], [34.82903776155947, 32.02706562492337], [34.82908749415939, 32.02711861964943], [34.82922121214002, 32.02726132594612], [34.829315460914415, 32.02734363680414], [34.82940775691598, 32.02738538462887], [34.82950008765475, 32.027418624845545], [34.82959375428461, 32.02743059932303], [34.82969498751063, 32.02743606896187], [34.829783151921546, 32.02743097138896], [34.82987389268637, 32.02741194875493], [34.82996703351057, 32.02738136427895], [34.83003584088834, 32.02733945431323], [34.83009183897275, 32.02730701564941], [34.83015750967747, 32.02725151069884], [34.83021838484418, 32.027197350743975], [34.83029295830224, 32.02711471701772], [34.83034127790557, 32.02703317542457], [34.83040735612847, 32.02693233984819], [34.830483588702734, 32.02681863627726], [34.8305705620383, 32.02674867675093], [34.830693439612226, 32.02669461192802], [34.83082730572946, 32.02664146690726], [34.830956289738005, 32.02660107292431], [34.83109051246983, 32.02658153361774], [34.83130353056502, 32.02659651103923], [34.83152071770173, 32.026623156601524], [34.83172109633463, 32.026640032735585], [34.831910691887984, 32.026643334653265], [34.832061383443424, 32.026641513552605], [34.832244288617396, 32.02663576956045], [34.832537672573324, 32.02672776872922], [34.832718742751275, 32.02678597624257], [34.832865785548655, 32.026820664543884], [34.83300896789723, 32.026833721730284], [34.83313204144776, 32.0268325026684], [34.833257532177065, 32.026808722049566], [34.83335217941938, 32.02677799385835], [34.833456687176735, 32.026737847628205], [34.83353845591041, 32.02670027295688], [34.833634777076114, 32.026644851724996], [34.833741130878586, 32.02657362683142], [34.83384518680368, 32.02650671589367], [34.83396593026098, 32.02642271057513], [34.83407183398342, 32.026330634473375], [34.83418990381218, 32.02624865172432], [34.83433245597769, 32.026113132926525], [34.8345466689696, 32.025910207856086], [34.83472278850577, 32.02579811584265], [34.834846227972456, 32.025764461854465], [34.834963769327956, 32.02577840989036], [34.83512571016463, 32.025802773945365], [34.83531915408917, 32.02584414717642], [34.83548093034026, 32.02592218512898], [34.8356419200031, 32.02595265184915], [34.835807978885036, 32.025974562600254], [34.835948907894895, 32.02598568611445], [34.83605216175154, 32.02597527202399], [34.83616296777082, 32.02596487977694], [34.83640375221712, 32.02591908141889], [34.836658775926985, 32.02584626547953], [34.836879960402655, 32.02574310410606], [34.837004320452074, 32.02568061358229], [34.837038381787394, 32.02565129008792], [34.83705826059634, 32.02562381251879], [34.83706197093704, 32.025594757762946], [34.83706214186937, 32.025551925692625], [34.837053418516504, 32.025486121222905], [34.83702699820906, 32.02535142762093], [34.836969978421514, 32.02522888258558], [34.83695525932556, 32.02514664173832], [34.83696544027912, 32.02506691699779], [34.83697790760967, 32.025017038187855], [34.83698074195986, 32.024961454172406], [34.83698759045019, 32.0248787809575], [34.83699242703224, 32.02482040897123], [34.83699836278575, 32.02469032649968], [34.83699911525294, 32.024560146044905], [34.83699468173043, 32.02443002000311], [34.83699483347258, 32.02435036373469], [34.837001871134085, 32.02427093392406], [34.83701575910771, 32.02419216062439], [34.83702848413919, 32.02414431742561], [34.83703642050461, 32.02411447376833], [34.83706374459681, 32.024038295073275], [34.837097580466455, 32.023964038023095], [34.83713774548529, 32.02389210518741], [34.83718402107358, 32.02382289001312], [34.8372361559193, 32.0237567660122], [34.83727173066428, 32.023721004486575], [34.83731268293439, 32.02368969716451], [34.837358251452095, 32.02366342439929], [34.83740759168019, 32.0236426761241], [34.83745978435439, 32.023627835644504], [34.8375138619417, 32.02361918061762], [34.83796006925001, 32.02359069320247], [34.838058210436714, 32.02357209937307], [34.8381545637737, 32.02354764222474], [34.83824864712522, 32.0235174448177], [34.83833998988986, 32.02348165820248], [34.83842813511814, 32.023440461425864], [34.83851264269531, 32.02339405973657], [34.838656259304024, 32.02328795627557], [34.8387945837214, 32.02317686668242], [34.83892737912665, 32.02306098417827], [34.838986458403426, 32.02298576588031], [34.839040320631675, 32.022907757692316], [34.839088783780966, 32.02282721971622], [34.83913168482947, 32.02274442383172], [34.83912953808833, 32.02266894435367], [34.83912107920251, 32.022593787575865], [34.83911948889222, 32.022517598179604], [34.83912435511605, 32.02244150944073], [34.8391356508797, 32.02236591807178], [34.83915546077314, 32.02227071456179], [34.839170419896725, 32.02217487032934], [34.8391952109241, 32.02207703166988], [34.83922743057077, 32.021980778110105], [34.8392669427697, 32.02188651686539], [34.83931252378916, 32.02179480171797], [34.83936462132882, 32.021705641164196], [34.83942303927818, 32.021619371002494], [34.83948755828568, 32.021536316142424], [34.83955793471095, 32.021456787896106], [34.83964718709852, 32.02140401794811], [34.8397405470599, 32.02135668496516], [34.83983755642428, 32.02131501848191], [34.839901633023274, 32.021301581874766], [34.83996702530939, 32.02129403054492], [34.84003298882436, 32.02129245162979], [34.840038482411074, 32.02129165669436], [34.840044053459124, 32.02129161588472], [34.84004956224462, 32.021292329701346], [34.8400548669981, 32.02129378060273], [34.84005983449648, 32.0212959312325], [34.8400643368769, 32.02129872711555], [34.84006826115953, 32.02130209758709], [34.84013945392452, 32.021382851602944], [34.84020562488299, 32.02146664915757], [34.84022111918686, 32.02149074461054], [34.840239944272554, 32.02151305143852], [34.840261822012515, 32.02153323697982], [34.840436257731376, 32.02168832934767], [34.84054360945371, 32.021771013031454], [34.8408380740063, 32.021896746583785], [34.840941967086756, 32.02190919607356], [34.84104652919225, 32.02191654501961], [34.841151414270094, 32.02191876898235], [34.84126924753011, 32.02190690866826], [34.841427331954336, 32.021857093117376], [34.84153426328863, 32.02181307118081], [34.841878441094906, 32.02165306811489], [34.8420669155051, 32.02156558933268], [34.84207708831135, 32.021560867718314], [34.84224833385961, 32.02147803962019], [34.842478596772985, 32.021416248224526], [34.842585745091895, 32.02139674952268], [34.842741682850495, 32.021397194253915], [34.842873758385984, 32.02142604957904], [34.843009904774235, 32.02144552593746], [34.84312071788688, 32.02152601151525], [34.8431380313749, 32.021592481899724], [34.84315066330977, 32.02165971359254], [34.84315822694849, 32.021762331851335], [34.84316063390532, 32.021865131111774], [34.84315788172, 32.021967924694884], [34.8431499753488, 32.022070524138385], [34.84315156520623, 32.022141743691805], [34.84315923628059, 32.02221267575664], [34.84317294666292, 32.022282944162605], [34.84319450961417, 32.022342293409054], [34.84322344896076, 32.022399318980824], [34.843259428593875, 32.02245335709416], [34.843302030755396, 32.02250377980387], [34.843358406095454, 32.02254860185871], [34.84341921496486, 32.02258899965843], [34.84348398122007, 32.02262465440882], [34.84355219680041, 32.02265528780638], [34.84381216736495, 32.022637702621246], [34.84398094857762, 32.02256259270435], [34.84424000524687, 32.02249307488086], [34.84450405772787, 32.02245008718413], [34.84455708917333, 32.022440091516074], [34.84470744591206, 32.022420271726205], [34.84479944877808, 32.02240697947541], [34.84509132735742, 32.02235547800775], [34.845256100019014, 32.02232852910548], [34.84538338805787, 32.02229247935233], [34.845539835225495, 32.02224138971533], [34.84571496879989, 32.02217463798806], [34.84574269942536, 32.02216383079545], [34.845771515097994, 32.02214974231433], [34.84579842097177, 32.022134356149685], [34.84582381925827, 32.022117677948735], [34.8458480901605, 32.02209938504154], [34.84587047077461, 32.02208076394245], [34.84587929745474, 32.02207185387227], [34.84589210815301, 32.0220589204157], [34.84589897156789, 32.022052386444905], [34.84591032489018, 32.022041577111786], [34.84592559565406, 32.02202426876547], [34.84593045342162, 32.022018762585546], [34.84594868538792, 32.02199723226812], [34.845970340095384, 32.02197119992196], [34.845984467603024, 32.02194764969461], [34.845991413725955, 32.02193482139802], [34.846030302335286, 32.02186301284178], [34.846035208193975, 32.02184813981117], [34.8460404536063, 32.02183223698383], [34.846045147172674, 32.02181697107051], [34.846049260737814, 32.021803592786476], [34.84605353472494, 32.021774290995026], [34.846056495682845, 32.02169344409349], [34.84605652828523, 32.02168506827967], [34.846054679194054, 32.02167443265295], [34.84605206931955, 32.021665084448834], [34.8460501964054, 32.021660569262245], [34.84604493673791, 32.02165185655396], [34.84604407988075, 32.02165008841124], [34.84604306131801, 32.021647985244385], [34.84603892400856, 32.02164217589139], [34.84603715880298, 32.02163990288038], [34.84603290481622, 32.021634427764816], [34.84602801174772, 32.0216286153743], [34.846022740797956, 32.02162280191591], [34.84601558565085, 32.021615372520984], [34.84600767599465, 32.02160761905155], [34.845948912246385, 32.021550757813266], [34.84592708150105, 32.02152524825914], [34.845904142409445, 32.02149297027486], [34.84588309234943, 32.021461341510104], [34.84587518268448, 32.02144788866464], [34.84586431084059, 32.02142939811408], [34.84584666404957, 32.021397457021095], [34.84582791750492, 32.02135681496813], [34.845815948398744, 32.021323279309], [34.845814690400886, 32.021318787500384], [34.845807371046384, 32.021292653422435], [34.845797711508055, 32.021248815829836], [34.8457936857113, 32.02121465874143], [34.84579283969601, 32.02119706586378], [34.84579193598296, 32.02117825268928], [34.845792490954736, 32.02116784479571], [34.84579356776398, 32.021147654763254], [34.845796378156656, 32.02110578588162], [34.84581412503002, 32.02101499516344], [34.845817906021054, 32.02099732067753], [34.845828156849926, 32.020949401017674], [34.84586431013248, 32.02085119633167], [34.84589680107101, 32.020776608410095], [34.84590622440883, 32.02075497473951], [34.84591823799575, 32.02073385429804], [34.84594921196613, 32.02067940014285], [34.845985792031875, 32.02060990087913], [34.84599106207656, 32.02059988957173], [34.84599631340294, 32.02059169533575], [34.84603633784321, 32.0205292371142], [34.84606708574624, 32.02048904513941], [34.84610012633186, 32.0204458566432], [34.84624447437153, 32.0202870751803], [34.846268076999415, 32.02026111140038], [34.84627395134389, 32.0202546494634], [34.8463156113692, 32.02020565511522], [34.846866695798816, 32.01962901319127], [34.84699318829016, 32.019531196233594], [34.84703895888153, 32.0195050720229], [34.8470694236606, 32.019489082381256], [34.84710599678039, 32.01947585501493], [34.847139561461816, 32.01946896061515], [34.847187269791846, 32.01946909498131], [34.8472319819621, 32.01947240153788], [34.84726289754976, 32.019482077417365], [34.84726473178133, 32.01948265251886], [34.84729467014035, 32.01949949043229], [34.84741453047091, 32.01959144249169], [34.84744405502116, 32.01961974828509], [34.8476457666162, 32.01981096961894], [34.84770427632205, 32.01984077269681], [34.84778502329389, 32.01988436004376], [34.847901202313544, 32.01992815694953], [34.8481059441063, 32.01999349853608], [34.848180850369296, 32.02001500581074], [34.8484386940707, 32.02004273405111], [34.84859600881592, 32.020044822123644], [34.848613274688155, 32.02011553011421], [34.84863829615542, 32.02020485765543], [34.84865805195287, 32.020234945676584], [34.84869181184178, 32.02034002959683], [34.84906180292716, 32.021750949848446], [34.8492287836984, 32.022359877357985], [34.84928056320075, 32.02234553685926], [34.849282716828206, 32.02234494040469], [34.84936789259157, 32.022321350647026], [34.8493896197892, 32.022315125977386], [34.84961536937244, 32.02224521674068], [34.84965515228226, 32.02223156224191], [34.84966658231543, 32.02222763916298], [34.84984441917715, 32.0221666008391], [34.85007016591126, 32.02208133220833], [34.85029234344063, 32.021989511375025], [34.85037262050871, 32.021953383489084], [34.85038344178391, 32.021948513477035], [34.850510689841165, 32.02189124659018], [34.85072494770804, 32.021786653701504], [34.85093486445887, 32.02167585601673], [34.85114019263193, 32.021558984158276], [34.85134069017769, 32.02143617590907], [34.851421810605096, 32.021382796031524], [34.851422456460014, 32.02138237103752], [34.85153612074442, 32.02130757605002], [34.85172625395686, 32.02117333618931], [34.85191086568767, 32.02103361458368], [34.85208973832192, 32.020888575951446], [34.852262661013384, 32.02073839127864], [34.85242942993327, 32.02058323761701], [34.852589848510476, 32.020423297875354], [34.852743727663096, 32.020258760604], [34.85276818688806, 32.020230680964566], [34.852789248996956, 32.020206501258976], [34.85289088602147, 32.020089819771925], [34.85303115014176, 32.01991667453856], [34.853141680079844, 32.01977064616941], [34.85316114468506, 32.01974396380958], [34.8532027492859, 32.019685991268936], [34.85324738945988, 32.019622535438835], [34.85329644409102, 32.01955159175696], [34.85335020751336, 32.019472801152936], [34.85340751935511, 32.01938818685754], [34.853571068503804, 32.01914640831795], [34.8535740729101, 32.0191419668197], [34.85370550357168, 32.018947668681506], [34.853705665713385, 32.01894742898171], [34.853710526495355, 32.01894024311408], [34.85362592181059, 32.01863464135863], [34.85315645449725, 32.01693883449729], [34.85315482574984, 32.01693295295891], [34.85312009477841, 32.01680727757455], [34.85443283301652, 32.01657539846828], [34.854808774181826, 32.0167973273571], [34.855339052877035, 32.017110363112494], [34.85579442628594, 32.017379176676634], [34.855992708507614, 32.01749622495453], [34.85631456149886, 32.017686216875305], [34.85656293999584, 32.01783283444164], [34.8571685530355, 32.01752185938265], [34.85839966640104, 32.01689219921466], [34.85900353982823, 32.01656067403468], [34.85957384259238, 32.016265300372524], [34.85891509280921, 32.01573796531225], [34.85844256090383, 32.01540808675803], [34.85807826410098, 32.01518503271288], [34.85775724129436, 32.01501390948756], [34.85735803392931, 32.014827767772424], [34.856958827620616, 32.01464162480525], [34.856515847753585, 32.01453678263879], [34.85603787129116, 32.01449105891903], [34.855646689754714, 32.01448258214878], [34.855212069343104, 32.01446658240997], [34.85463457133555, 32.014457721310585], [34.854086822702286, 32.01447101393329], [34.854027347709824, 32.01410815123162], [34.85257530735323, 32.01416334841531], [34.85253725251862, 32.01502187563065], [34.85248328024823, 32.0154954542303], [34.85237799504222, 32.01574683018692], [34.85212483118208, 32.016020001441106], [34.85181947546349, 32.01630042930433], [34.85170563510248, 32.01651477080328], [34.85148755423839, 32.01670661623086], [34.85068207882609, 32.015912358486695], [34.850949424226435, 32.0156427120317], [34.85108354924501, 32.01550636706209], [34.85131949808693, 32.01518873797354], [34.85142481389285, 32.014929961068994], [34.85150421903434, 32.01462669970413], [34.85154899190147, 32.01428633185619], [34.85147059115483, 32.01385293187121], [34.84938527079264, 32.0135584350596], [34.849807074934205, 32.011629367071166], [34.845793037194966, 32.011040726997415], [34.845918487252035, 32.010078820415984], [34.8499880824592, 32.01071206329125], [34.850362618242805, 32.009201239106446], [34.853062987310835, 32.00947013032829], [34.85306791226199, 32.00947062068002], [34.8538037923572, 32.00954388621759], [34.85752732427696, 32.00937731606164], [34.85778554447822, 32.00931489353526], [34.858033648007066, 32.009257517723555], [34.85832303227294, 32.009172636388854], [34.85844455268191, 32.00913252746919], [34.858744749830684, 32.00903344333203], [34.85898206189333, 32.008955786312164], [34.85925757104571, 32.00886562919787], [34.85934042883731, 32.00883851468841], [34.85939726777322, 32.00881991451601], [34.859483374552916, 32.00878914923945], [34.85956930984333, 32.00876007431482], [34.85990925007832, 32.008619110271255], [34.860063204823646, 32.00855512880786], [34.86016147523455, 32.00851405332443], [34.86037938555701, 32.00842297092301], [34.86043988387937, 32.00839216620843], [34.86051155844409, 32.00835567073357], [34.8605285992222, 32.00834511625141], [34.860545420800605, 32.008334309570266], [34.860562017874095, 32.00832325428301], [34.86057838725412, 32.00831195398843], [34.86059452151875, 32.00830041227361], [34.86061041748284, 32.00828863183541], [34.860626069837835, 32.00827661716857], [34.86064147327853, 32.00826437186597], [34.86065662461979, 32.0082518986245], [34.86067151749139, 32.00823920283777], [34.86068614765318, 32.008226286298026], [34.86070051084831, 32.008213155306436], [34.860714603891665, 32.008199812559816], [34.86072842041972, 32.00818626164825], [34.86074195829569, 32.00817250797683], [34.860755212217825, 32.00815855423674], [34.86076817793255, 32.008144405827295], [34.86078527943014, 32.008124932660486], [34.86083417886988, 32.00805953751281], [34.8608915502118, 32.0079740217503], [34.8609391131455, 32.00790200642535], [34.86098899584587, 32.007828870109236], [34.86103092414594, 32.00776022125009], [34.861123126811734, 32.00755756547601], [34.86117177779244, 32.00744622815131], [34.86120343497368, 32.00737378010858], [34.86129458478528, 32.00716518208231], [34.861371280068795, 32.00699335553169], [34.8616232498362, 32.00642884332709], [34.86171797674872, 32.00621661675482], [34.861742934348804, 32.006165375264544], [34.86182650289532, 32.00597759425881], [34.86194584035832, 32.005708093794944], [34.86207346946723, 32.00542196200625], [34.862132009683684, 32.00529226050764], [34.86217737795605, 32.005188192332824], [34.862196384739704, 32.00514532775937], [34.862265247606516, 32.00499248945356], [34.86238708965521, 32.004710722655794], [34.86252445839223, 32.00439845443919], [34.86257766612156, 32.004279441825446], [34.862636640814344, 32.004147768994464], [34.862734549606714, 32.00392382671356], [34.86277137695233, 32.003844337355495], [34.862853605499325, 32.003663171204764], [34.86290192002756, 32.003556675803274], [34.86296211509147, 32.00342156751591], [34.86306431925567, 32.00319526476818], [34.86325339900104, 32.002780065111956], [34.864323391936395, 32.0008296563266], [34.86645219070329, 31.9962625640702], [34.86711880386044, 31.99477030647856], [34.867375463392776, 31.994231029588924], [34.867758351567446, 31.993552964089055], [34.868089002815765, 31.99315511415127], [34.87018712493072, 31.994456661356256], [34.870879570445155, 31.994940091599993], [34.87157338169481, 31.995265879036204], [34.87231874384084, 31.99549834558351], [34.873108048659326, 31.995718462494274], [34.874062001229795, 31.9959208017631], [34.87479184647228, 31.99594524129469], [34.87539960333499, 31.995965597171335], [34.87541122104625, 31.995966585445007], [34.87583800410821, 31.99590537660414], [34.87582812755644, 31.995900111551755], [34.87593934279345, 31.995897590362286], [34.876766594446785, 31.995842802648173], [34.87759197978745, 31.995707969655328], [34.87838137669635, 31.995509912563225], [34.87914470526399, 31.995248093832146], [34.87985069182918, 31.9949286338384], [34.88052714682482, 31.994542586471162], [34.88115152442733, 31.994106239954412], [34.8812797000643, 31.99400173167681], [34.88172991797007, 31.993626374070505], [34.88224678242048, 31.99310070716166], [34.883507274678706, 31.99191610112743], [34.883646374942124, 31.9918853021814], [34.884668923177564, 31.990769050133494], [34.885755277544405, 31.98966860570008], [34.88654019587071, 31.989038251038906], [34.8873130203211, 31.98824867005844], [34.887332976136676, 31.98823032309304], [34.88757244623334, 31.98800988871614], [34.887922209033974, 31.987809207953106], [34.88809172304465, 31.987746504195204], [34.888118953189775, 31.987735833550808], [34.88960229608453, 31.987057914579914], [34.890910215747475, 31.98660159176168], [34.89159945105143, 31.986354114955645], [34.892396794159076, 31.986067814607967], [34.89380933105352, 31.9854706103491], [34.89445970253061, 31.985235094047344], [34.89509188267595, 31.984888880624975], [34.896322455325894, 31.98406291786725], [34.896508203807116, 31.98401594729025], [34.89689883860472, 31.983748173796055], [34.898163838077444, 31.982850228551662], [34.90011647127386, 31.98165358597442], [34.90097229574001, 31.981007543920963], [34.90168704070906, 31.980580926421414], [34.90166560947579, 31.980162223403255], [34.901660801807786, 31.98006037991313], [34.90164816152646, 31.97979273533707], [34.901624733640986, 31.97929667089049], [34.90160863109786, 31.978861510630626], [34.901608241710115, 31.978851211066143], [34.901597009955786, 31.97855860020837], [34.90158831061099, 31.97833252438921], [34.9015615814823, 31.977835592876303], [34.90154374493151, 31.977478209241628], [34.901522178480754, 31.976997945450996], [34.90149971774977, 31.97658869681157], [34.90149604516005, 31.976448344286986], [34.9014719959407, 31.975908529949596], [34.901462165332966, 31.9756907452528], [34.901447682920235, 31.97531221759758], [34.90142219376701, 31.97487982032814], [34.901419678187274, 31.974786018224084], [34.901414973233116, 31.97443631668164], [34.90137424805887, 31.973871138693948], [34.901327993561836, 31.97295625705115], [34.90127865837609, 31.972073494814502], [34.901281217806314, 31.97204926483803], [34.9012519236187, 31.971657472057405], [34.90122223779778, 31.97145995752799], [34.90117735066832, 31.971161299548196], [34.901136709982765, 31.970953222984406], [34.900953988583225, 31.970269103073054], [34.900634600022606, 31.969374421840975], [34.90041069949167, 31.96884914618828], [34.90042370823061, 31.968814232263888], [34.900380413806786, 31.968709857000075], [34.900364668039884, 31.968672619696648], [34.90031350088691, 31.96854962575579], [34.900123163251514, 31.96867429561226], [34.89969031187285, 31.96905652595716], [34.899605976482206, 31.969166795020627], [34.89933135121323, 31.96943667785383], [34.89886256627929, 31.969935490376763], [34.898585427307786, 31.970314146095998], [34.898397304330196, 31.97064258216682], [34.89819661456317, 31.970930045543916], [34.89810654592321, 31.971101171772506], [34.89810112368965, 31.971118621598517], [34.89809414141579, 31.971141091934285], [34.898040941988675, 31.971327908341443], [34.897992792707015, 31.971404510753548], [34.895790730076726, 31.97098879158022], [34.89576472272274, 31.970983881498658], [34.89569373313737, 31.971167799542336], [34.89523353658206, 31.9711723084145], [34.89523370347195, 31.971122514600058], [34.895077295764736, 31.971117344988315], [34.895077681841805, 31.97117383697447], [34.8942386900097, 31.971182052585757], [34.89415791972911, 31.971044599043246], [34.894042047772814, 31.971053243710937], [34.89387146781314, 31.971065812596603], [34.89369909360187, 31.97107711433048], [34.893596643839935, 31.97108331185597], [34.893643354339986, 31.971167018893652], [34.893654661389135, 31.971187768310788], [34.892428582469215, 31.971199760003596], [34.89242711078209, 31.971154054862748], [34.89240815966338, 31.971155201093083], [34.89196157070965, 31.97116057916721], [34.891959012168556, 31.97120434967873], [34.890398197778325, 31.9712195916711], [34.890059538240905, 31.971218345927618], [34.883967729724304, 31.971153162494254], [34.883673559966304, 31.971290601405006], [34.883262765705034, 31.97148252655642], [34.88257794486233, 31.97131510769532], [34.88250228232351, 31.97129661013234], [34.882310744155696, 31.971110660413398], [34.88225320255598, 31.97110791900385], [34.88211083946749, 31.97109947205022], [34.88198899214059, 31.97109029427464], [34.88191800576087, 31.97108411694906], [34.88186734784833, 31.9710793331232], [34.8817762700216, 31.971069942934], [34.88159778598101, 31.97104858531268], [34.88139788753257, 31.971019969318935], [34.8812273669581, 31.970991586520594], [34.88107181027158, 31.970962457034464], [34.880875003664784, 31.97092110555589], [34.8807771377752, 31.970898642788484], [34.880749246690236, 31.97089200652608], [34.88051456413099, 31.97083573040343], [34.8803782079467, 31.970799737603098], [34.88024408873002, 31.97076242290821], [34.88017119374117, 31.970741336465867], [34.87997442996247, 31.970681440740826], [34.879820272227256, 31.970631420226827], [34.87969773424352, 31.97058967963795], [34.87958604520594, 31.970550078722763], [34.87948773085379, 31.970513974881694], [34.87940398139318, 31.970482247749427], [34.879073007036006, 31.97034793973072], [34.878968051355784, 31.970302280953746], [34.87889848673441, 31.97027117422166], [34.87882873021079, 31.970239300423138], [34.87870538971094, 31.970181230499804], [34.8785842708128, 31.97012201184515], [34.878444102925954, 31.970050916060927], [34.87813952612779, 31.97036656340831], [34.878092239037514, 31.97035049972103], [34.878060372164384, 31.970335032974035], [34.87803081806005, 31.970316533074524], [34.87802073537146, 31.970309566843813], [34.877300556786835, 31.96997296058105], [34.87663447338528, 31.969625906303122], [34.87690008408042, 31.969359065234325], [34.876725238915775, 31.96922168979356], [34.87654726136695, 31.96908185257851], [34.876409776450885, 31.969219546033084], [34.87634263730448, 31.969280506340926], [34.87625630421093, 31.969365765161985], [34.87572166216241, 31.969893749604037], [34.875416264277725, 31.970195333456015], [34.87534835090555, 31.970262398304293], [34.87529868055477, 31.970311447977583], [34.87505034637848, 31.970556677900326], [34.87461862476774, 31.970982998550667], [34.87446352192621, 31.9711361596761], [34.87383220740957, 31.971759563548737], [34.87294573793021, 31.972634905441748], [34.872703880867356, 31.97291327778943], [34.87236950726654, 31.97307761462249], [34.87209464353403, 31.973168158220002], [34.871818052305336, 31.973238856947415], [34.87164032431616, 31.973266076644876], [34.87155885983537, 31.973272288442665], [34.87156180073735, 31.97329315944925], [34.87127998029531, 31.973311727886436], [34.87100775436314, 31.97331593708159], [34.87072054669967, 31.973299987008247], [34.87048623751645, 31.973266265565442], [34.87045723843033, 31.973260607098698], [34.87023187000387, 31.973217881623416], [34.87005367690868, 31.97312229644714], [34.86986150497822, 31.972998120818946], [34.869506736514815, 31.972768878638682], [34.869091294296446, 31.972500427944087], [34.86845976130377, 31.972016356433926], [34.86839221517099, 31.97197492622867], [34.868342727606546, 31.971946613772793], [34.86824691097378, 31.97188492450449], [34.86771339451102, 31.9715464603732], [34.867675463451775, 31.971522123711246], [34.86681467280314, 31.97099791690631], [34.866619574796644, 31.970874526769958], [34.866140793105714, 31.970578473842977], [34.865955899347036, 31.970467509718482], [34.86568508262291, 31.97030971523349], [34.86515754591798, 31.96998077037054], [34.86507120692455, 31.9699268821139], [34.86421044401108, 31.969394316003886], [34.86362886073186, 31.96903627194421], [34.86350378426019, 31.968959192376712], [34.86335274227112, 31.968866261312975], [34.86249875797997, 31.968336858126083], [34.861645731584986, 31.9678085339465], [34.861521186041045, 31.967731814581075], [34.86123689128265, 31.96755306652868], [34.86123019182527, 31.967143785132087], [34.86177492771803, 31.966404901654016], [34.86180887441001, 31.966358855005346], [34.8630286743781, 31.964704252748042], [34.86308215160375, 31.964631711747174], [34.86569897094527, 31.965433921977272], [34.86657694929417, 31.96548409422731], [34.86820791122749, 31.96557727962277], [34.868288653544155, 31.965174489111813], [34.86955090632784, 31.958877146091563], [34.86956161486893, 31.958787258861836], [34.869579528967854, 31.95869820937874], [34.86960456424819, 31.958610416967584], [34.869636602801556, 31.95852429503282], [34.86967549374318, 31.95844024911205], [34.86972105392255, 31.958358674965925], [34.86977306878642, 31.95827995671475], [34.86983129338917, 31.958204465030242], [34.869895453546626, 31.958132555389515], [34.86996524712706, 31.958064566401944], [34.87004034547432, 31.958000818214373], [34.8701203949554, 31.957941611003978], [34.870205018625455, 31.95788722356507], [34.87027183720264, 31.957849436674167], [34.87033826149283, 31.957813762387193], [34.870744562223415, 31.95759557090967], [34.870896873299564, 31.957513775180235], [34.87142637785416, 31.957229416155688], [34.87145415614194, 31.957211623479637], [34.87147814380138, 31.95719019435888], [34.87152303929511, 31.957051234282044], [34.87151530515805, 31.95702235576585], [34.87150213101999, 31.956994946010184], [34.87148387223653, 31.95696974434849], [34.87139901754369, 31.95687166739859], [34.871375530359714, 31.956844286401275], [34.8713638514357, 31.956830557292744], [34.871352217044986, 31.956816799442095], [34.87134062718069, 31.9568030146528], [34.87132907972123, 31.956789204723137], [34.87131757678821, 31.956775367854792], [34.87130611626645, 31.956761504042518], [34.87129470026479, 31.956747615095278], [34.87128332879608, 31.95673369740589], [34.87127200184114, 31.95671975638537], [34.87126071941257, 31.95670578842613], [34.87124947939522, 31.956691793523106], [34.87123828601335, 31.956677773490657], [34.87122713503605, 31.956663728317878], [34.871216028585295, 31.95664965620665], [34.871204968769945, 31.95663555896607], [34.87119395347473, 31.95662143659092], [34.871182982699445, 31.95660728908082], [34.871172054328554, 31.9565931164303], [34.87116117259323, 31.95657891865075], [34.87115033749329, 31.95656469574185], [34.87113954479787, 31.95655044769273], [34.87112879873777, 31.95653617451435], [34.87111809719112, 31.956521878004875], [34.87110744228643, 31.956507554562712], [34.871096831888565, 31.956493209592963], [34.87108626813255, 31.956478837690465], [34.87107574888997, 31.95646444245695], [34.8710652741606, 31.956450023892295], [34.87078090699708, 31.956017404913386], [34.870599329750846, 31.95553888577762], [34.870955559615524, 31.95549399411576], [34.871582682921904, 31.95572952123715], [34.87152033398066, 31.955654078005615], [34.87151876069591, 31.955651217326906], [34.87149343626183, 31.955605170283473], [34.87147646923849, 31.95557431936774], [34.8714358473135, 31.95550045696229], [34.871371300338105, 31.95534657973852], [34.87133554644824, 31.955266696351206], [34.87131642384772, 31.95522397148196], [34.87123809390499, 31.95504896155098], [34.87118424006619, 31.954985173644182], [34.871153472611425, 31.954948730666963], [34.871107600705415, 31.954845199107158], [34.87109381922964, 31.954814094668077], [34.870878508353165, 31.954328140612596], [34.870861825054035, 31.954290486379513], [34.87085401080972, 31.954272849606234], [34.870758092745696, 31.9540563616569], [34.87066988646971, 31.953857278327796], [34.870646045679635, 31.95380346903055], [34.870613580793986, 31.953730194812557], [34.870575784113484, 31.953598552134807], [34.8704330604235, 31.95327511861686], [34.87041487533599, 31.95323390827819], [34.870405296116665, 31.95321220020782], [34.87031865038881, 31.95301584638933], [34.87019499692274, 31.952735625258303], [34.870162695843845, 31.95266242486939], [34.870014318105135, 31.952326171100104], [34.87001426776019, 31.9523260537323], [34.87001219055327, 31.952321344424178], [34.87001011969927, 31.952316633329065], [34.8700080509609, 31.95231192223952], [34.870005988575464, 31.952307209363074], [34.87000392830563, 31.952302496492102], [34.8700018722799, 31.95229778002509], [34.86999982048514, 31.95229306356913], [34.86999777292793, 31.952288345320728], [34.86999572748633, 31.95228362707783], [34.869993688397685, 31.952278907047972], [34.869991653546535, 31.952274185225697], [34.86998962081753, 31.95226946160531], [34.86998759231956, 31.952264737996042], [34.869985568059114, 31.952260012594266], [34.86998533132767, 31.952259458022695], [34.869949819674545, 31.952174746145896], [34.86994787165715, 31.952169997497236], [34.86994592787082, 31.95216524885966], [34.86994398832849, 31.952160496626018], [34.869942050901784, 31.952155744397963], [34.86994011982145, 31.952150992186525], [34.86993819086325, 31.952146238177036], [34.86993626614256, 31.95214148237507], [34.869934347774816, 31.952136724786165], [34.869932431522614, 31.952131967202817], [34.8699286117243, 31.952122448462248], [34.86992670606277, 31.9521176872995], [34.86992480675414, 31.952112924349755], [34.86992101872751, 31.952103394870917], [34.8699172476379, 31.952093861829315], [34.86991349137639, 31.952084323415804], [34.869911619595364, 31.952079553323934], [34.86990975205192, 31.952074781439528], [34.86990788874593, 31.95207000776267], [34.86990417271803, 31.952060458633092], [34.869902322111535, 31.952055683185964], [34.869889471669346, 31.95202221564911], [34.86980403170481, 31.951825157014355], [34.86977368943457, 31.95175517542234], [34.86968094978592, 31.951541279447365], [34.86958839877095, 31.95133969150135], [34.86956695410955, 31.951289803390484], [34.86953302067282, 31.95120619492536], [34.8694702886914, 31.951034850289222], [34.869438999074255, 31.950931945632036], [34.86940769665469, 31.95082899863544], [34.86938233543989, 31.95072829014694], [34.869369173747764, 31.950676025444697], [34.86935740677531, 31.950629299083747], [34.86935516714178, 31.950620403134664], [34.869347535414654, 31.95059002299778], [34.86933694202992, 31.950547853154777], [34.869299497262354, 31.950398784401404], [34.86929564308853, 31.950383440972594], [34.86929227869995, 31.950370047369862], [34.86926647330992, 31.950267316198385], [34.86925824059624, 31.950231683807704], [34.869248722126926, 31.95019048026252], [34.86924172218605, 31.950160178898344], [34.86922541451003, 31.95008958610617], [34.869203485426006, 31.949994659148896], [34.869129817680545, 31.94967576363841], [34.86911225455464, 31.94959973543833], [34.869096607801914, 31.949532002831035], [34.86907996566138, 31.949450506070114], [34.86907735984486, 31.9494377453426], [34.86904721833496, 31.949233166049158], [34.86903852684747, 31.94916844250845], [34.869018633678905, 31.948993950292905], [34.86900719613037, 31.94882568457428], [34.86900078235036, 31.94873132675123], [34.86899945901097, 31.94871233176589], [34.86899864855224, 31.948700698577166], [34.86899184368017, 31.94860302247747], [34.86898935296608, 31.94856498027948], [34.86898121699638, 31.94844071444127], [34.868980780017445, 31.94843404017524], [34.86898976957928, 31.948477158409865], [34.86901521772291, 31.948585596982696], [34.869016750174566, 31.94859212699394], [34.86902910820875, 31.948644786435956], [34.869036741290024, 31.948677312112824], [34.86904796918923, 31.948724046603747], [34.86914155848562, 31.948719270627343], [34.869878037438966, 31.948652449742458], [34.87007666349681, 31.949022151265023], [34.870239222558276, 31.949312285562584], [34.87059022925167, 31.949269245455856], [34.87078139627314, 31.949234802670023], [34.87072170704298, 31.94905992016511], [34.870936016052056, 31.949023847053397], [34.87169152119588, 31.94890577516995], [34.87174654016858, 31.948909301088488], [34.871719462911415, 31.94883324188827], [34.87161405399651, 31.948587464099052], [34.87157319968027, 31.94847800456462], [34.871505599182285, 31.948296884329636], [34.87136879830623, 31.947930355073073], [34.87113373411059, 31.947300542790103], [34.871106870881604, 31.947228567030034], [34.871917988697184, 31.946999340916143], [34.87185524670891, 31.94683117695965], [34.8718095007684, 31.946708566187233], [34.871321867478066, 31.94540156363524], [34.87124906767943, 31.94520643516328], [34.87095312406072, 31.944413195722916], [34.87247013623194, 31.943967582355462], [34.87230201430506, 31.94384652566096], [34.87202719879347, 31.943663190078276], [34.871885255588005, 31.943569255662393], [34.8715839500996, 31.943375248976878], [34.8715751021712, 31.94337935247718], [34.87154459929247, 31.943384456148074], [34.8715169797738, 31.94337010629125], [34.87148284521203, 31.94334642184131], [34.87142984905993, 31.943303446898465], [34.87141676203882, 31.943283263428196], [34.87140037250241, 31.9432579877899], [34.871376755863004, 31.943234607743936], [34.870944068607, 31.943042046874577], [34.87081588824126, 31.942981401671858], [34.87077689578841, 31.942972532748723], [34.870742705638406, 31.94296491191063], [34.87057014488386, 31.942905274419928], [34.87016715389914, 31.94279486186304], [34.87010572767099, 31.942780174731283], [34.86990111613875, 31.94273131608399], [34.86957213249292, 31.94266049304236], [34.86852998365054, 31.94247672719415], [34.867840353432626, 31.942348702613078], [34.86775591150979, 31.94233598833177], [34.86751968818894, 31.942297968400432], [34.86742059664351, 31.9422826561098], [34.867248054961266, 31.942250602360247], [34.86671562571454, 31.94215146044406], [34.866448329141065, 31.942098693360958], [34.86610203560758, 31.942035072155054], [34.86592770756211, 31.94200473972565], [34.86542543958931, 31.9419173674655], [34.8652132793215, 31.941879123399328], [34.86509711335354, 31.941858183293615], [34.86498326625669, 31.941837660504426], [34.86438861023573, 31.941730464319082], [34.864146559844194, 31.941701796845788], [34.86409347488957, 31.941697307894348], [34.86395092436167, 31.941685355635688], [34.86391544396686, 31.94168203204302], [34.86385895521717, 31.941751355126385], [34.8637283770376, 31.94191160037492], [34.86358237779992, 31.94208037033402], [34.863391418782975, 31.942323851660483], [34.86330614878795, 31.942423011237647], [34.86299976103159, 31.9428040597239], [34.8623993454711, 31.943550766703076], [34.86218161671136, 31.94382154398426], [34.86201489800853, 31.94402888077184], [34.86159975950758, 31.944448644826785], [34.86115179468206, 31.944892370043462], [34.8609377554805, 31.945107702771526], [34.86023565331892, 31.945821830254417], [34.859946659817474, 31.94611243059365], [34.85948590344742, 31.946575747455462], [34.85929973614535, 31.946768400363876], [34.85922061935124, 31.94685457873279], [34.858806529053815, 31.94734070038895], [34.858425034563176, 31.94790500615956], [34.85799915075987, 31.94860031274883], [34.85773714362833, 31.94908531239408], [34.85716477425876, 31.95019874574381], [34.85701387050599, 31.950499676198437], [34.85680281800329, 31.950920551086238], [34.85674009748751, 31.951045627153526], [34.856729640853004, 31.951066479916186], [34.85669520489204, 31.951135154890927], [34.856491894978085, 31.95154059971252], [34.85631260969074, 31.951934649843164], [34.855416520151024, 31.953642637665524], [34.85532674603345, 31.95381374718764], [34.855193008475624, 31.954068649040927], [34.855138232401856, 31.954173051379477], [34.85455773257574, 31.95518229057478], [34.85443208741494, 31.955411380645284], [34.85430248047193, 31.955647692160557], [34.85419602108226, 31.955841797813882], [34.85415607911946, 31.9559146241032], [34.854112302457814, 31.955994493745], [34.8540058081193, 31.956183940386744], [34.85379142419974, 31.956565286052697], [34.85358536437469, 31.95693182138378], [34.85351858211657, 31.95700288871999], [34.85316779847533, 31.957630461094162], [34.85284715515782, 31.958189010326883], [34.85267264375438, 31.958485844089836], [34.85248947169271, 31.958778929124524], [34.85212746875252, 31.95917463055289], [34.85168568938121, 31.959646420290742], [34.85133885841225, 31.960025676489], [34.85125424498291, 31.96011971614651], [34.85109617785388, 31.960303532833546], [34.850976938890234, 31.960440938561113], [34.850927891961476, 31.960496123411104], [34.85077402221894, 31.96066965903653], [34.85069088709483, 31.960763249713857], [34.850602900106985, 31.960869134683364], [34.85053977723587, 31.96094398374538], [34.85068386436293, 31.961026512842057], [34.85072377213335, 31.961050296459895], [34.85057329323017, 31.961221688652238], [34.85056794514999, 31.961228254237046], [34.85053756257201, 31.961266354794624], [34.850518678117005, 31.96129183683831], [34.850387934079876, 31.961467637730635], [34.84984375321305, 31.96220412769802], [34.849742018892144, 31.96234238910643], [34.849047203729526, 31.963314893126658], [34.84902648292317, 31.963343907172803], [34.8487105468903, 31.96378628987667], [34.848572681687976, 31.963982430748082], [34.848394207063215, 31.964232232850673], [34.84828352185074, 31.964387152649564], [34.848235408871496, 31.96444688684046], [34.84800326012885, 31.964763144724124], [34.847836321589284, 31.964996925712374], [34.8477349877097, 31.965141939278304], [34.8473304898042, 31.965713567658426], [34.84689800368435, 31.966268652485187], [34.846660300551186, 31.966539299509375], [34.84641527147778, 31.96682162184304], [34.84605134463599, 31.967189803688203], [34.84579775582673, 31.96744327167847], [34.84552075659734, 31.96772288306758], [34.84515004518087, 31.96809610580542], [34.84453873734888, 31.968707925472327], [34.84432532336726, 31.968920215108902], [34.844027409606745, 31.969222406356838], [34.84373505438805, 31.969525371995175], [34.84327076519246, 31.969981718580566], [34.84251376004379, 31.97106116614269], [34.84212362337122, 31.971615227457477], [34.84207873617502, 31.971680480253667], [34.84158914864825, 31.972420005335092], [34.841548870701175, 31.97247623591699], [34.841300375715235, 31.972466772454013], [34.84091526087273, 31.97300168087352], [34.84060561322333, 31.973429151359586], [34.84049415143605, 31.973608629295402], [34.84027741305776, 31.973991274980147], [34.84021796808718, 31.97410044832417], [34.84020109904225, 31.974144362927134], [34.83999343486555, 31.97457268799985], [34.83992949672044, 31.97468917546269], [34.83984421218978, 31.974852946350676], [34.83975339453527, 31.97503642826529], [34.839713096887216, 31.975110711408618], [34.83955549960399, 31.975417999475916], [34.83936697977994, 31.975602327490726], [34.83803086781125, 31.97712252814468], [34.83747027720957, 31.977792189613748], [34.83673098773756, 31.97883163440741], [34.836700855631015, 31.97888176229091], [34.836870671993246, 31.97898210549925], [34.83569453942103, 31.98072289278016], [34.835378237499675, 31.98118198104748], [34.83528158753434, 31.98133162490722], [34.83523853655228, 31.981390116951935], [34.83510446877929, 31.981594887318945], [34.83498340863234, 31.98177151402592], [34.83477837688652, 31.982069075979155], [34.83465615121081, 31.982247389842755], [34.834288262852475, 31.982795290579418], [34.833981060553775, 31.983256568719366], [34.833872316385445, 31.983411812410534], [34.83370852403303, 31.983648057550806], [34.83353558801136, 31.98389667554625], [34.83336362884583, 31.984148677910618], [34.8329981060366, 31.984680236403495], [34.83277211646784, 31.985005914939823], [34.83251222184222, 31.985375456610967], [34.83245598712898, 31.985462402399264], [34.83196940691201, 31.986178313843595], [34.83193489639594, 31.986213842805167], [34.83115412136083, 31.98735028575018], [34.83142391344121, 31.987505050201996], [34.83186591176781, 31.987269284434305], [34.83219055728001, 31.987451122805176], [34.83301598881146, 31.987782472279804], [34.83267188579613, 31.988329557566924], [34.83392426574733, 31.988823211464307], [34.83393018772143, 31.988845142698292], [34.83402783999421, 31.98920678321906], [34.834351900309215, 31.990406871299225], [34.83449946521512, 31.990927679204216], [34.83544961928626, 31.99428096020427], [34.83548191462476, 31.99439493245811], [34.83518653130711, 31.994950721701514], [34.834838976554146, 31.995627983042034], [34.83469610637163, 31.995906383299154], [34.83425378718146, 31.996768285168056], [34.8342621867518, 31.99679792558459], [34.834468349234314, 31.99752542598629], [34.83458815157918, 31.997500770651637], [34.83498930070713, 31.99741821319837], [34.8352805269364, 31.99735827725173], [34.83568169854785, 31.997275712719972], [34.8361885892905, 31.99717138826028], [34.83631486961872, 31.997440983625342], [34.83646631310753, 31.99776429748596], [34.83655075648214, 31.997944573002435], [34.83670375925132, 31.998271211893528], [34.836856763095284, 31.998597850591413], [34.83700976801404, 31.99892448909612], [34.837162774007645, 31.99925112740757], [34.837315781076086, 31.9995777655258], [34.83746878921943, 31.999904403450888], [34.837621798437624, 32.000231041182644], [34.83777480873078, 32.00055767872121], [34.83792782009893, 32.00088431606654], [34.837950840506366, 32.00093345811349], [34.83795251633361, 32.00093703552758], [34.837992743074864, 32.001022908079264], [34.838009691381025, 32.001059087799035], [34.83787594781625, 32.0011099482177], [34.83758975242251, 32.001199661992295], [34.837335096876046, 32.001288384205026], [34.837276645387604, 32.001308328623104], [34.83705808820906, 32.00138290289581], [34.836954829641485, 32.0014287761181], [34.83689747600447, 32.001454130980164], [34.83644246128484, 32.001655537114885], [34.83641232917036, 32.00168041067816], [34.836329572986315, 32.00175197564099], [34.83619550857742, 32.00185470940797], [34.83597526524964, 32.0020069027936], [34.835930187765605, 32.002038156369714], [34.835733999059485, 32.00217269879447], [34.83552813748759, 32.002281501542186], [34.835187078335494, 32.00244322416792], [34.83502728105703, 32.002521011026936], [34.83492333306447, 32.00257699065956], [34.834867990361325, 32.00259195448937], [34.83492751618773, 32.002648573365214], [34.835249570997014, 32.0029437341474], [34.835253655805396, 32.00294747858582], [34.83533689125052, 32.00301432864303], [34.83547560283996, 32.00312573472117], [34.835789587888094, 32.003377908870895], [34.83579341843863, 32.00338146588043], [34.83605701217614, 32.00362625870977], [34.836302060645046, 32.00385382599671], [34.83630132246886, 32.00388150733457], [34.83629976070134, 32.003939971054805], [34.83641539539343, 32.00405455743198], [34.83659557322034, 32.00422928795102], [34.836678534147715, 32.00431135782263], [34.83676311750934, 32.00439530808627], [34.83829666441956, 32.00591871481446], [34.83821396330773, 32.005978754292606], [34.83748343175867, 32.00649821528158], [34.83712868327012, 32.00675528679946], [34.83580954560474, 32.00771689515143], [34.835717919012374, 32.00776592852332], [34.835570789349255, 32.007637391135496], [34.83529620672087, 32.00740279906191], [34.83500085220889, 32.00715506890688], [34.8346291166119, 32.00679832678995], [34.834494400535846, 32.0067205226377], [34.83440147157441, 32.00663988862479], [34.83416213500229, 32.00644771926268], [34.833931137104706, 32.00624840087807], [34.83395012052698, 32.006226505588415], [34.833556464137686, 32.00589530021883], [34.833524908974816, 32.00586775086361], [34.83342211378173, 32.00577618438581], [34.83200491303508, 32.00559430564022], [34.83059177396862, 32.00538983495483], [34.82924857996501, 32.00521235875424], [34.82887443030959, 32.005164168598526], [34.82770204756591, 32.00501796164752], [34.82752678192106, 32.00499594421181], [34.82741318041247, 32.00497011890052], [34.827278643791935, 32.00494168259472], [34.827117260539566, 32.00489277609483], [34.8269857997812, 32.0048439584058], [34.82686936317678, 32.00477989265546], [34.82674998667384, 32.004703074080304], [34.82663369673584, 32.00460332569661], [34.8265144461172, 32.004495922134616], [34.8263550473023, 32.00433830252753], [34.825958828854475, 32.00391147607862], [34.8253797398655, 32.003293613938034], [34.82463231216838, 32.00241460068696], [34.824507156016885, 32.00228933599024], [34.824424806912376, 32.002229309619246], [34.82429944098958, 32.002155019716696], [34.82418892027644, 32.00210881053107], [34.8240006668903, 32.0020470757089], [34.82314140909944, 32.00176590825458], [34.82258558773801, 32.00159092024772], [34.82209857709103, 32.00141868583048], [34.82190134996478, 32.00135692086074], [34.82178976379257, 32.0013372919888], [34.8215893756148, 32.001316297327], [34.82145481421131, 32.001295501042804], [34.821374121938995, 32.001272318581414], [34.82130223090308, 32.001252128253896], [34.82104634242799, 32.00167857307577], [34.82089023374857, 32.00190040952378], [34.82013183660211, 32.002990007367366], [34.8197670226766, 32.003441353074365], [34.81947860445481, 32.00378666137172], [34.819264582494064, 32.0040322754088], [34.818391213305304, 32.005069369375164], [34.8183601048193, 32.005052807859634], [34.81806700917681, 32.00541020073035], [34.81807514237083, 32.00541650202228], [34.81805570969718, 32.00544473230417], [34.81758842786538, 32.00605793903852], [34.81703884322258, 32.006812258780684], [34.81664411908847, 32.007364856992545], [34.81652284727111, 32.00754002151884], [34.81644863489874, 32.007653457387356], [34.81631706522934, 32.007833505020415], [34.816189007684706, 32.00800878372077], [34.815119074087185, 32.009473363552615], [34.81478921381644, 32.00995583684019], [34.814728459932475, 32.01004469843635], [34.81438367896456, 32.01053228618073], [34.814650182494574, 32.0109924504309], [34.81545643130939, 32.01206322409995], [34.81601345174948, 32.012730564509525], [34.81660004327721, 32.013250074241064], [34.81764773154169, 32.014042718442376], [34.818713590212674, 32.014999740178176], [34.81931311792365, 32.01561375610828], [34.8196982573505, 32.0160461748824], [34.81997517167683, 32.016377365859874], [34.82028395158398, 32.016781669844924], [34.820995440601926, 32.01777185546435], [34.821080024078746, 32.01790151312507], [34.82114859701265, 32.018001243438725], [34.82121763837112, 32.01809568087071]]]}}]}