{"type": "FeatureCollection", "name": "גושים", "features": [{"type": "Feature", "properties": {"OBJECTID": 5, "GUSH_NUM": 6839}, "geometry": {"type": "Polygon", "coordinates": [[[34.85472628129209, 32.00324618927967], [34.85478040642536, 32.00327190631843], [34.854893712946385, 32.00332929532457], [34.85506539551083, 32.003415062346235], [34.85509899495991, 32.00343190852385], [34.85523320123315, 32.00349959742728], [34.85534793368153, 32.003557587846785], [34.8554642741993, 32.00361687757233], [34.85554307080868, 32.003656567014914], [34.855607813019944, 32.003677316912395], [34.85585653079046, 32.003794342746254], [34.8559091057869, 32.00381707910025], [34.85604762352878, 32.00389208448024], [34.85614614208196, 32.00394436995322], [34.85623226229634, 32.00399033126081], [34.85645495452729, 32.00410772277667], [34.85677381978731, 32.00427642212095], [34.856805822484006, 32.004293373491734], [34.85698890348105, 32.00439034967647], [34.85688024641235, 32.00447834839421], [34.856816136615436, 32.00453266503567], [34.85668948328147, 32.00463732286133], [34.85678804132101, 32.00466767162074], [34.8570898727728, 32.00476216925797], [34.857342251210184, 32.00483806472055], [34.857642490929365, 32.00492893505622], [34.8577706967628, 32.004968678788885], [34.857909664595844, 32.00501182722696], [34.85801992034509, 32.00504459945651], [34.85825329794785, 32.005116358777904], [34.85851615695531, 32.005200645614], [34.85885131397088, 32.00530336597029], [34.85926566460605, 32.00543152338804], [34.859415972036444, 32.00547795202054], [34.859897693459686, 32.00562798699458], [34.860300231002675, 32.00575242149524], [34.86050127985763, 32.00581412409535], [34.86063682687493, 32.00585577591335], [34.86088300828385, 32.00593057350734], [34.86108473438233, 32.005993360983545], [34.86122370436631, 32.00603648416022], [34.86143353594718, 32.00609917757669], [34.86161601835013, 32.006138026169914], [34.86174223431492, 32.00616537337385], [34.86182580286285, 32.00597759236857], [34.86194514032789, 32.00570809190536], [34.862072769438974, 32.0054219601174], [34.86213130965641, 32.00529225861913], [34.86217667792955, 32.00518819044457], [34.86219568471352, 32.00514532587121], [34.86226454758148, 32.00499248756581], [34.86238638963233, 32.004710720768735], [34.862523758371744, 32.0043984525529], [34.86257696610194, 32.00427943993947], [34.86263594079574, 32.00414776710884], [34.86273384958979, 32.003923824828455], [34.86277067693602, 32.00384433547058], [34.86285290548438, 32.00366316932032], [34.862901220013406, 32.003556673919086], [34.862961415078345, 32.0034215656321], [34.863063619244244, 32.003195262884944], [34.86325269899276, 32.00278006322976], [34.86316303002255, 32.0025515308994], [34.86309407752888, 32.00237580965312], [34.863046321444486, 32.0022404108597], [34.86297089801517, 32.002026138123895], [34.86283341443313, 32.001635720601506], [34.862888775463354, 32.001652138135846], [34.86332008912287, 32.001780010561454], [34.86355928009349, 32.0012710358571], [34.863860408954935, 32.00063027517483], [34.86387583271659, 32.00059746390825], [34.86347041624348, 32.00045616297402], [34.86345316773823, 32.00045012865859], [34.86325727170852, 32.000381849699075], [34.863061471013594, 32.00031362480215], [34.86286567067791, 32.00024538156852], [34.862669870668135, 32.00017712901603], [34.86247406033495, 32.00010888515208], [34.862278260876664, 32.00004064101575], [34.86227073583882, 32.000038014516434], [34.86208247236035, 31.999972378571236], [34.86188669468548, 31.999904124872362], [34.86172487498512, 31.999847713072345], [34.86167348926514, 31.999829799758754], [34.86160816225296, 31.99981014435446], [34.86192633649467, 31.99935559329441], [34.86184483966257, 31.999305210536747], [34.86164142501804, 31.999180663364456], [34.86152944818721, 31.99910088948223], [34.861166373308954, 31.998869384589536], [34.86111365456856, 31.998834789507136], [34.861082784140585, 31.998813883363628], [34.860904893717326, 31.998700558464176], [34.86058268382615, 31.998493712290426], [34.86038809523003, 31.998373127900088], [34.86023941951944, 31.99827613265396], [34.86014182702557, 31.99821630926286], [34.85992630533524, 31.99807824364079], [34.85985345079077, 31.998032783460467], [34.85954487397071, 31.997833446709365], [34.85921424429853, 31.997624123977126], [34.858894040470055, 31.997421077362407], [34.858782277470965, 31.997060906834857], [34.85870589353594, 31.996812203416265], [34.85867338063368, 31.996708728562897], [34.85861576136326, 31.996657488041873], [34.858356419962355, 31.9964328021109], [34.858335702339936, 31.9964147357073], [34.85805187044288, 31.996164865345925], [34.85775472684326, 31.99590399837251], [34.85764233926647, 31.995804281969452], [34.85739058458641, 31.995951417267573], [34.85718143444507, 31.996071127590398], [34.856656371637975, 31.996372190461624], [34.856334466056325, 31.996557062091888], [34.85612382301087, 31.9966751424064], [34.85585118466974, 31.99683267819812], [34.855640972031956, 31.99695358062298], [34.855552874845735, 31.997002289200996], [34.85549138093893, 31.99703823100613], [34.8552577219599, 31.997169587841867], [34.855068800472864, 31.99725304552851], [34.85510485466754, 31.99731852546384], [34.85516609563084, 31.99743401923945], [34.85519869149314, 31.997498989128136], [34.85522081061721, 31.99755259452081], [34.855245896542364, 31.997637331981444], [34.855258251108204, 31.99768627703649], [34.85526752290827, 31.997726883658604], [34.855268664107385, 31.997755818424753], [34.85527371001923, 31.99786132515791], [34.855293092732104, 31.998135300970365], [34.855300167116106, 31.998201758019718], [34.855305829093304, 31.998242988671493], [34.85531626787892, 31.99832474323065], [34.855324147558235, 31.998384510217004], [34.85532781101135, 31.998420310125613], [34.85533729459082, 31.99849191677669], [34.85538012229705, 31.998770258642036], [34.85540243192887, 31.998909460886626], [34.85544618637322, 31.99920781805762], [34.85546084827554, 31.999307609430804], [34.8554752615412, 31.99941354319385], [34.8554835736037, 31.99946145986527], [34.855499317513555, 31.999545216555358], [34.855517209055975, 31.99964982610899], [34.855542350473186, 31.999796429973863], [34.85556579004378, 31.999916265467704], [34.855580496494284, 31.999984504686093], [34.85558571114285, 32.000135570879266], [34.85558461092022, 32.000294809875186], [34.85557857288135, 32.00048646409497], [34.85555152927567, 32.00080055593548], [34.855545346406416, 32.00084819827129], [34.85552330770301, 32.00100451104514], [34.85551403279953, 32.001042304412444], [34.855498311858284, 32.001099131522174], [34.85546990763541, 32.001192538713816], [34.85541658572406, 32.00132830263687], [34.85536834272675, 32.00142652225877], [34.855324061361806, 32.00150502674467], [34.855294121540815, 32.001551443080125], [34.855230426653335, 32.00164736652577], [34.85512224078308, 32.00181136533378], [34.85507500455634, 32.00188394306642], [34.85496532140611, 32.00202849295875], [34.85488969472632, 32.00212917463453], [34.854835166217505, 32.00220212987918], [34.85479688278599, 32.00225263441663], [34.85473584094012, 32.00232461034871], [34.85462842596543, 32.00245096872847], [34.85457418939887, 32.002515216862726], [34.85448993916965, 32.0026119453617], [34.85429162344265, 32.00279721452192], [34.854254747863536, 32.00283189525221], [34.85415937256818, 32.00292102760733], [34.85412035290078, 32.002955958490375], [34.854201711902405, 32.00299611034746], [34.854238431350836, 32.00301199773117], [34.85431147383241, 32.00304812166413], [34.854404930256266, 32.00309163622241], [34.85472628129209, 32.00324618927967]]]}}, {"type": "Feature", "properties": {"OBJECTID": 7, "GUSH_NUM": 6837}, "geometry": {"type": "Polygon", "coordinates": [[[34.84959903231081, 32.004169615458295], [34.84947971085084, 32.00417533551425], [34.849265276266195, 32.00418713523702], [34.848947129126415, 32.00420709846322], [34.84873530669185, 32.00418480569874], [34.848633150702575, 32.00417521900864], [34.84833867004373, 32.00414733887849], [34.84797582936945, 32.00411266124982], [34.84789347506111, 32.00410454271394], [34.84776383255307, 32.00409151977884], [34.84771892893779, 32.004054573005384], [34.84764297904493, 32.00413157619477], [34.847450160452304, 32.00421924084155], [34.84719331424342, 32.004336598007676], [34.84687393442385, 32.0044822410935], [34.84642945405157, 32.004685898633475], [34.846456620319806, 32.00470864475549], [34.8468110361385, 32.005013596217424], [34.846970922782276, 32.0051301112574], [34.84716408795746, 32.00526698237049], [34.847251647937775, 32.0053283565663], [34.8472641325644, 32.00533717976142], [34.84728238614339, 32.00535008180748], [34.84746094809929, 32.005477496559315], [34.847867874619105, 32.00576822979862], [34.84794042310651, 32.005820885104846], [34.848076524780176, 32.00591738768933], [34.84819091596568, 32.005999460778746], [34.8484915125733, 32.00621186690554], [34.848620026236915, 32.00630477919279], [34.84871884652953, 32.006373866393645], [34.84878618556068, 32.00642055833153], [34.84894410024226, 32.00652855505794], [34.84907969460799, 32.00661911137349], [34.8493867627804, 32.006825198349624], [34.849401118438706, 32.00683497796976], [34.849405446442276, 32.00683787584305], [34.84947264827953, 32.00689343444056], [34.84963775151538, 32.007030068162756], [34.849681446378206, 32.00706130247032], [34.849986361529375, 32.00727921810985], [34.85007786814103, 32.00734458373014], [34.85028272610036, 32.00749178852382], [34.85054721663895, 32.007681814505375], [34.850870099220614, 32.00790717289743], [34.85118251482784, 32.00813015664296], [34.85120098560579, 32.00814328417931], [34.851509185691974, 32.008362016919136], [34.85180524943488, 32.00857205789178], [34.851931696987045, 32.00866177771983], [34.85210204743909, 32.0087841743532], [34.85239768125075, 32.00899664760918], [34.85269522834667, 32.00920732187787], [34.85299235484091, 32.00941763356227], [34.85328948269425, 32.00962794455344], [34.853326632317554, 32.00965546210567], [34.853469825508434, 32.0097675913949], [34.85348174955634, 32.009776912925865], [34.853813437347426, 32.00997283536254], [34.85383424048913, 32.009985121267846], [34.85442468034519, 32.00988732797133], [34.854633453575445, 32.00985604673262], [34.85474727080833, 32.009838993604696], [34.85509546923588, 32.009786750183046], [34.855326511911024, 32.00974884406737], [34.855697794817154, 32.00968792856517], [34.855892871919195, 32.009659719716616], [34.85601647895584, 32.00963976870256], [34.856347920331196, 32.00958544315749], [34.85655609413162, 32.00955475770202], [34.85663687435831, 32.00954202930699], [34.85692572491203, 32.00949651512103], [34.85703176735697, 32.00947980567638], [34.857243590564146, 32.00944642728727], [34.857526633260726, 32.009377311939616], [34.85778484442069, 32.00931489162256], [34.85803294794996, 32.009257515812216], [34.858322332216446, 32.0091726344791], [34.85844385262572, 32.00913252556011], [34.85874404977523, 32.00903344142462], [34.85898136183843, 32.008955784406126], [34.8592568709915, 32.0088656272933], [34.85933972878328, 32.00883851278433], [34.85939656771936, 32.00881991261221], [34.85948267449926, 32.008789147336095], [34.85956860978989, 32.008760072412024], [34.859908550025914, 32.0086191083703], [34.860062504771726, 32.00855512690774], [34.86016077518291, 32.008514051424896], [34.86037868550605, 32.00842296902465], [34.860439183828646, 32.00839216431044], [34.860510858393646, 32.00835566883597], [34.860527899171835, 32.00834511435388], [34.86054472075034, 32.00833430767281], [34.86056131782389, 32.00832325238569], [34.860577687204, 32.00831195209119], [34.860593821468704, 32.00830041037645], [34.860609717432894, 32.00828862993834], [34.86062536978798, 32.00827661527157], [34.860640773228766, 32.008264369969076], [34.86065592457013, 32.00825189672768], [34.86067081744181, 32.00823920094105], [34.8606854476037, 32.0082262844014], [34.860699810798955, 32.008213153409876], [34.86071390384239, 32.008199810663356], [34.86072772037056, 32.00818625975186], [34.860741258246634, 32.00817250608053], [34.860754512168846, 32.00815855234048], [34.860767477883684, 32.008144403931105], [34.86078457938142, 32.008124930764396], [34.86083347882166, 32.00805953561697], [34.86089085016424, 32.00797401985478], [34.860938413098474, 32.007902004530145], [34.860988295799395, 32.0078288682143], [34.86103022409998, 32.00776021935536], [34.86112242676732, 32.0075575635818], [34.86117107774885, 32.00744622625741], [34.861202734930664, 32.00737377821481], [34.861293884743816, 32.00716518018907], [34.861370580028634, 32.006993353638876], [34.86162254980032, 32.00642884143577], [34.861717276714444, 32.006216614864016], [34.86174223431492, 32.00616537337385], [34.86161601835013, 32.006138026169914], [34.86143353594718, 32.00609917757669], [34.86122370436631, 32.00603648416022], [34.86108473438233, 32.005993360983545], [34.86088300828385, 32.00593057350734], [34.86063682687493, 32.00585577591335], [34.86050127985763, 32.00581412409535], [34.860300231002675, 32.00575242149524], [34.859897693459686, 32.00562798699458], [34.859415972036444, 32.00547795202054], [34.85926566460605, 32.00543152338804], [34.85885131397088, 32.00530336597029], [34.85851615695531, 32.005200645614], [34.85825329794785, 32.005116358777904], [34.85801992034509, 32.00504459945651], [34.857909664595844, 32.00501182722696], [34.8577706967628, 32.004968678788885], [34.857642490929365, 32.00492893505622], [34.857342251210184, 32.00483806472055], [34.8570898727728, 32.00476216925797], [34.85678804132101, 32.00466767162074], [34.85668948328147, 32.00463732286133], [34.856816136615436, 32.00453266503567], [34.85688024641235, 32.00447834839421], [34.85698890348105, 32.00439034967647], [34.856805822484006, 32.004293373491734], [34.85677381978731, 32.00427642212095], [34.85645495452729, 32.00410772277667], [34.85623226229634, 32.00399033126081], [34.85614614208196, 32.00394436995322], [34.85604762352878, 32.00389208448024], [34.8559091057869, 32.00381707910025], [34.85585653079046, 32.003794342746254], [34.855607813019944, 32.003677316912395], [34.85554307080868, 32.003656567014914], [34.8554642741993, 32.00361687757233], [34.85534793368153, 32.003557587846785], [34.85523320123315, 32.00349959742728], [34.85509899495991, 32.00343190852385], [34.85506539551083, 32.003415062346235], [34.854893712946385, 32.00332929532457], [34.85478040642536, 32.00327190631843], [34.85472628129209, 32.00324618927967], [34.854404930256266, 32.00309163622241], [34.85431147383241, 32.00304812166413], [34.854238431350836, 32.00301199773117], [34.854201711902405, 32.00299611034746], [34.85412035290078, 32.002955958490375], [34.85407591348667, 32.00299539783364], [34.85398519856837, 32.003074234427395], [34.853864892809284, 32.00317581831233], [34.853688781074275, 32.003309030929216], [34.853627072544505, 32.003358903113], [34.853581113585115, 32.00338874290883], [34.85352144907259, 32.0034279090929], [34.853366460920476, 32.00353004226521], [34.853113427807585, 32.003694812592826], [34.853026869887785, 32.003746892723555], [34.85291371759072, 32.00381346592134], [34.852804164795025, 32.00387910660922], [34.852770691011315, 32.00389761349753], [34.85272138125781, 32.003922930174014], [34.85263581592354, 32.00396910237876], [34.85245340008363, 32.00404017698313], [34.85237269315339, 32.00406475261788], [34.8522333458478, 32.004094801704696], [34.852171075991116, 32.004104306077274], [34.852037469144115, 32.00411849376922], [34.851820647317986, 32.00413171332415], [34.85171670334207, 32.004137115693396], [34.851621520933584, 32.004142548652176], [34.85147536952911, 32.00415074898112], [34.85135716622993, 32.004143092985146], [34.85119142988641, 32.00413361368198], [34.851189624085556, 32.00404399214311], [34.85110556578272, 32.004035569745824], [34.85065523946497, 32.00398557711423], [34.8506425109176, 32.00416343095954], [34.85063551324194, 32.00425662614293], [34.85059445760635, 32.00425132630271], [34.850292367986505, 32.004209390242416], [34.850169842619465, 32.00419264715248], [34.850042090651016, 32.00417582171152], [34.84985975819669, 32.00415228573371], [34.849723055060124, 32.00416078910187], [34.849624736950176, 32.00416809746249], [34.84959903231081, 32.004169615458295]]]}}, {"type": "Feature", "properties": {"OBJECTID": 10, "GUSH_NUM": 6878}, "geometry": {"type": "Polygon", "coordinates": [[[34.8794854208046, 31.998624507597047], [34.87980026008166, 31.99886131533148], [34.87981853755146, 31.998827217109103], [34.87983837802813, 31.998786811160443], [34.879883323039586, 31.998742841461826], [34.87990932588229, 31.998717385124714], [34.87991729478031, 31.998695053406323], [34.880003745043474, 31.998453285444747], [34.880038129213666, 31.998150296165296], [34.88006008418162, 31.99805235781841], [34.88009854896671, 31.997894782114706], [34.880129742402715, 31.997767007748116], [34.880110025504145, 31.997647006675457], [34.88008417015716, 31.9975488730722], [34.880055929236114, 31.9974415277544], [34.87999255042094, 31.99731511324272], [34.87997140272538, 31.997169361090123], [34.879972160316065, 31.997024510831103], [34.879993692852835, 31.996943403561314], [34.88018982493531, 31.996648010449626], [34.88023851033006, 31.996574933628136], [34.88034896373307, 31.996449210331523], [34.88046889055605, 31.996360350701487], [34.88055862114984, 31.99632173454156], [34.88064158170952, 31.996315205255993], [34.880703003850165, 31.99632088460255], [34.88086550655968, 31.996391415176788], [34.880887022307675, 31.996407965826545], [34.88125163083549, 31.996688883280264], [34.88131374043955, 31.99673670717146], [34.88147165298907, 31.99683071816916], [34.88158914973955, 31.996896475455856], [34.88176891141457, 31.996957398578527], [34.881815349363116, 31.996968895601302], [34.882160031719714, 31.997054491338886], [34.88224540400686, 31.997086552604916], [34.882308964503835, 31.997172123782203], [34.88232671958958, 31.99719598999257], [34.882440592820444, 31.997428380682607], [34.882660982743246, 31.997718080468335], [34.88276640862325, 31.997808246736366], [34.882877492223535, 31.997878642584332], [34.88297131522132, 31.99790593529611], [34.88318771738314, 31.997931508341555], [34.88354425152319, 31.99792229485986], [34.88386463211909, 31.997914901778408], [34.88425453975157, 31.997939164388768], [34.8847185618356, 31.99799857998171], [34.88491670396069, 31.997967339144374], [34.88499782600285, 31.997950878038804], [34.88518798388585, 31.997923208562614], [34.8853458751809, 31.99786585686931], [34.8854055424941, 31.997815449066554], [34.885473399173385, 31.99769386531998], [34.88552024991434, 31.99758387193434], [34.885549288620474, 31.9975157243581], [34.88569808595563, 31.997208909549414], [34.88578286257248, 31.996941095542493], [34.885783750962894, 31.99682769594374], [34.885834906600145, 31.996641839064797], [34.88583570996354, 31.996385570065797], [34.88579717640293, 31.996044502164764], [34.88576038303439, 31.9959280094349], [34.88579402505424, 31.995832998681518], [34.88611325261353, 31.995417372867138], [34.88646680507564, 31.99495702878444], [34.88657924887886, 31.994812039735663], [34.88663374983181, 31.99469770752068], [34.88665062399746, 31.994661752458498], [34.88665802866561, 31.99464903301595], [34.88666489550052, 31.99458267832501], [34.88665213634242, 31.994342810650476], [34.88660375277866, 31.99415034637251], [34.886587892735946, 31.9940874058066], [34.886573637369565, 31.993925225698856], [34.886581484407564, 31.9938115224228], [34.88661096136419, 31.99338430422841], [34.886388958746494, 31.99277257270631], [34.88618645469688, 31.992349952954584], [34.886148301067976, 31.992217945825217], [34.88615346316611, 31.992084840703555], [34.88620102582992, 31.991697364383562], [34.88627744099051, 31.991347870414458], [34.886238359850346, 31.99104290565776], [34.88621817552469, 31.990790023289], [34.88615660342526, 31.990542187331172], [34.886147883842376, 31.99042432303246], [34.88613515076691, 31.990365594432376], [34.885819623856584, 31.990331345773676], [34.885156912191974, 31.99025945684675], [34.88484691798759, 31.99022582389885], [34.884441916898645, 31.989935053582066], [34.88398293918204, 31.990443435056118], [34.88365502397759, 31.99080664357157], [34.88332905436403, 31.991167691800175], [34.883022864702355, 31.991506830315714], [34.882777907114836, 31.991778201163083], [34.882515777452326, 31.99206859301068], [34.88225954074043, 31.992352454862466], [34.881999977483424, 31.992639998811345], [34.88183651204631, 31.99282108594163], [34.8817348152046, 31.9929244185524], [34.88146188372622, 31.993201738786077], [34.88134365764739, 31.993321866593334], [34.881169800691005, 31.993466984075344], [34.880867683696955, 31.993719158496823], [34.88080176236775, 31.99377418352359], [34.880537032254985, 31.993959232000403], [34.88021355192851, 31.99418534769059], [34.879834904706044, 31.99439902355159], [34.87958118928409, 31.994542197658536], [34.87945951566813, 31.994597195584777], [34.87905828603919, 31.994778555551697], [34.87892374155594, 31.994839370863026], [34.878626813626475, 31.99494164992309], [34.878208585898, 31.995085710928766], [34.877698480447556, 31.995214277316716], [34.87747152485409, 31.99527147947464], [34.877199191028446, 31.995317671336675], [34.87669847934866, 31.99539844337865], [34.87592072084502, 31.995451713005608], [34.87521333923664, 31.995443747627235], [34.875248590191056, 31.99546981101382], [34.875323841161155, 31.995525557287888], [34.875517194190415, 31.995668543535537], [34.875837304151275, 31.995905374791725], [34.875863267404505, 31.995924650431455], [34.87594952575318, 31.995988955893804], [34.87603045334001, 31.99604929129045], [34.87614791088229, 31.996136860014175], [34.87630343428838, 31.996252785974573], [34.87653243302774, 31.9964234787624], [34.87668440802341, 31.99653675911434], [34.876917255194584, 31.996710318960133], [34.876954048338966, 31.996737743066024], [34.877118742271364, 31.996860502108795], [34.87752433903586, 31.997162822095078], [34.878066533813765, 31.99756695225624], [34.8785531067912, 31.997929620246822], [34.87898152777969, 31.998248939959574], [34.87899164329987, 31.99825647972717], [34.87907828074158, 31.998321052766237], [34.87935116756602, 31.998524444140962], [34.8794854208046, 31.998624507597047]]]}}, {"type": "Feature", "properties": {"OBJECTID": 11, "GUSH_NUM": 6877}, "geometry": {"type": "Polygon", "coordinates": [[[34.885819623856584, 31.990331345773676], [34.88613515076691, 31.990365594432376], [34.88610284574402, 31.99025215655236], [34.88601811042463, 31.990061933728658], [34.88601419922078, 31.989907625114736], [34.8860536583144, 31.98975721287988], [34.88616441661412, 31.989573741619562], [34.88627554906615, 31.989389652555264], [34.886539495965174, 31.989038249285883], [34.88731232042149, 31.9882486683097], [34.88733227623721, 31.98823032134442], [34.88757174633556, 31.988009886968868], [34.88792150913766, 31.98780920620777], [34.88809102314883, 31.987746502450804], [34.88833240227748, 31.987709047649297], [34.888516910920636, 31.987716901831956], [34.88881626621121, 31.98774370875144], [34.88895429871533, 31.98775884152239], [34.8889983495526, 31.987770798923567], [34.88932746790904, 31.987860139436847], [34.88934291000887, 31.987868212857673], [34.889380719906576, 31.987887986811305], [34.88959881398623, 31.988002035500227], [34.88975046271402, 31.988058143138066], [34.88990221743899, 31.9881142508576], [34.88999980341552, 31.988168330421328], [34.8901154491245, 31.988232464673022], [34.89042382510558, 31.988438478839214], [34.89064021520751, 31.988623974252544], [34.89070718593633, 31.988719821336687], [34.89088190687978, 31.989055003161603], [34.890988008886836, 31.98915990889805], [34.89107584562827, 31.98924675499215], [34.89130351162062, 31.989384481432655], [34.89141562735095, 31.989429397339396], [34.891531500817486, 31.989458360461303], [34.89162496376054, 31.98948086543036], [34.891767091810344, 31.989474903004282], [34.89218620532756, 31.989390181240637], [34.89231229977643, 31.98936469164961], [34.892385667075516, 31.989340819105337], [34.89245149210153, 31.9893194025324], [34.89264687875569, 31.989209321346173], [34.89291045560765, 31.989021166624745], [34.893063094105464, 31.98891220631267], [34.893259898293884, 31.98869517354372], [34.893397944045546, 31.988518848259226], [34.89356931777672, 31.988343235713714], [34.893735827319595, 31.988103064303786], [34.8937787863308, 31.988041102701747], [34.8938832499417, 31.987938823068433], [34.89399205626262, 31.987866584088504], [34.894142010419166, 31.987798143016736], [34.89447942711827, 31.98770819081238], [34.89470448065612, 31.98764819388463], [34.89509800166544, 31.98758287086458], [34.895269681043246, 31.9875670566588], [34.89539370989791, 31.987561767513796], [34.89543686825979, 31.98756556999205], [34.8954709659659, 31.987115652034547], [34.89547616720384, 31.9870475783744], [34.895394834814695, 31.986121316159004], [34.895392103426545, 31.986073463304894], [34.895391236977254, 31.986058271179814], [34.89471247955167, 31.98592856032922], [34.89450058622838, 31.985909978134384], [34.89439514416211, 31.9859007314236], [34.89372857942591, 31.9858900834493], [34.8936992597689, 31.985893167994885], [34.893031508701604, 31.985951862309737], [34.89274504254445, 31.98599480657099], [34.89272925842916, 31.98600026882436], [34.892687959414964, 31.98600852893909], [34.89251813097326, 31.986042495757477], [34.892130426953024, 31.986109989457773], [34.892026948855104, 31.9861275635063], [34.89178253547439, 31.9861690579815], [34.89176659955066, 31.986172146188476], [34.89175064586465, 31.98617516761606], [34.891734674422516, 31.98617812046066], [34.89171868627625, 31.98618100652851], [34.891702681428995, 31.98618382491775], [34.89168666094189, 31.986186574729235], [34.891670623750755, 31.98618925776392], [34.891654571974904, 31.986191873125193], [34.89163850455931, 31.98619441990867], [34.891622422555976, 31.98619689992057], [34.89160632703222, 31.98619931045804], [34.891590216920804, 31.98620165422392], [34.89157409434407, 31.98620392941982], [34.89155795718586, 31.98620613604049], [34.8915418086174, 31.98620827499553], [34.89152564758069, 31.986210346282398], [34.89150947408184, 31.98621234809744], [34.89149329023096, 31.98621428224947], [34.89147709391497, 31.986216147831474], [34.891460888308174, 31.986217944851294], [34.891444671294416, 31.986219673303687], [34.89143012378955, 31.986221140740195], [34.89141556699102, 31.98622254051671], [34.891401001956964, 31.986223872635826], [34.891386428684356, 31.98622513799931], [34.89137184612127, 31.986226334801007], [34.89135725743587, 31.986227464852327], [34.89134266157316, 31.986228527248823], [34.89132805959126, 31.98622952199314], [34.89131345043213, 31.986230449082672], [34.891298836211966, 31.986231308522576], [34.89128421693082, 31.986232100312918], [34.891269591530616, 31.986232824451083], [34.891254963185645, 31.986233480944865], [34.891240330840944, 31.98623406888986], [34.89122569449041, 31.986234590089666], [34.891211054140186, 31.986235042740706], [34.89119641190037, 31.986235428651796], [34.891181767777105, 31.986235746019307], [34.89116712176739, 31.986235995745062], [34.89115247387431, 31.986236176927257], [34.89114270370962, 31.98623607976602], [34.89113293378091, 31.986235913165572], [34.89112316620439, 31.986235677131173], [34.891113400977, 31.986235372564565], [34.89110363915689, 31.986234999468433], [34.8910938818052, 31.98623455694354], [34.891084128918926, 31.986234045891717], [34.89107438049805, 31.98623346631293], [34.89106463866185, 31.986232817310615], [34.89105490340729, 31.98623209978662], [34.89104517578944, 31.9862313146453], [34.89103545581749, 31.986230459181282], [34.89102574454034, 31.986229536102574], [34.891016043019214, 31.986228544509974], [34.89100635019602, 31.986227484400906], [34.89099666924196, 31.986226356685023], [34.89098699910514, 31.986225159556046], [34.89097734083751, 31.986223894820252], [34.890967695500265, 31.986222561578433], [34.89095806309033, 31.98622116073241], [34.89094844466586, 31.986219692284752], [34.89093884128801, 31.986218155336346], [34.89092925295373, 31.986216550788924], [34.89091967966306, 31.986214878642517], [34.8907268367605, 31.98627209968628], [34.89065160204557, 31.985278304333644], [34.89065080397953, 31.985170807126714], [34.89085420079792, 31.984756839881126], [34.8910911231693, 31.98437803528626], [34.89114759928539, 31.98429205223647], [34.891230198542175, 31.98420938012226], [34.89134259196123, 31.98413949690879], [34.891424713948005, 31.984091353633445], [34.89144002300855, 31.984082382343583], [34.891597383902, 31.984012609776066], [34.89168730023218, 31.983987310245084], [34.89195045246996, 31.983965864103997], [34.89196664583769, 31.983464860599273], [34.89190903502727, 31.98323042957731], [34.89183279194227, 31.982874299004756], [34.891713064560655, 31.98251779070577], [34.89171628653511, 31.98209809808023], [34.88681007360795, 31.982412279999583], [34.88566955454996, 31.982485262889885], [34.885819489356976, 31.982593134579968], [34.88574134083408, 31.98267283839541], [34.885687082477894, 31.98272825339722], [34.8855843032925, 31.982658894395293], [34.88527995271513, 31.982968266851675], [34.88503067207582, 31.98322153151693], [34.88497269219031, 31.98328231701388], [34.8846699974702, 31.98359050715558], [34.88436767415435, 31.98389932604728], [34.88406517650514, 31.984208097763617], [34.88379819676909, 31.984481819610433], [34.88372888064236, 31.984551564179284], [34.883477784913644, 31.984807064802943], [34.88318501367083, 31.98510396413445], [34.883157064091485, 31.985132875614397], [34.88289684697192, 31.985406161718046], [34.88260918583228, 31.98569969175491], [34.8823251335874, 31.985989442695374], [34.88205245698338, 31.986258404602502], [34.8820446809293, 31.986291410760888], [34.882040379268894, 31.98631182301642], [34.88204536306484, 31.986331753845818], [34.88205967496371, 31.986362612093426], [34.882424898906926, 31.986629436430285], [34.88285201490595, 31.986944437661897], [34.882495127839455, 31.987304435329982], [34.882137813162885, 31.987664881779512], [34.88184951710864, 31.987955702925053], [34.88178134501724, 31.988024517718813], [34.88440219800749, 31.989906537567915], [34.884441916898645, 31.989935053582066], [34.88484691798759, 31.99022582389885], [34.885156912191974, 31.99025945684675], [34.885819623856584, 31.990331345773676]]]}}, {"type": "Feature", "properties": {"OBJECTID": 12, "GUSH_NUM": 6876}, "geometry": {"type": "Polygon", "coordinates": [[[34.879277820037444, 31.988863454412325], [34.87931879243853, 31.988821887878494], [34.879389339466464, 31.988750319182284], [34.87944106270194, 31.98869784575788], [34.879577937251575, 31.988558988171945], [34.87957964701569, 31.988557234028796], [34.87958129133855, 31.988555433726084], [34.879582868091255, 31.988553590865592], [34.87958437515439, 31.988551706343706], [34.87958581146347, 31.98854978196129], [34.879587175954036, 31.988547819519255], [34.879588467558435, 31.988545821720262], [34.879589684157274, 31.98854378946071], [34.8795908236216, 31.988541726342365], [34.87959188700635, 31.98853963326976], [34.87959287218895, 31.988537512041002], [34.87959377809861, 31.988535366260646], [34.87959460367715, 31.988533195925942], [34.87959534890874, 31.988531005545887], [34.879596012732065, 31.9885287960196], [34.879596593024566, 31.98852656914523], [34.87959709188976, 31.988524328535362], [34.87959750615011, 31.98852207508371], [34.87959783791234, 31.988519811501064], [34.87959808399258, 31.98851754048468], [34.87959824650071, 31.98851526384358], [34.87959832437225, 31.98851298337864], [34.879598317594514, 31.988510702697063], [34.87959822722243, 31.98850842270336], [34.8795980511271, 31.988506146999242], [34.879597791421524, 31.988503876492015], [34.87959744703494, 31.98850161478607], [34.87959701901907, 31.988499363687758], [34.879596507370785, 31.988497124098842], [34.87959591419039, 31.988494900533773], [34.879595237361684, 31.988492692987094], [34.87959448004314, 31.9884905059759], [34.87959364117665, 31.988488339497515], [34.87959272286571, 31.988486197164505], [34.879591725103985, 31.988484080780495], [34.879590650001354, 31.98848199215448], [34.879589497551486, 31.98847993309005], [34.87958826986106, 31.988477906297998], [34.87958696692057, 31.988475914483725], [34.87958559084622, 31.98847395765263], [34.879584143741546, 31.988472039417367], [34.87958262454208, 31.98847016157873], [34.879581037480314, 31.988468324147636], [34.87957938359844, 31.988466531635723], [34.879577662896466, 31.988464784042996], [34.879575878539214, 31.98846308408298], [34.87957403263974, 31.988461432662866], [34.87957212624662, 31.988459832490758], [34.879570161476096, 31.98845828357209], [34.87956813937673, 31.988456788614936], [34.87976406500644, 31.988595586218324], [34.879826398483694, 31.988645385496586], [34.879912410732096, 31.988708132079562], [34.880055111783605, 31.988812234171764], [34.88008244294289, 31.98883217258226], [34.880284627720904, 31.988978252117867], [34.88059971208926, 31.989210961830306], [34.880939057181614, 31.98886914591595], [34.88128581908378, 31.9885198530494], [34.88178134501724, 31.988024517718813], [34.88184951710864, 31.987955702925053], [34.882137813162885, 31.987664881779512], [34.882495127839455, 31.987304435329982], [34.88285201490595, 31.986944437661897], [34.882424898906926, 31.986629436430285], [34.88205967496371, 31.986362612093426], [34.88204536306484, 31.986331753845818], [34.882040379268894, 31.98631182301642], [34.8820446809293, 31.986291410760888], [34.88205245698338, 31.986258404602502], [34.8823251335874, 31.985989442695374], [34.88260918583228, 31.98569969175491], [34.88289684697192, 31.985406161718046], [34.883157064091485, 31.985132875614397], [34.88318501367083, 31.98510396413445], [34.883477784913644, 31.984807064802943], [34.88372888064236, 31.984551564179284], [34.88379819676909, 31.984481819610433], [34.88406517650514, 31.984208097763617], [34.88436767415435, 31.98389932604728], [34.8846699974702, 31.98359050715558], [34.88497269219031, 31.98328231701388], [34.88503067207582, 31.98322153151693], [34.88527995271513, 31.982968266851675], [34.8855843032925, 31.982658894395293], [34.885687082477894, 31.98272825339722], [34.88574134083408, 31.98267283839541], [34.885819489356976, 31.982593134579968], [34.88566955454996, 31.982485262889885], [34.88558800847046, 31.98242729561395], [34.88456449416719, 31.981699715523632], [34.8844711123899, 31.97973543676852], [34.88025601175268, 31.979071203501338], [34.880151537736246, 31.980167983707567], [34.88013179232432, 31.98033720224104], [34.88009774086247, 31.980542907354156], [34.880071349959074, 31.98064618687737], [34.880060514497316, 31.980688634246786], [34.88004817748633, 31.98073684933546], [34.87998239512922, 31.980909467218275], [34.87982627994088, 31.981195481625395], [34.87972483721408, 31.981339060197108], [34.87958014945033, 31.981504351718325], [34.87923600526328, 31.981853641685692], [34.879194274502005, 31.981896009816513], [34.878051707942646, 31.983055865235087], [34.87778931709931, 31.98332221487374], [34.87714389997537, 31.98397715681582], [34.87705193898877, 31.984070617233186], [34.876977287059084, 31.984146446853522], [34.8767357037824, 31.98439156531725], [34.87659967273024, 31.984529731332152], [34.87653129025399, 31.984597821349563], [34.87590528811694, 31.985233147591757], [34.875565464800324, 31.985579462514387], [34.87525920161474, 31.985890242241748], [34.87498713056336, 31.986166480650663], [34.87471495207002, 31.986442718178505], [34.8760660903552, 31.98741843412548], [34.87696050179114, 31.988063881419034], [34.878768654593486, 31.989371422401014], [34.87910176855614, 31.9890421278292], [34.87914797878399, 31.988995186495305], [34.87915613977188, 31.988986896379007], [34.879277820037444, 31.988863454412325]]]}}, {"type": "Feature", "properties": {"OBJECTID": 14, "GUSH_NUM": 6465}, "geometry": {"type": "Polygon", "coordinates": [[[34.868463949858665, 31.99709247218636], [34.868450272863996, 31.997125993872874], [34.86899110503147, 31.997100016109787], [34.869620010803665, 31.9970696466984], [34.870129983896234, 31.997045017425886], [34.87041649736708, 31.99702469673277], [34.87078795490008, 31.996998349254287], [34.87087811744319, 31.99699195441151], [34.87159912308785, 31.99693349158883], [34.871954509746686, 31.996910087116998], [34.87196811006491, 31.996909192087347], [34.87548920180598, 31.996693988401827], [34.87547693127983, 31.996631565324293], [34.875359212738296, 31.99603265650047], [34.875345132932594, 31.99596102129878], [34.875248590191056, 31.99546981101382], [34.87521333923664, 31.995443747627235], [34.87491844124886, 31.99521423887577], [34.87452955905347, 31.994911585150668], [34.87451844718366, 31.99490293502137], [34.87433662143463, 31.99477018925602], [34.87421039651934, 31.994678035616786], [34.874157719751786, 31.99463958089961], [34.87403377148617, 31.994554479703126], [34.87371682599442, 31.994323062953526], [34.87332948553616, 31.99404023931946], [34.87324156930976, 31.993975981852987], [34.87323314917769, 31.993969833926222], [34.87307681857714, 31.993855702085323], [34.873071950994586, 31.993852148894675], [34.872927899388195, 31.993747006546307], [34.8729107372959, 31.993734478948], [34.872838505846445, 31.99368175295682], [34.87274955055787, 31.993616782714188], [34.87269971939513, 31.9935803882345], [34.87259628884242, 31.993504997579418], [34.87258894848241, 31.9934996370024], [34.872461196780414, 31.993406347666696], [34.87242785229725, 31.993382000114796], [34.87233043213392, 31.993310865247246], [34.87226686308053, 31.99326445167893], [34.87210659193399, 31.993147430670284], [34.872066159571595, 31.99311790885041], [34.8718288007327, 31.992944591581924], [34.87180504699415, 31.992929288842408], [34.871676882563726, 31.992846708357575], [34.87156772135059, 31.992776351938073], [34.87129851365291, 31.992602950138686], [34.87104250331131, 31.99243805939316], [34.87078712747711, 31.992273530520237], [34.87073273387644, 31.992482093780726], [34.87067963952758, 31.992685670746344], [34.87066533439429, 31.992740525021574], [34.87025562892986, 31.993120449937578], [34.86998050811548, 31.993375575929026], [34.86995820434343, 31.9934302422033], [34.8697730147859, 31.993884124150576], [34.869720876196354, 31.994011939954497], [34.86955482035022, 31.994419012480446], [34.86954051356765, 31.99445396470402], [34.868463949858665, 31.99709247218636]]]}}, {"type": "Feature", "properties": {"OBJECTID": 15, "GUSH_NUM": 6875}, "geometry": {"type": "Polygon", "coordinates": [[[34.87362592413975, 31.98754744862086], [34.87335414512126, 31.987822724657505], [34.87308195683045, 31.988098958545084], [34.87280976690599, 31.988375191825824], [34.87253757534788, 31.988651424499693], [34.87226538215605, 31.98892765656673], [34.871993187330524, 31.98920388802685], [34.87172099087126, 31.98948011888009], [34.87165960525622, 31.989542543164063], [34.871605760590214, 31.989597141495437], [34.87144837082943, 31.989755987297688], [34.87117617077642, 31.99003230711574], [34.87090396941534, 31.99030853614725], [34.86970033740483, 31.991530017238258], [34.86967452906842, 31.99155619166131], [34.86971173967178, 31.99157910093556], [34.86973770215994, 31.991595859091085], [34.86980003413318, 31.991636091506326], [34.86982722863836, 31.991653645577607], [34.86999737190953, 31.991763466624604], [34.87047385820451, 31.99207101903432], [34.87070216122964, 31.99221378806544], [34.87078712747711, 31.992273530520237], [34.87104250331131, 31.99243805939316], [34.87129851365291, 31.992602950138686], [34.87156772135059, 31.992776351938073], [34.871676882563726, 31.992846708357575], [34.87180504699415, 31.992929288842408], [34.8718288007327, 31.992944591581924], [34.872066159571595, 31.99311790885041], [34.87210659193399, 31.993147430670284], [34.87226686308053, 31.99326445167893], [34.87233043213392, 31.993310865247246], [34.87242785229725, 31.993382000114796], [34.872461196780414, 31.993406347666696], [34.87258894848241, 31.9934996370024], [34.87259628884242, 31.993504997579418], [34.87269971939513, 31.9935803882345], [34.87274955055787, 31.993616782714188], [34.872838505846445, 31.99368175295682], [34.8729107372959, 31.993734478948], [34.872927899388195, 31.993747006546307], [34.873071950994586, 31.993852148894675], [34.87307681857714, 31.993855702085323], [34.87323314917769, 31.993969833926222], [34.87324156930976, 31.993975981852987], [34.87332948553616, 31.99404023931946], [34.87371682599442, 31.994323062953526], [34.87403377148617, 31.994554479703126], [34.874157719751786, 31.99463958089961], [34.87421039651934, 31.994678035616786], [34.87433662143463, 31.99477018925602], [34.87451844718366, 31.99490293502137], [34.87452955905347, 31.994911585150668], [34.87491844124886, 31.99521423887577], [34.87521333923664, 31.995443747627235], [34.87592072084502, 31.995451713005608], [34.87669847934866, 31.99539844337865], [34.877199191028446, 31.995317671336675], [34.87746176692062, 31.995273934294232], [34.87769998137093, 31.995215360640046], [34.87819903933994, 31.99508795262112], [34.87862632915108, 31.994941299681255], [34.878913953525796, 31.994840783232362], [34.879055561761454, 31.99477659255444], [34.879455654614446, 31.994594409043554], [34.879827689227966, 31.99439381882176], [34.88020585521338, 31.99418518734588], [34.88053163970742, 31.99395532334601], [34.88079239110428, 31.9937750785641], [34.88086378888285, 31.993716341250643], [34.88116533588797, 31.99346375957461], [34.88133207062866, 31.993323358438296], [34.88145732494761, 31.99319845724268], [34.881729173481595, 31.992920354204376], [34.88183297667974, 31.99281987755547], [34.8819979371729, 31.992638529999425], [34.882260133935695, 31.992352882921757], [34.88251573417496, 31.99206856223954], [34.88277769601273, 31.991778049124942], [34.88302499345242, 31.991503872377233], [34.88332914830663, 31.991167758771372], [34.88365462815314, 31.990806361208108], [34.88398308062464, 31.990443535513556], [34.884441916898645, 31.989935053582066], [34.88440219800749, 31.989906537567915], [34.88178134501724, 31.988024517718813], [34.88128581908378, 31.9885198530494], [34.880939057181614, 31.98886914591595], [34.88059971208926, 31.989210961830306], [34.880284627720904, 31.988978252117867], [34.88008244294289, 31.98883217258226], [34.880055111783605, 31.988812234171764], [34.879912410732096, 31.988708132079562], [34.879826398483694, 31.988645385496586], [34.87976406500644, 31.988595586218324], [34.87956813937673, 31.988456788614936], [34.879570161476096, 31.98845828357209], [34.87957212624662, 31.988459832490758], [34.87957403263974, 31.988461432662866], [34.879575878539214, 31.98846308408298], [34.879577662896466, 31.988464784042996], [34.87957938359844, 31.988466531635723], [34.879581037480314, 31.988468324147636], [34.87958262454208, 31.98847016157873], [34.879584143741546, 31.988472039417367], [34.87958559084622, 31.98847395765263], [34.87958696692057, 31.988475914483725], [34.87958826986106, 31.988477906297998], [34.879589497551486, 31.98847993309005], [34.879590650001354, 31.98848199215448], [34.879591725103985, 31.988484080780495], [34.87959272286571, 31.988486197164505], [34.87959364117665, 31.988488339497515], [34.87959448004314, 31.9884905059759], [34.879595237361684, 31.988492692987094], [34.87959591419039, 31.988494900533773], [34.879596507370785, 31.988497124098842], [34.87959701901907, 31.988499363687758], [34.87959744703494, 31.98850161478607], [34.879597791421524, 31.988503876492015], [34.8795980511271, 31.988506146999242], [34.87959822722243, 31.98850842270336], [34.879598317594514, 31.988510702697063], [34.87959832437225, 31.98851298337864], [34.87959824650071, 31.98851526384358], [34.87959808399258, 31.98851754048468], [34.87959783791234, 31.988519811501064], [34.87959750615011, 31.98852207508371], [34.87959709188976, 31.988524328535362], [34.879596593024566, 31.98852656914523], [34.879596012732065, 31.9885287960196], [34.87959534890874, 31.988531005545887], [34.87959460367715, 31.988533195925942], [34.87959377809861, 31.988535366260646], [34.87959287218895, 31.988537512041002], [34.87959188700635, 31.98853963326976], [34.8795908236216, 31.988541726342365], [34.879589684157274, 31.98854378946071], [34.879588467558435, 31.988545821720262], [34.879587175954036, 31.988547819519255], [34.87958581146347, 31.98854978196129], [34.87958437515439, 31.988551706343706], [34.879582868091255, 31.988553590865592], [34.87958129133855, 31.988555433726084], [34.87957964701569, 31.988557234028796], [34.879577937251575, 31.988558988171945], [34.87944106270194, 31.98869784575788], [34.879389339466464, 31.988750319182284], [34.87931879243853, 31.988821887878494], [34.879277820037444, 31.988863454412325], [34.87915613977188, 31.988986896379007], [34.87914797878399, 31.988995186495305], [34.87910176855614, 31.9890421278292], [34.878768654593486, 31.989371422401014], [34.87696050179114, 31.988063881419034], [34.8760660903552, 31.98741843412548], [34.87471495207002, 31.986442718178505], [34.87444277722075, 31.98671895872055], [34.87417060179285, 31.98699519956044], [34.873898423676536, 31.987271438889046], [34.87362592413975, 31.98754744862086]]]}}, {"type": "Feature", "properties": {"OBJECTID": 46, "GUSH_NUM": 6469}, "geometry": {"type": "Polygon", "coordinates": [[[34.863860408954935, 32.00063027517483], [34.86355928009349, 32.0012710358571], [34.86332008912287, 32.001780010561454], [34.862888775463354, 32.001652138135846], [34.86283341443313, 32.001635720601506], [34.86297089801517, 32.002026138123895], [34.863046321444486, 32.0022404108597], [34.86309407752888, 32.00237580965312], [34.86316303002255, 32.0025515308994], [34.86325269899276, 32.00278006322976], [34.86343451327297, 32.00320890793323], [34.86356813614928, 32.00353427639905], [34.86387997654824, 32.004289471045155], [34.865569228171985, 32.00374723106417], [34.86558756457933, 32.003741393067976], [34.86763764413417, 32.00308871137807], [34.867606141770665, 32.00203325846882], [34.867715449365235, 32.002024006601935], [34.87167453153387, 32.00159976010981], [34.87180917267917, 32.00114332213195], [34.87184373278355, 32.00114767193278], [34.87184455469365, 32.00112871548976], [34.871845859782596, 32.00110548576849], [34.87184871811899, 32.00102281689341], [34.87185546338602, 32.000831096892284], [34.87186481068387, 32.00056055893103], [34.87186971230803, 32.00042281329104], [34.871874246607064, 32.00029535625484], [34.871878241001546, 32.00017088096461], [34.87188447689528, 31.999997107280556], [34.8718929470048, 31.999761090701007], [34.87190105349153, 31.999535209423534], [34.87190895662584, 31.999309948946678], [34.8719145552564, 31.999128568663032], [34.87192319558269, 31.998855006829288], [34.87192723382816, 31.998727136335404], [34.8719313646722, 31.998593542337602], [34.87193730756495, 31.998321117799726], [34.87194512051251, 31.997962991684183], [34.871950378425176, 31.99772200939583], [34.871960220000695, 31.997270861247188], [34.87196811006491, 31.996909192087347], [34.871954509746686, 31.996910087116998], [34.87159912308785, 31.99693349158883], [34.87087811744319, 31.99699195441151], [34.87078795490008, 31.996998349254287], [34.87041649736708, 31.99702469673277], [34.870129983896234, 31.997045017425886], [34.869620010803665, 31.9970696466984], [34.86899110503147, 31.997100016109787], [34.868450272863996, 31.997125993872874], [34.8683532659181, 31.997140382285078], [34.86830930259942, 31.997147471254433], [34.86553403315402, 31.99772373694687], [34.8655174909523, 31.997727173727615], [34.86453407547244, 31.997931353938696], [34.864436155207166, 31.99795598138164], [34.864156116267715, 31.99802641187718], [34.8640343718646, 31.99805703072877], [34.863786361007776, 31.998119405739747], [34.863719041220996, 31.998136336717586], [34.863634347014425, 31.998157637128475], [34.863451628181416, 31.998203590034425], [34.863350285601804, 31.998231201424957], [34.86326822337335, 31.9982535601666], [34.863159544993344, 31.998283169916284], [34.863037444069384, 31.998316437246547], [34.86283250787698, 31.99836898478785], [34.862748018267, 31.99839064767995], [34.8626056736639, 31.9984271462526], [34.86205433634153, 31.998568509966105], [34.86188944611771, 31.998610787876146], [34.86184324797526, 31.998622632788877], [34.861772838526356, 31.998640685248844], [34.861782958364934, 31.998667185891687], [34.86111365456856, 31.998834789507136], [34.861166373308954, 31.998869384589536], [34.86152944818721, 31.99910088948223], [34.86164142501804, 31.999180663364456], [34.86184483966257, 31.999305210536747], [34.86192633649467, 31.99935559329441], [34.86160816225296, 31.99981014435446], [34.86167348926514, 31.999829799758754], [34.86172487498512, 31.999847713072345], [34.86188669468548, 31.999904124872362], [34.86208247236035, 31.999972378571236], [34.86227073583882, 32.000038014516434], [34.862278260876664, 32.00004064101575], [34.86247406033495, 32.00010888515208], [34.862669870668135, 32.00017712901603], [34.86286567067791, 32.00024538156852], [34.863061471013594, 32.00031362480215], [34.86325727170852, 32.000381849699075], [34.86345316773823, 32.00045012865859], [34.86347041624348, 32.00045616297402], [34.86387583271659, 32.00059746390825], [34.863860408954935, 32.00063027517483]]]}}, {"type": "Feature", "properties": {"OBJECTID": 47, "GUSH_NUM": 6482}, "geometry": {"type": "Polygon", "coordinates": [[[34.854077952195986, 32.015274230943405], [34.85413704064468, 32.01549505553133], [34.85414353375599, 32.0155188088331], [34.85415312710197, 32.01555395140905], [34.85433884716946, 32.01621862521875], [34.85436628243853, 32.01632013987707], [34.854412945732115, 32.016505129470204], [34.854432132904044, 32.01657539653669], [34.85501989986316, 32.0187132881104], [34.855192984297545, 32.01934678014381], [34.85537000642469, 32.02000849822021], [34.855379547767015, 32.02004364053957], [34.85548070771587, 32.02002398909216], [34.85561894226633, 32.01999704476144], [34.855770629269934, 32.01996752203729], [34.85614836313262, 32.019894071077026], [34.85653277023549, 32.01981919441121], [34.85669981575756, 32.01978673675503], [34.85698412151623, 32.01973142386258], [34.857287175825554, 32.01967246426187], [34.8574086729169, 32.019648808827554], [34.85759012390629, 32.019613503644344], [34.85791573983755, 32.01955009522601], [34.858206399724715, 32.019493534423006], [34.85847831046866, 32.01944061919866], [34.85853279846135, 32.01943002735424], [34.85870509662959, 32.01939650823009], [34.85905539161777, 32.019328294417576], [34.86097036404134, 32.018972341019285], [34.86197224664888, 32.01878610460601], [34.86191104498123, 32.0186867233614], [34.86199958268497, 32.01868479807144], [34.86208595269022, 32.01869082976161], [34.86212928014133, 32.018692542868386], [34.862170183942425, 32.01868564625144], [34.862598179874226, 32.01861354708826], [34.86263578162866, 32.01848961486163], [34.86274551496477, 32.018249508675865], [34.862923205891356, 32.01794817277627], [34.8631677653641, 32.01732510999065], [34.863150142801906, 32.01727350667609], [34.86293388216483, 32.01697873949027], [34.86264694101314, 32.016565845007044], [34.86258595412003, 32.01647808793669], [34.862536475373965, 32.01636878267706], [34.86246234045599, 32.01621696681016], [34.86230190609992, 32.015888425975106], [34.86226064771236, 32.01580393596208], [34.86211784568554, 32.01558686616475], [34.8619082755065, 32.01541040437211], [34.86190867888802, 32.015245033334104], [34.86180192431379, 32.01520835741643], [34.861560759051805, 32.0149074604703], [34.861227054132016, 32.01457901524869], [34.86087217620626, 32.0142808122973], [34.860630807071416, 32.01427415242927], [34.86027349572794, 32.01430508029371], [34.86023752196986, 32.0142762333048], [34.860016358074, 32.013932795643484], [34.85986559734984, 32.01365551551745], [34.85967775322177, 32.01317684356223], [34.859291937897304, 32.012799572408426], [34.85870087065876, 32.012876176201075], [34.858612129975754, 32.01283497456308], [34.85820847166965, 32.01303881677779], [34.85807548487965, 32.013031261023485], [34.857914620361285, 32.01302212208077], [34.85787895123538, 32.01302009570009], [34.85783609083233, 32.01299034996237], [34.85752411626854, 32.0127686337336], [34.85738397636975, 32.01270372753851], [34.857346967374916, 32.01268318247909], [34.85725216100729, 32.012634045489484], [34.8571548166636, 32.01251698689149], [34.8571268956428, 32.01248341759175], [34.85698442486631, 32.01248611165144], [34.85689804055883, 32.01241257670629], [34.85686976926939, 32.01236247638834], [34.85658843966355, 32.012140214151884], [34.85621486367646, 32.01182228764375], [34.856159353196645, 32.011802115301776], [34.85606141314229, 32.01178998772989], [34.855922351126516, 32.01178996652407], [34.85586463279376, 32.01180227084179], [34.85566791859309, 32.01187253960002], [34.8554873951573, 32.01191828753952], [34.855413274969806, 32.011940872152934], [34.85534629731937, 32.01205602815404], [34.85530563448386, 32.01210889703639], [34.855230254314655, 32.012206931713635], [34.85515005134564, 32.01232353917209], [34.85504578950254, 32.01251860007907], [34.85499676281256, 32.01266687433384], [34.854949944931384, 32.01276296746669], [34.85490409621925, 32.01282676978204], [34.85486869577555, 32.01290401965717], [34.85485382014792, 32.013022466206635], [34.85486978047039, 32.013047679429235], [34.85494707306296, 32.013090258950065], [34.8550236667796, 32.01320268994646], [34.85502985333034, 32.0132626316111], [34.8550128043713, 32.01331231893837], [34.85497325502016, 32.01337557950585], [34.85487581723803, 32.01348169644192], [34.85482932332037, 32.013564795467545], [34.85478292936365, 32.01358808736237], [34.85473848550717, 32.013683158890984], [34.85465154226168, 32.01374582878872], [34.854561178586884, 32.0137894251378], [34.8540569607836, 32.013961819494895], [34.85402051082997, 32.01399469765163], [34.8540211060812, 32.014030194147274], [34.854040189833505, 32.014149690277236], [34.8540683848649, 32.01422235403445], [34.85413913292692, 32.01432166624548], [34.85420582871957, 32.014498558104194], [34.85424475308852, 32.014591578011185], [34.8542556720018, 32.01461768820716], [34.85428549020339, 32.01472006168455], [34.85430796506083, 32.01483024251109], [34.85430349287399, 32.01500154510926], [34.85426019207141, 32.01506569687856], [34.85411562783489, 32.01515021124505], [34.8540522067705, 32.015178009932484], [34.854077952195986, 32.015274230943405]]]}}, {"type": "Feature", "properties": {"OBJECTID": 75, "GUSH_NUM": 6264}, "geometry": {"type": "Polygon", "coordinates": [[[34.862229113734145, 31.989899412087304], [34.86198404231559, 31.98997709347663], [34.86189926363579, 31.99000396480483], [34.86102181726028, 31.990281549615425], [34.860868225053174, 31.99033019295756], [34.86089074432372, 31.990380781978804], [34.860964253316936, 31.99053197804812], [34.86121724487816, 31.991052334047183], [34.86125123913131, 31.991122252629463], [34.86226053212757, 31.993198109575935], [34.86228521161457, 31.993248677103345], [34.86599507512382, 31.992481070605283], [34.86603672460802, 31.992472452206282], [34.86726799976754, 31.992217662818454], [34.86809423981487, 31.99204667998975], [34.868061417074095, 31.992023055921386], [34.86803196826845, 31.99200277746166], [34.86789813072074, 31.99191025828822], [34.86775277440019, 31.99181365029945], [34.86759209034686, 31.991712853166156], [34.86744142907242, 31.991620288857696], [34.86731292624344, 31.991545007684483], [34.86715600562167, 31.99145702560986], [34.866977313873974, 31.99136177102467], [34.86679036565324, 31.99126739602666], [34.8665089330335, 31.991141837342113], [34.86444093549501, 31.989665066307275], [34.864210856998156, 31.989500817424933], [34.864089326482116, 31.989401473508963], [34.86406104099726, 31.989381828508893], [34.8640056310362, 31.989343344209505], [34.86148595156993, 31.987593283430144], [34.86162120354532, 31.988024783328182], [34.862229113734145, 31.989899412087304]]]}}, {"type": "Feature", "properties": {"OBJECTID": 79, "GUSH_NUM": 6263}, "geometry": {"type": "Polygon", "coordinates": [[[34.86041101491718, 31.990590837351583], [34.86051731642601, 31.99053725620778], [34.860625895644745, 31.99048206871912], [34.860868225053174, 31.99033019295756], [34.86102181726028, 31.990281549615425], [34.86189926363579, 31.99000396480483], [34.86198404231559, 31.98997709347663], [34.862229113734145, 31.989899412087304], [34.86162120354532, 31.988024783328182], [34.86148595156993, 31.987593283430144], [34.861128598516046, 31.98734504265256], [34.86067309345162, 31.985951333829725], [34.860877469010106, 31.985737167564693], [34.86078813903271, 31.985461646339477], [34.860787105525596, 31.985458457466322], [34.860768346593005, 31.985394603111345], [34.86068304639446, 31.985129598732996], [34.859567655472894, 31.986258649561396], [34.85942357719931, 31.986406288272654], [34.85861755923303, 31.98723210699298], [34.8579519852805, 31.98791503160054], [34.85744986530509, 31.988430010245057], [34.85728027048612, 31.98859884482327], [34.85678422304788, 31.989120834451047], [34.85656219148149, 31.989347863882333], [34.855878819094535, 31.990043534983926], [34.85553622841562, 31.990390284909562], [34.85559207044616, 31.990547299912496], [34.85562519019223, 31.990637139325184], [34.85635659792009, 31.992692456229097], [34.85636373335411, 31.992713706050257], [34.856394218763846, 31.992797363366748], [34.85652257957218, 31.992779110214975], [34.85672776576234, 31.99274993287487], [34.856899938790995, 31.99273062071106], [34.85704355256315, 31.99269815579881], [34.85716624047482, 31.992660742986743], [34.85726672917745, 31.99263309087064], [34.85750283844475, 31.992566057996683], [34.857608396365215, 31.992538478985026], [34.85768072999749, 31.992518439270587], [34.85774158885619, 31.99250147939035], [34.857805298122756, 31.99248459399944], [34.85787160086234, 31.99243198621134], [34.85801541106355, 31.99232339049351], [34.858091958469544, 31.99226522387948], [34.85811767658689, 31.992245680740165], [34.85822025474832, 31.992168642697276], [34.8583227518971, 31.992091998436965], [34.85839434768812, 31.99203723416408], [34.858474680837304, 31.991960994674752], [34.858581116542645, 31.991868137494], [34.85862718214268, 31.99182031232759], [34.858710899925335, 31.99174154513359], [34.85882119409997, 31.99164195457054], [34.85888150843955, 31.991582328332697], [34.858963657519105, 31.991514592967082], [34.85905611354414, 31.99143850603806], [34.85910167854717, 31.99140131430069], [34.859194783199825, 31.991322912299974], [34.859314884337536, 31.991225032542815], [34.85941960580012, 31.99113342619154], [34.859577444145, 31.991002814995756], [34.85967138040838, 31.990961002872247], [34.85974497434109, 31.990922674109935], [34.859835450441444, 31.990880538638635], [34.859997068225674, 31.990799285671727], [34.860147670321965, 31.99072314920825], [34.860302566839685, 31.99064484094174], [34.86041101491718, 31.990590837351583]]]}}, {"type": "Feature", "properties": {"OBJECTID": 81, "GUSH_NUM": 6469}, "geometry": {"type": "Polygon", "coordinates": [[[34.863860408954935, 32.00063027517483], [34.86355928009349, 32.0012710358571], [34.86332008912287, 32.001780010561454], [34.862888775463354, 32.001652138135846], [34.86283341443313, 32.001635720601506], [34.86297089801517, 32.002026138123895], [34.863046321444486, 32.0022404108597], [34.86309407752888, 32.00237580965312], [34.86316303002255, 32.0025515308994], [34.86325269899276, 32.00278006322976], [34.86343451327297, 32.00320890793323], [34.86356813614928, 32.00353427639905], [34.86387997654824, 32.004289471045155], [34.865569228171985, 32.00374723106417], [34.86558756457933, 32.003741393067976], [34.86763764413417, 32.00308871137807], [34.867606141770665, 32.00203325846882], [34.867715449365235, 32.002024006601935], [34.87167453153387, 32.00159976010981], [34.87180917267917, 32.00114332213195], [34.87184373278355, 32.00114767193278], [34.87184455469365, 32.00112871548976], [34.871845859782596, 32.00110548576849], [34.87184871811899, 32.00102281689341], [34.87185546338602, 32.000831096892284], [34.87186481068387, 32.00056055893103], [34.87186971230803, 32.00042281329104], [34.871874246607064, 32.00029535625484], [34.871878241001546, 32.00017088096461], [34.87188447689528, 31.999997107280556], [34.8718929470048, 31.999761090701007], [34.87190105349153, 31.999535209423534], [34.87190895662584, 31.999309948946678], [34.8719145552564, 31.999128568663032], [34.87192319558269, 31.998855006829288], [34.87192723382816, 31.998727136335404], [34.8719313646722, 31.998593542337602], [34.87193730756495, 31.998321117799726], [34.87194512051251, 31.997962991684183], [34.871950378425176, 31.99772200939583], [34.871960220000695, 31.997270861247188], [34.87196811006491, 31.996909192087347], [34.871954509746686, 31.996910087116998], [34.87159912308785, 31.99693349158883], [34.87087811744319, 31.99699195441151], [34.87078795490008, 31.996998349254287], [34.87041649736708, 31.99702469673277], [34.870129983896234, 31.997045017425886], [34.869620010803665, 31.9970696466984], [34.86899110503147, 31.997100016109787], [34.868450272863996, 31.997125993872874], [34.8683532659181, 31.997140382285078], [34.86830930259942, 31.997147471254433], [34.86553403315402, 31.99772373694687], [34.8655174909523, 31.997727173727615], [34.86453407547244, 31.997931353938696], [34.864436155207166, 31.99795598138164], [34.864156116267715, 31.99802641187718], [34.8640343718646, 31.99805703072877], [34.863786361007776, 31.998119405739747], [34.863719041220996, 31.998136336717586], [34.863634347014425, 31.998157637128475], [34.863451628181416, 31.998203590034425], [34.863350285601804, 31.998231201424957], [34.86326822337335, 31.9982535601666], [34.863159544993344, 31.998283169916284], [34.863037444069384, 31.998316437246547], [34.86283250787698, 31.99836898478785], [34.862748018267, 31.99839064767995], [34.8626056736639, 31.9984271462526], [34.86205433634153, 31.998568509966105], [34.86188944611771, 31.998610787876146], [34.86184324797526, 31.998622632788877], [34.861772838526356, 31.998640685248844], [34.861782958364934, 31.998667185891687], [34.86111365456856, 31.998834789507136], [34.861166373308954, 31.998869384589536], [34.86152944818721, 31.99910088948223], [34.86164142501804, 31.999180663364456], [34.86184483966257, 31.999305210536747], [34.86192633649467, 31.99935559329441], [34.86160816225296, 31.99981014435446], [34.86167348926514, 31.999829799758754], [34.86172487498512, 31.999847713072345], [34.86188669468548, 31.999904124872362], [34.86208247236035, 31.999972378571236], [34.86227073583882, 32.000038014516434], [34.862278260876664, 32.00004064101575], [34.86247406033495, 32.00010888515208], [34.862669870668135, 32.00017712901603], [34.86286567067791, 32.00024538156852], [34.863061471013594, 32.00031362480215], [34.86325727170852, 32.000381849699075], [34.86345316773823, 32.00045012865859], [34.86347041624348, 32.00045616297402], [34.86387583271659, 32.00059746390825], [34.863860408954935, 32.00063027517483]]]}}, {"type": "Feature", "properties": {"OBJECTID": 82, "GUSH_NUM": 6468}, "geometry": {"type": "Polygon", "coordinates": [[[34.863156088494506, 31.995098945876595], [34.86323134514343, 31.995242559284108], [34.86330152856363, 31.995387433255438], [34.86337399116581, 31.99553699366905], [34.86344340841955, 31.99568027832459], [34.86363845012926, 31.996082826051502], [34.86380125215723, 31.99641885110094], [34.86395525460367, 31.99673670804445], [34.86453407547244, 31.997931353938696], [34.8655174909523, 31.997727173727615], [34.8655340342056, 31.997723738753294], [34.86830930259942, 31.997147471254433], [34.8683532659181, 31.997140382285078], [34.868450272863996, 31.997125993872874], [34.868463949858665, 31.99709247218636], [34.86954051356765, 31.99445396470402], [34.86955482035022, 31.994419012480446], [34.869720876196354, 31.994011939954497], [34.8697730147859, 31.993884124150576], [34.86995820434343, 31.9934302422033], [34.86998050811548, 31.993375575929026], [34.87025562892986, 31.993120449937578], [34.87066533439429, 31.992740525021574], [34.87067963952758, 31.992685670746344], [34.87073273387644, 31.992482093780726], [34.87078712747711, 31.992273530520237], [34.870698923854576, 31.99221624778957], [34.87047385820451, 31.99207101903432], [34.86999737190953, 31.991763466624604], [34.86982722863836, 31.991653645577607], [34.86980003413318, 31.991636091506326], [34.86973770215994, 31.991595859091085], [34.86971173967178, 31.99157910093556], [34.86967452906842, 31.99155619166131], [34.86958871345976, 31.991643259898037], [34.86950650851159, 31.99172673038787], [34.869241877878814, 31.991809719150606], [34.869064179560205, 31.991844610339665], [34.86903304398226, 31.99185105802197], [34.868954652086586, 31.991867333999142], [34.868780982271325, 31.991903307683856], [34.86809423981487, 31.99204667998975], [34.86726799976754, 31.992217662818454], [34.86603672460802, 31.992472452206282], [34.86599507512382, 31.992481070605283], [34.86228521161457, 31.993248677103345], [34.86251660921998, 31.993799717314303], [34.862656871746324, 31.994086503348623], [34.86277882951641, 31.99433616680952], [34.862827506323804, 31.99443581183296], [34.86304223176221, 31.99487659135314], [34.863077377140726, 31.994948739064757], [34.863156088494506, 31.995098945876595]]]}}, {"type": "Feature", "properties": {"OBJECTID": 86, "GUSH_NUM": 4980}, "geometry": {"type": "Polygon", "coordinates": [[[34.860768346593005, 31.985394603111345], [34.860787105525596, 31.985458457466322], [34.86078813903271, 31.985461646339477], [34.860877469010106, 31.985737167564693], [34.86088246148541, 31.98573195061241], [34.86120038892504, 31.985398782386184], [34.861393927716364, 31.9851958585116], [34.865341264439365, 31.988004764550336], [34.86521476754648, 31.988133835438834], [34.86537824958936, 31.988248260320233], [34.86560727280423, 31.988408581448425], [34.86564591137686, 31.988435612464965], [34.86444093549501, 31.989665066307275], [34.86650893306657, 31.991141828324146], [34.866790365686256, 31.991267387008715], [34.86697731390699, 31.991361762006733], [34.867156005654685, 31.991457016591923], [34.86731292627642, 31.991544998666523], [34.867441429105384, 31.991620279839736], [34.867588207725184, 31.991715521218577], [34.867748891778845, 31.991816318356786], [34.86789424809949, 31.991912926349972], [34.86802808564708, 31.992005445527465], [34.868057534452724, 31.99202572398807], [34.86809035719346, 31.99204934805742], [34.86877709967564, 31.9919059757728], [34.86895076949743, 31.991870002093457], [34.8690338439687, 31.991852798813962], [34.86905967732886, 31.991847449044457], [34.869241877878814, 31.991809719150606], [34.86950650851159, 31.99172673038787], [34.86958871345976, 31.991643259898037], [34.86967452906842, 31.99155619166131], [34.86970033740483, 31.991530017238258], [34.87090396941534, 31.99030853614725], [34.87117617077642, 31.99003230711574], [34.87144837082943, 31.989755987297688], [34.871605760590214, 31.989597141495437], [34.87165960525622, 31.989542543164063], [34.87172099087126, 31.98948011888009], [34.871993187330524, 31.98920388802685], [34.87226538215605, 31.98892765656673], [34.87253757534788, 31.988651424499693], [34.87280976690599, 31.988375191825824], [34.87308195683045, 31.988098958545084], [34.87335414512126, 31.987822724657505], [34.87336094194467, 31.98781579849145], [34.87311575483208, 31.98764507834565], [34.87297400695235, 31.987545780283572], [34.87263003573642, 31.987304550604513], [34.87228606632359, 31.987063319996132], [34.87194209871385, 31.986822088458457], [34.87159813290716, 31.986580855991466], [34.87125490989253, 31.986339534359843], [34.87091094769029, 31.986098300036364], [34.87056698729109, 31.985857064783687], [34.87022302869487, 31.985615828601837], [34.86982408540658, 31.9853360296614], [34.86924572711491, 31.984930495107264], [34.86900404269405, 31.98476094859941], [34.86888140619943, 31.98467504317309], [34.86861653636565, 31.98494533503785], [34.86834253165656, 31.985224890733164], [34.868069268242344, 31.985503816518783], [34.86792737915507, 31.985648540803094], [34.86779855245002, 31.985780043039636], [34.867525817089444, 31.986058337754162], [34.86736520392229, 31.98594094726852], [34.86338889198261, 31.98310614373832], [34.86317984185013, 31.982956964443613], [34.86296368177031, 31.982802767874553], [34.86295239369135, 31.982814386121117], [34.86194837394572, 31.983838982819748], [34.86141237789297, 31.98438378288054], [34.86136173646133, 31.98443603635237], [34.861308170815484, 31.98449131737262], [34.86106004201331, 31.984742159658836], [34.86096151185629, 31.984843143175368], [34.86087600717054, 31.984930030593105], [34.86068304639446, 31.985129598732996], [34.860768346593005, 31.985394603111345]]]}}, {"type": "Feature", "properties": {"OBJECTID": 87, "GUSH_NUM": 6255}, "geometry": {"type": "Polygon", "coordinates": [[[34.854193507207306, 31.993174833303456], [34.8542500927875, 31.993928642452445], [34.85425556401343, 31.99393800654042], [34.85433194704001, 31.994056141542263], [34.854367702685735, 31.994124261367606], [34.85328425146801, 31.994422380102197], [34.85285330466537, 31.994555028917734], [34.852861364909764, 31.994569736204163], [34.8535131324046, 31.99547313547547], [34.853794848740606, 31.99586361016229], [34.85384537465131, 31.995934090362844], [34.854002314472716, 31.996153132513605], [34.854313583714344, 31.996587566637302], [34.85454330088354, 31.996426056104035], [34.85470763453148, 31.996678923635262], [34.85490406628797, 31.996978863272822], [34.8550310216602, 31.997182479176843], [34.855074139345795, 31.997253569744945], [34.85526207634083, 31.997170760442927], [34.85718346537676, 31.9960679786416], [34.857648657578466, 31.995800973386455], [34.85775886743128, 31.995897858486735], [34.85805601076289, 31.99615907625124], [34.85834007181497, 31.996408790314828], [34.85861865608983, 31.996653688518936], [34.85867923399841, 31.99670694090539], [34.85878667505291, 31.99705536821717], [34.85889868581275, 31.997418610053817], [34.859216479601756, 31.997621212726486], [34.85954633525592, 31.997831502787186], [34.859928597205275, 31.998075200868136], [34.86024081603655, 31.998274244459964], [34.860583467576475, 31.998492686359167], [34.86090643871593, 31.998698580484643], [34.86108898674515, 31.998814954353108], [34.86111365456856, 31.998834789507136], [34.861779186638266, 31.99865982781972], [34.86177202876741, 31.99864586301639], [34.861839107478, 31.998623664094456], [34.86189457405408, 31.998609444505217], [34.862054287703174, 31.998568499013246], [34.862600852000504, 31.99842837594851], [34.862741544167314, 31.9983923057972], [34.86282827831355, 31.998370069092466], [34.86303296675205, 31.99831755696357], [34.86315244552622, 31.998285104128], [34.863271385399855, 31.998252698427937], [34.86333796779124, 31.99823461590815], [34.863451628181416, 31.998203590034425], [34.86345383030438, 31.99820303593205], [34.86363044802299, 31.998158617738596], [34.86370981753068, 31.998138656639654], [34.86379288474315, 31.99811776483646], [34.86403190600427, 31.99805765086721], [34.8641523200315, 31.998027366626665], [34.86442591788169, 31.99795855655581], [34.86453407547244, 31.997931353938696], [34.86395525460367, 31.99673670804445], [34.86380125215723, 31.99641885110094], [34.86363845012926, 31.996082826051502], [34.86344340841955, 31.99568027832459], [34.86337399116581, 31.99553699366905], [34.86330152856363, 31.995387433255438], [34.86323134514343, 31.995242559284108], [34.863156088494506, 31.995098945876595], [34.863077377140726, 31.994948739064757], [34.86304223176221, 31.99487659135314], [34.862827506323804, 31.99443581183296], [34.86277882951641, 31.99433616680952], [34.862656871746324, 31.994086503348623], [34.86251660921998, 31.993799717314303], [34.86228521161457, 31.993248677103345], [34.86226053212757, 31.993198109575935], [34.86125123913131, 31.991122252629463], [34.86121724487816, 31.991052334047183], [34.860964253316936, 31.99053197804812], [34.86089074432372, 31.990380781978804], [34.860868225053174, 31.99033019295756], [34.860625895644745, 31.99048206871912], [34.86051731642601, 31.99053725620778], [34.86041101491718, 31.990590837351583], [34.860302566839685, 31.99064484094174], [34.860147670321965, 31.99072314920825], [34.859997068225674, 31.990799285671727], [34.859835450441444, 31.990880538638635], [34.85974497434109, 31.990922674109935], [34.85967138040838, 31.990961002872247], [34.859577444145, 31.991002814995756], [34.85941960580012, 31.99113342619154], [34.859314884337536, 31.991225032542815], [34.859194783199825, 31.991322912299974], [34.85910167854717, 31.99140131430069], [34.85905611354414, 31.99143850603806], [34.858963657519105, 31.991514592967082], [34.85888150843955, 31.991582328332697], [34.85882119409997, 31.99164195457054], [34.858710899925335, 31.99174154513359], [34.85862718214268, 31.99182031232759], [34.858581116542645, 31.991868137494], [34.858474680837304, 31.991960994674752], [34.85839434768812, 31.99203723416408], [34.8583227518971, 31.992091998436965], [34.85822025474832, 31.992168642697276], [34.85811767658689, 31.992245680740165], [34.858091958469544, 31.99226522387948], [34.85801541106355, 31.99232339049351], [34.85787160086234, 31.99243198621134], [34.857805298122756, 31.99248459399944], [34.85774158885619, 31.99250147939035], [34.85768072999749, 31.992518439270587], [34.857608396365215, 31.992538478985026], [34.85750283844475, 31.992566057996683], [34.85726672917745, 31.99263309087064], [34.85716624047482, 31.992660742986743], [34.85704355256315, 31.99269815579881], [34.856899938790995, 31.99273062071106], [34.85672776576234, 31.99274993287487], [34.85652257957218, 31.992779110214975], [34.856394218763846, 31.992797363366748], [34.854850908228556, 31.99301173132722], [34.85419669583089, 31.993113757571436], [34.854193507207306, 31.993174833303456]]]}}, {"type": "Feature", "properties": {"OBJECTID": 105, "GUSH_NUM": 4981}, "geometry": {"type": "Polygon", "coordinates": [[[34.86924572711491, 31.984930495107264], [34.86982408540658, 31.9853360296614], [34.87022302869487, 31.985615828601837], [34.87056698729109, 31.985857064783687], [34.87091094769029, 31.986098300036364], [34.87125490989253, 31.986339534359843], [34.87159813290716, 31.986580855991466], [34.87194209871385, 31.986822088458457], [34.87228606632359, 31.987063319996132], [34.87263003573642, 31.987304550604513], [34.87297400695235, 31.987545780283572], [34.87311575483208, 31.98764507834565], [34.87336094194467, 31.98781579849145], [34.87335414512126, 31.987822724657505], [34.87362592413975, 31.98754744862086], [34.873898423676536, 31.987271438889046], [34.87417060179285, 31.98699519956044], [34.87444277722075, 31.98671895872055], [34.87471495207002, 31.986442718178505], [34.87498713056336, 31.986166480650663], [34.87525920161474, 31.985890242241748], [34.875565464800324, 31.985579462514387], [34.87590560200581, 31.98523414038979], [34.87653160414751, 31.98459881414615], [34.87659967273024, 31.984529731332152], [34.8767357037824, 31.98439156531725], [34.876977287059084, 31.984146446853522], [34.87705193898877, 31.984070617233186], [34.87714389997537, 31.98397715681582], [34.87778931709931, 31.98332221487374], [34.87754594314362, 31.9831484417095], [34.87738130217421, 31.983030873080846], [34.874137328480735, 31.980714031642066], [34.873894271497036, 31.980544220229998], [34.87378240032446, 31.98046601286685], [34.87333238411634, 31.980151552573133], [34.873168800242816, 31.98003722772615], [34.872750660474246, 31.97974503296784], [34.872595942967706, 31.97963695300734], [34.87253082679095, 31.979591421940615], [34.872341599200574, 31.979459263401033], [34.870120160116855, 31.977858859448595], [34.8691099795039, 31.97713123330942], [34.86898633403742, 31.977034593767453], [34.867679249103226, 31.97834948305578], [34.86700556462826, 31.979057324975777], [34.866685214654126, 31.979399249326853], [34.86660487288325, 31.979149686305167], [34.866016533130086, 31.979692757407978], [34.865781227209325, 31.979930276848307], [34.86547780441544, 31.98023594917242], [34.865433103632675, 31.98028087047156], [34.86534687576978, 31.980369920695853], [34.86517325612917, 31.98054503017115], [34.864949832422624, 31.980772903405885], [34.864430389713036, 31.981301761971388], [34.86435270405336, 31.981380366223906], [34.864047584008794, 31.9816912338869], [34.863719991598686, 31.98202628911052], [34.86361839080868, 31.982128896077263], [34.86296368177031, 31.982802767874553], [34.86317984185013, 31.982956964443613], [34.86338889198261, 31.98310614373832], [34.86736520392229, 31.98594094726852], [34.867525817089444, 31.986058337754162], [34.86779855245002, 31.985780043039636], [34.86792737915507, 31.985648540803094], [34.868069268242344, 31.985503816518783], [34.86834253165656, 31.985224890733164], [34.86861653636565, 31.98494533503785], [34.86888140619943, 31.98467504317309], [34.86900404269405, 31.98476094859941], [34.86924572711491, 31.984930495107264]]]}}, {"type": "Feature", "properties": {"OBJECTID": 106, "GUSH_NUM": 4980}, "geometry": {"type": "Polygon", "coordinates": [[[34.860768346593005, 31.985394603111345], [34.860787105525596, 31.985458457466322], [34.86078813903271, 31.985461646339477], [34.860877469010106, 31.985737167564693], [34.86088246148541, 31.98573195061241], [34.86120038892504, 31.985398782386184], [34.861393927716364, 31.9851958585116], [34.865341264439365, 31.988004764550336], [34.86521476754648, 31.988133835438834], [34.86537824958936, 31.988248260320233], [34.86560727280423, 31.988408581448425], [34.86564591137686, 31.988435612464965], [34.86444093549501, 31.989665066307275], [34.86650893306657, 31.991141828324146], [34.866790365686256, 31.991267387008715], [34.86697731390699, 31.991361762006733], [34.867156005654685, 31.991457016591923], [34.86731292627642, 31.991544998666523], [34.867441429105384, 31.991620279839736], [34.867588207725184, 31.991715521218577], [34.867748891778845, 31.991816318356786], [34.86789424809949, 31.991912926349972], [34.86802808564708, 31.992005445527465], [34.868057534452724, 31.99202572398807], [34.86809035719346, 31.99204934805742], [34.86877709967564, 31.9919059757728], [34.86895076949743, 31.991870002093457], [34.8690338439687, 31.991852798813962], [34.86905967732886, 31.991847449044457], [34.869241877878814, 31.991809719150606], [34.86950650851159, 31.99172673038787], [34.86958871345976, 31.991643259898037], [34.86967452906842, 31.99155619166131], [34.86970033740483, 31.991530017238258], [34.87090396941534, 31.99030853614725], [34.87117617077642, 31.99003230711574], [34.87144837082943, 31.989755987297688], [34.871605760590214, 31.989597141495437], [34.87165960525622, 31.989542543164063], [34.87172099087126, 31.98948011888009], [34.871993187330524, 31.98920388802685], [34.87226538215605, 31.98892765656673], [34.87253757534788, 31.988651424499693], [34.87280976690599, 31.988375191825824], [34.87308195683045, 31.988098958545084], [34.87335414512126, 31.987822724657505], [34.87336094194467, 31.98781579849145], [34.87311575483208, 31.98764507834565], [34.87297400695235, 31.987545780283572], [34.87263003573642, 31.987304550604513], [34.87228606632359, 31.987063319996132], [34.87194209871385, 31.986822088458457], [34.87159813290716, 31.986580855991466], [34.87125490989253, 31.986339534359843], [34.87091094769029, 31.986098300036364], [34.87056698729109, 31.985857064783687], [34.87022302869487, 31.985615828601837], [34.86982408540658, 31.9853360296614], [34.86924572711491, 31.984930495107264], [34.86900404269405, 31.98476094859941], [34.86888140619943, 31.98467504317309], [34.86861653636565, 31.98494533503785], [34.86834253165656, 31.985224890733164], [34.868069268242344, 31.985503816518783], [34.86792737915507, 31.985648540803094], [34.86779855245002, 31.985780043039636], [34.867525817089444, 31.986058337754162], [34.86736520392229, 31.98594094726852], [34.86338889198261, 31.98310614373832], [34.86317984185013, 31.982956964443613], [34.86296368177031, 31.982802767874553], [34.86295239369135, 31.982814386121117], [34.86194837394572, 31.983838982819748], [34.86141237789297, 31.98438378288054], [34.86136173646133, 31.98443603635237], [34.861308170815484, 31.98449131737262], [34.86106004201331, 31.984742159658836], [34.86096151185629, 31.984843143175368], [34.86087600717054, 31.984930030593105], [34.86068304639446, 31.985129598732996], [34.860768346593005, 31.985394603111345]]]}}, {"type": "Feature", "properties": {"OBJECTID": 108, "GUSH_NUM": 5990}, "geometry": {"type": "Polygon", "coordinates": [[[34.86120038892504, 31.985398782386184], [34.86088246148541, 31.98573195061241], [34.860877469010106, 31.985737167564693], [34.86067309345162, 31.985951333829725], [34.861128598516046, 31.98734504265256], [34.86148595156993, 31.987593283430144], [34.8640056310362, 31.989343344209505], [34.86406104103055, 31.989381819490944], [34.86408932651539, 31.989401464490996], [34.86421086774582, 31.989500772363566], [34.86444093549501, 31.989665066307275], [34.86564591137686, 31.988435612464965], [34.86560727280423, 31.988408581448425], [34.86537824958936, 31.988248260320233], [34.86521476754648, 31.988133835438834], [34.865341264439365, 31.988004764550336], [34.861393927716364, 31.9851958585116], [34.86120038892504, 31.985398782386184]]]}}]}