{"type": "FeatureCollection", "features": [{"type": "Feature", "properties": {"OBJECTID": 28917830, "LAYER_ID": 7566787, "GROUP_ID": 450367, "SCENARIO": "", "DEFQ": 0, "PLAN_NAME": "", "DATA_DATE": null, "MAVAT_CODE": 30001, "MAVAT_NAME": "׳¢׳‘׳¨׳™׳× ENTITY", "BLOCKNAME": "DIM", "ROTATION": 29.38417878, "TYPE_CODE": 0, "TYPE_NAME": "DIM", "SOURCE_COD": 0, "STATUS": "", "PL_CHANGE": "", "PLACE_NO": 0, "REMARKS": "", "VALUE1": "", "TAGNAME1": "205073.844035507", "TAGNAME2": "627918.87000757", "VALUE2": "", "TAGNAME3": "", "VALUE3": "1", "DATE_DEC": "", "STAGE": "", "NAME": "DIM", "LABEL": "3.8", "FONT_SIZE": 1.0, "AGAM_ID": 4005344236.0}, "geometry": {"type": "Point", "coordinates": [34.84623132068101, 31.99603656662317]}}, {"type": "Feature", "properties": {"OBJECTID": 28917831, "LAYER_ID": 7566787, "GROUP_ID": 450367, "SCENARIO": "", "DEFQ": 0, "PLAN_NAME": "", "DATA_DATE": null, "MAVAT_CODE": 30001, "MAVAT_NAME": "׳¢׳‘׳¨׳™׳× ENTITY", "BLOCKNAME": "DIM", "ROTATION": 299.70925066, "TYPE_CODE": 0, "TYPE_NAME": "DIM", "SOURCE_COD": 0, "STATUS": "", "PL_CHANGE": "", "PLACE_NO": 0, "REMARKS": "", "VALUE1": "", "TAGNAME1": "205073.844035507", "TAGNAME2": "627918.87000757", "VALUE2": "", "TAGNAME3": "", "VALUE3": "1", "DATE_DEC": "", "STAGE": "", "NAME": "DIM", "LABEL": "3", "FONT_SIZE": 1.0, "AGAM_ID": 4005344236.0}, "geometry": {"type": "Point", "coordinates": [34.84637697932507, 31.995978764546308]}}, {"type": "Feature", "properties": {"OBJECTID": 28917832, "LAYER_ID": 7566787, "GROUP_ID": 450367, "SCENARIO": "", "DEFQ": 0, "PLAN_NAME": "", "DATA_DATE": null, "MAVAT_CODE": 30001, "MAVAT_NAME": "׳¢׳‘׳¨׳™׳× ENTITY", "BLOCKNAME": "DIM", "ROTATION": 29.58686723, "TYPE_CODE": 0, "TYPE_NAME": "DIM", "SOURCE_COD": 0, "STATUS": "", "PL_CHANGE": "", "PLACE_NO": 0, "REMARKS": "", "VALUE1": "", "TAGNAME1": "205073.844035507", "TAGNAME2": "627918.87000757", "VALUE2": "", "TAGNAME3": "", "VALUE3": "1", "DATE_DEC": "", "STAGE": "", "NAME": "DIM", "LABEL": "3", "FONT_SIZE": 1.0, "AGAM_ID": 4005344236.0}, "geometry": {"type": "Point", "coordinates": [34.84637259293276, 31.99609400611135]}}, {"type": "Feature", "properties": {"OBJECTID": 28917833, "LAYER_ID": 7566787, "GROUP_ID": 450367, "SCENARIO": "", "DEFQ": 0, "PLAN_NAME": "", "DATA_DATE": null, "MAVAT_CODE": 30001, "MAVAT_NAME": "׳¢׳‘׳¨׳™׳× ENTITY", "BLOCKNAME": "DIM", "ROTATION": 299.79115002, "TYPE_CODE": 0, "TYPE_NAME": "DIM", "SOURCE_COD": 0, "STATUS": "", "PL_CHANGE": "", "PLACE_NO": 0, "REMARKS": "", "VALUE1": "", "TAGNAME1": "205073.844035507", "TAGNAME2": "627918.87000757", "VALUE2": "", "TAGNAME3": "", "VALUE3": "1", "DATE_DEC": "", "STAGE": "", "NAME": "DIM", "LABEL": "3.8", "FONT_SIZE": 1.0, "AGAM_ID": 4005344236.0}, "geometry": {"type": "Point", "coordinates": [34.84625985791599, 31.996142906535614]}}]}