<?xml version="1.0" encoding="UTF-8"?>
<kml xmlns="http://www.opengis.net/kml/2.2"
 xmlns:gx="http://www.google.com/kml/ext/2.2">
<Document>
  <Style id="Plan">
	<LabelStyle>		
<color>00000000</color>
			
<scale>0</scale>
		
</LabelStyle>
		
<LineStyle>
			
<color>ffff0000</color>
			
<width>3</width>
		
</LineStyle>
		
<PolyStyle>
			
<fill>0</fill>
		
</PolyStyle>

   <BalloonStyle>
    <text>


<![CDATA[<?xml version="1.0"?>
<table border="0"  width="560" cellpadding="2" cellspacing="2" dir="rtl" xmlns:fo="http://www.w3.org/1999/XSL/Format">
<tr>
<td align="center" colspan="2" height="20" style="border-bottom: Solid 1px #b4b5b4">
<font face="Arial" size="3" color="#b50027">
<b>פרטי גבול תכנית</b>
</font>
</td>
</tr>


<tr>
<td  align="right"><font face="Arial" size="3">מספר תכנית</font>
</td>
<td align="right" bgcolor="#efefef" height="20">
<font face="Arial" size="3" color="#202520">
<b>$[PL_NUMBER]</b>
</font>
</td>
</tr>

<tr>
<td  align="right"><font face="Arial" size="3">שם תכנית</font>
</td>
<td align="right" bgcolor="#efefef" height="20">
<font face="Arial" size="3" color="#202520">
<b>$[PL_NAME]</b>
</font>
</td>
</tr>

<tr>
<td  align="right"><font face="Arial" size="3">שטח התכנית</font>
</td>
<td align="right" bgcolor="#efefef" height="20">
<font face="Arial" size="3" color="#202520">
<b>$[PL_AREA]</b>
</font>
</td>
</tr>

<tr>
<td  align="right"><font face="Arial" size="3">קישור לתכנית</font>
</td>
<td align="right" bgcolor="#efefef" height="20">
<font face="Arial" size="3" color="#202520">
<b>$[PL_URL]</b>
</font>
</td>
</tr>


<tr>
<td  align="right"><font face="Arial" size="3">תאריך יצור הקובץ</font>
</td>
<td align="right" bgcolor="#efefef" height="20">
<font face="Arial" size="3" color="#202520">
<b>$[CREATE_DATE]</b>
</font>
</td>
</tr>

</table>]]> 

</text>
     </BalloonStyle>
  </Style>

  <Placemark>
   <name name="name"><value>גבול תכנית</value></name>
   <description/>   
   <styleUrl>#Plan</styleUrl>
<MultiGeometry>
<Polygon><outerBoundaryIs><LinearRing><coordinates>34.8253186027654,32.0142917729847,0 34.8247759324357,32.0146473299679,0 34.8244313536401,32.0148658856478,0 34.8241705400928,32.0150207270749,0 34.8224625265678,32.0160294073667,0 34.8222252189562,32.0161576602085,0 34.8221700256608,32.0161958490922,0 34.8222797167392,32.0164078603553,0 34.8223553729899,32.0164535785777,0 34.8219431429482,32.0165569227518,0 34.8216393580726,32.0165188124183,0 34.8215826613254,32.0165116992319,0 34.8213324972983,32.0164339789727,0 34.8169405562239,32.0196027098472,0 34.8169108726611,32.0196885819902,0 34.8168629214054,32.0198036958585,0 34.8167521770139,32.0200448458073,0 34.816658904572,32.0201992998692,0 34.8165113260343,32.0204268352495,0 34.8163707077864,32.0206241545153,0 34.816155906461,32.0208974987811,0 34.8158145829546,32.0212386884912,0 34.8155002198874,32.0215591537059,0 34.815108020849,32.0219606129542,0 34.8147279752433,32.0222768615207,0 34.8142023207542,32.0227232066861,0 34.8140010217095,32.0229005943389,0 34.8141506841567,32.0229853134682,0 34.8130845875037,32.0238357397197,0 34.8127621363153,32.0241088160663,0 34.8121483257463,32.0245527014183,0 34.807083796115,32.0281938228438,0 34.8069160643965,32.0281256750963,0 34.8063847156043,32.0285088219713,0 34.8062657957056,32.0283876802249,0 34.8059856864642,32.0280542778857,0 34.8059273938971,32.0280021891816,0 34.8059138398689,32.0279875266835,0 34.8057777540094,32.0280822129809,0 34.8061375079779,32.0285526015209,0 34.8061776362031,32.0286089797232,0 34.8060792520103,32.0286704652377,0 34.8049903264967,32.0294381007989,0 34.8036246952022,32.0303420099036,0 34.803610454849,32.0303070221575,0 34.800821185008,32.0323097370853,0 34.798612913771,32.0338943537947,0 34.7985054303971,32.0337828582241,0 34.7981501219901,32.033432000918,0 34.7933099578516,32.0369181183189,0 34.7926409264345,32.0373895576926,0 34.7913499171816,32.0383144403158,0 34.7884953263035,32.0414222957253,0 34.7886418011702,32.0413394939524,0 34.7888826801847,32.0412033268463,0 34.7890213772395,32.0411246798399,0 34.7891946863099,32.0410229663962,0 34.7894974546757,32.0408177828594,0 34.7896264397432,32.0409542205029,0 34.7895820978203,32.0410087654847,0 34.7894355754248,32.0411953175798,0 34.7893305103314,32.0413213146522,0 34.7892163770685,32.0414625222169,0 34.7890981804206,32.0416125539227,0 34.7889806027292,32.0417661045301,0 34.7889184915742,32.0418517515519,0 34.7888519198224,32.0419404500106,0 34.7887091373678,32.0421421635893,0 34.7885666819451,32.0423650701801,0 34.7884259220523,32.0426108876773,0 34.7883416817398,32.0427668015378,0 34.7882459376338,32.0429613644363,0 34.7881312445122,32.043202036763,0 34.7880451527886,32.0433924829496,0 34.7877619893095,32.043988358217,0 34.7875766204404,32.0443810200689,0 34.78731267367,32.0449405250283,0 34.7871385982514,32.0453168107206,0 34.7870230073418,32.0455440422782,0 34.7869207119971,32.0457344342478,0 34.7868742224121,32.0458180575249,0 34.7860376053965,32.0472654691724,0 34.7859070939189,32.0475362068711,0 34.785815070399,32.0477252790956,0 34.7856912770058,32.0479387750071,0 34.7856162571561,32.0480673930721,0 34.7854663858459,32.0483340082398,0 34.7853035470115,32.048611401825,0 34.7850978102894,32.0489616983226,0 34.7849050258983,32.0492808353715,0 34.7847123275007,32.0495975393577,0 34.7843094113303,32.0503760351114,0 34.7840318835982,32.0512112910899,0 34.7840269248898,32.0513926246928,0 34.7840424525336,32.0516091960667,0 34.784055825649,32.0517875243754,0 34.7840774291656,32.0521110682143,0 34.7840956357105,32.0523670566777,0 34.7841160862003,32.0525954577896,0 34.7841420335629,32.0528722130735,0 34.7841593547201,32.0530903233762,0 34.7841807304404,32.0533248596943,0 34.7842016278332,32.0535945642282,0 34.7842284945119,32.0538556313549,0 34.7842528531929,32.0540399478201,0 34.7842819640236,32.0542502515819,0 34.7843022750203,32.054370347162,0 34.7843314120849,32.0545286177089,0 34.7843736605255,32.0548300457656,0 34.7843935663766,32.0548998201015,0 34.7844411828996,32.0550925100516,0 34.7844731999753,32.0552462811452,0 34.7845130680841,32.0554199176178,0 34.7845567927849,32.0555838275209,0 34.7845899893986,32.0557344462185,0 34.7846366973668,32.0558943980952,0 34.7847908562474,32.0564546495409,0 34.7850355169003,32.057337187885,0 34.7853663902103,32.0586565598392,0 34.785650892907,32.05959301662,0 34.7856912860956,32.0597220157896,0 34.7857667774423,32.0599569107857,0 34.7857858719601,32.0600192875055,0 34.7858214515376,32.0601357358541,0 34.7858523358384,32.0602368382655,0 34.7859159314016,32.0604797197885,0 34.7859485660088,32.0605918297806,0 34.7859953201465,32.0607659393016,0 34.7860442839157,32.060896680039,0 34.78610629822,32.0610451389045,0 34.7861682002585,32.0611717740702,0 34.7862330580676,32.0613004930734,0 34.7863171769875,32.0614551569414,0 34.7864250178884,32.0616328946247,0 34.78650575445,32.0617630185435,0 34.7865958515187,32.0619073313618,0 34.786703824792,32.0620794781453,0 34.7867921443876,32.0622189153002,0 34.7868961611454,32.062376349715,0 34.787068009361,32.0626145372251,0 34.7871860147242,32.0627699433548,0 34.7872997352314,32.0629128905809,0 34.7873962204631,32.0630268335586,0 34.7875071413256,32.0631567856222,0 34.7876209335712,32.0632841318448,0 34.7877178897952,32.0633877957311,0 34.7879285174512,32.0635989657345,0 34.7881107143924,32.0637746016799,0 34.78830298494,32.0639474748982,0 34.7884488825427,32.0640713186453,0 34.7885922859263,32.0641847834677,0 34.7887195648187,32.0642810612421,0 34.7889356862255,32.0644492322625,0 34.7891156174158,32.0645880663467,0 34.7892305513305,32.0646745638266,0 34.7896209852936,32.0649601765464,0 34.7897068566295,32.0650335926934,0 34.7899494389698,32.065229172784,0 34.7902284057023,32.0654820447535,0 34.7906151928139,32.065873422298,0 34.7907395112362,32.0660166715616,0 34.790962759587,32.0662972252507,0 34.7910338153304,32.0663923252551,0 34.7912473332336,32.0666940387208,0 34.7913998229089,32.0669317062724,0 34.7915485529305,32.0671813551722,0 34.7917039996366,32.067468359814,0 34.7917921079698,32.067657661646,0 34.7919033685423,32.0679268470704,0 34.7920547161075,32.0682782256064,0 34.7921714494477,32.0686497815672,0 34.7922633480177,32.0689625502002,0 34.7923193870748,32.0691715866515,0 34.7924018399966,32.0695598942951,0 34.792446517594,32.0697992839894,0 34.7924717284982,32.0699870280843,0 34.7924983569088,32.0702838029643,0 34.7925047453771,32.0703942927799,0 34.7925105223587,32.0704522063587,0 34.7925075311737,32.0706941463799,0 34.7925134936284,32.070805175876,0 34.7925177250375,32.0710424500675,0 34.7925209083919,32.0712300323241,0 34.7925225940371,32.0714682000112,0 34.7925236238768,32.0715455767665,0 34.7925268328656,32.0716329704516,0 34.7925278069607,32.0716873514313,0 34.7925335845658,32.0722057179,0 34.7925334807638,32.0724178180647,0 34.7925142262494,32.0735019225819,0 34.7926512962574,32.0741442227227,0 34.7927687341131,32.0745615909369,0 34.793004911477,32.0751773772069,0 34.7934859335559,32.0760722075356,0 34.7936259919353,32.0762874188185,0 34.7937281678681,32.0764599914752,0 34.79385189179,32.0766457097984,0 34.7939558719564,32.0767939398566,0 34.7940660609971,32.0769512078122,0 34.7941821138752,32.0770999276799,0 34.7942985001687,32.0772452217277,0 34.7943942760524,32.077357263191,0 34.7946129993661,32.077603296727,0 34.7946650625796,32.0776612696951,0 34.7948048350909,32.0778115987425,0 34.7949834218441,32.0779984852893,0 34.7950207464364,32.0780364809777,0 34.7951217419332,32.0781422262438,0 34.7952546540102,32.0782874826173,0 34.7954299123824,32.0784611015091,0 34.7956685694381,32.078716356112,0 34.7958244915551,32.0788799022251,0 34.7959642778376,32.0790279755601,0 34.7960778060086,32.0791502631705,0 34.7963074478161,32.0794090946479,0 34.7964534733739,32.0796074170758,0 34.7966403125614,32.0798694467012,0 34.796799338094,32.0801220981448,0 34.796929084871,32.0803613087569,0 34.7970294946995,32.0805762569977,0 34.7973743538412,32.0816093902918,0 34.797562681041,32.0819162222509,0 34.7975831887083,32.082116665126,0 34.7975977334503,32.0823242129562,0 34.7976020976107,32.0825106262754,0 34.7976112356652,32.0828866104662,0 34.7976164934025,32.0829669765368,0 34.7976192059681,32.08309585055,0 34.79763341354,32.0832839186732,0 34.7976399823999,32.0834030657692,0 34.7976572728743,32.0835647214368,0 34.797678951337,32.0837400983428,0 34.7977405351639,32.0841105587731,0 34.7977696839684,32.0842518829289,0 34.7978060138536,32.0844196416472,0 34.7978507439966,32.0845801228445,0 34.7978921458978,32.0847267960099,0 34.7979408553234,32.0848737631453,0 34.7980139064373,32.0850732923242,0 34.7981316112024,32.0853551174227,0 34.7981920791147,32.0855020319873,0 34.7982763359169,32.0857068272976,0 34.7984066471861,32.0860365773887,0 34.7985528982682,32.0864029007488,0 34.7986508278089,32.0866540914062,0 34.7987624944546,32.0869368884894,0 34.7988852244418,32.0872571450076,0 34.7990020991543,32.0875602487197,0 34.7990561343396,32.087701280636,0 34.7990948646894,32.0878060117554,0 34.7991326503107,32.0879155301256,0 34.7993869502814,32.0882661030579,0 34.7994734979875,32.0884666087266,0 34.7995968614983,32.0887643218798,0 34.7997187923536,32.0890964478828,0 34.8009685840115,32.0888033922158,0 34.8008337321565,32.0884023748507,0 34.8007414659661,32.0881382182423,0 34.8006364618948,32.0878561655882,0 34.8005114458304,32.0875483481202,0 34.800388266985,32.0872564979928,0 34.800288527701,32.0870301921987,0 34.8001794050557,32.0867699492143,0 34.8000199480401,32.0864181944927,0 34.7999405827235,32.0862513450915,0 34.7999129827465,32.0861975465648,0 34.7998201397011,32.0859932659837,0 34.7997464682628,32.0858372921478,0 34.7996603151349,32.0856534131851,0 34.799581943738,32.0854824545761,0 34.7994985285368,32.0853023717497,0 34.7994232772065,32.0851206015737,0 34.7993152673879,32.0848492693754,0 34.799250335795,32.0846814196022,0 34.7991892068542,32.0845160167811,0 34.7991382378289,32.084376617885,0 34.7990618622054,32.0841379411506,0 34.7989882835139,32.0838896241996,0 34.7989622549798,32.0837872782948,0 34.7989472557265,32.0837298766588,0 34.7988014531362,32.0831906825579,0 34.7984685114331,32.081952003947,0 34.7983230739091,32.0814153353457,0 34.7982036340054,32.0810119438362,0 34.7981326668407,32.0808208079552,0 34.7980448762066,32.0806018430241,0 34.7979298315871,32.0803387599244,0 34.7980753689006,32.0802368487781,0 34.7978752097013,32.0798808610007,0 34.7978423919319,32.0798292636351,0 34.7977254231779,32.0796699932879,0 34.7976526501113,32.0795761541356,0 34.7975638543622,32.0794650393484,0 34.7974271043882,32.0793002944658,0 34.7973670373183,32.079231385292,0 34.797203145885,32.0790489681012,0 34.797028996578,32.0788630909174,0 34.7968592503572,32.0786875982104,0 34.7967078437867,32.0785324545118,0 34.7965963797448,32.0784223482257,0 34.7963626543206,32.078177121073,0 34.7961999663665,32.0780107582627,0 34.7960210613597,32.0778234214988,0 34.7959058511021,32.0776986935708,0 34.7958570106136,32.0776541681326,0 34.7956837837601,32.0774764081463,0 34.7955189908553,32.0773076028386,0 34.7953952106237,32.0771811333852,0 34.7952425979142,32.0770125473985,0 34.7951441968416,32.0768952677193,0 34.7950048851942,32.0767130172463,0 34.7948014807367,32.0764392985173,0 34.794633570819,32.0761865255629,0 34.7945027421506,32.075978781383,0 34.794408647073,32.0758122305694,0 34.7942931685429,32.0755930398578,0 34.7942711346526,32.0755465264704,0 34.7942169216758,32.0754247899924,0 34.7941793677874,32.0753198806837,0 34.7939472579434,32.074100182583,0 34.794058847385,32.0729609188262,0 34.7940079758833,32.0723391877317,0 34.7939776875875,32.0722203241427,0 34.7939217832918,32.0719561896886,0 34.7938680856092,32.0716960302182,0 34.7937916366024,32.0713369610102,0 34.7937124222663,32.0709569612907,0 34.7936678717178,32.0707830422969,0 34.7936146950938,32.0705487656873,0 34.7935524878978,32.0702498917293,0 34.7934612489371,32.0698357652072,0 34.7934045198322,32.0695909260343,0 34.7933502257793,32.0693699921188,0 34.7933028576144,32.0691870459356,0 34.7932216092667,32.0689074082464,0 34.7931093496721,32.0685527312113,0 34.7929855743218,32.0682156917212,0 34.7929359287383,32.0680922560182,0 34.7928601866948,32.0678841477698,0 34.7927941039549,32.067718454912,0 34.7927097885721,32.0675330437833,0 34.7926409230046,32.0673740150319,0 34.7925693782072,32.0672221016615,0 34.792463330606,32.0670182232301,0 34.7923573505449,32.0668230020962,0 34.7922251538215,32.066593788333,0 34.7920912184273,32.0663745786233,0 34.7919866895395,32.0662102932419,0 34.7918845469168,32.0660571075422,0 34.7917475215479,32.0658660232068,0 34.7916172906681,32.0656948903875,0 34.7915137682067,32.0655662285414,0 34.7913930416327,32.0654247953099,0 34.7912271715439,32.0652429949796,0 34.7910870769101,32.0650991536434,0 34.790918155599,32.0649367314119,0 34.7907808485031,32.0648090408518,0 34.790688323187,32.0647315456507,0 34.7906849613575,32.0647293198803,0 34.790213289792,32.0643482664813,0 34.7900292347009,32.0642077972376,0 34.789597502147,32.063875247714,0 34.7892174833297,32.0635824547135,0 34.7889477098711,32.0633592794865,0 34.7886988258418,32.0631303105911,0 34.7884871654409,32.0629131866515,0 34.7882845066586,32.0626728257616,0 34.7880506635243,32.0623737457935,0 34.7878745990433,32.0621307662542,0 34.7877230933136,32.0618900315213,0 34.7875986102957,32.0616685936011,0 34.7875205900571,32.0614996121942,0 34.7874347750121,32.0612748745165,0 34.7873002931821,32.0608303007381,0 34.7871205059303,32.0598457665248,0 34.7871647290569,32.0595165335768,0 34.7868690860498,32.0589194318736,0 34.7867810054094,32.0587746749452,0 34.7867002651485,32.058622547476,0 34.7865939808671,32.058405857783,0 34.7865254678794,32.0582429490365,0 34.7864707574947,32.0580953260165,0 34.7864403530326,32.0580051369586,0 34.7863477733294,32.0577556671043,0 34.7863227625709,32.0576902950228,0 34.7862386936619,32.0574322861568,0 34.7861181852516,32.0570841583418,0 34.7860455915927,32.0569108652602,0 34.7859393733273,32.0566106694657,0 34.7858365901079,32.0563236510484,0 34.7857334757551,32.055969989176,0 34.7856948578984,32.0558467672727,0 34.7856319995069,32.055582335139,0 34.7855723990423,32.0553001484712,0 34.7854972345778,32.05485504705,0 34.7854628823159,32.0545163113468,0 34.7854591936713,32.0543730948955,0 34.7854398341903,32.054067143705,0 34.7854191792061,32.0538131313254,0 34.7854088682098,32.0535663674539,0 34.7853980595604,32.0533591003371,0 34.7853891805847,32.053053724817,0 34.7853801914217,32.052726074698,0 34.7853727242553,32.052320064015,0 34.7853684825151,32.052019483266,0 34.7853609596436,32.0517186211166,0 34.7853547576802,32.0514996458935,0 34.7853522480088,32.0512372165701,0 34.7853625841284,32.0510370532559,0 34.7853751777501,32.0508991209453,0 34.7853934476166,32.0507470492854,0 34.785411320292,32.0506356470606,0 34.7854427673228,32.0504963341972,0 34.7854788631876,32.0503592009866,0 34.7856687812951,32.0498325516144,0 34.7858475585009,32.0494733276562,0 34.7860991524052,32.0490971195669,0 34.786181799951,32.0489908908213,0 34.7862883605312,32.0488649015115,0 34.786570091106,32.0485199036376,0 34.7868414939993,32.0482336678552,0 34.787010817565,32.0480893077824,0 34.7872723695072,32.0478967346937,0 34.7873241922159,32.0478629978976,0 34.7875512063795,32.0476980857253,0 34.7877429291317,32.0475637180224,0 34.7882109608109,32.0467592348135,0 34.7882434252327,32.0466512166399,0 34.7882990317519,32.0464362318058,0 34.7883875812455,32.0462179282645,0 34.788500635558,32.0459891541049,0 34.7886205232995,32.0457475968118,0 34.7887694565568,32.0454513057222,0 34.7889081571308,32.0451699506345,0 34.7890415805923,32.0448847003811,0 34.7892469301488,32.0444037262572,0 34.7893745290882,32.0440948295876,0 34.7895021960074,32.0437941392976,0 34.7896683896109,32.0434254896462,0 34.7898559248384,32.0430195753656,0 34.7899193960415,32.0428905561571,0 34.789985730439,32.0428314297373,0 34.7901285348173,32.0425694787105,0 34.7902896423568,32.0422114977617,0 34.7905687826324,32.0423109085619,0 34.790813826589,32.0418117151665,0 34.7911012501531,32.0416910189593,0 34.7912767632836,32.0416489471772,0 34.7914548862431,32.0416447877812,0 34.7916357404383,32.0416524847745,0 34.7917225978163,32.0416711262743,0 34.7921530204908,32.0414932884761,0 34.7921652620896,32.0414785226648,0 34.7921742739963,32.0410377974074,0 34.792558592197,32.0410300774576,0 34.7925588547848,32.0406357371532,0 34.7925111316409,32.0405459601597,0 34.7925538136623,32.0400521582922,0 34.7935266259649,32.039779709499,0 34.7938046878771,32.0395558964286,0 34.7954855387,32.0382029270319,0 34.8072323718478,32.0297367974331,0 34.8083102581628,32.0297368438158,0 34.808403913876,32.0294605072586,0 34.8077875908055,32.0293365768544,0 34.8105626427663,32.0273361315137,0 34.8119834149285,32.0263084035025,0 34.8131059897265,32.0254999180837,0 34.8189208276766,32.0213121128263,0 34.8199288896357,32.0205957996443,0 34.8199221175346,32.0205754977061,0 34.819878169371,32.0204304800031,0 34.8198988760216,32.0200016772048,0 34.8200069780611,32.019713017024,0 34.8201103853073,32.0197804764389,0 34.8203460696759,32.0198853877047,0 34.820699426108,32.0200482578356,0 34.8231983048858,32.0182724773045,0 34.8231279775663,32.0180263295823,0 34.8231255281715,32.0179021718189,0 34.823131549992,32.0177306554993,0 34.8231712308384,32.017709382375,0 34.8231718710058,32.0177050863348,0 34.8232112581436,32.0176110913975,0 34.8232696947836,32.0175218250138,0 34.8233527141662,32.017437365107,0 34.8236429497191,32.0172340754788,0 34.823685137859,32.0172933762781,0 34.8248306249693,32.0164612103841,0 34.8254956342197,32.0159780881486,0 34.8260434567282,32.0155877991029,0 34.8268427651894,32.0150031725961,0 34.8272570593021,32.0147092163993,0 34.8276720131403,32.0144147918484,0 34.8280684597324,32.0141331183241,0 34.8293023219285,32.0132618136233,0 34.8296928034332,32.0136574054545,0 34.8333628620001,32.0109933729213,0 34.8352083736768,32.0096749276557,0 34.8384234868336,32.0073728382791,0 34.8420868191896,32.0047190530083,0 34.8444561583931,32.002715674551,0 34.8472510912123,32.000121951626,0 34.8517011409457,31.9960010796592,0 34.8534146787809,31.9943719791122,0 34.8554928204334,31.9922587066172,0 34.8558259108341,31.9920013660369,0 34.8560625639579,31.9916793079825,0 34.8565108210832,31.9912234487749,0 34.8603281520002,31.9873479107882,0 34.8610974203528,31.9865652872318,0 34.861071162654,31.9863164429436,0 34.8616544201691,31.985721093004,0 34.8617996950759,31.9858244947829,0 34.8618682000769,31.9857545465168,0 34.8618835801794,31.9857654601819,0 34.8703002990451,31.9771972828714,0 34.8755648649312,31.971951123812,0 34.8777924316383,31.969650473432,0 34.8775898432422,31.9695056015344,0 34.8776004541711,31.9694954222174,0 34.8777753253719,31.9693224929613,0 34.8779451388905,31.9691526201949,0 34.8781203999391,31.9689851509874,0 34.8783000520406,31.9688083104212,0 34.8784722903473,31.9686241026331,0 34.8785460494838,31.9685467655552,0 34.8784853105372,31.9685104778004,0 34.8793595430212,31.9676409797191,0 34.8793942319737,31.9676077251662,0 34.8803406484006,31.9667210812702,0 34.8805978419693,31.9664527955307,0 34.8810473549371,31.9659624370864,0 34.8810939121344,31.9660027528443,0 34.881282263333,31.9661658517763,0 34.8816667287129,31.9658431950252,0 34.8814199194262,31.9656294755605,0 34.8813666693563,31.9655833677121,0 34.8814558537293,31.9654715559958,0 34.8816053463936,31.965321706097,0 34.8818643934845,31.9650989961381,0 34.8819465572486,31.9650257978332,0 34.8818022792849,31.9648887857498,0 34.8823297599812,31.9644562137659,0 34.882372472832,31.9644886302985,0 34.8824995360706,31.9643733121125,0 34.8825694061567,31.9643032367302,0 34.8826392761302,31.9642331631116,0 34.8826282144319,31.964221880512,0 34.8832187560729,31.9637789730012,0 34.8835522015408,31.9635403847799,0 34.884043390049,31.9632018967289,0 34.8845393075491,31.9628683317109,0 34.8856156983599,31.9621473917103,0 34.8860350434888,31.9618586267925,0 34.8862807153612,31.9616711365528,0 34.8864781381441,31.9615201690306,0 34.8865567584549,31.9616776105578,0 34.8875372922593,31.9606383336476,0 34.8876674976876,31.9604565926477,0 34.8878276400646,31.9602108797792,0 34.8880462778622,31.9601255710128,0 34.8879613745687,31.9599818492362,0 34.8881529019637,31.9596023173222,0 34.8882761326044,31.9593073452862,0 34.8885150101381,31.9584743464119,0 34.8885636138808,31.9580699991337,0 34.8885836028654,31.9576395309754,0 34.8885869595935,31.9575377504108,0 34.889033341044,31.957628216902,0 34.8892902375746,31.9577002222645,0 34.8892986328879,31.9573958629237,0 34.8900081988911,31.9574377764279,0 34.8902102717302,31.9574438283356,0 34.8901553807305,31.9569578611485,0 34.889875752103,31.9564074206134,0 34.8903189624829,31.9559466766524,0 34.8886706044927,31.9547823687084,0 34.8878648222774,31.95421319443,0 34.8876679855813,31.9540760360889,0 34.8877021196736,31.9540405917935,0 34.8875965820162,31.9539633734731,0 34.8874568755733,31.9538941770134,0 34.8872904902187,31.9537662023867,0 34.8866982457412,31.9533057349694,0 34.8866244045917,31.9532005164446,0 34.8865684350812,31.9531609474234,0 34.8866016136172,31.9530184725357,0 34.8864268229046,31.9529872740975,0 34.8864082378689,31.9530476920272,0 34.8857516701714,31.9525835149134,0 34.8847965137138,31.9519067119384,0 34.884297366429,31.9515513318153,0 34.8839981848139,31.9513709186012,0 34.8837416968602,31.9511918570337,0 34.8834852099031,31.9510127949495,0 34.8823561069946,31.950231744493,0 34.8821141163794,31.9500888266539,0 34.8818148266775,31.9498771603261,0 34.8819007856834,31.949762455775,0 34.8816049413235,31.9494806387435,0 34.8813428445019,31.9488678094154,0 34.8812863381107,31.9487932663291,0 34.8810554580452,31.948483222569,0 34.8807593558571,31.9479136932037,0 34.8805295595932,31.9477196906577,0 34.880318043282,31.9475448040256,0 34.8787723807632,31.9491570984251,0 34.8792937870864,31.9492093762329,0 34.8799601349548,31.9494502552603,0 34.8800893819322,31.9495403335762,0 34.8801364832661,31.94965089667,0 34.8802145839215,31.9496275913928,0 34.8806681403152,31.949943685896,0 34.8807117601588,31.9500085524387,0 34.8808891338079,31.9503374597238,0 34.8809141716502,31.95043636181,0 34.8809050604183,31.9505981664303,0 34.8812292026539,31.9504767987318,0 34.8814159878889,31.9506069741116,0 34.8816439149698,31.9507658177309,0 34.882457775733,31.9513329958877,0 34.8824719884075,31.9513428995277,0 34.8830051057768,31.9516118712981,0 34.8844563614014,31.952725487582,0 34.8843773260406,31.9528806068949,0 34.8846567968617,31.9530819203699,0 34.8849447416942,31.9532947183493,0 34.8852026986241,31.9534850627828,0 34.885336948737,31.9535922971214,0 34.8856550451609,31.9538813396517,0 34.8858351988623,31.9540396968323,0 34.8858603353977,31.9540193014814,0 34.8859918932938,31.9541610874845,0 34.8861350613686,31.9543206356289,0 34.8862804918927,31.9545027363023,0 34.8863855139479,31.9546410212963,0 34.8865381461493,31.9548539454977,0 34.8861328804557,31.955065114733,0 34.8862574169616,31.9554817108202,0 34.8867011189095,31.9553852969755,0 34.8867306367466,31.9555240545916,0 34.886878764425,31.9555011495494,0 34.8869150276733,31.9556716153532,0 34.8869941997468,31.9556570146817,0 34.8870004993304,31.9556681930217,0 34.8873391679885,31.9563372579577,0 34.8874131229946,31.9564817212149,0 34.8874803948137,31.9566768241258,0 34.8875225407412,31.9568214333379,0 34.8875411137555,31.956880948562,0 34.8875972175848,31.9571366142247,0 34.8864856712209,31.9570464262812,0 34.8864615443859,31.9573825906669,0 34.8876108564394,31.9574729993506,0 34.8876097804232,31.9575559395875,0 34.8875988050633,31.957660646412,0 34.887585969089,31.9577662666302,0 34.8875648353774,31.9578609488408,0 34.8875396177641,31.9579934481018,0 34.8875219429951,31.9580696212053,0 34.8874959579681,31.9581920760001,0 34.8874769792398,31.9582875427318,0 34.8874482896226,31.9583855932389,0 34.8874174462803,31.9584922686635,0 34.8873861765825,31.9585721629172,0 34.8873387941847,31.9586755847675,0 34.8872935606112,31.9587711481994,0 34.8872208955538,31.9588823435446,0 34.8870286138667,31.9593230310214,0 34.8867725439553,31.9597861849125,0 34.8865296340646,31.9599787873341,0 34.8864179776244,31.9600534695254,0 34.8861316447043,31.960264113962,0 34.885794818387,31.9604983016491,0 34.8853030835814,31.9608380650753,0 34.884477190254,31.9614035584572,0 34.8836533673797,31.9619876540949,0 34.8834181464652,31.9621832025574,0 34.8832797233196,31.9623012164356,0 34.8830680129351,31.9624849883965,0 34.8828990961658,31.9626265952825,0 34.8826566710601,31.962848611939,0 34.8824863558048,31.9630110717183,0 34.8823079314021,31.9631763243216,0 34.8821369980347,31.9633506408167,0 34.881260465187,31.9639332971779,0 34.8805994499765,31.964455708434,0 34.8803364906318,31.9647022460108,0 34.880237414858,31.9646256045138,0 34.8800841717366,31.9645011892742,0 34.8797163576673,31.9648098680178,0 34.8799032275026,31.9649716882582,0 34.8795942126008,31.9652847301889,0 34.8779623244122,31.9669378529135,0 34.8777745924516,31.9671375853731,0 34.8778096864545,31.9671782551864,0 34.8777040299291,31.9672414271326,0 34.8775672316009,31.9673415253249,0 34.87741788048,31.967483887555,0 34.8772124484519,31.9677001235023,0 34.8771429340955,31.9677706314599,0 34.8770850281011,31.9677149921622,0 34.8769170255175,31.9675426329288,0 34.8769035244504,31.9675278301043,0 34.8753085807494,31.9691905650428,0 34.8742242265578,31.9702966614453,0 34.8725534536148,31.9720168319911,0 34.8703390360215,31.9741042528787,0 34.8676263156984,31.9768095349607,0 34.8667842191036,31.9776105201611,0 34.8637924688515,31.9806562052111,0 34.8626510624097,31.9818974126087,0 34.8614022305861,31.9831559564666,0 34.8590500585706,31.985532275468,0 34.8592601352135,31.9860286765884,0 34.8582870248136,31.9870196609844,0 34.8577555988354,31.9866015103126,0 34.8538361593432,31.9905858340372,0 34.8535712939329,31.9904430066351,0 34.8532723825997,31.9907966113722,0 34.852969774152,31.9904038609826,0 34.8528313558819,31.9904787184222,0 34.8528649139557,31.9905280949131,0 34.8527991750617,31.990748915599,0 34.8525931713192,31.9908954428349,0 34.8526592548073,31.9909659179581,0 34.8527717187097,31.9908896252519,0 34.8528930112198,31.9908073418868,0 34.8530397992713,31.9907809343481,0 34.8530945531556,31.9908356504358,0 34.8531702071898,31.9909488034362,0 34.8532153154662,31.9909817737603,0 34.8533869608026,31.9912889481402,0 34.8534278343028,31.9913508797703,0 34.8536376096099,31.9916177910177,0 34.8538069763448,31.9916840853596,0 34.8531408279006,31.9923839635963,0 34.8531352202387,31.9924842681303,0 34.8523250895775,31.9933191920012,0 34.8520280002038,31.9936298584483,0 34.8519392047418,31.993712022011,0 34.851903323367,31.9937021792416,0 34.8518555142155,31.9937902083229,0 34.8501668058154,31.9953732553371,0 34.8500590658171,31.9954249793432,0 34.8498735575852,31.9949747614662,0 34.849595950172,31.9950405382317,0 34.8495551562107,31.9949444724434,0 34.84948629642,31.9949545314763,0 34.8491400096448,31.9952068673229,0 34.8492102343717,31.9957304496742,0 34.8476599615,31.9972022503712,0 34.8461152784654,31.9992320185475,0 34.8451308664175,32.0000991199585,0 34.8448875542799,32.0003207838942,0 34.8445987911849,32.0005862054487,0 34.8440652406819,32.0010788936522,0 34.8436377920399,32.001473599579,0 34.8434972793088,32.0012471202995,0 34.8430295285824,32.0016574025959,0 34.8429898443257,32.0020719029974,0 34.8427996782173,32.002247498787,0 34.8424409713421,32.002576514617,0 34.8408767652369,32.0038788825747,0 34.8403231243344,32.0042866106135,0 34.8401229939468,32.0044317469595,0 34.8386687830069,32.0054846098581,0 34.8388297602669,32.0053005369233,0 34.838973875334,32.0051251157549,0 34.839039393186,32.0050435780235,0 34.8391942978084,32.0048420535222,0 34.8393046432391,32.0046740196513,0 34.839435187036,32.0044825122417,0 34.8398857737265,32.0037955418512,0 34.8403841093522,32.0030975298988,0 34.8399581694885,32.0028676625511,0 34.8388854385662,32.0043528554978,0 34.8388442037128,32.004403791142,0 34.838686958991,32.0045992267451,0 34.8386064070831,32.0046993412993,0 34.8385226466856,32.0048131845593,0 34.8381674297876,32.0052455678007,0 34.837452911505,32.0060030070252,0 34.8366319616289,32.0066157788797,0 34.8364786033235,32.0066109044388,0 34.8361156761744,32.0064536089288,0 34.8336068595217,32.007994713045,0 34.8326216270267,32.0086985792422,0 34.8328042512433,32.0091290326122,0 34.8328218118692,32.0091730178963,0 34.8328653444745,32.0092737176393,0 34.8322964216175,32.0096817079034,0 34.8322407940648,32.0095329210414,0 34.832199481885,32.0094224178415,0 34.8321378655665,32.0093597044661,0 34.8315713308382,32.0097781611327,0 34.8304122079422,32.0106342973953,0 34.8299755780268,32.0109440338528,0 34.8296501083991,32.0111775977652,0 34.8253186027654,32.0142917729847,0 </coordinates></LinearRing></outerBoundaryIs></Polygon>
</MultiGeometry>

   <ExtendedData>
  
    <Data name="PL_NUMBER"><value>תתל/ 33</value></Data>
	 <Data name="PL_NAME"><value>מסילה רביעית באיילון, קטע ת"א מרכז - לוד</value></Data>
	  <Data name="PL_AREA"><value>3542.037</value></Data>
	   <Data name="PL_URL"><value>http://mavat.moin.gov.il/MavatPS/Forms/SV3.aspx?tid=3&amp;tnumb=%D7%AA%D7%AA%D7%9C/%2033</value></Data>
	    <Data name="CREATE_DATE"><value>11/06/2018 11:55:37</value></Data>
   </ExtendedData>
  </Placemark>

</Document>
</kml>