<?xml version="1.0" ?>
<kml xmlns="http://www.opengis.net/kml/2.2" xmlns:gx="http://www.google.com/kml/ext/2.2" xmlns:xsi="http://www.w3.org/2001/XMLSchema-instance" xsi:schemaLocation="http://www.opengis.net/kml/2.2 http://schemas.opengis.net/kml/2.2.0/ogckml22.xsd http://www.google.com/kml/ext/2.2 http://code.google.com/apis/kml/schema/kml22gx.xsd">
 
 

 
 <Document id="_9000940697">
  
  
  
  
  <name>99000940697</name>
  
  
  
  
  <Snippet/>
  
  
  
  
  <Folder id="FeatureLayer0">
   
   
    
   
   <name>99000940697</name>
   
   
    
   
   <Snippet/>
   
   
    
   
   <description>
    

<![CDATA[99000940697]]>       
   </description>
   
   
  
  
   <Placemark id="ID_00000">
    
    
      
    
    <name>NULL</name>
    
    
      
    
    <Snippet/>
    
    
      
    
    <Style>
     
     
     <PolyStyle>
      
      
      <fill>0</fill>
      
     
     </PolyStyle>
     
    
    </Style>
    
    
    <description>
    </description>
    
    
      
    
    <styleUrl>#PolyStyle00</styleUrl>
    
    
      
    
    <MultiGeometry>
     
     
        
     
     <Polygon>
      
      
          
      
      <extrude>0</extrude>
      
      
      <altitudeMode>clampToGround</altitudeMode>
      
      
          
      
      <outerBoundaryIs>
       
       
       <LinearRing>
        
        
        <coordinates> 34.82532437947278,32.0142967580852,0 34.82749016431997,32.01273968523044,0 34.82965587603951,32.0111825744562,0 34.82998134498646,32.01094900991239,0 34.83041797399378,32.01063927261225,0 34.83157709443032,32.00978313407072,0 34.83214362795641,32.00936467629021,0 34.83220524429898,32.00942738967842,0 34.83224655659293,32.00953789297147,0 34.83230218429927,32.00968667995902,0 34.83287110596659,32.00927868859142,0 34.83282757326348,32.00917798876964,0 34.83281001259338,32.00913400344963,0 34.8326273879552,32.00870354973942,0 34.83361261839346,32.00799968163462,0 34.83612143016801,32.00645857297101,0 34.8364843571559,32.0066158682932,0 34.83663771530497,32.00662074257862,0 34.83745866342937,32.00600796910174,0 34.83817317986624,32.00525052818809,0 34.83852839576659,32.004818144038,0 34.83861215591187,32.00470430054903,0 34.83869270759051,32.00460418578621,0 34.83884995186491,32.00440874977587,0 34.83889118660148,32.00435781402525,0 34.83996391425338,32.00287261811264,0 34.84038985399292,32.00310248529547,0 34.83989151989813,32.00380049863578,0 34.83944093467168,32.00448747035021,0 34.83931039128814,32.00467897813408,0 34.83920004621564,32.00484701232897,0 34.83904514204691,32.00504853724261,0 34.83897962438142,32.00513007514382,0 34.83883550971908,32.005305496681,0 34.83867453289418,32.00548957001288,0 34.84012874077749,32.00443670428043,0 34.84032887074399,32.00429156754419,0 34.84088251047284,32.00388383841792,0 34.84244671304634,32.00258146720184,0 34.842805419068,32.00225245058709,0 34.84299558472221,32.00207685437995,0 34.84303526834242,32.00166235342441,0 34.84350301798263,32.00125207012792,0 34.84364353088893,32.00147854953913,0 34.84407097850993,32.00108384267396,0 34.84460452773845,32.00059115329913,0 34.84489329014551,32.00032573111215,0 34.84513660170623,32.00010406664608,0 34.84612101146249,31.99923696312565,0 34.84766568994058,31.99720719081317,0 34.84921595904956,31.99573538666313,0 34.84914573364579,31.9952118037398,0 34.84949201969011,31.99495946721622,0 34.84956087939308,31.99494940809825,0 34.84960167344886,31.99504547396198,0 34.8498792804721,31.99497969682221,0 34.85006478915301,31.99542991505905,0 34.8501725289623,31.99537819087542,0 34.85186123329184,31.99379514012465,0 34.85190904226608,31.99370711088421,0 34.8519449236168,31.99371695362781,0 34.85203371886631,31.99363478987002,0 34.85233080747756,31.99332412272588,0 34.85314093607725,31.99248919696928,0 34.85314654358908,31.99238889230555,0 34.85381269031878,31.99168901250189,0 34.8536433236688,31.99162271825711,0 34.85343354820154,31.9913558069022,0 34.85339267465584,31.99129387523883,0 34.85322102906077,31.99098670066151,0 34.85317592078505,31.99095373034439,0 34.85310026666875,31.99084057728438,0 34.85304551276416,31.99078586118713,0 34.85289872490686,31.99081226891345,0 34.85277743264414,31.9908945525081,0 34.85266496897106,31.99097084542724,0 34.85259888545203,31.99090037028689,0 34.85280488876465,31.99075384265269,0 34.85287062727144,31.9905330216251,0 34.85283706916239,31.99048364510882,0 34.85297548717753,31.99040878743068,0 34.85327809586745,31.99080153798477,0 34.85357700637434,31.99044793249592,0 34.85384187170796,31.99059075979425,0 34.85580162892153,31.98859860914985,0 34.8577613013003,31.98660642701606,0 34.85829272731421,31.98702457764117,0 34.85926583525308,31.98603359099506,0 34.85905575811962,31.9855371894852,0 34.86140792421227,31.98316086506892,0 34.86265675289499,31.98190231833999,0 34.86379815633478,31.98066110820638,0 34.86678989901549,31.9776154162411,0 34.86763199355976,31.97681442916344,0 34.87034470709588,31.9741091408806,0 34.87255911932176,31.97202171507997,0 34.87422988800458,31.97030154064885,0 34.87531423944575,31.96919544173743,0 34.87690917904881,31.96753270306485,0 34.87692268012292,31.96754750589322,0 34.87709068277669,31.96771986515984,0 34.87714858878977,31.96777550446445,0 34.8772181029704,31.96770499634649,0 34.8774235344677,31.96748875991564,0 34.8775728852241,31.96734639735228,0 34.87770968326215,31.96724629889185,0 34.87781533958385,31.96718312675593,0 34.87778024555961,31.96714245692998,0 34.87796797703195,31.96694272402595,0 34.8795998610961,31.96528959753976,0 34.87990887521686,31.96497655489673,0 34.87972200534655,31.96481473465624,0 34.8800898185785,31.96450605514327,0 34.88024306171655,31.96463047037283,0 34.88034213749573,31.96470711185865,0 34.88060509620431,31.96446057370003,0 34.88126610995654,31.96393816110094,0 34.88214264102951,31.96335550309376,0 34.8823135739631,31.96318118620333,0 34.8824919979371,31.96301593320774,0 34.88266231277637,31.96285347304815,0 34.88290473730314,31.96263145586178,0 34.883073653688,31.96248984862263,0 34.88328536358163,31.96230607621131,0 34.88342378640932,31.96218806204131,0 34.88365900679078,31.96199251308899,0 34.88448282794405,31.96140841585947,0 34.88530871957502,31.96084292090641,0 34.88580045336611,31.96050315654088,0 34.88613727898637,31.96026896820854,0 34.8864236112972,31.96005832320935,0 34.88653526751057,31.95998364080773,0 34.88677817686424,31.95979103789173,0 34.8870342458332,31.95932788316051,0 34.88722652667814,31.95888719493898,0 34.88729919149738,31.95877599938023,0 34.88734442488445,31.95868043578304,0 34.88739180708225,31.95857701375563,0 34.88742307663114,31.95849711937073,0 34.88745391978625,31.95839044378253,0 34.88748260923106,31.95829239312482,0 34.88750158780108,31.95819692625585,0 34.88752757262318,31.95807447128339,0 34.88754524726321,31.95799829806773,0 34.88757046465795,31.9578657986175,0 34.88759159820994,31.95777111626842,0 34.88760443401782,31.95766549590707,0 34.88761540921448,31.95756078894266,0 34.88761648510947,31.95747784860291,0 34.88646717414807,31.95738744103065,0 34.88649130047094,31.95705127620735,0 34.88760284578259,31.95714146307933,0 34.88754674164294,31.95688579716297,0 34.88752816856228,31.95682628188572,0 34.88748602247034,31.9566816725413,0 34.88741875044051,31.95648656946292,0 34.88734479530395,31.95634210610744,0 34.88700612603783,31.95567304071212,0 34.88699982644477,31.9556618623652,0 34.88692065447669,31.95567646313871,0 34.88688439102027,31.95550599716477,0 34.88673626353262,31.95552890239253,0 34.88670674552612,31.95539014463794,0 34.88626304419002,31.95548655907271,0 34.88613850721371,31.95506996260781,0 34.88654377217023,31.95485879268291,0 34.88639113982308,31.9546458683832,0 34.88628611767955,31.9545075833316,0 34.88614068704657,31.95432548259003,0 34.8859975188933,31.95416593440273,0 34.88586596093197,31.95402414836601,0 34.88584082445288,31.95404454376864,0 34.88566067071398,31.95388618658582,0 34.88534257421041,31.95359714404022,0 34.88520832408515,31.95348990971328,0 34.88495036715439,31.95329956532138,0 34.88466242232047,31.9530867673879,0 34.88438295150559,31.95288545396397,0 34.88446198655767,31.95273033437727,0 34.88301073086664,31.95161671827582,0 34.8824776136759,31.95134774674388,0 34.88246340100222,31.95133784310683,0 34.88164954028509,31.95077066512287,0 34.8814216132172,31.95061182155202,0 34.88123482799283,31.95048164621196,0 34.88091068627833,31.95060301440366,0 34.88091979726627,31.95044120957597,0 34.88089475930749,31.95034230739564,0 34.88071738537128,31.95001339989747,0 34.88067376548027,31.9499485333219,0 34.88022020911234,31.94963243891528,0 34.88014210857396,31.94965574430415,0 34.88009500713022,31.94954518112537,0 34.87996576016025,31.94945510283703,0 34.87929941265349,31.94921422422458,0 34.87877800681048,31.94916194690789,0 34.88032366534701,31.94754964889498,0 34.88053518168596,31.94772453551542,0 34.88076497798584,31.94791853805367,0 34.88106108068295,31.94848806779905,0 34.8812919609513,31.94879811169206,0 34.8813484673902,31.94887265480925,0 34.88161056481971,31.94948548460681,0 34.8819064092724,31.94976730166777,0 34.88182045052416,31.94988200645048,0 34.88211974021355,31.95009367271829,0 34.88236173077782,31.95023659047456,0 34.88349083361418,31.95101764068392,0 34.88374732055731,31.95119670271407,0 34.88400380849703,31.95137576422761,0 34.88430299005471,31.95155617734386,0 34.88480213732239,31.95191155737038,0 34.88575729374273,31.95258836015676,0 34.88641386141328,31.95305253713986,0 34.88643244634167,31.95299211911648,0 34.88660723691338,31.95302331740691,0 34.88657405861899,31.95316579250426,0 34.8866300281272,31.95320536151429,0 34.8867038693504,31.95331058008922,0 34.88729611386418,31.95377104743992,0 34.88746249922693,31.95389902204626,0 34.8876022056213,31.95396821844204,0 34.88770774327813,31.95404543674468,0 34.88767360927353,31.95408088111983,0 34.8878704459587,31.95421803941938,0 34.88867622814056,31.95478721353741,0 34.89032458606272,31.955951521154,0 34.88988137682129,31.95641226615102,0 34.89016100594819,31.95696270706328,0 34.89021589759298,31.95744867478763,0 34.89001382496011,31.95744262308746,0 34.88930425965089,31.95740071028656,0 34.88929586478711,31.95770507000935,0 34.88903896842552,31.95763306483182,0 34.8885925873189,31.95754259870446,0 34.88858923074165,31.95764437939734,0 34.88856924240131,31.9580748481045,0 34.88852063929554,31.9584791959301,0 34.88828176322128,31.95931219607978,0 34.88815853313837,31.9596071686085,0 34.88796700649628,31.95998670119159,0 34.88805190990741,31.96013042305422,0 34.88783327246569,31.96021573215765,0 34.88767313061454,31.96046144549783,0 34.88754292558759,31.96064318685906,0 34.88656239432932,31.96168246608627,0 34.88648377387437,31.96152502444951,0 34.88628635151979,31.96167599236673,0 34.88604068017991,31.96186348309761,0 34.88562133591456,31.96215224881531,0 34.88454494729112,31.96287319084413,0 34.88404903080081,31.96320675679837,0 34.88355784330443,31.96354524578656,0 34.88322439853603,31.96378383465478,0 34.88263385816347,31.96422674333641,0 34.88264491986629,31.96423802593817,0 34.88257505006839,31.96430809971696,0 34.88250518015793,31.96437817525944,0 34.88237811722114,31.96449349372191,0 34.88233540436892,31.96446107719497,0 34.88180792485888,31.96489365027001,0 34.88195220286717,31.96503066236828,0 34.88187003929623,31.96510386085036,0 34.88161099280269,31.96532657135771,0 34.88146150051398,31.96547642159923,0 34.88137231639737,31.96558823354744,0 34.88142556647733,31.96563434139589,0 34.88167237581029,31.96584806086099,0 34.88128791130551,31.9661707184164,0 34.88109956007163,31.96600761948416,0 34.88105300286559,31.96596730372617,0 34.88060349108446,31.96645766324979,0 34.88034629817688,31.9667259495918,0 34.87939988403755,31.96761259558128,0 34.87936519516998,31.96764585021176,0 34.87849096487167,31.96851535028884,0 34.87855170380607,31.96855163802374,0 34.87847794485977,31.968628975275,0 34.87830570700218,31.96881318347209,0 34.87812605534726,31.96899002444624,0 34.87795079472683,31.96915749404537,0 34.87778098163413,31.96932736720072,0 34.87760611086907,31.96950029685477,0 34.8775954999662,31.96951047619559,0 34.87779808835587,31.9696553480562,0 34.87557052733922,31.97195600362648,0 34.87293832593976,31.97457911751327,0 34.87030597462005,31.97720217471817,0 34.86750058246969,31.98005830480457,0 34.86469501732736,31.98291437040374,0 34.86188927704871,31.98577037148946,0 34.86187389694688,31.98575945782719,0 34.86180539211934,31.98582940625205,0 34.8616601172183,31.98572600449931,0 34.86107686118038,31.98632135578949,0 34.8611031192093,31.98657020035667,0 34.860333852801,31.98735282569131,0 34.85842523234403,31.98929061402378,0 34.85651653151791,31.99122837249229,0 34.85606827552468,31.99168423273595,0 34.85583162311551,31.99200629143776,0 34.85549853343902,31.99226363268748,0 34.8534203970336,31.9943769099854,0 34.85170686336112,31.99600601435287,0 34.84948189360959,31.99806647543193,0 34.84725682427717,32.00012689610551,0 34.84446189815185,32.00272062518344,0 34.8420925643415,32.00472400861511,0 34.84026092836202,32.00605091837812,0 34.8384292396864,32.00737780102762,0 34.83521413324809,32.00967989663778,0 34.83336862542303,32.01099834547755,0 34.83153362650324,32.01233037893736,0 34.82969857457444,32.01366238516986,0 34.82930809292003,32.01326679325953,0 34.82807423328369,32.01413810033675,0 34.82767778751653,32.0144197746267,0 34.82726283454119,32.01471419997843,0 34.82684854128982,32.01500815697482,0 34.82604923451558,32.01559278504597,0 34.82550141314832,32.01598307515089,0 34.82483640529663,32.0164661986837,0 34.82369092059528,32.01729836681228,0 34.82364873241571,32.01723906598387,0 34.82335849746231,32.01744235616887,0 34.82327547828883,32.01752681626748,0 34.82321704183854,32.01761608282324,0 34.82317765487694,32.01771007791831,0 34.82317701471646,32.01771437396452,0 34.82313733394267,32.01773564715683,0 34.8231313123735,32.01790716369524,0 34.82313376194305,32.01803132160987,0 34.8232040895392,32.01827746956317,0 34.82070521595907,32.02005325491976,0 34.82035185967094,32.01989038495815,0 34.82011617540363,32.01978547380988,0 34.8200127681713,32.01971801442001,0 34.81990466665904,32.02000667507203,0 34.81988396064259,32.02043547842341,0 34.81992790896642,32.02058049625999,0 34.81993468108921,32.02060079821626,0 34.81892662122654,32.02131711334457,0 34.81601927436952,32.02341105581304,0 34.813111795446,32.02550492989715,0 34.81198922299685,32.02631341749618,0 34.81056845381362,32.02734114827229,0 34.80779340766063,32.02934159900431,0 34.80840973025069,32.02946552891633,0 34.80831607503094,32.02974186591457,0 34.8072381898648,32.02974182066162,0 34.80430169057356,32.03185846394327,0 34.80136505535121,32.0339750365134,0 34.79842828629578,32.03609154016564,0 34.79549138128667,32.03820797307304,0 34.79381053417902,32.03956094590903,0 34.79353247288138,32.0397847595484,0 34.79255966200352,32.04005720969759,0 34.79251698072898,32.04055101222329,0 34.79256470394949,32.04064078927853,0 34.79256444192203,32.04103513007336,0 34.79218012414223,32.04104285043459,0 34.79217111287112,32.04148357624921,0 34.79215887130635,32.04149834209165,0 34.79172844934347,32.04167618056093,0 34.79164159203164,32.04165753912876,0 34.79146073801838,32.04164984231502,0 34.79128261525483,32.04165400190232,0 34.79110710237128,32.04169607392032,0 34.79081967928521,32.04181677057797,0 34.79057463629881,32.04231596485006,0 34.79029549617985,32.04221655421811,0 34.79013438932039,32.04257453578036,0 34.78999158546633,32.04283648728205,0 34.78992525122353,32.04289561384476,0 34.78986178027127,32.04302463327999,0 34.78967424582006,32.04343054826128,0 34.78950805291707,32.04379919854482,0 34.7893803865608,32.04409988934216,0 34.78925278819597,32.04440878652928,0 34.78904743954106,32.04488976146605,0 34.78891401662663,32.04517501221368,0 34.78877531659988,32.04545636779633,0 34.78862638392182,32.04575265941019,0 34.78850649665091,32.04599421712903,0 34.78839344278362,32.04622299169144,0 34.78830489369413,32.04644129559686,0 34.78824928753932,32.0466562807566,0 34.78821682330537,32.04676429909851,0 34.78774879326656,32.04756878379756,0 34.78755707090933,32.04770315186801,0 34.78733005722178,32.04786806448262,0 34.78727823461618,32.04790180137481,0 34.78701668322608,32.04809437497638,0 34.78684736004574,32.0482387354057,0 34.78657595784777,32.04852497182785,0 34.78629422806271,32.04886997042546,0 34.78618766777479,32.0489959600034,0 34.78610502046782,32.04910218896755,0 34.7858534273653,32.04947839778795,0 34.78567465085948,32.04983762238006,0 34.78548473370117,32.05036427260647,0 34.78544863806925,32.05050140602554,0 34.78541719126945,32.05064071909528,0 34.78539931877101,32.05075212147746,0 34.7853810491396,32.05090419334591,0 34.78536845572689,32.05104212584143,0 34.78535811990205,32.05124228941582,0 34.78536062994275,32.05150471906347,0 34.78536683220994,32.05172369455302,0 34.78537435549985,32.0520245570694,0 34.78537859766153,32.05232513818857,0 34.78538606539546,32.05273114936981,0 34.78539505501318,32.05305879988789,0 34.78540393441216,32.05336417577933,0 34.78541474334378,32.0535714431433,0 34.7854250546788,32.05381820731171,0 34.78544571000094,32.05407221998644,0 34.78546506989478,32.0543781715383,0 34.78546875873838,32.0545213881643,0 34.78550311144368,32.05486012425409,0 34.78557827645862,32.05530522615216,0 34.78563787725951,32.05558741310979,0 34.78570073595868,32.05585184550777,0 34.78573935394878,32.0559750675246,0 34.78584246869273,32.05632872973073,0 34.78594525220923,32.056615748399,0 34.78605147078674,32.05691594445737,0 34.78612406461375,32.05708923767953,0 34.78624457338879,32.0574373658034,0 34.78632864257364,32.05769537490389,0 34.7863536533981,32.05776074704093,0 34.7864462333561,32.05801021711012,0 34.7864766379135,32.05810040624901,0 34.78653134844904,32.05824802939629,0 34.78659986159448,32.05841093827475,0 34.7867061460696,32.05862762812756,0 34.78678688645991,32.0587797557025,0 34.78687496721154,32.05892451271989,0 34.78717061074938,32.05952161486073,0 34.78712638813624,32.0598508482661,0 34.7873061765907,32.06083538352224,0 34.78744065890707,32.06127995771614,0 34.7875264741789,32.06150469558533,0 34.78760449457369,32.06167367712214,0 34.7877289777726,32.06189511518947,0 34.78788048368187,32.06213585006554,0 34.78805654831945,32.06237882972513,0 34.78829039162824,32.0626779098236,0 34.78849305053513,32.06291827080288,0 34.78870471101822,32.06313539479352,0 34.78895359510678,32.06336436371596,0 34.78922336859423,32.06358753894109,0 34.78960338742166,32.06388033191197,0 34.79003511998691,32.06421288140186,0 34.79021917508101,32.06435335062952,0 34.79069084668425,32.06473440401408,0 34.79069420851334,32.06473662978372,0 34.79078673384068,32.06481412498543,0 34.79092404097133,32.06494181556229,0 34.79109296233264,32.06510423782119,0 34.791233057021,32.06524807919155,0 34.79139892719074,32.0654298795766,0 34.79151965383663,32.06557131285948,0 34.79162317637005,32.06569997475877,0 34.79175340735364,32.06587110765669,0 34.79189043284729,32.06606219208867,0 34.79199257557823,32.06621537787382,0 34.79209710458737,32.0663796633521,0 34.7922310401495,32.0665988731969,0 34.79236323705675,32.06682808710953,0 34.79246921728155,32.06702330837764,0 34.79257526505859,32.06722718695402,0 34.79264680999493,32.06737910044033,0 34.79271567571437,32.06753812931915,0 34.79279999126999,32.06772354059245,0 34.79286607417411,32.06788923358906,0 34.79294181643161,32.06809734201945,0 34.79299146213705,32.06822077782545,0 34.79311523783287,32.06855781760907,0 34.79322749781018,32.06891249497194,0 34.79330874646721,32.06919213292716,0 34.79335611484073,32.06937507929042,0 34.7934104091486,32.06959601342648,0 34.79346713853965,32.06984085284728,0 34.79355837798942,32.07025497979379,0 34.79362058554232,32.07055385406197,0 34.79367376244127,32.07078813091003,0 34.79371831318853,32.07096205007568,0 34.79379752797814,32.07134205018948,0 34.79387397741178,32.07170111976843,0 34.79392767540544,32.07196127950949,0 34.79398358001544,32.07222541423688,0 34.79401386844723,32.07234427794356,0 34.79406474077445,32.07296600976554,0 34.79395315306302,32.07410527506898,0 34.79418526438559,32.07532497446022,0 34.79422281838252,32.07542988386159,0 34.79427703147392,32.07555162043612,0 34.79429906540664,32.07559813385905,0 34.79441454412405,32.07581732472589,0 34.79450863933728,32.07598387565094,0 34.79463946816055,32.07619161995575,0 34.79480737825744,32.07644439305316,0 34.79501078288607,32.07671811191459,0 34.79515009464325,32.0769003624718,0 34.79524849577717,32.077017642196,0 34.79540110856311,32.0771862282359,0 34.7955248888421,32.07731269771953,0 34.79568968181066,32.0774815030681,0 34.79586290873171,32.07765926309767,0 34.79591174923129,32.07770378854112,0 34.79602695954295,32.07782851650607,0 34.79620586462475,32.07801585331951,0 34.7963685526414,32.07818221616976,0 34.79660227816431,32.0784274433878,0 34.79671374224368,32.07853754969644,0 34.79686514887285,32.07869269343274,0 34.79703489516161,32.07886818618395,0 34.79720904454662,32.07905406342054,0 34.79737293606402,32.07923648067041,0 34.79743300316758,32.0793053898684,0 34.79756975322947,32.07947013481611,0 34.7976585490414,32.0795812496508,0 34.79773132216346,32.07967508884551,0 34.79784829101862,32.07983435927154,0 34.79788110882615,32.07988595666792,0 34.79808126831639,32.08024194468519,0 34.79793573130142,32.08034385611117,0 34.79805077617081,32.08060693942245,0 34.79813856702142,32.08082590453787,0 34.79820953438099,32.08101704058573,0 34.79832897472835,32.08142043247896,0 34.79847441285679,32.08195710160498,0 34.79880735595772,32.08319578143019,0 34.79895315915553,32.083734976059,0 34.79896815847404,32.08379237775178,0 34.79899418712521,32.08389472375847,0 34.79906776608966,32.08414304094595,0 34.79914414196946,32.0843817179018,0 34.79919511113777,32.08452111692065,0 34.79925624024753,32.08468651988669,0 34.79932117200878,32.08485436980408,0 34.79942918209638,32.0851257022322,0 34.79950443360374,32.08530747255917,0 34.79958784897101,32.085487555526,0 34.7996662205264,32.08565851426911,0 34.79975237382288,32.0858423933742,0 34.79982604540346,32.08599836733026,0 34.79991888863916,32.08620264807251,0 34.7999464886629,32.08625644663842,0 34.80002585413111,32.08642329616753,0 34.80018531147475,32.08677505116724,0 34.80029443437213,32.08703529436662,0 34.8003941738702,32.08726160034257,0 34.80051735299751,32.08755345071032,0 34.80064236936435,32.08786126843687,0 34.80074737372283,32.08814332133787,0 34.80083964018872,32.08840747818384,0 34.80097449246735,32.0888084959151,0 34.79972470254755,32.08910155325032,0 34.79960277135235,32.08876942695471,0 34.79947940755169,32.08847171355391,0 34.79939285965409,32.0882712077221,0 34.79913855945764,32.08792063461156,0 34.7991007737217,32.08781111614235,0 34.79906204326495,32.0877063849311,0 34.7990080079377,32.08756535289295,0 34.79889113292085,32.0872622489199,0 34.79876840261134,32.08694199212512,0 34.79865673568445,32.08665919480126,0 34.79855880589265,32.08640800392877,0 34.79841255444806,32.08604168025868,0 34.79828224285102,32.08571192988722,0 34.79819798584884,32.08550713440621,0 34.79813751779299,32.08536021971918,0 34.79801981275455,32.08507839438773,0 34.79794676143607,32.08487886503322,0 34.79789805185447,32.08473189776323,0 34.79785664978993,32.08458522445596,0 34.7978119194676,32.08442474310291,0 34.79777558938387,32.08425698421097,0 34.79774644041058,32.0841156599073,0 34.79768485612539,32.08374519907417,0 34.79766317743789,32.08356982196977,0 34.79764588675327,32.08340816611647,0 34.79763931773196,32.08328901887719,0 34.79762510990938,32.08310095053183,0 34.79762239716444,32.08297207635907,0 34.79761713931915,32.08289171019273,0 34.79760800074299,32.0825157255378,0 34.79760363632374,32.0823293119883,0 34.79758909130381,32.08212176391178,0 34.79756858337485,32.08192132080557,0 34.79738025594116,32.08161448865597,0 34.79703539570481,32.08058135441973,0 34.79693498567897,32.08036640601274,0 34.79680523870142,32.08012719523446,0 34.7966462129804,32.07987454363835,0 34.7964593736207,32.07961251387755,0 34.79631334793748,32.07941419135195,0 34.79608370600771,32.07915535978766,0 34.7959701777844,32.07903307214156,0 34.79583039144086,32.07888499876564,0 34.79567446925808,32.07872145260895,0 34.79543581209487,32.07846619793326,0 34.79526055366316,32.07829257900541,0 34.79512764152189,32.07814732258749,0 34.79502664598285,32.07804157729339,0 34.79498932137644,32.07800358159607,0 34.79481073454858,32.07781669500001,0 34.79467096197309,32.07766636590904,0 34.79461889873291,32.07760839292223,0 34.79440017530359,32.07736235930435,0 34.79430439936316,32.07725031779983,0 34.79418801298775,32.07710502369048,0 34.79407196002261,32.07695630375655,0 34.79396177087656,32.07679903571792,0 34.79385779061096,32.07665080558159,0 34.79373406655785,32.07646508715372,0 34.79363189048949,32.07629251438643,0 34.79349183195457,32.07607730297879,0 34.79301080912116,32.07518247202641,0 34.79277463113728,32.07456668522872,0 34.79265719281611,32.07414931661261,0 34.79252012204529,32.073507015808,0 34.7925393750057,32.07242290990999,0 34.79253947850752,32.07221080947903,0 34.79253370017527,32.07169244236591,0 34.79253272600425,32.07163806131899,0 34.79252951689521,32.07155066752758,0 34.79252848694721,32.07147329067626,0 34.79252680096679,32.07123512269209,0 34.79252361735042,32.07104754020353,0 34.79251938561011,32.0708102657188,0 34.79251342300461,32.07069923608964,0 34.79251641384408,32.07045729576184,0 34.7925106367867,32.07039938211646,0 34.79250424816885,32.07028889216888,0 34.79247761936661,32.06999211694442,0 34.79245240822355,32.06980437264036,0 34.79240773033486,32.06956498269242,0 34.79232527695123,32.06917667464783,0 34.79226923765781,32.0689676379928,0 34.79217733874295,32.06865486906344,0 34.79206060500095,32.06828331275852,0 34.7919092570994,32.06793193393976,0 34.79179799626422,32.06766274829386,0 34.79170988775681,32.06747344631651,0 34.79155444080975,32.06718644147699,0 34.79140571059297,32.06693679241934,0 34.79125322074336,32.06669912472892,0 34.79103970264019,32.06639741110766,0 34.79096864683779,32.06630231105821,0 34.79074539832729,32.0660217572503,0 34.79062107983449,32.06587850793679,0 34.79023429258033,32.06548713030526,0 34.78995532578669,32.06523425830979,0 34.78971274342764,32.06503867822705,0 34.78962687207917,32.06496526207763,0 34.78923643812714,32.06467964940715,0 34.78912150421229,32.06459315193877,0 34.78894157301698,32.06445431786823,0 34.78872545160218,32.06428614686259,0 34.78859817270886,32.0641898691003,0 34.78845476931727,32.06407640428541,0 34.78830887169454,32.06395256053531,0 34.78811660110687,32.06377968730106,0 34.78793440411101,32.06360405132583,0 34.78772377638025,32.06339288127769,0 34.78762682011268,32.06328921736278,0 34.78751302780792,32.06316187109953,0 34.7874021068796,32.06303191898896,0 34.7873056215893,32.0629179759693,0 34.7871919010008,32.06277502868291,0 34.78707389554314,32.0626196224818,0 34.78690204717337,32.06238143485297,0 34.78679803030347,32.06222400034974,0 34.78670971060446,32.0620845631126,0 34.78660173720246,32.06191241622637,0 34.78651164002537,32.0617681033215,0 34.78643090336552,32.06163797932427,0 34.78632306232778,32.06146024153119,0 34.78623894327851,32.06130557755755,0 34.78617408535621,32.06117685846107,0 34.78611218320439,32.06105022320163,0 34.78605016875592,32.06090176421525,0 34.78600120485369,32.06077102336545,0 34.78595445051929,32.06059691367567,0 34.7859218157881,32.06048480357748,0 34.78585821994873,32.06024192181733,0 34.78582733553769,32.06014081931186,0 34.78579175583319,32.06002437085483,0 34.78577266124739,32.05996199407704,0 34.78569716964854,32.0597270988662,0 34.78565677632028,32.05959809957755,0 34.78537227260058,32.05866164192388,0 34.78504139777453,32.05734226866759,0 34.78479673613226,32.05645972947727,0 34.7846425766223,32.05589947749336,0 34.7845958684773,32.05573952546577,0 34.7845626716856,32.05558890661495,0 34.78451894679925,32.05542499655302,0 34.78447907848694,32.05525135990541,0 34.78444706122753,32.05509758865349,0 34.78439944448234,32.05490489851271,0 34.78437953855362,32.05483512411054,0 34.78433728973098,32.0545336957221,0 34.78430815247322,32.05437542500821,0 34.78428784132795,32.05425532929959,0 34.7842587302304,32.05404502530594,0 34.78423437131413,32.05386070863636,0 34.78420750429419,32.05359964121224,0 34.78418660654152,32.0533299363639,0 34.78416523051168,32.05309539977581,0 34.78414790906383,32.05287728921934,0 34.78412196133676,32.05260053361766,0 34.78410151054507,32.0523721322425,0 34.78408330365684,32.05211614347905,0 34.78406169970477,32.05179259925961,0 34.78404832635081,32.05161427074271,0 34.78403279841668,32.05139769911522,0 34.7840377568628,32.0512163652813,0 34.78431528311489,32.05038110797287,0 34.78471819775193,32.04960261082917,0 34.78491089549497,32.04928590624748,0 34.78510367922799,32.04896676860001,0 34.78530941523393,32.0486164714516,0 34.78547225350126,32.04833907735102,0 34.78562212427358,32.04807246169494,0 34.78569714386087,32.04794384339154,0 34.78582093681923,32.04773034708506,0 34.78591295997282,32.04754127452922,0 34.78604347092713,32.0472705363573,0 34.78688008499716,32.04582312203515,0 34.78692657441392,32.04573949860544,0 34.78702886937942,32.04554910629218,0 34.78714445984331,32.04532187433112,0 34.78731853454225,32.04494558798896,0 34.78758248023716,32.04438608205801,0 34.78776784835127,32.04399341952411,0 34.78805101068263,32.04339754322,0 34.78813710204405,32.04320709670663,0 34.78825179470167,32.04296642396091,0 34.78834753842939,32.04277186072045,0 34.78843177843066,32.04261594657819,0 34.78857253782432,32.04237012862832,0 34.78871499277864,32.04214722161149,0 34.78885777479454,32.04194550763292,0 34.78892434634931,32.04185680899432,0 34.7889864573165,32.04177116180118,0 34.7891040346644,32.04161761088006,0 34.78922223097326,32.04146757886431,0 34.78933636391388,32.04132637100476,0 34.78944142871626,32.04120037366601,0 34.78958795069053,32.04101382118596,0 34.78963229248865,32.04095927608997,0 34.7895033073651,32.04082283841185,0 34.78920053961365,32.0410280225201,0 34.78902723087267,32.04112973627133,0 34.78888853407746,32.04120838352051,0 34.7886476555134,32.04134455104752,0 34.78850118092056,32.04142735307641,0 34.79135576433888,32.03831949082156,0 34.79264677090008,32.03739460569951,0 34.79331580093336,32.03692316504048,0 34.79573592371524,32.03518012535729,0 34.79815595495159,32.03343703824645,0 34.79851126347855,32.03378789561597,0 34.79861874689635,32.03389939121242,0 34.80082701352374,32.03231477022388,0 34.80361627753967,32.03031204988915,0 34.80363051792755,32.03034703766377,0 34.80499614647875,32.02944312600669,0 34.80608506973809,32.02867548835189,0 34.80618345373839,32.028614002658,0 34.80614332547572,32.02855762442787,0 34.80578357122086,32.02808723568165,0 34.80591965680043,32.02799254912419,0 34.805933210835,32.02800721162627,0 34.8059915034142,32.02805930033384,0 34.80627161283171,32.02839270279286,0 34.80639053277618,32.02851384456488,0 34.80692188045606,32.02813069665766,0 34.8070896120928,32.02819884431378,0 34.80962192162316,32.02637830463159,0 34.81215413113613,32.02455771306191,0 34.81276794041794,32.02411382651569,0 34.81309039087319,32.02384074949216,0 34.81415648517713,32.02299032106781,0 34.81400682276858,32.02290560199066,0 34.81420812134569,32.02272821390677,0 34.81473377463789,32.02228186763646,0 34.81511381938742,32.0219656182791,0 34.81550601743503,32.02156415812171,0 34.81582037970992,32.02124369217994,0 34.81616170236574,32.02090250168876,0 34.81637650307215,32.02062915685876,0 34.81651712088857,32.02043183720082,0 34.8166646989443,32.02020430138377,0 34.81675797106632,32.02004984703257,0 34.81686871499562,32.01980869666884,0 34.81691666603599,32.01969358260759,0 34.8169463494446,32.01960771032704,0 34.81914235311051,32.018023360124,0 34.82133828131386,32.016438970915,0 34.82158844518536,32.01651669100755,0 34.82164514188226,32.01652380414313,0 34.82194892648857,32.01656191420459,0 34.82236115594343,32.01645856946931,0 34.82228549970807,32.01641285126983,0 34.82217580844366,32.01620083985949,0 34.8222310016257,32.01616265087052,0 34.82246830880122,32.0160343976206,0 34.82417631906507,32.01502571428474,0 34.82443713211326,32.01487087239182,0 34.82478171022938,32.01465231607911,0 34.82532437947278,32.0142967580852,0</coordinates>
        
       
       </LinearRing>
       
      
      </outerBoundaryIs>
      
      
        
     
     </Polygon>
     
     
      
    
    </MultiGeometry>
    
    
    
   
   </Placemark>
   <Placemark id="ID_00001">
    
    
      
    
    <name>NULL</name>
    
    
      
    
    <Snippet/>
    
    
      
    
    <Style>
     
     
     <PolyStyle>
      
      
      <fill>0</fill>
      
     
     </PolyStyle>
     
    
    </Style>
    
    
    <description>
    </description>
    
    
      
    
    <styleUrl>#PolyStyle00</styleUrl>
    
    
      
    
    <MultiGeometry>
     
     
        
     
     <Polygon>
      
      
          
      
      <extrude>0</extrude>
      
      
      <altitudeMode>clampToGround</altitudeMode>
      
      
          
      
      <outerBoundaryIs>
       
       
       <LinearRing>
        
        
        <coordinates> 34.82532437947278,32.0142967580852,0 34.82749016431997,32.01273968523044,0 34.82965587603951,32.0111825744562,0 34.82998134498646,32.01094900991239,0 34.83041797399378,32.01063927261225,0 34.83157709443032,32.00978313407072,0 34.83214362795641,32.00936467629021,0 34.83220524429898,32.00942738967842,0 34.83224655659293,32.00953789297147,0 34.83230218429927,32.00968667995902,0 34.83287110596659,32.00927868859142,0 34.83282757326348,32.00917798876964,0 34.83281001259338,32.00913400344963,0 34.8326273879552,32.00870354973942,0 34.83361261839346,32.00799968163462,0 34.83612143016801,32.00645857297101,0 34.8364843571559,32.0066158682932,0 34.83663771530497,32.00662074257862,0 34.83745866342937,32.00600796910174,0 34.83817317986624,32.00525052818809,0 34.83852839576659,32.004818144038,0 34.83861215591187,32.00470430054903,0 34.83869270759051,32.00460418578621,0 34.83884995186491,32.00440874977587,0 34.83889118660148,32.00435781402525,0 34.83996391425338,32.00287261811264,0 34.84038985399292,32.00310248529547,0 34.83989151989813,32.00380049863578,0 34.83944093467168,32.00448747035021,0 34.83931039128814,32.00467897813408,0 34.83920004621564,32.00484701232897,0 34.83904514204691,32.00504853724261,0 34.83897962438142,32.00513007514382,0 34.83883550971908,32.005305496681,0 34.83867453289418,32.00548957001288,0 34.84012874077749,32.00443670428043,0 34.84032887074399,32.00429156754419,0 34.84088251047284,32.00388383841792,0 34.84244671304634,32.00258146720184,0 34.842805419068,32.00225245058709,0 34.84299558472221,32.00207685437995,0 34.84303526834242,32.00166235342441,0 34.84350301798263,32.00125207012792,0 34.84364353088893,32.00147854953913,0 34.84407097850993,32.00108384267396,0 34.84460452773845,32.00059115329913,0 34.84489329014551,32.00032573111215,0 34.84513660170623,32.00010406664608,0 34.84612101146249,31.99923696312565,0 34.84766568994058,31.99720719081317,0 34.84921595904956,31.99573538666313,0 34.84914573364579,31.9952118037398,0 34.84949201969011,31.99495946721622,0 34.84956087939308,31.99494940809825,0 34.84960167344886,31.99504547396198,0 34.8498792804721,31.99497969682221,0 34.85006478915301,31.99542991505905,0 34.8501725289623,31.99537819087542,0 34.85186123329184,31.99379514012465,0 34.85190904226608,31.99370711088421,0 34.8519449236168,31.99371695362781,0 34.85203371886631,31.99363478987002,0 34.85233080747756,31.99332412272588,0 34.85314093607725,31.99248919696928,0 34.85314654358908,31.99238889230555,0 34.85381269031878,31.99168901250189,0 34.8536433236688,31.99162271825711,0 34.85343354820154,31.9913558069022,0 34.85339267465584,31.99129387523883,0 34.85322102906077,31.99098670066151,0 34.85317592078505,31.99095373034439,0 34.85310026666875,31.99084057728438,0 34.85304551276416,31.99078586118713,0 34.85289872490686,31.99081226891345,0 34.85277743264414,31.9908945525081,0 34.85266496897106,31.99097084542724,0 34.85259888545203,31.99090037028689,0 34.85280488876465,31.99075384265269,0 34.85287062727144,31.9905330216251,0 34.85283706916239,31.99048364510882,0 34.85297548717753,31.99040878743068,0 34.85327809586745,31.99080153798477,0 34.85357700637434,31.99044793249592,0 34.85384187170796,31.99059075979425,0 34.85580162892153,31.98859860914985,0 34.8577613013003,31.98660642701606,0 34.85829272731421,31.98702457764117,0 34.85926583525308,31.98603359099506,0 34.85905575811962,31.9855371894852,0 34.86140792421227,31.98316086506892,0 34.86265675289499,31.98190231833999,0 34.86379815633478,31.98066110820638,0 34.86678989901549,31.9776154162411,0 34.86763199355976,31.97681442916344,0 34.87034470709588,31.9741091408806,0 34.87255911932176,31.97202171507997,0 34.87422988800458,31.97030154064885,0 34.87531423944575,31.96919544173743,0 34.87690917904881,31.96753270306485,0 34.87692268012292,31.96754750589322,0 34.87709068277669,31.96771986515984,0 34.87714858878977,31.96777550446445,0 34.8772181029704,31.96770499634649,0 34.8774235344677,31.96748875991564,0 34.8775728852241,31.96734639735228,0 34.87770968326215,31.96724629889185,0 34.87781533958385,31.96718312675593,0 34.87778024555961,31.96714245692998,0 34.87796797703195,31.96694272402595,0 34.8795998610961,31.96528959753976,0 34.87990887521686,31.96497655489673,0 34.87972200534655,31.96481473465624,0 34.8800898185785,31.96450605514327,0 34.88024306171655,31.96463047037283,0 34.88034213749573,31.96470711185865,0 34.88060509620431,31.96446057370003,0 34.88126610995654,31.96393816110094,0 34.88214264102951,31.96335550309376,0 34.8823135739631,31.96318118620333,0 34.8824919979371,31.96301593320774,0 34.88266231277637,31.96285347304815,0 34.88290473730314,31.96263145586178,0 34.883073653688,31.96248984862263,0 34.88328536358163,31.96230607621131,0 34.88342378640932,31.96218806204131,0 34.88365900679078,31.96199251308899,0 34.88448282794405,31.96140841585947,0 34.88530871957502,31.96084292090641,0 34.88580045336611,31.96050315654088,0 34.88613727898637,31.96026896820854,0 34.8864236112972,31.96005832320935,0 34.88653526751057,31.95998364080773,0 34.88677817686424,31.95979103789173,0 34.8870342458332,31.95932788316051,0 34.88722652667814,31.95888719493898,0 34.88729919149738,31.95877599938023,0 34.88734442488445,31.95868043578304,0 34.88739180708225,31.95857701375563,0 34.88742307663114,31.95849711937073,0 34.88745391978625,31.95839044378253,0 34.88748260923106,31.95829239312482,0 34.88750158780108,31.95819692625585,0 34.88752757262318,31.95807447128339,0 34.88754524726321,31.95799829806773,0 34.88757046465795,31.9578657986175,0 34.88759159820994,31.95777111626842,0 34.88760443401782,31.95766549590707,0 34.88761540921448,31.95756078894266,0 34.88761648510947,31.95747784860291,0 34.88646717414807,31.95738744103065,0 34.88649130047094,31.95705127620735,0 34.88760284578259,31.95714146307933,0 34.88754674164294,31.95688579716297,0 34.88752816856228,31.95682628188572,0 34.88748602247034,31.9566816725413,0 34.88741875044051,31.95648656946292,0 34.88734479530395,31.95634210610744,0 34.88700612603783,31.95567304071212,0 34.88699982644477,31.9556618623652,0 34.88692065447669,31.95567646313871,0 34.88688439102027,31.95550599716477,0 34.88673626353262,31.95552890239253,0 34.88670674552612,31.95539014463794,0 34.88626304419002,31.95548655907271,0 34.88613850721371,31.95506996260781,0 34.88654377217023,31.95485879268291,0 34.88639113982308,31.9546458683832,0 34.88628611767955,31.9545075833316,0 34.88614068704657,31.95432548259003,0 34.8859975188933,31.95416593440273,0 34.88586596093197,31.95402414836601,0 34.88584082445288,31.95404454376864,0 34.88566067071398,31.95388618658582,0 34.88534257421041,31.95359714404022,0 34.88520832408515,31.95348990971328,0 34.88495036715439,31.95329956532138,0 34.88466242232047,31.9530867673879,0 34.88438295150559,31.95288545396397,0 34.88446198655767,31.95273033437727,0 34.88301073086664,31.95161671827582,0 34.8824776136759,31.95134774674388,0 34.88246340100222,31.95133784310683,0 34.88164954028509,31.95077066512287,0 34.8814216132172,31.95061182155202,0 34.88123482799283,31.95048164621196,0 34.88091068627833,31.95060301440366,0 34.88091979726627,31.95044120957597,0 34.88089475930749,31.95034230739564,0 34.88071738537128,31.95001339989747,0 34.88067376548027,31.9499485333219,0 34.88022020911234,31.94963243891528,0 34.88014210857396,31.94965574430415,0 34.88009500713022,31.94954518112537,0 34.87996576016025,31.94945510283703,0 34.87929941265349,31.94921422422458,0 34.87877800681048,31.94916194690789,0 34.88032366534701,31.94754964889498,0 34.88053518168596,31.94772453551542,0 34.88076497798584,31.94791853805367,0 34.88106108068295,31.94848806779905,0 34.8812919609513,31.94879811169206,0 34.8813484673902,31.94887265480925,0 34.88161056481971,31.94948548460681,0 34.8819064092724,31.94976730166777,0 34.88182045052416,31.94988200645048,0 34.88211974021355,31.95009367271829,0 34.88236173077782,31.95023659047456,0 34.88349083361418,31.95101764068392,0 34.88374732055731,31.95119670271407,0 34.88400380849703,31.95137576422761,0 34.88430299005471,31.95155617734386,0 34.88480213732239,31.95191155737038,0 34.88575729374273,31.95258836015676,0 34.88641386141328,31.95305253713986,0 34.88643244634167,31.95299211911648,0 34.88660723691338,31.95302331740691,0 34.88657405861899,31.95316579250426,0 34.8866300281272,31.95320536151429,0 34.8867038693504,31.95331058008922,0 34.88729611386418,31.95377104743992,0 34.88746249922693,31.95389902204626,0 34.8876022056213,31.95396821844204,0 34.88770774327813,31.95404543674468,0 34.88767360927353,31.95408088111983,0 34.8878704459587,31.95421803941938,0 34.88867622814056,31.95478721353741,0 34.89032458606272,31.955951521154,0 34.88988137682129,31.95641226615102,0 34.89016100594819,31.95696270706328,0 34.89021589759298,31.95744867478763,0 34.89001382496011,31.95744262308746,0 34.88930425965089,31.95740071028656,0 34.88929586478711,31.95770507000935,0 34.88903896842552,31.95763306483182,0 34.8885925873189,31.95754259870446,0 34.88858923074165,31.95764437939734,0 34.88856924240131,31.9580748481045,0 34.88852063929554,31.9584791959301,0 34.88828176322128,31.95931219607978,0 34.88815853313837,31.9596071686085,0 34.88796700649628,31.95998670119159,0 34.88805190990741,31.96013042305422,0 34.88783327246569,31.96021573215765,0 34.88767313061454,31.96046144549783,0 34.88754292558759,31.96064318685906,0 34.88656239432932,31.96168246608627,0 34.88648377387437,31.96152502444951,0 34.88628635151979,31.96167599236673,0 34.88604068017991,31.96186348309761,0 34.88562133591456,31.96215224881531,0 34.88454494729112,31.96287319084413,0 34.88404903080081,31.96320675679837,0 34.88355784330443,31.96354524578656,0 34.88322439853603,31.96378383465478,0 34.88263385816347,31.96422674333641,0 34.88264491986629,31.96423802593817,0 34.88257505006839,31.96430809971696,0 34.88250518015793,31.96437817525944,0 34.88237811722114,31.96449349372191,0 34.88233540436892,31.96446107719497,0 34.88180792485888,31.96489365027001,0 34.88195220286717,31.96503066236828,0 34.88187003929623,31.96510386085036,0 34.88161099280269,31.96532657135771,0 34.88146150051398,31.96547642159923,0 34.88137231639737,31.96558823354744,0 34.88142556647733,31.96563434139589,0 34.88167237581029,31.96584806086099,0 34.88128791130551,31.9661707184164,0 34.88109956007163,31.96600761948416,0 34.88105300286559,31.96596730372617,0 34.88060349108446,31.96645766324979,0 34.88034629817688,31.9667259495918,0 34.87939988403755,31.96761259558128,0 34.87936519516998,31.96764585021176,0 34.87849096487167,31.96851535028884,0 34.87855170380607,31.96855163802374,0 34.87847794485977,31.968628975275,0 34.87830570700218,31.96881318347209,0 34.87812605534726,31.96899002444624,0 34.87795079472683,31.96915749404537,0 34.87778098163413,31.96932736720072,0 34.87760611086907,31.96950029685477,0 34.8775954999662,31.96951047619559,0 34.87779808835587,31.9696553480562,0 34.87557052733922,31.97195600362648,0 34.87293832593976,31.97457911751327,0 34.87030597462005,31.97720217471817,0 34.86750058246969,31.98005830480457,0 34.86469501732736,31.98291437040374,0 34.86188927704871,31.98577037148946,0 34.86187389694688,31.98575945782719,0 34.86180539211934,31.98582940625205,0 34.8616601172183,31.98572600449931,0 34.86107686118038,31.98632135578949,0 34.8611031192093,31.98657020035667,0 34.860333852801,31.98735282569131,0 34.85842523234403,31.98929061402378,0 34.85651653151791,31.99122837249229,0 34.85606827552468,31.99168423273595,0 34.85583162311551,31.99200629143776,0 34.85549853343902,31.99226363268748,0 34.8534203970336,31.9943769099854,0 34.85170686336112,31.99600601435287,0 34.84948189360959,31.99806647543193,0 34.84725682427717,32.00012689610551,0 34.84446189815185,32.00272062518344,0 34.8420925643415,32.00472400861511,0 34.84026092836202,32.00605091837812,0 34.8384292396864,32.00737780102762,0 34.83521413324809,32.00967989663778,0 34.83336862542303,32.01099834547755,0 34.83153362650324,32.01233037893736,0 34.82969857457444,32.01366238516986,0 34.82930809292003,32.01326679325953,0 34.82807423328369,32.01413810033675,0 34.82767778751653,32.0144197746267,0 34.82726283454119,32.01471419997843,0 34.82684854128982,32.01500815697482,0 34.82604923451558,32.01559278504597,0 34.82550141314832,32.01598307515089,0 34.82483640529663,32.0164661986837,0 34.82369092059528,32.01729836681228,0 34.82364873241571,32.01723906598387,0 34.82335849746231,32.01744235616887,0 34.82327547828883,32.01752681626748,0 34.82321704183854,32.01761608282324,0 34.82317765487694,32.01771007791831,0 34.82317701471646,32.01771437396452,0 34.82313733394267,32.01773564715683,0 34.8231313123735,32.01790716369524,0 34.82313376194305,32.01803132160987,0 34.8232040895392,32.01827746956317,0 34.82070521595907,32.02005325491976,0 34.82035185967094,32.01989038495815,0 34.82011617540363,32.01978547380988,0 34.8200127681713,32.01971801442001,0 34.81990466665904,32.02000667507203,0 34.81988396064259,32.02043547842341,0 34.81992790896642,32.02058049625999,0 34.81993468108921,32.02060079821626,0 34.81892662122654,32.02131711334457,0 34.81601927436952,32.02341105581304,0 34.813111795446,32.02550492989715,0 34.81198922299685,32.02631341749618,0 34.81056845381362,32.02734114827229,0 34.80779340766063,32.02934159900431,0 34.80840973025069,32.02946552891633,0 34.80831607503094,32.02974186591457,0 34.8072381898648,32.02974182066162,0 34.80430169057356,32.03185846394327,0 34.80136505535121,32.0339750365134,0 34.79842828629578,32.03609154016564,0 34.79549138128667,32.03820797307304,0 34.79381053417902,32.03956094590903,0 34.79353247288138,32.0397847595484,0 34.79255966200352,32.04005720969759,0 34.79251698072898,32.04055101222329,0 34.79256470394949,32.04064078927853,0 34.79256444192203,32.04103513007336,0 34.79218012414223,32.04104285043459,0 34.79217111287112,32.04148357624921,0 34.79215887130635,32.04149834209165,0 34.79172844934347,32.04167618056093,0 34.79164159203164,32.04165753912876,0 34.79146073801838,32.04164984231502,0 34.79128261525483,32.04165400190232,0 34.79110710237128,32.04169607392032,0 34.79081967928521,32.04181677057797,0 34.79057463629881,32.04231596485006,0 34.79029549617985,32.04221655421811,0 34.79013438932039,32.04257453578036,0 34.78999158546633,32.04283648728205,0 34.78992525122353,32.04289561384476,0 34.78986178027127,32.04302463327999,0 34.78967424582006,32.04343054826128,0 34.78950805291707,32.04379919854482,0 34.7893803865608,32.04409988934216,0 34.78925278819597,32.04440878652928,0 34.78904743954106,32.04488976146605,0 34.78891401662663,32.04517501221368,0 34.78877531659988,32.04545636779633,0 34.78862638392182,32.04575265941019,0 34.78850649665091,32.04599421712903,0 34.78839344278362,32.04622299169144,0 34.78830489369413,32.04644129559686,0 34.78824928753932,32.0466562807566,0 34.78821682330537,32.04676429909851,0 34.78774879326656,32.04756878379756,0 34.78755707090933,32.04770315186801,0 34.78733005722178,32.04786806448262,0 34.78727823461618,32.04790180137481,0 34.78701668322608,32.04809437497638,0 34.78684736004574,32.0482387354057,0 34.78657595784777,32.04852497182785,0 34.78629422806271,32.04886997042546,0 34.78618766777479,32.0489959600034,0 34.78610502046782,32.04910218896755,0 34.7858534273653,32.04947839778795,0 34.78567465085948,32.04983762238006,0 34.78548473370117,32.05036427260647,0 34.78544863806925,32.05050140602554,0 34.78541719126945,32.05064071909528,0 34.78539931877101,32.05075212147746,0 34.7853810491396,32.05090419334591,0 34.78536845572689,32.05104212584143,0 34.78535811990205,32.05124228941582,0 34.78536062994275,32.05150471906347,0 34.78536683220994,32.05172369455302,0 34.78537435549985,32.0520245570694,0 34.78537859766153,32.05232513818857,0 34.78538606539546,32.05273114936981,0 34.78539505501318,32.05305879988789,0 34.78540393441216,32.05336417577933,0 34.78541474334378,32.0535714431433,0 34.7854250546788,32.05381820731171,0 34.78544571000094,32.05407221998644,0 34.78546506989478,32.0543781715383,0 34.78546875873838,32.0545213881643,0 34.78550311144368,32.05486012425409,0 34.78557827645862,32.05530522615216,0 34.78563787725951,32.05558741310979,0 34.78570073595868,32.05585184550777,0 34.78573935394878,32.0559750675246,0 34.78584246869273,32.05632872973073,0 34.78594525220923,32.056615748399,0 34.78605147078674,32.05691594445737,0 34.78612406461375,32.05708923767953,0 34.78624457338879,32.0574373658034,0 34.78632864257364,32.05769537490389,0 34.7863536533981,32.05776074704093,0 34.7864462333561,32.05801021711012,0 34.7864766379135,32.05810040624901,0 34.78653134844904,32.05824802939629,0 34.78659986159448,32.05841093827475,0 34.7867061460696,32.05862762812756,0 34.78678688645991,32.0587797557025,0 34.78687496721154,32.05892451271989,0 34.78717061074938,32.05952161486073,0 34.78712638813624,32.0598508482661,0 34.7873061765907,32.06083538352224,0 34.78744065890707,32.06127995771614,0 34.7875264741789,32.06150469558533,0 34.78760449457369,32.06167367712214,0 34.7877289777726,32.06189511518947,0 34.78788048368187,32.06213585006554,0 34.78805654831945,32.06237882972513,0 34.78829039162824,32.0626779098236,0 34.78849305053513,32.06291827080288,0 34.78870471101822,32.06313539479352,0 34.78895359510678,32.06336436371596,0 34.78922336859423,32.06358753894109,0 34.78960338742166,32.06388033191197,0 34.79003511998691,32.06421288140186,0 34.79021917508101,32.06435335062952,0 34.79069084668425,32.06473440401408,0 34.79069420851334,32.06473662978372,0 34.79078673384068,32.06481412498543,0 34.79092404097133,32.06494181556229,0 34.79109296233264,32.06510423782119,0 34.791233057021,32.06524807919155,0 34.79139892719074,32.0654298795766,0 34.79151965383663,32.06557131285948,0 34.79162317637005,32.06569997475877,0 34.79175340735364,32.06587110765669,0 34.79189043284729,32.06606219208867,0 34.79199257557823,32.06621537787382,0 34.79209710458737,32.0663796633521,0 34.7922310401495,32.0665988731969,0 34.79236323705675,32.06682808710953,0 34.79246921728155,32.06702330837764,0 34.79257526505859,32.06722718695402,0 34.79264680999493,32.06737910044033,0 34.79271567571437,32.06753812931915,0 34.79279999126999,32.06772354059245,0 34.79286607417411,32.06788923358906,0 34.79294181643161,32.06809734201945,0 34.79299146213705,32.06822077782545,0 34.79311523783287,32.06855781760907,0 34.79322749781018,32.06891249497194,0 34.79330874646721,32.06919213292716,0 34.79335611484073,32.06937507929042,0 34.7934104091486,32.06959601342648,0 34.79346713853965,32.06984085284728,0 34.79355837798942,32.07025497979379,0 34.79362058554232,32.07055385406197,0 34.79367376244127,32.07078813091003,0 34.79371831318853,32.07096205007568,0 34.79379752797814,32.07134205018948,0 34.79387397741178,32.07170111976843,0 34.79392767540544,32.07196127950949,0 34.79398358001544,32.07222541423688,0 34.79401386844723,32.07234427794356,0 34.79406474077445,32.07296600976554,0 34.79395315306302,32.07410527506898,0 34.79418526438559,32.07532497446022,0 34.79422281838252,32.07542988386159,0 34.79427703147392,32.07555162043612,0 34.79429906540664,32.07559813385905,0 34.79441454412405,32.07581732472589,0 34.79450863933728,32.07598387565094,0 34.79463946816055,32.07619161995575,0 34.79480737825744,32.07644439305316,0 34.79501078288607,32.07671811191459,0 34.79515009464325,32.0769003624718,0 34.79524849577717,32.077017642196,0 34.79540110856311,32.0771862282359,0 34.7955248888421,32.07731269771953,0 34.79568968181066,32.0774815030681,0 34.79586290873171,32.07765926309767,0 34.79591174923129,32.07770378854112,0 34.79602695954295,32.07782851650607,0 34.79620586462475,32.07801585331951,0 34.7963685526414,32.07818221616976,0 34.79660227816431,32.0784274433878,0 34.79671374224368,32.07853754969644,0 34.79686514887285,32.07869269343274,0 34.79703489516161,32.07886818618395,0 34.79720904454662,32.07905406342054,0 34.79737293606402,32.07923648067041,0 34.79743300316758,32.0793053898684,0 34.79756975322947,32.07947013481611,0 34.7976585490414,32.0795812496508,0 34.79773132216346,32.07967508884551,0 34.79784829101862,32.07983435927154,0 34.79788110882615,32.07988595666792,0 34.79808126831639,32.08024194468519,0 34.79793573130142,32.08034385611117,0 34.79805077617081,32.08060693942245,0 34.79813856702142,32.08082590453787,0 34.79820953438099,32.08101704058573,0 34.79832897472835,32.08142043247896,0 34.79847441285679,32.08195710160498,0 34.79880735595772,32.08319578143019,0 34.79895315915553,32.083734976059,0 34.79896815847404,32.08379237775178,0 34.79899418712521,32.08389472375847,0 34.79906776608966,32.08414304094595,0 34.79914414196946,32.0843817179018,0 34.79919511113777,32.08452111692065,0 34.79925624024753,32.08468651988669,0 34.79932117200878,32.08485436980408,0 34.79942918209638,32.0851257022322,0 34.79950443360374,32.08530747255917,0 34.79958784897101,32.085487555526,0 34.7996662205264,32.08565851426911,0 34.79975237382288,32.0858423933742,0 34.79982604540346,32.08599836733026,0 34.79991888863916,32.08620264807251,0 34.7999464886629,32.08625644663842,0 34.80002585413111,32.08642329616753,0 34.80018531147475,32.08677505116724,0 34.80029443437213,32.08703529436662,0 34.8003941738702,32.08726160034257,0 34.80051735299751,32.08755345071032,0 34.80064236936435,32.08786126843687,0 34.80074737372283,32.08814332133787,0 34.80083964018872,32.08840747818384,0 34.80097449246735,32.0888084959151,0 34.79972470254755,32.08910155325032,0 34.79960277135235,32.08876942695471,0 34.79947940755169,32.08847171355391,0 34.79939285965409,32.0882712077221,0 34.79913855945764,32.08792063461156,0 34.7991007737217,32.08781111614235,0 34.79906204326495,32.0877063849311,0 34.7990080079377,32.08756535289295,0 34.79889113292085,32.0872622489199,0 34.79876840261134,32.08694199212512,0 34.79865673568445,32.08665919480126,0 34.79855880589265,32.08640800392877,0 34.79841255444806,32.08604168025868,0 34.79828224285102,32.08571192988722,0 34.79819798584884,32.08550713440621,0 34.79813751779299,32.08536021971918,0 34.79801981275455,32.08507839438773,0 34.79794676143607,32.08487886503322,0 34.79789805185447,32.08473189776323,0 34.79785664978993,32.08458522445596,0 34.7978119194676,32.08442474310291,0 34.79777558938387,32.08425698421097,0 34.79774644041058,32.0841156599073,0 34.79768485612539,32.08374519907417,0 34.79766317743789,32.08356982196977,0 34.79764588675327,32.08340816611647,0 34.79763931773196,32.08328901887719,0 34.79762510990938,32.08310095053183,0 34.79762239716444,32.08297207635907,0 34.79761713931915,32.08289171019273,0 34.79760800074299,32.0825157255378,0 34.79760363632374,32.0823293119883,0 34.79758909130381,32.08212176391178,0 34.79756858337485,32.08192132080557,0 34.79738025594116,32.08161448865597,0 34.79703539570481,32.08058135441973,0 34.79693498567897,32.08036640601274,0 34.79680523870142,32.08012719523446,0 34.7966462129804,32.07987454363835,0 34.7964593736207,32.07961251387755,0 34.79631334793748,32.07941419135195,0 34.79608370600771,32.07915535978766,0 34.7959701777844,32.07903307214156,0 34.79583039144086,32.07888499876564,0 34.79567446925808,32.07872145260895,0 34.79543581209487,32.07846619793326,0 34.79526055366316,32.07829257900541,0 34.79512764152189,32.07814732258749,0 34.79502664598285,32.07804157729339,0 34.79498932137644,32.07800358159607,0 34.79481073454858,32.07781669500001,0 34.79467096197309,32.07766636590904,0 34.79461889873291,32.07760839292223,0 34.79440017530359,32.07736235930435,0 34.79430439936316,32.07725031779983,0 34.79418801298775,32.07710502369048,0 34.79407196002261,32.07695630375655,0 34.79396177087656,32.07679903571792,0 34.79385779061096,32.07665080558159,0 34.79373406655785,32.07646508715372,0 34.79363189048949,32.07629251438643,0 34.79349183195457,32.07607730297879,0 34.79301080912116,32.07518247202641,0 34.79277463113728,32.07456668522872,0 34.79265719281611,32.07414931661261,0 34.79252012204529,32.073507015808,0 34.7925393750057,32.07242290990999,0 34.79253947850752,32.07221080947903,0 34.79253370017527,32.07169244236591,0 34.79253272600425,32.07163806131899,0 34.79252951689521,32.07155066752758,0 34.79252848694721,32.07147329067626,0 34.79252680096679,32.07123512269209,0 34.79252361735042,32.07104754020353,0 34.79251938561011,32.0708102657188,0 34.79251342300461,32.07069923608964,0 34.79251641384408,32.07045729576184,0 34.7925106367867,32.07039938211646,0 34.79250424816885,32.07028889216888,0 34.79247761936661,32.06999211694442,0 34.79245240822355,32.06980437264036,0 34.79240773033486,32.06956498269242,0 34.79232527695123,32.06917667464783,0 34.79226923765781,32.0689676379928,0 34.79217733874295,32.06865486906344,0 34.79206060500095,32.06828331275852,0 34.7919092570994,32.06793193393976,0 34.79179799626422,32.06766274829386,0 34.79170988775681,32.06747344631651,0 34.79155444080975,32.06718644147699,0 34.79140571059297,32.06693679241934,0 34.79125322074336,32.06669912472892,0 34.79103970264019,32.06639741110766,0 34.79096864683779,32.06630231105821,0 34.79074539832729,32.0660217572503,0 34.79062107983449,32.06587850793679,0 34.79023429258033,32.06548713030526,0 34.78995532578669,32.06523425830979,0 34.78971274342764,32.06503867822705,0 34.78962687207917,32.06496526207763,0 34.78923643812714,32.06467964940715,0 34.78912150421229,32.06459315193877,0 34.78894157301698,32.06445431786823,0 34.78872545160218,32.06428614686259,0 34.78859817270886,32.0641898691003,0 34.78845476931727,32.06407640428541,0 34.78830887169454,32.06395256053531,0 34.78811660110687,32.06377968730106,0 34.78793440411101,32.06360405132583,0 34.78772377638025,32.06339288127769,0 34.78762682011268,32.06328921736278,0 34.78751302780792,32.06316187109953,0 34.7874021068796,32.06303191898896,0 34.7873056215893,32.0629179759693,0 34.7871919010008,32.06277502868291,0 34.78707389554314,32.0626196224818,0 34.78690204717337,32.06238143485297,0 34.78679803030347,32.06222400034974,0 34.78670971060446,32.0620845631126,0 34.78660173720246,32.06191241622637,0 34.78651164002537,32.0617681033215,0 34.78643090336552,32.06163797932427,0 34.78632306232778,32.06146024153119,0 34.78623894327851,32.06130557755755,0 34.78617408535621,32.06117685846107,0 34.78611218320439,32.06105022320163,0 34.78605016875592,32.06090176421525,0 34.78600120485369,32.06077102336545,0 34.78595445051929,32.06059691367567,0 34.7859218157881,32.06048480357748,0 34.78585821994873,32.06024192181733,0 34.78582733553769,32.06014081931186,0 34.78579175583319,32.06002437085483,0 34.78577266124739,32.05996199407704,0 34.78569716964854,32.0597270988662,0 34.78565677632028,32.05959809957755,0 34.78537227260058,32.05866164192388,0 34.78504139777453,32.05734226866759,0 34.78479673613226,32.05645972947727,0 34.7846425766223,32.05589947749336,0 34.7845958684773,32.05573952546577,0 34.7845626716856,32.05558890661495,0 34.78451894679925,32.05542499655302,0 34.78447907848694,32.05525135990541,0 34.78444706122753,32.05509758865349,0 34.78439944448234,32.05490489851271,0 34.78437953855362,32.05483512411054,0 34.78433728973098,32.0545336957221,0 34.78430815247322,32.05437542500821,0 34.78428784132795,32.05425532929959,0 34.7842587302304,32.05404502530594,0 34.78423437131413,32.05386070863636,0 34.78420750429419,32.05359964121224,0 34.78418660654152,32.0533299363639,0 34.78416523051168,32.05309539977581,0 34.78414790906383,32.05287728921934,0 34.78412196133676,32.05260053361766,0 34.78410151054507,32.0523721322425,0 34.78408330365684,32.05211614347905,0 34.78406169970477,32.05179259925961,0 34.78404832635081,32.05161427074271,0 34.78403279841668,32.05139769911522,0 34.7840377568628,32.0512163652813,0 34.78431528311489,32.05038110797287,0 34.78471819775193,32.04960261082917,0 34.78491089549497,32.04928590624748,0 34.78510367922799,32.04896676860001,0 34.78530941523393,32.0486164714516,0 34.78547225350126,32.04833907735102,0 34.78562212427358,32.04807246169494,0 34.78569714386087,32.04794384339154,0 34.78582093681923,32.04773034708506,0 34.78591295997282,32.04754127452922,0 34.78604347092713,32.0472705363573,0 34.78688008499716,32.04582312203515,0 34.78692657441392,32.04573949860544,0 34.78702886937942,32.04554910629218,0 34.78714445984331,32.04532187433112,0 34.78731853454225,32.04494558798896,0 34.78758248023716,32.04438608205801,0 34.78776784835127,32.04399341952411,0 34.78805101068263,32.04339754322,0 34.78813710204405,32.04320709670663,0 34.78825179470167,32.04296642396091,0 34.78834753842939,32.04277186072045,0 34.78843177843066,32.04261594657819,0 34.78857253782432,32.04237012862832,0 34.78871499277864,32.04214722161149,0 34.78885777479454,32.04194550763292,0 34.78892434634931,32.04185680899432,0 34.7889864573165,32.04177116180118,0 34.7891040346644,32.04161761088006,0 34.78922223097326,32.04146757886431,0 34.78933636391388,32.04132637100476,0 34.78944142871626,32.04120037366601,0 34.78958795069053,32.04101382118596,0 34.78963229248865,32.04095927608997,0 34.7895033073651,32.04082283841185,0 34.78920053961365,32.0410280225201,0 34.78902723087267,32.04112973627133,0 34.78888853407746,32.04120838352051,0 34.7886476555134,32.04134455104752,0 34.78850118092056,32.04142735307641,0 34.79135576433888,32.03831949082156,0 34.79264677090008,32.03739460569951,0 34.79331580093336,32.03692316504048,0 34.79573592371524,32.03518012535729,0 34.79815595495159,32.03343703824645,0 34.79851126347855,32.03378789561597,0 34.79861874689635,32.03389939121242,0 34.80082701352374,32.03231477022388,0 34.80361627753967,32.03031204988915,0 34.80363051792755,32.03034703766377,0 34.80499614647875,32.02944312600669,0 34.80608506973809,32.02867548835189,0 34.80618345373839,32.028614002658,0 34.80614332547572,32.02855762442787,0 34.80578357122086,32.02808723568165,0 34.80591965680043,32.02799254912419,0 34.805933210835,32.02800721162627,0 34.8059915034142,32.02805930033384,0 34.80627161283171,32.02839270279286,0 34.80639053277618,32.02851384456488,0 34.80692188045606,32.02813069665766,0 34.8070896120928,32.02819884431378,0 34.80962192162316,32.02637830463159,0 34.81215413113613,32.02455771306191,0 34.81276794041794,32.02411382651569,0 34.81309039087319,32.02384074949216,0 34.81415648517713,32.02299032106781,0 34.81400682276858,32.02290560199066,0 34.81420812134569,32.02272821390677,0 34.81473377463789,32.02228186763646,0 34.81511381938742,32.0219656182791,0 34.81550601743503,32.02156415812171,0 34.81582037970992,32.02124369217994,0 34.81616170236574,32.02090250168876,0 34.81637650307215,32.02062915685876,0 34.81651712088857,32.02043183720082,0 34.8166646989443,32.02020430138377,0 34.81675797106632,32.02004984703257,0 34.81686871499562,32.01980869666884,0 34.81691666603599,32.01969358260759,0 34.8169463494446,32.01960771032704,0 34.81914235311051,32.018023360124,0 34.82133828131386,32.016438970915,0 34.82158844518536,32.01651669100755,0 34.82164514188226,32.01652380414313,0 34.82194892648857,32.01656191420459,0 34.82236115594343,32.01645856946931,0 34.82228549970807,32.01641285126983,0 34.82217580844366,32.01620083985949,0 34.8222310016257,32.01616265087052,0 34.82246830880122,32.0160343976206,0 34.82417631906507,32.01502571428474,0 34.82443713211326,32.01487087239182,0 34.82478171022938,32.01465231607911,0 34.82532437947278,32.0142967580852,0</coordinates>
        
       
       </LinearRing>
       
      
      </outerBoundaryIs>
      
      
        
     
     </Polygon>
     
     
      
    
    </MultiGeometry>
    
    
    
   
   </Placemark>
  </Folder>
  
  

 
 </Document>
 
 


</kml>
