<?xml version="1.0" encoding="UTF-8"?>
<kml xmlns="http://www.opengis.net/kml/2.2"
 xmlns:gx="http://www.google.com/kml/ext/2.2">
<Document>
  <Style id="Plan">
	<LabelStyle>		
<color>00000000</color>
			
<scale>0</scale>
		
</LabelStyle>
		
<LineStyle>
			
<color>ffff0000</color>
			
<width>3</width>
		
</LineStyle>
		
<PolyStyle>
			
<fill>0</fill>
		
</PolyStyle>

   <BalloonStyle>
    <text>


<![CDATA[<?xml version="1.0"?>
<table border="0"  width="560" cellpadding="2" cellspacing="2" dir="rtl" xmlns:fo="http://www.w3.org/1999/XSL/Format">
<tr>
<td align="center" colspan="2" height="20" style="border-bottom: Solid 1px #b4b5b4">
<font face="Arial" size="3" color="#b50027">
<b>פרטי גבול תכנית</b>
</font>
</td>
</tr>


<tr>
<td  align="right"><font face="Arial" size="3">מספר תכנית</font>
</td>
<td align="right" bgcolor="#efefef" height="20">
<font face="Arial" size="3" color="#202520">
<b>$[PL_NUMBER]</b>
</font>
</td>
</tr>

<tr>
<td  align="right"><font face="Arial" size="3">שם תכנית</font>
</td>
<td align="right" bgcolor="#efefef" height="20">
<font face="Arial" size="3" color="#202520">
<b>$[PL_NAME]</b>
</font>
</td>
</tr>

<tr>
<td  align="right"><font face="Arial" size="3">שטח התכנית</font>
</td>
<td align="right" bgcolor="#efefef" height="20">
<font face="Arial" size="3" color="#202520">
<b>$[PL_AREA]</b>
</font>
</td>
</tr>

<tr>
<td  align="right"><font face="Arial" size="3">קישור לתכנית</font>
</td>
<td align="right" bgcolor="#efefef" height="20">
<font face="Arial" size="3" color="#202520">
<b>$[PL_URL]</b>
</font>
</td>
</tr>


<tr>
<td  align="right"><font face="Arial" size="3">תאריך יצור הקובץ</font>
</td>
<td align="right" bgcolor="#efefef" height="20">
<font face="Arial" size="3" color="#202520">
<b>$[CREATE_DATE]</b>
</font>
</td>
</tr>

</table>]]> 

</text>
     </BalloonStyle>
  </Style>

  <Placemark>
   <name name="name"><value>גבול תכנית</value></name>
   <description/>   
   <styleUrl>#Plan</styleUrl>
<MultiGeometry>
<Polygon><outerBoundaryIs><LinearRing><coordinates>34.8455034400896,31.9974365206475,0 34.8455298691209,31.9974569580447,0 34.8455570205519,31.9974766649022,0 34.8455855644618,31.9974948917343,0 34.8456241412049,31.997516047085,0 34.8456645868045,31.9975344969408,0 34.8457142422518,31.9975525902837,0 34.8457656813608,31.9975666072794,0 34.8456945560757,31.9975126283434,0 34.8456234314646,31.9974586472049,0 34.8457114228619,31.9973744622814,0 34.8457993926666,31.9972902915726,0 34.8458873817414,31.9972061175639,0 34.8459753531884,31.9971219450658,0 34.8460267162822,31.9971609308078,0 34.8460780787867,31.9971999159862,0 34.8460991946688,31.9971797126618,0 34.8461203111259,31.9971595087492,0 34.8460886997232,31.9971355182125,0 34.8460570889277,31.9971115254601,0 34.8461450666276,31.9970273418577,0 34.8462330486742,31.9969431692066,0 34.846321050002,31.9968589767527,0 34.8464089974595,31.9967748126709,0 34.8464643172101,31.9968167998221,0 34.8465196363846,31.9968587847831,0 34.8465405400821,31.9968387844114,0 34.8465614430912,31.9968187818247,0 34.846545637699,31.9968067882358,0 34.8465298323108,31.99679479469,0 34.8466178092747,31.9967106112913,0 34.846705780219,31.9966264377326,0 34.8467937568269,31.9965422630449,0 34.8468817378542,31.9964580805513,0 34.8469202962231,31.9964211903056,0 34.8469588610842,31.9963842961434,0 34.846919432255,31.9963542275556,0 34.8468800034536,31.9963241584145,0 34.8469680989498,31.9962398683241,0 34.8470561942402,31.9961555759607,0 34.8471450433568,31.996070557498,0 34.8472339032682,31.9959855372882,0 34.8473218686734,31.9959013076756,0 34.8474098483926,31.9958171793577,0 34.8474493620719,31.9958471670974,0 34.8474888757767,31.99587715487,0 34.8475422165086,31.9958261184788,0 34.8475954292093,31.9957765936645,0 34.847648643184,31.9957270666664,0 34.8475768013707,31.9956725545129,0 34.8475049590138,31.9956180406939,0 34.8475690063447,31.9955578143954,0 34.8476330561908,31.9954975864024,0 34.8475612242809,31.9954430654742,0 34.8474893930995,31.9953885422979,0 34.8475773639352,31.995304368649,0 34.8476842422546,31.9952021020171,0 34.8475388250257,31.9952183727621,0 34.8473934096453,31.9952346450589,0 34.8472681439458,31.9952486599431,0 34.847145510675,31.9952623810511,0 34.8471386297403,31.9952631515142,0 34.8470986504793,31.9953233243275,0 34.847058670531,31.9953834970805,0 34.8469944502284,31.9954822528621,0 34.8469302317452,31.995581008569,0 34.8468664114636,31.9956803152821,0 34.8468025929486,31.9957796219209,0 34.846731370962,31.9958843094846,0 34.8467775609281,31.9959063049707,0 34.8468237509778,31.9959282982309,0 34.8467592310939,31.9960266996668,0 34.8466947104237,31.9961251043571,0 34.8465656699162,31.9963219191363,0 34.8465018226036,31.9964212888355,0 34.8464379751523,31.9965206585452,0 34.8464020036318,31.9965034555862,0 34.8463660333501,31.9964862504563,0 34.8463323947774,31.9965375092903,0 34.8462987561207,31.9965887664464,0 34.846275659412,31.9965777678024,0 34.846252565308,31.9965667674933,0 34.8461880063107,31.9966651574667,0 34.8461234490858,31.9967635457868,0 34.8460403463644,31.9967239745159,0 34.8459572463076,31.996684403153,0 34.8459221529711,31.996737795033,0 34.8458870621929,31.9967911852416,0 34.8458225215042,31.99688954261,0 34.8457579441004,31.9969879989475,0 34.8456933798018,31.9970863831431,0 34.8456288153115,31.9971847673482,0 34.8455529132876,31.9973004250504,0 34.8454770117071,31.9974160827054,0 34.8455034400896,31.9974365206475,0 </coordinates></LinearRing></outerBoundaryIs></Polygon>
</MultiGeometry>

   <ExtendedData>
  
    <Data name="PL_NUMBER"><value>425-1153212</value></Data>
	 <Data name="PL_NAME"><value>חלוקת מגרש שצ"פ לשני מגרשים ללא שינוי יעוד - תוכנית חלוקה</value></Data>
	  <Data name="PL_AREA"><value>10.923</value></Data>
	   <Data name="PL_URL"><value>http://mavat.moin.gov.il/MavatPS/Forms/SV3.aspx?tid=3&amp;tnumb=425-1153212</value></Data>
	    <Data name="CREATE_DATE"><value>30/07/2023 13:18:33</value></Data>
   </ExtendedData>
  </Placemark>

</Document>
</kml>