<?xml version="1.0" encoding="UTF-8"?>
<kml xmlns="http://www.opengis.net/kml/2.2"
 xmlns:gx="http://www.google.com/kml/ext/2.2">
<Document>
  <Style id="Plan">
	<LabelStyle>		
<color>00000000</color>
			
<scale>0</scale>
		
</LabelStyle>
		
<LineStyle>
			
<color>ffff0000</color>
			
<width>3</width>
		
</LineStyle>
		
<PolyStyle>
			
<fill>0</fill>
		
</PolyStyle>

   <BalloonStyle>
    <text>


<![CDATA[<?xml version="1.0"?>
<table border="0"  width="560" cellpadding="2" cellspacing="2" dir="rtl" xmlns:fo="http://www.w3.org/1999/XSL/Format">
<tr>
<td align="center" colspan="2" height="20" style="border-bottom: Solid 1px #b4b5b4">
<font face="Arial" size="3" color="#b50027">
<b>פרטי גבול תכנית</b>
</font>
</td>
</tr>


<tr>
<td  align="right"><font face="Arial" size="3">מספר תכנית</font>
</td>
<td align="right" bgcolor="#efefef" height="20">
<font face="Arial" size="3" color="#202520">
<b>$[PL_NUMBER]</b>
</font>
</td>
</tr>

<tr>
<td  align="right"><font face="Arial" size="3">שם תכנית</font>
</td>
<td align="right" bgcolor="#efefef" height="20">
<font face="Arial" size="3" color="#202520">
<b>$[PL_NAME]</b>
</font>
</td>
</tr>

<tr>
<td  align="right"><font face="Arial" size="3">שטח התכנית</font>
</td>
<td align="right" bgcolor="#efefef" height="20">
<font face="Arial" size="3" color="#202520">
<b>$[PL_AREA]</b>
</font>
</td>
</tr>

<tr>
<td  align="right"><font face="Arial" size="3">קישור לתכנית</font>
</td>
<td align="right" bgcolor="#efefef" height="20">
<font face="Arial" size="3" color="#202520">
<b>$[PL_URL]</b>
</font>
</td>
</tr>


<tr>
<td  align="right"><font face="Arial" size="3">תאריך יצור הקובץ</font>
</td>
<td align="right" bgcolor="#efefef" height="20">
<font face="Arial" size="3" color="#202520">
<b>$[CREATE_DATE]</b>
</font>
</td>
</tr>

</table>]]> 

</text>
     </BalloonStyle>
  </Style>

  <Placemark>
   <name name="name"><value>גבול תכנית</value></name>
   <description/>   
   <styleUrl>#Plan</styleUrl>
<MultiGeometry>
<Polygon><outerBoundaryIs><LinearRing><coordinates>34.848750161436,31.9925162632255,0 34.8487360994394,31.9924255207548,0 34.848644476537,31.9924358582038,0 34.8485529769981,31.9924461816841,0 34.8484214318175,31.9924610255546,0 34.8484533028187,31.992666662938,0 34.8484734047402,31.9927963263807,0 34.8484946037771,31.992934920643,0 34.8485006876538,31.9929745720784,0 34.8485521479039,31.9933129999397,0 34.8487980547078,31.9932892362239,0 34.8488617636615,31.9932830789236,0 34.8488669598952,31.9932215905662,0 34.8488742756575,31.9931685058161,0 34.8488552495043,31.9929798260051,0 34.8488552495108,31.9929798243368,0 34.8488485604382,31.9929133643078,0 34.8488136585087,31.9928844973335,0 34.8487998012167,31.9928367407311,0 34.8487865874277,31.992750942251,0 34.8487732055159,31.9926650348556,0 34.8487680029304,31.9926311306044,0 34.8487545900108,31.9925448901282,0 34.848750161436,31.9925162632255,0 </coordinates></LinearRing></outerBoundaryIs></Polygon>
</MultiGeometry>

   <ExtendedData>
  
    <Data name="PL_NUMBER"><value>425-1279793</value></Data>
	 <Data name="PL_NAME"><value>איחוד וחלוקה באיזון ל-4 מגרשים, שכונת לוי יצחק, כפר חב"ד</value></Data>
	  <Data name="PL_AREA"><value>3.103</value></Data>
	   <Data name="PL_URL"><value>http://mavat.moin.gov.il/MavatPS/Forms/SV3.aspx?tid=3&amp;tnumb=425-1279793</value></Data>
	    <Data name="CREATE_DATE"><value>11/04/2024 09:36:33</value></Data>
   </ExtendedData>
  </Placemark>

</Document>
</kml>