{"type": "FeatureCollection", "features": [{"type": "Feature", "properties": {"OBJECTID": 30296140, "LAYER_ID": 7764041, "GROUP_ID": 458484, "SCENARIO": "", "DEFQ": 0, "PLAN_NAME": "", "DATA_DATE": null, "MAVAT_CODE": 30001, "MAVAT_NAME": "׳¢׳‘׳¨׳™׳× ENTITY", "BLOCKNAME": "DIM", "ROTATION": 74.04855571, "TYPE_CODE": 0, "TYPE_NAME": "DIM", "SOURCE_COD": 0, "STATUS": "", "PL_CHANGE": "", "PLACE_NO": 0, "REMARKS": "", "VALUE1": "", "TAGNAME1": "185880.272611005", "TAGNAME2": "655608.857197984", "VALUE2": "", "TAGNAME3": "", "VALUE3": "1", "DATE_DEC": "", "STAGE": "", "NAME": "DIM", "LABEL": "3", "FONT_SIZE": 1.0, "AGAM_ID": 4005363502.0}, "geometry": {"type": "Point", "coordinates": [34.849144856858835, 31.99310388682128]}}, {"type": "Feature", "properties": {"OBJECTID": 30296141, "LAYER_ID": 7764041, "GROUP_ID": 458484, "SCENARIO": "", "DEFQ": 0, "PLAN_NAME": "", "DATA_DATE": null, "MAVAT_CODE": 30001, "MAVAT_NAME": "׳¢׳‘׳¨׳™׳× ENTITY", "BLOCKNAME": "DIM", "ROTATION": 76.52545017, "TYPE_CODE": 0, "TYPE_NAME": "DIM", "SOURCE_COD": 0, "STATUS": "", "PL_CHANGE": "", "PLACE_NO": 0, "REMARKS": "", "VALUE1": "", "TAGNAME1": "185875.016655778", "TAGNAME2": "655585.379229781", "VALUE2": "", "TAGNAME3": "", "VALUE3": "1", "DATE_DEC": "", "STAGE": "", "NAME": "DIM", "LABEL": "3", "FONT_SIZE": 1.0, "AGAM_ID": 4005363502.0}, "geometry": {"type": "Point", "coordinates": [34.84909005593441, 31.992892008115927]}}, {"type": "Feature", "properties": {"OBJECTID": 30296142, "LAYER_ID": 7764041, "GROUP_ID": 458484, "SCENARIO": "", "DEFQ": 0, "PLAN_NAME": "", "DATA_DATE": null, "MAVAT_CODE": 30001, "MAVAT_NAME": "׳¢׳‘׳¨׳™׳× ENTITY", "BLOCKNAME": "DIM", "ROTATION": 354.89980717, "TYPE_CODE": 0, "TYPE_NAME": "DIM", "SOURCE_COD": 0, "STATUS": "", "PL_CHANGE": "", "PLACE_NO": 0, "REMARKS": "", "VALUE1": "", "TAGNAME1": "185885.377342193", "TAGNAME2": "655597.669427592", "VALUE2": "", "TAGNAME3": "", "VALUE3": "1", "DATE_DEC": "", "STAGE": "", "NAME": "DIM", "LABEL": "3", "FONT_SIZE": 1.0, "AGAM_ID": 4005363502.0}, "geometry": {"type": "Point", "coordinates": [34.84919926080836, 31.993003147219223]}}, {"type": "Feature", "properties": {"OBJECTID": 30296143, "LAYER_ID": 7764041, "GROUP_ID": 458484, "SCENARIO": "", "DEFQ": 0, "PLAN_NAME": "", "DATA_DATE": null, "MAVAT_CODE": 30001, "MAVAT_NAME": "׳¢׳‘׳¨׳™׳× ENTITY", "BLOCKNAME": "DIM", "ROTATION": 349.71405879, "TYPE_CODE": 0, "TYPE_NAME": "DIM", "SOURCE_COD": 0, "STATUS": "", "PL_CHANGE": "", "PLACE_NO": 0, "REMARKS": "", "VALUE1": "", "TAGNAME1": "185873.750357546", "TAGNAME2": "655601.944014134", "VALUE2": "", "TAGNAME3": "", "VALUE3": "1", "DATE_DEC": "", "STAGE": "", "NAME": "DIM", "LABEL": "2.5", "FONT_SIZE": 1.0, "AGAM_ID": 4005363502.0}, "geometry": {"type": "Point", "coordinates": [34.84907114768112, 31.993017368894513]}}, {"type": "Feature", "properties": {"OBJECTID": 30296144, "LAYER_ID": 7764041, "GROUP_ID": 458484, "SCENARIO": "", "DEFQ": 0, "PLAN_NAME": "", "DATA_DATE": null, "MAVAT_CODE": 30001, "MAVAT_NAME": "׳¢׳‘׳¨׳™׳× ENTITY", "BLOCKNAME": "DIM", "ROTATION": 349.71405879, "TYPE_CODE": 0, "TYPE_NAME": "DIM", "SOURCE_COD": 0, "STATUS": "", "PL_CHANGE": "", "PLACE_NO": 0, "REMARKS": "", "VALUE1": "", "TAGNAME1": "185871.332139102", "TAGNAME2": "655602.581535864", "VALUE2": "", "TAGNAME3": "", "VALUE3": "1", "DATE_DEC": "", "STAGE": "", "NAME": "DIM", "LABEL": "2.5", "FONT_SIZE": 1.0, "AGAM_ID": 4005363502.0}, "geometry": {"type": "Point", "coordinates": [34.849045536988015, 31.993023045269098]}}, {"type": "Feature", "properties": {"OBJECTID": 30296145, "LAYER_ID": 7764041, "GROUP_ID": 458484, "SCENARIO": "", "DEFQ": 0, "PLAN_NAME": "", "DATA_DATE": null, "MAVAT_CODE": 30001, "MAVAT_NAME": "׳¢׳‘׳¨׳™׳× ENTITY", "BLOCKNAME": "DIM", "ROTATION": 354.89980717, "TYPE_CODE": 0, "TYPE_NAME": "DIM", "SOURCE_COD": 0, "STATUS": "", "PL_CHANGE": "", "PLACE_NO": 0, "REMARKS": "", "VALUE1": "", "TAGNAME1": "185855.630628009", "TAGNAME2": "655603.430684113", "VALUE2": "", "TAGNAME3": "", "VALUE3": "1", "DATE_DEC": "", "STAGE": "", "NAME": "DIM", "LABEL": "3", "FONT_SIZE": 1.0, "AGAM_ID": 4005363502.0}, "geometry": {"type": "Point", "coordinates": [34.84888429253124, 31.993054219848442]}}, {"type": "Feature", "properties": {"OBJECTID": 30296146, "LAYER_ID": 7764041, "GROUP_ID": 458484, "SCENARIO": "", "DEFQ": 0, "PLAN_NAME": "", "DATA_DATE": null, "MAVAT_CODE": 30001, "MAVAT_NAME": "׳¢׳‘׳¨׳™׳× ENTITY", "BLOCKNAME": "DIM", "ROTATION": 74.04855571, "TYPE_CODE": 0, "TYPE_NAME": "DIM", "SOURCE_COD": 0, "STATUS": "", "PL_CHANGE": "", "PLACE_NO": 0, "REMARKS": "", "VALUE1": "", "TAGNAME1": "185862.655132939", "TAGNAME2": "655613.3488681", "VALUE2": "", "TAGNAME3": "", "VALUE3": "1", "DATE_DEC": "", "STAGE": "", "NAME": "DIM", "LABEL": "3", "FONT_SIZE": 1.0, "AGAM_ID": 4005363502.0}, "geometry": {"type": "Point", "coordinates": [34.848958279423584, 31.99314386971991]}}, {"type": "Feature", "properties": {"OBJECTID": 30296147, "LAYER_ID": 7764041, "GROUP_ID": 458484, "SCENARIO": "", "DEFQ": 0, "PLAN_NAME": "", "DATA_DATE": null, "MAVAT_CODE": 30001, "MAVAT_NAME": "׳¢׳‘׳¨׳™׳× ENTITY", "BLOCKNAME": "DIM", "ROTATION": 76.52545017, "TYPE_CODE": 0, "TYPE_NAME": "DIM", "SOURCE_COD": 0, "STATUS": "", "PL_CHANGE": "", "PLACE_NO": 0, "REMARKS": "", "VALUE1": "", "TAGNAME1": "185860.614355471", "TAGNAME2": "655588.632437021", "VALUE2": "", "TAGNAME3": "", "VALUE3": "1", "DATE_DEC": "", "STAGE": "", "NAME": "DIM", "LABEL": "3", "FONT_SIZE": 1.0, "AGAM_ID": 4005363502.0}, "geometry": {"type": "Point", "coordinates": [34.84893754404715, 31.992920918439992]}}]}