{"type": "FeatureCollection", "features": [{"type": "Feature", "properties": {"OBJECTID": 25207104, "LAYER_ID": 7764037, "GROUP_ID": 458484, "SCENARIO": "", "DEFQ": 0, "PLAN_NAME": "", "DATA_DATE": null, "MAVAT_CODE": 20, "MAVAT_NAME": "", "NAME": "", "LABEL": "", "NUM": "101A", "LEGAL_AREA": 0.52, "TYPE_CODE": 0, "TYPE_NAME": "", "SOURCE_COD": 0, "HASAVA": 0, "STATUS": "", "PL_CHANGE": "", "ADDRESS": "", "PLACE_NO": 0, "CALC_AREA": 0.0, "OLD_MIG": "", "AGAM_ID": 4005363502.0, "FONT_SIZE": 0.74, "ROTATION": 0.0}, "geometry": {"type": "Point", "coordinates": [34.84913157403981, 31.992982156750788]}}, {"type": "Feature", "properties": {"OBJECTID": 25207105, "LAYER_ID": 7764037, "GROUP_ID": 458484, "SCENARIO": "", "DEFQ": 0, "PLAN_NAME": "", "DATA_DATE": null, "MAVAT_CODE": 840, "MAVAT_NAME": "", "NAME": "", "LABEL": "", "NUM": "134A", "LEGAL_AREA": 0.52, "TYPE_CODE": 0, "TYPE_NAME": "", "SOURCE_COD": 0, "HASAVA": 0, "STATUS": "", "PL_CHANGE": "", "ADDRESS": "", "PLACE_NO": 0, "CALC_AREA": 0.0, "OLD_MIG": "", "AGAM_ID": 4005363502.0, "FONT_SIZE": 0.74, "ROTATION": 0.0}, "geometry": {"type": "Point", "coordinates": [34.84884705714146, 31.993156877758437]}}, {"type": "Feature", "properties": {"OBJECTID": 25207106, "LAYER_ID": 7764037, "GROUP_ID": 458484, "SCENARIO": "", "DEFQ": 0, "PLAN_NAME": "", "DATA_DATE": null, "MAVAT_CODE": 840, "MAVAT_NAME": "", "NAME": "", "LABEL": "", "NUM": "134B", "LEGAL_AREA": 0.52, "TYPE_CODE": 0, "TYPE_NAME": "", "SOURCE_COD": 0, "HASAVA": 0, "STATUS": "", "PL_CHANGE": "", "ADDRESS": "", "PLACE_NO": 0, "CALC_AREA": 0.0, "OLD_MIG": "", "AGAM_ID": 4005363502.0, "FONT_SIZE": 0.74, "ROTATION": 0.0}, "geometry": {"type": "Point", "coordinates": [34.84881054217262, 31.99300093850102]}}, {"type": "Feature", "properties": {"OBJECTID": 25207107, "LAYER_ID": 7764037, "GROUP_ID": 458484, "SCENARIO": "", "DEFQ": 0, "PLAN_NAME": "", "DATA_DATE": null, "MAVAT_CODE": 670, "MAVAT_NAME": "", "NAME": "", "LABEL": "", "NUM": "100", "LEGAL_AREA": 0.52, "TYPE_CODE": 0, "TYPE_NAME": "", "SOURCE_COD": 0, "HASAVA": 0, "STATUS": "", "PL_CHANGE": "", "ADDRESS": "", "PLACE_NO": 0, "CALC_AREA": 0.0, "OLD_MIG": "", "AGAM_ID": 4005363502.0, "FONT_SIZE": 0.74, "ROTATION": 0.0}, "geometry": {"type": "Point", "coordinates": [34.84909202427374, 31.992850801236123]}}, {"type": "Feature", "properties": {"OBJECTID": 25207108, "LAYER_ID": 7764037, "GROUP_ID": 458484, "SCENARIO": "", "DEFQ": 0, "PLAN_NAME": "", "DATA_DATE": null, "MAVAT_CODE": 20, "MAVAT_NAME": "", "NAME": "", "LABEL": "", "NUM": "101B", "LEGAL_AREA": 0.52, "TYPE_CODE": 0, "TYPE_NAME": "", "SOURCE_COD": 0, "HASAVA": 0, "STATUS": "", "PL_CHANGE": "", "ADDRESS": "", "PLACE_NO": 0, "CALC_AREA": 0.0, "OLD_MIG": "", "AGAM_ID": 4005363502.0, "FONT_SIZE": 0.74, "ROTATION": 0.0}, "geometry": {"type": "Point", "coordinates": [34.848977944477525, 31.99302591127527]}}]}