{"type": "FeatureCollection", "features": [{"type": "Feature", "properties": {"OBJECTID": 20261220, "LAYER_ID": 6900353, "GROUP_ID": 423415, "SCENARIO": "", "DEFQ": 0, "PLAN_NAME": "", "DATA_DATE": null, "MAVAT_CODE": 160, "MAVAT_NAME": "", "NAME": "", "LABEL": "", "NUM": "20", "LEGAL_AREA": 4.884, "TYPE_CODE": 0, "TYPE_NAME": "", "SOURCE_COD": 0, "HASAVA": 0, "STATUS": "", "PL_CHANGE": "", "ADDRESS": "", "PLACE_NO": 0, "CALC_AREA": 0.0, "OLD_MIG": "", "AGAM_ID": 4005423788.0, "FONT_SIZE": 0.75, "ROTATION": 0.0}, "geometry": {"type": "Point", "coordinates": [34.850758475501955, 31.98589711397047]}}, {"type": "Feature", "properties": {"OBJECTID": 20261221, "LAYER_ID": 6900353, "GROUP_ID": 423415, "SCENARIO": "", "DEFQ": 0, "PLAN_NAME": "", "DATA_DATE": null, "MAVAT_CODE": 660, "MAVAT_NAME": "", "NAME": "", "LABEL": "", "NUM": "1020", "LEGAL_AREA": 4.884, "TYPE_CODE": 0, "TYPE_NAME": "", "SOURCE_COD": 0, "HASAVA": 0, "STATUS": "", "PL_CHANGE": "", "ADDRESS": "", "PLACE_NO": 0, "CALC_AREA": 0.0, "OLD_MIG": "", "AGAM_ID": 4005423788.0, "FONT_SIZE": 0.75, "ROTATION": 0.0}, "geometry": {"type": "Point", "coordinates": [34.850837613621074, 31.98532461860225]}}]}